,article_length,country,id,lat,lon,other_years,poptype,settlement_type,state,title,y1790,y1800,y1810,y1820,y1830,y1840,y1850,y1860,y1870,y1880,y1890,y1900,y1910,y1920,y1930,y1940,y1950,y1960,y1970,y1980,y1990,y2000,y2010
124,8583,US,105454,58.4113888889,-135.408611111,,Census,Census-designated place,AK,"Excursion Inlet, Alaska",0,0,0,0,0,0,0,0,0,0,0,0,0,0,0.0,23,0,0.0,0.0,0.0,0.0,10.0,12.0
197,9047,US,105598,66.5969444444,-160.013611111,,Census,City,AK,"Selawik, Alaska",0,0,0,0,0,0,0,0,0,0,0,0,0,274,227.0,239,273,348.0,429.0,535.0,596.0,772.0,829.0
254,9135,US,105705,61.8780555556,-162.084722222,,Census,City,AK,"Marshall, Alaska",0,0,0,0,0,0,0,0,0,0,0,0,0,0,0.0,91,95,166.0,175.0,262.0,273.0,349.0,414.0
302,8338,US,105302,58.9811111111,-159.055833333,,Census,City,AK,"Manokotak, Alaska",0,0,0,0,0,0,0,0,0,0,0,0,0,0,0.0,0,120,149.0,214.0,294.0,385.0,399.0,442.0
309,3274,US,1079859,64.895,-163.676388889,,Census,Census Area,AK,"Council, Alaska",0,0,0,0,0,0,0,0,0,0,0,0,289,109,0.0,48,41,0.0,0.0,0.0,8.0,,
413,11203,US,105569,64.3555555556,-161.191388889,,Census,City,AK,"Shaktoolik, Alaska",0,0,0,0,0,0,0,0,0,0,0,0,0,73,104.0,128,127,187.0,151.0,164.0,178.0,230.0,251.0
428,4946,US,19343449,63.6736111111,-145.883333333,,Census,Unincorporated community,AK,"Donnelly, Alaska",0,0,0,0,0,0,0,0,0,0,0,0,0,0,0.0,0,0,0.0,7.0,0.0,0.0,0.0,0.0
504,6650,US,105447,64.3325,-146.779722222,,Census,Census-designated place,AK,"Harding-Birch Lakes, Alaska",0,0,0,0,0,0,0,0,0,0,0,0,0,0,0.0,0,0,0.0,0.0,38.0,27.0,216.0,299.0
731,6981,US,105517,59.3302777778,-155.908055556,,Census,Cdp,AK,"Igiugig, Alaska",0,0,0,0,0,0,0,0,0,0,0,0,0,0,0.0,0,0,0.0,36.0,33.0,33.0,53.0,50.0
774,3772,US,1080505,65.15,-165.066666667,,Census,Census Area,AK,"Mary's Igloo, Alaska",0,0,0,0,0,0,0,0,0,0,0,0,141,115,113.0,114,64,0.0,0.0,,,,
890,10558,US,22555296,65.4833333333,-144.634166667,,Census,Unincorporated community,AK,"Circle Hot Springs, Alaska",0,0,0,0,0,0,0,0,0,0,0,0,0,0,17.0,14,0,0.0,0.0,0.0,29.0,0.0,0.0
1191,6550,US,105471,59.9483333333,-151.718611111,,Census,Cdp,AK,"Happy Valley, Alaska",0,0,0,0,0,0,0,0,0,0,0,0,0,0,0.0,0,0,0.0,0.0,0.0,309.0,489.0,593.0
1243,8079,US,105669,60.0663888889,-148.011111111,,Census,Cdp,AK,"Chenega, Alaska",0,0,0,0,0,0,0,0,0,0,0,0,0,0,0.0,0,0,0.0,0.0,0.0,94.0,86.0,76.0
1283,38271,US,105213,53.8888888889,-166.527222222,,Census,City,AK,"Unalaska, Alaska",0,0,0,0,0,0,0,0,0,406,317,428,281,299,226.0,298,173,218.0,342.0,1322.0,3089.0,4283.0,4376.0
1474,6200,US,105734,66.9030555556,-151.499166667,,Census,Cdp,AK,"Evansville, Alaska",0,0,0,0,0,0,0,0,0,0,0,0,0,0,0.0,0,0,0.0,57.0,94.0,33.0,28.0,15.0
1776,7515,US,18483412,65.1122222222,-147.477222222,,Census,,AK,"Chatanika, Alaska",0,0,0,0,0,0,0,0,0,0,0,0,193,0,63.0,106,0,0.0,0.0,0.0,0.0,0.0,0.0
1831,6614,US,2548507,57.0894444444,-134.833055556,,Census,Unknown,AK,"Baranof Warm Springs, Alaska",0,0,0,0,0,0,0,0,0,0,0,0,0,0,25.0,10,0,0.0,0.0,0.0,0.0,0.0,0.0
1891,7099,US,105285,60.5805555556,-165.259444444,,Census,Cdp,AK,"Tununak, Alaska",0,0,0,0,0,0,0,0,0,8,48,0,0,0,0.0,65,112,183.0,274.0,298.0,316.0,325.0,327.0
1896,8918,US,105300,59.3491666667,-157.485277778,,Census,City,AK,"Ekwok, Alaska",0,0,0,0,0,0,0,0,0,0,0,0,0,0,40.0,68,131,106.0,103.0,77.0,77.0,130.0,115.0
2026,24048,US,105477,60.5586111111,-151.229722222,,Census,City,AK,"Kenai, Alaska",0,0,0,0,0,0,0,0,0,44,264,290,250,332,286.0,303,321,778.0,3533.0,4324.0,6327.0,6942.0,7100.0
2142,12166,US,105564,64.5447222222,-163.0275,,Census,City,AK,"Golovin, Alaska",0,0,0,0,0,0,0,0,0,0,38,140,0,0,135.0,116,94,59.0,117.0,87.0,127.0,144.0,156.0
2649,9239,US,105702,,,,Census,City,AK,"Emmonak, Alaska",0,0,0,0,0,0,0,0,0,0,0,0,0,0,0.0,0,0,0.0,439.0,567.0,642.0,767.0,762.0
2803,9457,US,87475,,,,Census,US County,AK,"Kodiak Island Borough, Alaska",0,0,0,0,0,0,0,0,0,0,0,0,0,0,0.0,0,0,7174.0,9409.0,9939.0,13309.0,13913.0,13592.0
3304,3240,US,27515133,64.4833333333,-165.316666667,,Census,Census Area,AK,"Fort Davis, Alaska",0,0,0,0,0,0,0,0,0,0,0,0,180,0,0.0,0,0,0.0,0.0,0.0,0.0,0.0,0.0
3343,7786,US,105641,64.7813888889,-141.114722222,,Census,Cdp,AK,"Eagle Village, Alaska",0,0,0,0,0,0,0,0,0,106,66,0,0,60,78.0,63,0,0.0,0.0,54.0,35.0,68.0,67.0
3375,22592,US,105751,64.5580555556,-149.090555556,,Census,City,AK,"Nenana, Alaska",0,0,0,0,0,0,0,0,0,0,0,0,190,634,291.0,231,242,286.0,382.0,470.0,393.0,402.0,378.0
3423,22294,US,105738,64.7405555556,-156.885555556,,Census,City,AK,"Galena, Alaska",0,0,0,0,0,0,0,0,0,0,0,0,0,0,67.0,44,176,261.0,302.0,765.0,833.0,675.0,470.0
3618,9224,US,87484,,,,Census,Census Area,AK,"Northwest Arctic Borough, Alaska",0,0,0,0,0,0,0,0,0,0,0,0,0,0,0.0,0,0,3560.0,4434.0,4831.0,6113.0,7208.0,7523.0
3642,7457,US,105676,62.0719444444,-145.414722222,,Census,Former census-designated place (cdp),AK,"Copperville, Alaska",0,0,0,0,0,0,0,0,0,0,0,0,0,0,0.0,0,0,0.0,0.0,0.0,163.0,179.0,0.0
3667,11714,US,105216,60.91,-161.218333333,,Census,City,AK,"Akiak, Alaska",0,0,0,0,0,0,0,0,0,175,97,0,0,150,228.0,209,168,187.0,171.0,198.0,285.0,309.0,346.0
3737,12371,US,105674,61.5158333333,-144.436666667,,Census,Cdp,AK,"Chitina, Alaska",0,0,0,0,0,0,0,0,0,0,0,0,0,171,116.0,176,92,31.0,38.0,42.0,49.0,123.0,126.0
3814,6621,US,105532,61.6902777778,-149.124166667,,Census,Cdp,AK,"Buffalo Soapstone, Alaska",0,0,0,0,0,0,0,0,0,0,0,0,0,0,0.0,0,0,0.0,0.0,0.0,0.0,699.0,855.0
3912,11940,US,105600,56.0122222222,-132.828888889,,Census,City,AK,"Coffman Cove, Alaska",0,0,0,0,0,0,0,0,0,0,0,0,0,0,0.0,0,0,0.0,0.0,193.0,186.0,199.0,176.0
3950,7103,US,105520,59.4408333333,-154.746944444,,Census,Cdp,AK,"Kokhanok, Alaska",0,0,0,0,0,0,0,0,0,0,28,0,0,0,0.0,0,39,57.0,88.0,83.0,152.0,174.0,170.0
3955,30038,US,105236,60.7922222222,-161.755833333,,Census,City,AK,"Bethel, Alaska",0,0,0,0,0,0,0,0,0,0,20,0,110,221,278.0,376,651,1258.0,2416.0,3576.0,4674.0,5471.0,6080.0
3989,8317,US,105211,56.6055555556,-169.559722222,,Census,City,AK,"St. George, Alaska",0,0,0,0,0,0,0,0,0,0,0,0,90,0,0.0,0,0,0.0,163.0,158.0,138.0,152.0,102.0
4212,9586,US,105744,64.8816666667,-157.704444444,,Census,City,AK,"Koyukuk, Alaska",0,0,0,0,0,0,0,0,0,0,0,0,121,124,143.0,106,79,128.0,0.0,98.0,126.0,101.0,96.0
4352,15032,US,105728,66.9133333333,-151.5225,,Census,City,AK,"Bettles, Alaska",0,0,0,0,0,0,0,0,0,0,0,0,0,0,23.0,10,47,77.0,0.0,0.0,36.0,43.0,12.0
4490,11372,US,87495,,,,Census,Census Area,AK,"Kusilvak Census Area, Alaska",0,0,0,0,0,0,0,0,0,0,0,0,0,0,0.0,0,0,3128.0,3917.0,4665.0,5791.0,7028.0,7459.0
4681,8460,US,105572,63.5119444444,-162.274722222,,Census,City,AK,"Stebbins, Alaska",0,0,0,0,0,0,0,0,0,0,0,0,0,0,0.0,98,115,158.0,231.0,331.0,400.0,547.0,556.0
4789,7853,US,105522,59.7255555556,-154.894444444,,Census,City,AK,"Newhalen, Alaska",0,0,0,0,0,0,0,0,0,0,0,0,0,0,0.0,55,48,63.0,88.0,87.0,160.0,160.0,190.0
4879,13618,US,105204,55.0722222222,-162.318055556,,Census,City,AK,"King Cove, Alaska",0,0,0,0,0,0,0,0,0,0,0,0,0,0,0.0,135,162,290.0,283.0,460.0,451.0,792.0,938.0
5045,6228,US,105625,57.4530555556,-133.393333333,,Census,Cdp,AK,"Hobart Bay, Alaska",0,0,0,0,0,0,0,0,0,0,0,0,0,0,0.0,0,0,0.0,0.0,0.0,187.0,3.0,1.0
5113,12810,US,105203,54.8277777778,-163.399166667,,Census,City,AK,"False Pass, Alaska",0,0,0,0,0,0,0,0,0,0,0,0,0,0,0.0,0,42,41.0,62.0,70.0,68.0,64.0,35.0
5144,7887,US,105297,58.83256,-158.552542,,Census,City,AK,"Clark's Point, Alaska",0,0,0,0,0,0,0,0,0,0,0,0,0,0,25.0,22,128,138.0,95.0,79.0,60.0,75.0,62.0
5209,11382,US,105240,,,,Census,City,AK,"Chefornak, Alaska",0,0,0,0,0,0,0,0,0,0,0,0,0,0,0.0,0,106,133.0,146.0,230.0,320.0,394.0,418.0
5223,9063,US,105508,57.1972222222,-153.307777778,,Census,City,AK,"Old Harbor, Alaska",0,0,0,0,0,0,0,0,0,0,0,0,0,54,84.0,109,121,193.0,290.0,340.0,284.0,237.0,218.0
5316,40660,US,105561,65.7583333333,-168.951666667,,Census,City,AK,"Diomede, Alaska",0,0,0,0,0,0,0,0,0,40,85,0,0,0,0.0,0,103,88.0,84.0,139.0,178.0,146.0,115.0
5339,8966,US,105639,63.6836111111,-144.604166667,,Census,Cdp,AK,"Dry Creek, Alaska",0,0,0,0,0,0,0,0,0,0,0,0,0,0,0.0,0,0,0.0,0.0,0.0,106.0,128.0,94.0
5515,13353,US,105583,68.3469444444,-166.763055556,,Census,City,AK,"Point Hope, Alaska",0,0,0,0,0,0,0,0,0,0,301,623,243,0,0.0,257,264,324.0,386.0,464.0,639.0,757.0,674.0
5529,13371,US,105748,62.9519444444,-155.577222222,,Census,City,AK,"McGrath, Alaska",0,0,0,0,0,0,0,0,0,0,0,0,0,90,112.0,138,175,241.0,279.0,355.0,528.0,401.0,346.0
5812,6549,US,105248,59.9375,-164.043888889,,Census,Cdp,AK,"Kipnuk, Alaska",0,0,0,0,0,0,0,0,0,0,0,0,0,0,0.0,144,185,221.0,325.0,371.0,470.0,644.0,639.0
5847,6839,US,105538,61.5763888889,-149.2525,,Census,Cdp,AK,"Gateway, Alaska",0,0,0,0,0,0,0,0,0,0,0,0,0,0,0.0,0,0,0.0,0.0,0.0,0.0,2952.0,5552.0
5872,8036,US,105704,63.0358333333,-163.560277778,,Census,City,AK,"Kotlik, Alaska",0,0,0,0,0,0,0,0,0,0,0,0,0,83,14.0,35,44,57.0,0.0,293.0,461.0,591.0,577.0
6051,16122,US,105608,55.1269444444,-131.576388889,,Census,Cdp,AK,"Metlakatla, Alaska",0,0,0,0,0,0,0,0,0,0,0,465,602,574,0.0,700,0,800.0,1100.0,1100.0,1400.0,1375.0,1405.0
6125,5654,US,175487,62.5444444444,-158.095277778,,Census,Ghost town,AK,"Iditarod, Alaska",0,0,0,0,0,0,0,0,0,0,0,0,0,50,8.0,1,0,0.0,0.0,0.0,0.0,0.0,
6219,8482,US,105716,62.0452777778,-163.218611111,,Census,City,AK,"St. Mary's, Alaska",0,0,0,0,0,0,0,0,0,0,0,0,0,0,0.0,0,0,225.0,384.0,382.0,441.0,500.0,507.0
6388,9100,US,105613,55.6772222222,-132.556111111,,Census,City,AK,"Thorne Bay, Alaska",0,0,0,0,0,0,0,0,0,0,0,0,0,0,0.0,0,0,0.0,443.0,320.0,569.0,557.0,471.0
6412,7557,US,105710,62.09,-163.723888889,,Census,City,AK,"Mountain Village, Alaska",0,0,0,0,0,0,0,0,0,0,0,0,0,136,76.0,128,221,300.0,419.0,583.0,674.0,755.0,813.0
6448,9075,US,105531,61.5375,-149.891111111,,Census,Cdp,AK,"Big Lake, Alaska",0,0,0,0,0,0,0,0,0,0,0,0,0,0,0.0,0,0,74.0,36.0,410.0,1477.0,2635.0,3350.0
6527,8077,US,87480,,,,Census,Census Area,AK,"Nome Census Area, Alaska",0,0,0,0,0,0,0,0,0,0,0,0,0,0,0.0,0,0,6091.0,5749.0,6537.0,8288.0,9196.0,9492.0
6572,30582,US,105492,60.4866666667,-151.075277778,,Census,City,AK,"Soldotna, Alaska",0,0,0,0,0,0,0,0,0,0,0,0,0,0,0.0,0,0,332.0,1202.0,2320.0,3482.0,3759.0,4163.0
6615,8648,US,105282,60.5305555556,-165.103333333,,Census,City,AK,"Toksook Bay, Alaska",0,0,0,0,0,0,0,0,0,0,0,0,0,0,0.0,0,0,0.0,257.0,333.0,420.0,532.0,590.0
6631,8407,US,87489,,,,Census,Census Area,AK,"Valdez–Cordova Census Area, Alaska",0,0,0,0,0,0,0,0,0,0,0,0,0,0,0.0,0,0,2844.0,3098.0,8348.0,9952.0,10195.0,9636.0
6856,5915,US,51099478,67.2513888889,-148.176111111,,Census,Unincorporated community,AK,"Chandalar, Alaska",0,0,0,0,0,0,0,0,0,0,0,0,0,32,62.0,0,0,0.0,0.0,0.0,0.0,0.0,0.0
6880,10477,US,105557,61.7694444444,-149.991111111,,Census,Cdp,AK,"Willow, Alaska",0,0,0,0,0,0,0,0,0,0,0,0,0,0,0.0,0,0,78.0,38.0,139.0,285.0,1658.0,2102.0
6883,39924,US,105496,55.35,-131.673333333,,Census,City,AK,"Ketchikan, Alaska",0,0,0,0,0,0,0,0,0,0,40,459,1613,2458,3796.0,4695,5305,6483.0,6994.0,7198.0,8263.0,7922.0,8050.0
6890,11014,US,105475,60.4733333333,-151.201388889,,Census,Cdp,AK,"Kalifornsky, Alaska",0,0,0,0,0,0,0,0,0,0,0,0,0,0,0.0,0,0,0.0,0.0,92.0,285.0,5846.0,7850.0
6936,11077,US,105603,55.4844444444,-132.715833333,,Census,Cdp,AK,"Hollis, Alaska",0,0,0,0,0,0,0,0,0,0,0,0,0,0,0.0,0,0,292.0,0.0,0.0,111.0,139.0,112.0
6963,2681,US,3618193,,,,Census,Small town,AK,"Chena, Alaska",0,0,0,0,0,0,0,0,0,0,0,0,138,18,0.0,0,0,0.0,0.0,0.0,0.0,0.0,0.0
6994,23690,US,105698,60.7741666667,-148.677777778,,Census,City,AK,"Whittier, Alaska",0,0,0,0,0,0,0,0,0,0,0,0,0,0,0.0,0,627,809.0,130.0,198.0,243.0,182.0,220.0
7081,10035,US,105442,64.8483333333,-147.827222222,,Census,Cdp,AK,"College, Alaska",0,0,0,0,0,0,0,0,0,0,0,0,0,0,61.0,234,424,1755.0,3434.0,4043.0,11249.0,11402.0,12964.0
7206,7480,US,105453,59.4,-136.076388889,,Census,Census-designated place,AK,"Covenant Life, Alaska",0,0,0,0,0,0,0,0,0,0,0,0,0,0,0.0,0,0,0.0,0.0,0.0,47.0,102.0,86.0
7306,13756,US,105500,,,,Census,City,AK,"Akhiok, Alaska",0,0,0,0,0,0,0,0,0,114,420,0,106,94,86.0,82,72,84.0,115.0,105.0,77.0,80.0,71.0
7531,22655,US,105592,67.7272222222,-164.539166667,,Census,City,AK,"Kivalina, Alaska",0,0,0,0,0,0,0,0,0,0,0,0,0,87,99.0,98,117,142.0,188.0,241.0,317.0,377.0,374.0
7769,8143,US,105741,66.0441666667,-154.256944444,,Census,City,AK,"Hughes, Alaska",0,0,0,0,0,0,0,0,0,0,0,0,0,45,0.0,32,49,69.0,85.0,73.0,54.0,78.0,77.0
7801,8466,US,105247,60.8919444444,-162.535833333,,Census,Census-designated place,AK,"Kasigluk, Alaska",0,0,0,0,0,0,0,0,0,0,0,0,0,0,0.0,66,111,244.0,0.0,0.0,425.0,543.0,569.0
7868,10900,US,105735,62.4541666667,-158.008333333,"[[y1914,6000],[y1986,5]]", US,Cdp,AK,"Flat, Alaska",0,0,0,0,0,0,0,0,0,0,0,0,0,158,124.0,146,95,27.0,0.0,0.0,0.0,4.0,
8104,7951,US,105303,59.4519444444,-157.312222222,,Census,City,AK,"New Stuyahok, Alaska",0,0,0,0,0,0,0,0,0,0,0,0,0,0,0.0,0,88,145.0,216.0,331.0,391.0,471.0,510.0
8263,18115,US,105570,66.2555555556,-166.072222222,,Census,City,AK,"Shishmaref, Alaska",0,0,0,0,0,0,0,0,0,0,0,0,0,131,223.0,257,194,217.0,267.0,394.0,456.0,562.0,563.0
8444,6889,US,105468,59.7316666667,-151.250555556,,Census,Cdp,AK,"Fritz Creek, Alaska",0,0,0,0,0,0,0,0,0,0,0,0,0,0,0.0,0,0,0.0,27.0,302.0,1426.0,1603.0,1932.0
8448,8302,US,105753,63.0108333333,-154.383888889,,Census,City,AK,"Nikolai, Alaska",0,0,0,0,0,0,0,0,0,0,0,0,0,0,0.0,0,88,85.0,112.0,91.0,109.0,100.0,94.0
8494,2120,US,27855296,54.75,-163.308333333,,Census,Unknown,AK,"Ikatan, Alaska",0,0,0,0,0,0,0,0,0,0,0,0,0,0,0.0,0,29,0.0,0.0,0.0,0.0,0.0,0.0
8505,6974,US,105619,58.0586111111,-135.513055556,,Census,Census-designated place,AK,"Game Creek, Alaska",0,0,0,0,0,0,0,0,0,0,0,0,0,0,0.0,0,0,0.0,0.0,0.0,61.0,35.0,18.0
8609,77305,US,105445,64.8436111111,-147.723055556,,Census,City,AK,"Fairbanks, Alaska",0,0,0,0,0,0,0,0,0,0,0,0,3541,1155,2101.0,3455,5771,13311.0,14771.0,22645.0,30843.0,30224.0,31535.0
8757,8935,US,87464,,,,Census,Census Area,AK,"Denali Borough, Alaska",0,0,0,0,0,0,0,0,0,0,0,0,0,0,0.0,0,0,0.0,0.0,0.0,0.0,1893.0,1826.0
8791,13733,US,105562,64.6177777778,-162.256666667,,Census,City,AK,"Elim, Alaska",0,0,0,0,0,0,0,0,0,0,0,0,0,162,97.0,100,154,145.0,174.0,211.0,264.0,313.0,330.0
8794,33776,US,19420881,61.5816666667,-149.4525,,Census,City,AK,"Wasilla, Alaska",0,0,0,0,0,0,0,0,0,0,0,0,0,0,51.0,96,97,112.0,300.0,1559.0,4028.0,5469.0,7831.0
8808,25090,US,105202,55.2091666667,-162.714166667,,Census,City,AK,"Cold Bay, Alaska",0,0,0,0,0,0,0,0,0,0,0,0,0,0,0.0,0,0,86.0,256.0,228.0,148.0,88.0,108.0
8820,10806,US,105720,56.24,-134.657222222,,Census,City,AK,"Port Alexander, Alaska",0,0,0,0,0,0,0,0,0,0,0,0,0,0,107.0,87,22,18.0,36.0,86.0,119.0,81.0,52.0
8966,10260,US,87467,,,,Census,Census Area,AK,"Fairbanks North Star Borough, Alaska",0,0,0,0,0,0,0,0,0,0,0,0,0,0,0.0,0,0,43412.0,45864.0,53983.0,77720.0,82840.0,97581.0
8971,8226,US,105617,57.9366666667,-134.720277778,,Census,Former census-designated place (cdp),AK,"Cube Cove, Alaska",0,0,0,0,0,0,0,0,0,0,0,0,0,0,0.0,0,0,0.0,0.0,0.0,156.0,72.0,0.0
8999,5717,US,36769509,,,,Census,Unincorporated community,AK,"Eyak, Alaska",0,0,0,0,0,0,0,0,0,0,0,222,0,320,366.0,365,0,0.0,0.0,47.0,172.0,168.0,128.0
9051,7148,US,105462,60.2277777778,-151.393888889,,Census,Cdp,AK,"Clam Gulch, Alaska",0,0,0,0,0,0,0,0,0,0,0,0,0,0,0.0,0,0,0.0,47.0,50.0,79.0,173.0,176.0
9091,10784,US,87505,,,,Census,Census Area,AK,"Yukon–Koyukuk Census Area, Alaska",0,0,0,0,0,0,0,0,0,0,0,0,0,0,0.0,0,0,4097.0,4752.0,7873.0,8478.0,6551.0,5588.0
9223,7724,US,105497,55.3205555556,-131.598333333,,Census,City,AK,"Saxman, Alaska",0,0,0,0,0,0,0,0,0,0,0,0,0,0,0.0,0,167,153.0,135.0,273.0,369.0,431.0,411.0
9249,11275,US,105632,62.6930555556,-141.198888889,,Census,Cdp,AK,"Alcan Border, Alaska",0,0,0,0,0,0,0,0,0,0,0,0,0,0,0.0,0,0,0.0,0.0,0.0,27.0,21.0,33.0
9267,27718,US,105449,64.7511111111,-147.351944444,,Census,City,AK,"North Pole, Alaska",0,0,0,0,0,0,0,0,0,0,0,0,0,0,0.0,0,0,358.0,265.0,724.0,1456.0,1570.0,2117.0
9298,6958,US,105537,61.6772222222,-149.265,,Census,Cdp,AK,"Fishhook, Alaska",0,0,0,0,0,0,0,0,0,0,0,0,0,0,0.0,0,0,0.0,0.0,0.0,0.0,2030.0,4679.0
9331,9416,US,105701,61.5277777778,-165.578611111,,Census,City,AK,"Chevak, Alaska",0,0,0,0,0,0,0,0,0,0,0,0,0,0,0.0,43,230,315.0,387.0,466.0,598.0,765.0,938.0
9395,7167,US,87463,,,,Census,Census Area,AK,"Bristol Bay Borough, Alaska",0,0,0,0,0,0,0,0,0,0,0,0,0,0,0.0,0,0,0.0,1147.0,1094.0,1410.0,1258.0,997.0
9727,9169,US,105634,64.0708333333,-141.875,,Census,Cdp,AK,"Chicken, Alaska",0,0,0,0,0,0,0,0,0,0,0,0,0,0,20.0,41,34,0.0,0.0,37.0,0.0,17.0,7.0
9792,9350,US,87487,,,,Census,Census Area,AK,"Hoonah–Angoon Census Area, Alaska",0,0,0,0,0,0,0,0,0,0,0,0,0,0,0.0,0,0,0.0,0.0,0.0,0.0,0.0,2150.0
9847,11619,US,105633,64.1472222222,-145.801666667,,Census,Cdp,AK,"Big Delta, Alaska",0,0,0,0,0,0,0,0,0,0,0,0,0,0,0.0,0,155,0.0,0.0,285.0,400.0,749.0,591.0
10003,9870,US,105602,55.9786111111,-133.676388889,,Census,Second-class city,AK,"Edna Bay, Alaska",0,0,0,0,0,0,0,0,0,0,0,0,0,0,0.0,0,41,135.0,112.0,0.0,86.0,49.0,42.0
10129,9244,US,105245,60.2186111111,-162.025833333,,Census,City,AK,"Eek, Alaska",0,0,0,0,0,0,0,0,0,0,0,0,0,119,0.0,170,141,200.0,186.0,228.0,254.0,280.0,296.0
10259,7112,US,105271,60.7069444444,-161.760833333,,Census,City,AK,"Napaskiak, Alaska",0,0,0,0,0,0,0,0,0,0,0,0,0,0,0.0,67,121,154.0,259.0,244.0,328.0,390.0,405.0
10395,8494,US,105305,59.0591666667,-160.383055556,,Census,City,AK,"Togiak, Alaska",0,0,0,0,0,0,0,0,0,0,0,0,0,91,71.0,10,108,220.0,383.0,470.0,613.0,809.0,817.0
10492,22566,US,105299,59.0466666667,-158.508611111,,Census,City,AK,"Dillingham, Alaska",0,0,0,0,0,0,0,0,0,0,0,0,165,182,85.0,278,577,424.0,914.0,1563.0,2017.0,2466.0,2329.0
10761,11034,US,1023208,58.0077777778,-152.768055556,,Census,Village,AK,"Afognak, Alaska",0,0,0,0,0,0,0,0,0,339,409,307,318,308,298.0,197,148,190.0,0.0,11.0,0.0,0.0,0.0
10775,36450,US,105629,59.4583333333,-135.313888889,,Census,Borough,AK,"Skagway, Alaska",0,0,0,0,0,0,0,0,0,0,0,1800,872,494,492.0,634,758,659.0,675.0,768.0,692.0,862.0,920.0
10777,54340,US,87486,57.0515611111,-135.338641667,,Census,Consolidated city-borough,AK,"Sitka, Alaska",0,0,0,0,0,0,0,0,0,916,1190,1396,1039,1175,1056.0,1987,1985,3237.0,3370.0,7803.0,8588.0,8835.0,8881.0
10803,7771,US,105446,64.9538888889,-147.628333333,,Census,Census-designated place,AK,"Fox, Alaska",0,0,0,0,0,0,0,0,0,0,0,0,0,0,0.0,0,25,0.0,0.0,123.0,275.0,300.0,417.0
10941,6352,US,105637,63.6586111111,-144.065833333,,Census,Cdp,AK,"Dot Lake, Alaska",0,0,0,0,0,0,0,0,0,0,0,0,0,0,0.0,0,0,56.0,42.0,67.0,70.0,19.0,13.0
11029,8080,US,105274,60.8963888889,-162.454444444,,Census,City,AK,"Nunapitchuk, Alaska",0,0,0,0,0,0,0,0,0,0,0,0,0,0,0.0,121,125,327.0,0.0,0.0,378.0,466.0,496.0
11115,7322,US,105507,57.5366666667,-153.991388889,,Census,City,AK,"Larsen Bay, Alaska",0,0,0,0,0,0,0,0,0,0,0,0,0,0,0.0,38,53,72.0,0.0,168.0,147.0,115.0,87.0
11457,6724,US,105539,61.8186111111,-147.714722222,,Census,Cdp,AK,"Glacier View, Alaska",0,0,0,0,0,0,0,0,0,0,0,0,0,0,0.0,0,0,0.0,0.0,0.0,0.0,249.0,234.0
11463,6849,US,105643,63.9888888889,-144.708055556,,Census,Cdp,AK,"Healy Lake, Alaska",0,0,0,0,0,0,0,0,0,0,0,0,0,0,0.0,0,0,0.0,0.0,33.0,47.0,37.0,13.0
11563,21547,US,105594,66.8972222222,-162.585555556,,Census,City,AK,"Kotzebue, Alaska",0,0,0,0,0,0,0,0,0,200,0,0,193,230,291.0,372,623,1290.0,1696.0,2054.0,2751.0,3082.0,3201.0
11612,9485,US,105757,64.7372222222,-155.487777778,,Census,City,AK,"Ruby, Alaska",0,0,0,0,0,0,0,0,0,0,0,0,0,128,132.0,138,132,179.0,145.0,197.0,170.0,188.0,166.0
11719,9852,US,105593,66.9175,-156.906944444,,Census,City,AK,"Kobuk, Alaska",0,0,0,0,0,0,0,0,0,0,0,0,0,0,0.0,31,38,54.0,0.0,62.0,69.0,109.0,151.0
11866,7626,US,105265,61.3413888889,-155.490833333,,Census,Cdp,AK,"Lime Village, Alaska",0,0,0,0,0,0,0,0,0,0,0,0,0,0,0.0,38,29,0.0,25.0,48.0,42.0,6.0,29.0
11995,11167,US,105713,61.7855555556,-161.334166667,,Census,City,AK,"Russian Mission, Alaska",0,0,0,0,0,0,0,0,0,148,140,166,0,90,54.0,34,55,102.0,146.0,169.0,246.0,296.0,312.0
12017,6931,US,105460,60.1761111111,-149.395,,Census,Cdp,AK,"Bear Creek, Alaska",0,0,0,0,0,0,0,0,0,0,0,0,0,0,0.0,0,0,0.0,0.0,0.0,0.0,1748.0,1956.0
12137,3827,US,3018813,58.8033333333,-158.559444444,,Census,"Inline,title}}",AK,"Ekuk, Alaska",0,0,0,0,0,0,0,0,0,112,65,0,0,0,37.0,0,0,40.0,51.0,7.0,3.0,2.0,2.0
12159,17530,US,105563,63.7761111111,-171.700833333,,Census,City,AK,"Gambell, Alaska",0,0,0,0,0,0,0,0,0,0,0,0,221,48,250.0,296,309,358.0,372.0,445.0,525.0,649.0,681.0
12282,7222,US,105565,64.9311111111,-161.158611111,,Census,City,AK,"Koyuk, Alaska",0,0,0,0,0,0,0,0,0,0,0,0,0,0,110.0,100,134,129.0,0.0,188.0,231.0,297.0,332.0
12512,11655,US,105518,59.765,-154.840277778,,Census,Cdp,AK,"Iliamna, Alaska",0,0,0,0,0,0,0,0,0,0,0,0,0,0,0.0,30,44,47.0,58.0,94.0,94.0,102.0,109.0
12532,15117,US,105489,59.4388888889,-151.7125,,Census,City,AK,"Seldovia, Alaska",0,0,0,0,0,0,0,0,0,0,99,149,173,258,379.0,410,437,460.0,437.0,479.0,316.0,286.0,254.0
12779,15825,US,105679,62.1097222222,-145.557222222,,Census,Cdp,AK,"Glennallen, Alaska",0,0,0,0,0,0,0,0,0,0,0,0,0,0,0.0,0,142,169.0,363.0,511.0,451.0,554.0,483.0
12874,23396,US,105719,56.8044444444,-132.941944444,,Census,Cdp,AK,"Petersburg, Alaska",0,0,0,0,0,0,0,0,0,0,0,0,585,879,1213.0,1323,1619,1502.0,2042.0,2821.0,3207.0,3224.0,3815.0
12968,17963,US,105615,57.4969444444,-134.573611111,,Census,Census-designated place,AK,"Angoon, Alaska",0,0,0,0,0,0,0,0,0,420,381,0,0,114,319.0,342,429,395.0,400.0,465.0,638.0,572.0,459.0
12984,7658,US,105758,62.6561111111,-159.531111111,,Census,City,AK,"Shageluk, Alaska",0,0,0,0,0,0,0,0,0,0,0,0,0,130,88.0,92,100,155.0,167.0,131.0,139.0,129.0,83.0
13233,10273,US,105576,64.6808333333,-163.406666667,,Census,City,AK,"White Mountain, Alaska",0,0,0,0,0,0,0,0,0,0,0,0,0,198,205.0,199,129,151.0,87.0,125.0,180.0,203.0,190.0
13246,19380,US,105640,64.7911,-141.21547,,Census,City,AK,"Eagle, Alaska",0,0,0,0,0,0,0,0,0,0,0,383,178,98,54.0,73,55,92.0,36.0,110.0,168.0,129.0,86.0
13293,7683,US,87491,63.77,-143.6,,Census,Census Area,AK,"Southeast Fairbanks Census Area, Alaska",0,0,0,0,0,0,0,0,0,0,0,0,0,0,0.0,0,0,0.0,4179.0,5676.0,5913.0,6174.0,7029.0
13352,7207,US,105714,61.8425,-165.581666667,,Census,City,AK,"Scammon Bay, Alaska",0,0,0,0,0,0,0,0,0,0,0,0,0,0,0.0,88,103,115.0,166.0,250.0,343.0,465.0,474.0
13497,5995,US,2955728,61.8988888889,-157.701111111,,Census,Unincorporated community  village,AK,"Georgetown, Alaska",0,0,0,0,0,0,0,0,0,0,0,0,0,0,0.0,0,0,0.0,0.0,6.0,,3.0,2.0
13508,25137,US,87499,59.5469444444,-139.727222222,,Census,Home rule borough,AK,"Yakutat, Alaska",0,0,0,0,0,0,0,0,0,0,0,0,0,0,0.0,0,0,0.0,0.0,0.0,725.0,680.0,662.0
13528,8453,US,105516,58.2191666667,-157.358055556,,Census,City,AK,"Egegik, Alaska",0,0,0,0,0,0,0,0,0,120,60,203,0,83,86.0,125,119,150.0,148.0,75.0,122.0,116.0,109.0
13537,7267,US,105711,61.9361111111,-162.883333333,,Census,City,AK,"Pilot Station, Alaska",0,0,0,0,0,0,0,0,0,0,0,0,0,145,87.0,39,52,219.0,290.0,325.0,463.0,550.0,568.0
13605,5837,US,105737,64.5963888889,-149.125555556,,Census,Cdp,AK,"Four Mile Road, Alaska",0,0,0,0,0,0,0,0,0,0,0,0,0,0,0.0,0,0,0.0,0.0,0.0,0.0,38.0,43.0
13648,20429,US,105212,57.125,-170.284166667,,Census,City,AK,"St. Paul, Alaska",0,0,0,0,0,0,0,0,0,0,0,0,291,0,0.0,0,359,378.0,450.0,551.0,763.0,532.0,479.0
13665,18093,US,2194130,70.2055555556,-148.511666667,,Census,Unincorporated community,AK,"Deadhorse, Alaska",0,0,0,0,0,0,0,0,0,0,0,0,0,0,0.0,0,0,0.0,163.0,64.0,26.0,0.0,0.0
13666,9049,US,105502,58.0636111111,-152.910277778,,Census,Census-designated place,AK,"Aleneva, Alaska",0,0,0,0,0,0,0,0,0,0,0,0,0,0,0.0,0,0,0.0,0.0,0.0,0.0,68.0,37.0
13940,7877,US,105503,57.6105555556,-152.199722222,,Census,Census-designated place,AK,"Chiniak, Alaska",0,0,0,0,0,0,0,0,0,24,0,0,0,0,0.0,0,0,0.0,0.0,0.0,69.0,50.0,47.0
14278,13041,US,87471,,,,Census,Census Area,AK,"Kenai Peninsula Borough, Alaska",0,0,0,0,0,0,0,0,0,0,0,0,0,0,0.0,0,0,6097.0,14250.0,25282.0,40802.0,49691.0,55400.0
14286,13175,US,105581,70.1327777778,-143.616111111,,Census,City,AK,"Kaktovik, Alaska",0,0,0,0,0,0,0,0,0,0,0,0,0,0,0.0,0,46,120.0,123.0,165.0,224.0,293.0,239.0
14446,6667,US,105727,66.3597222222,-147.3975,,Census,Cdp,AK,"Beaver, Alaska",0,0,0,0,0,0,0,0,0,0,0,0,0,0,103.0,88,101,101.0,101.0,66.0,103.0,84.0,84.0
14496,7541,US,105509,57.9233333333,-152.501944444,,Census,City,AK,"Ouzinkie, Alaska",0,0,0,0,0,0,0,0,0,0,0,0,0,96,168.0,0,0,0.0,160.0,173.0,209.0,225.0,161.0
14623,15068,US,105588,67.085,-157.860277778,,Census,City,AK,"Ambler, Alaska",0,0,0,0,0,0,0,0,0,0,0,0,0,0,0.0,0,0,70.0,169.0,192.0,311.0,309.0,258.0
14795,27471,US,105455,59.2338888889,-135.446944444,,Census,Census-designated place,AK,"Haines, Alaska",0,0,0,0,0,0,0,0,0,0,0,85,445,314,344.0,357,338,392.0,463.0,993.0,1238.0,1811.0,1713.0
14865,14043,US,105575,65.6122222222,-168.089166667,,Census,City,AK,"Wales, Alaska",0,0,0,0,0,0,0,0,0,400,488,396,337,136,170.0,193,141,128.0,131.0,133.0,161.0,152.0,145.0
14989,8824,US,105560,65.3341666667,-166.493055556,,Census,City,AK,"Brevig Mission, Alaska",0,0,0,0,0,0,0,0,0,0,0,0,0,0,0.0,0,0,0.0,123.0,138.0,198.0,276.0,388.0
15016,8325,US,105510,57.8680555556,-152.88,,Census,City,AK,"Port Lions, Alaska",0,0,0,0,0,0,0,0,0,0,0,0,0,0,0.0,0,0,0.0,227.0,215.0,222.0,256.0,194.0
15029,8501,US,87458,52.0,-177.0,,Census,Census Area,AK,"Aleutians West Census Area, Alaska",0,0,0,0,0,0,0,0,0,0,0,0,0,0,0.0,0,0,6011.0,8057.0,7768.0,9478.0,5465.0,5561.0
15130,2187,US,24517912,,,,Census,Census Area,AK,"Holikachuk, Alaska",0,0,0,0,0,0,0,0,0,0,114,0,0,0,0.0,77,98,122.0,0.0,0.0,0.0,0.0,0.0
15187,9131,US,87477,,,,Census,Census Area,AK,"Lake and Peninsula Borough, Alaska",0,0,0,0,0,0,0,0,0,0,0,0,0,0,0.0,0,0,0.0,0.0,0.0,1668.0,1823.0,1631.0
15466,24592,US,105697,61.1308333333,-146.348333333,,Census,City,AK,"Valdez, Alaska",0,0,0,0,0,0,0,0,0,0,0,315,810,466,442.0,529,554,555.0,1005.0,3079.0,4068.0,4036.0,3977.0
15534,14846,US,105607,55.555,-133.085277778,,Census,City,AK,"Klawock, Alaska",0,0,0,0,0,0,0,0,0,27,287,131,241,19,437.0,455,404,251.0,213.0,318.0,722.0,854.0,755.0
16129,17657,US,991831,61.51909,-142.84149,,Census,Census Area,AK,"Kennecott, Alaska",0,0,0,0,0,0,0,0,0,0,0,0,0,494,217.0,5,0,0.0,0.0,0.0,0.0,0.0,0.0
16161,69384,US,87469,58.3014485,-134.4216125,,Census,City and borough,AK,"Juneau, Alaska",0,0,0,0,0,0,0,0,0,0,1253,1864,1644,3058,4043.0,5729,5956,6797.0,6050.0,19528.0,26751.0,30711.0,31275.0
16187,16402,US,105201,54.1325,-165.775,,Census,City,AK,"Akutan, Alaska",0,0,0,0,0,0,0,0,0,65,80,0,0,66,71.0,80,86,107.0,101.0,169.0,589.0,713.0,1027.0
16224,15421,US,15637516,61.4216666667,-150.6,,Census,Alaska native village corporation,AK,"Alexander Creek, Alaska",0,0,0,0,0,0,0,0,0,0,0,0,0,0,0.0,0,0,0.0,0.0,11.0,40.0,0.0,0.0
16276,9683,US,105730,65.5333333333,-144.695555556,,Census,Cdp,AK,"Central, Alaska",0,0,0,0,0,0,0,0,0,0,0,0,0,0,0.0,0,41,28.0,26.0,36.0,52.0,134.0,96.0
16336,12140,US,105290,64.3452777778,-149.195277778,,Census,City,AK,"Anderson, Alaska",0,0,0,0,0,0,0,0,0,0,0,0,0,0,0.0,0,0,0.0,362.0,517.0,628.0,367.0,246.0
16408,7142,US,87468,,,,Census,Census Area,AK,"Haines Borough, Alaska",0,0,0,0,0,0,0,0,0,0,0,0,0,0,0.0,0,0,0.0,1504.0,1680.0,2117.0,2392.0,2508.0
16759,10932,US,105278,59.7533333333,-161.902777778,,Census,City,AK,"Quinhagak, Alaska",0,0,0,0,0,0,0,0,0,0,109,201,111,193,230.0,0,0,0.0,0.0,412.0,501.0,555.0,669.0
16819,6278,US,105534,62.4222222222,-150.0775,,Census,Cdp,AK,"Chase, Alaska",0,0,0,0,0,0,0,0,0,0,0,0,0,0,0.0,0,0,0.0,0.0,0.0,38.0,41.0,34.0
16826,7270,US,105467,59.8475,-150.926111111,,Census,Cdp,AK,"Fox River, Alaska",0,0,0,0,0,0,0,0,0,0,0,0,0,0,0.0,0,0,0.0,0.0,0.0,382.0,616.0,685.0
17063,19967,US,105628,57.9583333333,-136.224166667,,Census,City,AK,"Pelican, Alaska",0,0,0,0,0,0,0,0,0,0,0,0,0,0,0.0,48,180,135.0,133.0,180.0,222.0,163.0,88.0
17124,2910,US,36778411,59.4469444444,-151.510277778,,Census,Unknown,AK,"Jakolof Bay, Alaska",0,0,0,0,0,0,0,0,0,0,0,0,0,0,0.0,0,0,0.0,0.0,36.0,28.0,0.0,0.0
17170,5946,US,1042325,57.4694444444,-134.569722222,,Census,Unincorporated community,AK,"Killisnoo, Alaska",0,0,0,0,0,0,0,0,0,0,79,172,351,256,3.0,26,0,0.0,0.0,0.0,0.0,0.0,0.0
17307,55871,US,105580,71.2905555556,-156.788611111,,Census,City,AK,"Barrow, Alaska",0,0,0,0,0,0,0,0,0,200,152,0,446,322,330.0,363,951,1314.0,2104.0,2207.0,3469.0,4581.0,4212.0
17309,7958,US,105263,60.8022222222,-161.418611111,,Census,City,AK,"Kwethluk, Alaska",0,0,0,0,0,0,0,0,0,0,0,0,0,0,0.0,186,242,325.0,0.0,454.0,558.0,713.0,721.0
17429,20530,US,105296,59.2783333333,-158.623055556,,Census,City,AK,"Aleknagik, Alaska",0,0,0,0,0,0,0,0,0,0,0,0,0,0,0.0,78,153,181.0,128.0,154.0,185.0,221.0,219.0
17506,12815,US,105293,63.9708333333,-149.126944444,,Census,Census-designated place,AK,"Healy, Alaska",0,0,0,0,0,0,0,0,0,0,0,0,0,0,36.0,46,102,67.0,79.0,334.0,487.0,1000.0,1021.0
17605,8989,US,105243,61.5755555556,-159.247222222,,Census,City,AK,"Chuathbaluk, Alaska",0,0,0,0,0,0,0,0,0,0,0,0,0,0,0.0,0,0,0.0,0.0,105.0,97.0,119.0,118.0
17658,33738,US,105677,60.5436111111,-145.751944444,,Census,City,AK,"Cordova, Alaska",0,0,0,0,0,0,0,0,0,0,0,0,1152,955,980.0,938,1165,1128.0,1164.0,1879.0,2110.0,2454.0,2239.0
17790,7360,US,105267,61.5136111111,-160.359166667,,Census,City,AK,"Lower Kalskag, Alaska",0,0,0,0,0,0,0,0,0,0,0,0,0,0,0.0,0,88,122.0,183.0,246.0,291.0,267.0,282.0
17795,3251,US,53760200,65.2097222222,-161.165555556,,Census,Unincorporated community,AK,"Haycock, Alaska",0,0,0,0,0,0,0,0,0,0,0,0,0,114,71.0,81,0,0.0,0.0,0.0,0.0,0.0,0.0
17815,9647,US,87462,,,,Census,Census Area,AK,"Bethel Census Area, Alaska",0,0,0,0,0,0,0,0,0,0,0,0,0,0,0.0,0,0,5537.0,7579.0,10999.0,13656.0,16006.0,17013.0
17823,7299,US,105514,56.3075,-158.535,,Census,Cdp,AK,"Chignik Lagoon, Alaska",0,0,0,0,0,0,0,0,0,0,0,0,0,0,0.0,0,0,108.0,0.0,48.0,53.0,103.0,78.0
17959,23399,US,105605,55.9141666667,-130.024444444,,Census,Cdp,AK,"Hyder, Alaska",0,0,0,0,0,0,0,0,0,0,0,0,0,237,254.0,72,30,32.0,49.0,77.0,99.0,97.0,87.0
18141,9242,US,105671,62.06611,-142.04083,,Census,Cdp,AK,"Chisana, Alaska",0,0,0,0,0,0,0,0,0,0,0,0,0,148,13.0,28,0,0.0,0.0,0.0,0.0,,
18393,13383,US,105604,55.2047222222,-132.820833333,,Census,City,AK,"Hydaburg, Alaska",0,0,0,0,0,0,0,0,0,0,0,0,0,346,319.0,348,353,251.0,214.0,298.0,384.0,382.0,376.0
18488,11748,US,105464,60.4905555556,-149.794444444,,Census,Cdp,AK,"Cooper Landing, Alaska",0,0,0,0,0,0,0,0,0,0,0,0,0,0,0.0,0,60,88.0,31.0,116.0,243.0,369.0,289.0
18622,10195,US,105599,66.8858333333,-157.1375,,Census,City,AK,"Shungnak, Alaska",0,0,0,0,0,0,0,0,0,0,0,0,210,95,145.0,193,141,135.0,165.0,202.0,223.0,256.0,262.0
18654,8021,US,105277,59.0130555556,-161.816388889,,Census,City,AK,"Platinum, Alaska",0,0,0,0,0,0,0,0,0,0,0,0,0,0,0.0,45,72,43.0,55.0,55.0,64.0,41.0,61.0
18725,21104,US,105491,60.1244444444,-149.433333333,,Census,City,AK,"Seward, Alaska",0,0,0,0,0,0,0,0,0,0,0,0,534,652,835.0,949,2114,1891.0,1587.0,1843.0,2699.0,2830.0,2693.0
19018,38304,US,105566,64.5038888889,-165.399444444,,Census,City,AK,"Nome, Alaska",0,0,0,0,0,0,0,0,0,0,2754,12488,2600,852,1213.0,1559,1876,2316.0,2357.0,2301.0,3500.0,3505.0,3598.0
19044,14595,US,105272,60.9444444444,-164.644166667,,Census,Cdp,AK,"Newtok, Alaska",0,0,0,0,0,0,0,0,0,0,0,0,0,0,0.0,0,69,129.0,114.0,131.0,207.0,321.0,354.0
19265,6750,US,105465,60.4188888889,-149.355277778,,Census,Cdp,AK,"Crown Point, Alaska",0,0,0,0,0,0,0,0,0,0,0,0,0,0,0.0,0,0,0.0,0.0,0.0,62.0,75.0,74.0
19419,7778,US,105535,61.7938888889,-148.482777778,,Census,Cdp,AK,"Chickaloon, Alaska",0,0,0,0,0,0,0,0,0,0,0,0,0,0,28.0,11,0,43.0,0.0,0.0,145.0,213.0,272.0
19515,6301,US,19343329,64.1541666667,-141.459722222,,Census,Unincorporated community,AK,"Jack Wade, Alaska",0,0,0,0,0,0,0,0,0,0,0,0,0,0,13.0,21,0,0.0,0.0,0.0,0.0,0.0,0.0
19593,9136,US,105540,61.6083333333,-149.773611111,,Census,City,AK,"Houston, Alaska",0,0,0,0,0,0,0,0,0,0,0,0,0,0,0.0,0,0,0.0,69.0,370.0,697.0,1202.0,1912.0
19951,12477,US,105755,64.73,-158.114166667,,Census,City,AK,"Nulato, Alaska",0,0,0,0,0,0,0,0,0,0,118,281,230,258,204.0,113,176,283.0,308.0,350.0,359.0,336.0,264.0
19973,9668,US,105618,58.1988888889,-136.355277778,,Census,Census-designated place,AK,"Elfin Cove, Alaska",0,0,0,0,0,0,0,0,0,0,0,0,0,0,0.0,65,65,0.0,49.0,28.0,57.0,32.0,20.0
20000,100338,US,7004698,61.2166666667,-149.9,,Census,Consolidated city-borough,AK,"Anchorage, Alaska",0,0,0,0,0,0,0,0,0,0,0,0,0,1856,2277.0,3495,11254,44397.0,48081.0,174431.0,226338.0,260283.0,291826.0
20148,8326,US,105739,62.9105555556,-160.067222222,,Census,City,AK,"Grayling, Alaska",0,0,0,0,0,0,0,0,0,0,0,0,0,0,0.0,0,0,0.0,139.0,209.0,208.0,194.0,194.0
20184,6694,US,105469,60.4938888889,-150.781666667,,Census,Cdp,AK,"Funny River, Alaska",0,0,0,0,0,0,0,0,0,0,0,0,0,0,0.0,0,0,0.0,0.0,0.0,0.0,636.0,877.0
20462,12109,US,105586,70.6472222222,-160.016111111,,Census,City,AK,"Wainwright, Alaska",0,0,0,0,0,0,0,0,0,0,0,0,0,99,197.0,341,227,253.0,315.0,405.0,492.0,546.0,556.0
20544,7708,US,105244,61.8597222222,-158.128888889,,Census,Census-designated place,AK,"Crooked Creek, Alaska",0,0,0,0,0,0,0,0,0,0,0,0,0,0,0.0,48,43,92.0,59.0,108.0,106.0,137.0,105.0
20602,9283,US,105571,63.4711111111,-162.053055556,,Census,City,AK,"St. Michael, Alaska",0,0,0,0,0,0,0,0,0,0,101,857,415,371,147.0,142,157,205.0,207.0,239.0,295.0,368.0,401.0
20736,28201,US,105207,51.8833333333,-176.645,,Census,City,AK,"Adak, Alaska",0,0,0,0,0,0,0,0,0,0,0,0,0,0,0.0,0,0,0.0,0.0,0.0,0.0,316.0,326.0
20790,12503,US,105723,66.5488888889,-152.844722222,,Census,Cdp,AK,"Alatna, Alaska",0,0,0,0,0,0,0,0,0,0,0,0,0,32,131.0,28,31,0.0,0.0,0.0,31.0,35.0,37.0
20868,7664,US,1023306,60.195,-144.521111111,,Census,Ghost town,AK,"Katalla, Alaska",0,0,0,0,0,0,0,0,0,0,0,0,188,84,44.0,23,0,0.0,0.0,0.0,0.0,0.0,0.0
20901,11269,US,105725,62.6555555556,-160.209166667,,Census,City,AK,"Anvik, Alaska",0,0,0,0,0,0,0,0,0,95,191,166,151,140,79.0,110,99,120.0,83.0,114.0,82.0,104.0,85.0
21012,7843,US,105526,57.5602777778,-157.582222222,,Census,City,AK,"Pilot Point, Alaska",0,0,0,0,0,0,0,0,0,0,0,0,0,0,0.0,114,67,61.0,68.0,66.0,53.0,100.0,68.0
21036,9597,US,105642,63.905,-145.554444444,,Census,Cdp,AK,"Fort Greely, Alaska",0,0,0,0,0,0,0,0,0,0,0,0,0,0,0.0,0,0,0.0,1820.0,1635.0,1147.0,461.0,539.0
21098,6746,US,105470,59.5975,-151.234722222,,Census,Cdp,AK,"Halibut Cove, Alaska",0,0,0,0,0,0,0,0,0,0,0,0,0,0,0.0,23,0,25.0,44.0,47.0,78.0,35.0,76.0
21241,7396,US,105515,56.2694444444,-158.781666667,,Census,Cdp,AK,"Chignik Lake, Alaska",0,0,0,0,0,0,0,0,0,0,0,0,0,0,0.0,0,0,107.0,117.0,138.0,133.0,145.0,73.0
21244,3587,US,22040148,55.0888888889,-162.030555556,,Census,Unknown,AK,"Belkofski, Alaska",0,0,0,0,0,0,0,0,0,268,185,147,0,129,123.0,140,119,57.0,59.0,10.0,,,
21386,10089,US,105731,66.6516666667,-143.727222222,,Census,Cdp,AK,"Chalkyitsik, Alaska",0,0,0,0,0,0,0,0,0,0,0,0,0,0,35.0,33,0,57.0,130.0,100.0,90.0,83.0,69.0
21401,7067,US,105529,56.9488888889,-158.655833333,,Census,City,AK,"Port Heiden, Alaska",0,0,0,0,0,0,0,0,0,0,0,0,0,30,51.0,0,0,74.0,66.0,92.0,119.0,119.0,102.0
21480,9465,US,105459,59.7775,-151.770277778,,Census,Cdp,AK,"Anchor Point, Alaska",0,0,0,0,0,0,0,0,0,0,0,0,0,0,0.0,20,65,171.0,102.0,226.0,866.0,1845.0,1930.0
21488,7328,US,105235,60.8597222222,-162.2775,,Census,Cdp,AK,"Atmautluak, Alaska",0,0,0,0,0,0,0,0,0,0,0,0,0,0,0.0,0,0,0.0,0.0,219.0,258.0,294.0,277.0
21500,11002,US,105703,61.5288888889,-166.096111111,,Census,City,AK,"Hooper Bay, Alaska",0,0,0,0,0,0,0,0,0,175,138,0,0,0,209.0,299,307,460.0,490.0,627.0,845.0,1014.0,1093.0
21616,12040,US,105291,63.3880555556,-148.900277778,,Census,Census-designated place,AK,"Cantwell, Alaska",0,0,0,0,0,0,0,0,0,0,0,0,0,0,0.0,17,67,85.0,62.0,89.0,147.0,222.0,219.0
21670,27307,US,105601,55.4763888889,-133.148333333,,Census,City,AK,"Craig, Alaska",0,0,0,0,0,0,0,0,0,0,0,0,0,212,231.0,505,374,273.0,272.0,527.0,1260.0,1397.0,1201.0
21824,12283,US,105287,58.69,-156.660555556,,Census,Cdp,AK,"King Salmon, Alaska",0,0,0,0,0,0,0,0,0,0,0,0,0,0,0.0,0,0,227.0,202.0,545.0,696.0,442.0,374.0
21932,8540,US,105288,58.7397222222,-156.971666667,,Census,Cdp/borough seat,AK,"Naknek, Alaska",0,0,0,0,0,0,0,0,0,0,51,431,0,111,173.0,152,174,249.0,318.0,318.0,575.0,678.0,544.0
22037,11799,US,105678,62.3047222222,-145.273333333,,Census,Cdp,AK,"Gakona, Alaska",0,0,0,0,0,0,0,0,0,0,0,0,0,0,0.0,46,50,33.0,88.0,87.0,25.0,215.0,218.0
22142,10464,US,105579,70.4777777778,-157.418055556,,Census,City,AK,"Atqasuk, Alaska",0,0,0,0,0,0,0,0,0,0,0,0,0,0,0.0,0,0,0.0,0.0,107.0,216.0,228.0,233.0
22203,13057,US,105573,65.2572222222,-166.353888889,,Census,City,AK,"Teller, Alaska",0,0,0,0,0,0,0,0,0,0,0,0,125,80,76.0,118,160,217.0,220.0,212.0,151.0,268.0,229.0
22470,6504,US,105466,59.6652777778,-151.570833333,,Census,Cdp,AK,"Diamond Ridge, Alaska",0,0,0,0,0,0,0,0,0,0,0,0,0,0,0.0,0,0,0.0,0.0,0.0,0.0,1802.0,1156.0
22519,10895,US,87478,,,,Census,Census Area,AK,"Matanuska-Susitna Borough, Alaska",0,0,0,0,0,0,0,0,0,0,0,0,0,0,0.0,0,0,5188.0,6509.0,17816.0,39683.0,59322.0,88995.0
22617,4641,US,37127983,62.6147222222,-150.011944444,,Census,Unincorporated community,AK,"Curry, Alaska",0,0,0,0,0,0,0,0,0,0,0,0,0,0,91.0,45,183,0.0,0.0,0.0,0.0,0.0,0.0
22627,7432,US,87465,,,,Census,Census Area,AK,"Dillingham Census Area, Alaska",0,0,0,0,0,0,0,0,0,0,0,0,0,0,0.0,0,0,4024.0,3485.0,4616.0,4012.0,4922.0,4847.0
22763,26655,US,105626,58.1094444444,-135.436388889,,Census,City,AK,"Hoonah, Alaska",0,0,0,0,0,0,0,0,0,800,438,447,462,402,514.0,716,563,686.0,748.0,680.0,795.0,860.0,760.0
22859,20551,US,105578,68.1430555556,-151.733611111,,Census,City,AK,"Anaktuvuk Pass, Alaska",0,0,0,0,0,0,0,0,0,0,0,0,0,0,0.0,0,66,35.0,99.0,203.0,259.0,282.0,324.0
22966,8687,US,105630,57.7780555556,-135.219722222,,Census,City,AK,"Tenakee Springs, Alaska",0,0,0,0,0,0,0,0,0,0,0,0,126,174,210.0,188,140,109.0,86.0,138.0,94.0,104.0,131.0
23201,9545,US,105208,52.1991666667,-174.213333333,,Census,City,AK,"Atka, Alaska",0,0,0,0,0,0,0,0,0,0,132,0,0,56,103.0,89,85,119.0,88.0,93.0,73.0,92.0,61.0
23268,2722,US,14117455,70.3297222222,-161.874166667,,Census,Unknown,AK,"Icy Cape, Alaska",0,0,0,0,0,0,0,0,0,50,57,0,0,0,0.0,0,0,0.0,0.0,0.0,0.0,0.0,0.0
23288,14806,US,105762,65.1705555556,-152.075833333,,Census,City,AK,"Tanana, Alaska",0,0,0,0,0,0,0,0,0,0,203,186,398,213,185.0,170,228,349.0,406.0,388.0,345.0,308.0,246.0
23436,29057,US,105505,57.7930555556,-152.394166667,,Census,City,AK,"Kodiak, Alaska",0,0,0,0,0,0,0,0,0,288,495,341,438,374,442.0,864,1710,2628.0,3798.0,4756.0,6365.0,6334.0,6130.0
23603,6666,US,105729,66.2566666667,-145.815277778,,Census,Cdp,AK,"Birch Creek, Alaska",0,0,0,0,0,0,0,0,0,0,0,0,0,0,0.0,32,0,0.0,0.0,32.0,42.0,28.0,33.0
23648,9409,US,105732,65.8333333333,-144.066666667,,Census,Cdp,AK,"Circle, Alaska",0,0,0,0,0,0,0,0,0,0,0,242,144,96,50.0,98,83,41.0,54.0,81.0,73.0,100.0,104.0
24137,6766,US,105536,61.6283333333,-149.145555556,,Census,Cdp,AK,"Farm Loop, Alaska",0,0,0,0,0,0,0,0,0,0,0,0,0,0,0.0,0,0,0.0,0.0,0.0,0.0,1067.0,1028.0
24253,152100,US,624,,,,Census,Census Area,AK,Alaska,0,0,0,0,0,0,0,0,0,33426,32052,63592,64356,55036,59278.0,72524,128643,226167.0,300382.0,401851.0,550043.0,626932.0,710231.0
24273,11040,US,105215,60.8994444444,-161.413333333,,Census,Census-designated place,AK,"Akiachak, Alaska",0,0,0,0,0,0,0,0,0,0,43,165,0,0,0.0,156,179,229.0,312.0,438.0,481.0,585.0,627.0
24322,8287,US,105476,60.3352777778,-151.233611111,,Census,Cdp,AK,"Kasilof, Alaska",0,0,0,0,0,0,0,0,0,31,117,159,0,0,45.0,62,62,89.0,71.0,201.0,383.0,471.0,549.0
24443,8213,US,105718,56.8225,-132.9825,,Census,City,AK,"Kupreanof, Alaska",0,0,0,0,0,0,0,0,0,0,0,0,0,0,0.0,0,0,0.0,0.0,47.0,23.0,23.0,27.0
24481,16033,US,105624,58.4163888889,-135.745555556,,Census,City,AK,"Gustavus, Alaska",0,0,0,0,0,0,0,0,0,0,0,0,0,0,0.0,27,82,107.0,64.0,98.0,258.0,429.0,442.0
24646,9348,US,105596,66.8333333333,-161.045833333,,Census,City,AK,"Noorvik, Alaska",0,0,0,0,0,0,0,0,0,0,0,0,0,281,198.0,211,248,384.0,462.0,492.0,531.0,634.0,668.0
24760,6058,US,105486,60.3433333333,-149.344166667,,Census,Cdp,AK,"Primrose, Alaska",0,0,0,0,0,0,0,0,0,0,0,0,0,0,0.0,0,0,0.0,0.0,0.0,63.0,93.0,78.0
24817,11182,US,105268,60.3891666667,-166.206944444,,Census,City,AK,"Mekoryuk, Alaska",0,0,0,0,0,0,0,0,0,0,0,0,0,0,0.0,0,156,242.0,249.0,160.0,177.0,210.0,191.0
24988,13417,US,105700,,,,Census,City,AK,"Alakanuk, Alaska",0,0,0,0,0,0,0,0,0,0,0,0,0,0,0.0,61,140,278.0,414.0,522.0,544.0,652.0,677.0
25002,6688,US,105463,60.3013888889,-151.295833333,,Census,Cdp,AK,"Cohoe, Alaska",0,0,0,0,0,0,0,0,0,0,0,0,0,0,0.0,0,0,122.0,0.0,0.0,508.0,1168.0,1364.0
25246,8309,US,105269,60.6933333333,-161.973611111,,Census,City,AK,"Napakiak, Alaska",0,0,0,0,0,0,0,0,0,0,0,0,0,0,0.0,113,139,190.0,0.0,262.0,318.0,353.0,354.0
25252,11761,US,105743,64.3252777778,-158.726944444,,Census,City,AK,"Kaltag, Alaska",0,0,0,0,0,0,0,0,0,45,0,0,141,89,137.0,140,121,165.0,206.0,247.0,240.0,230.0,190.0
25340,15835,US,105574,63.8788888889,-160.789722222,,Census,City,AK,"Unalakleet, Alaska",0,0,0,0,0,0,0,0,0,0,175,241,247,285,261.0,329,469,574.0,434.0,623.0,714.0,747.0,688.0
25804,10084,US,105726,68.1219444444,-145.527777778,,Census,Cdp,AK,"Arctic Village, Alaska",0,0,0,0,0,0,0,0,0,0,0,0,40,0,40.0,24,53,110.0,85.0,111.0,96.0,152.0,152.0
25899,8184,US,105636,63.9638888889,-145.408888889,,Census,Cdp,AK,"Deltana, Alaska",0,0,0,0,0,0,0,0,0,0,0,0,0,0,0.0,0,0,0.0,0.0,0.0,0.0,1570.0,2251.0
25917,4868,US,969755,66.0227777778,-161.841944444,,Census,Unincorporated community,AK,"Kiwalik, Alaska",0,0,0,0,0,0,0,0,0,12,0,0,0,0,12.0,24,0,0.0,0.0,0.0,0.0,0.0,0.0
25962,8764,US,105627,59.4,-135.893333333,,Census,Census-designated place,AK,"Klukwan, Alaska",0,0,0,0,0,0,0,0,0,565,326,0,245,167,97.0,97,91,112.0,103.0,135.0,129.0,139.0,95.0
25980,26677,US,105635,64.0477777778,-145.718611111,,Census,City,AK,"Delta Junction, Alaska",0,0,0,0,0,0,0,0,0,0,0,0,0,0,0.0,0,0,0.0,703.0,945.0,652.0,840.0,958.0
26214,33516,US,105722,56.385,-132.086388889,,Census,Unified Home Rule Borough,AK,"Wrangell, Alaska",0,0,0,0,0,0,0,0,0,106,316,868,743,821,948.0,1162,1263,1315.0,2029.0,2184.0,2479.0,2308.0,2365.0
26471,10769,US,105590,66.0758333333,-162.718333333,,Census,City,AK,"Deering, Alaska",0,0,0,0,0,0,0,0,0,0,0,0,100,73,183.0,230,174,95.0,85.0,150.0,157.0,136.0,122.0
26576,10936,US,105582,70.2163888889,-151.005833333,,Census,City,AK,"Nuiqsut, Alaska",0,0,0,0,0,0,0,0,0,0,0,0,0,0,0.0,0,0,0.0,0.0,208.0,354.0,433.0,402.0
26633,1717,US,29858491,,,,Census,Unknown,AK,"Candle, Alaska",0,0,0,0,0,0,0,0,0,0,0,0,204,91,85.0,119,105,103.0,0.0,0.0,0.0,0.0,0.0
26771,7587,US,105715,62.5161111111,-164.895277778,,Census,City,AK,"Nunam Iqua, Alaska",0,0,0,0,0,0,0,0,0,0,0,0,0,0,0.0,0,43,125.0,125.0,103.0,109.0,164.0,187.0
26885,9051,US,105286,61.5375,-160.316111111,,Census,City,AK,"Upper Kalskag, Alaska",0,0,0,0,0,0,0,0,0,0,0,0,0,0,0.0,76,139,147.0,122.0,129.0,172.0,230.0,210.0
27012,11779,US,87455,,,,Census,Census Area,AK,"Aleutians East Borough, Alaska",0,0,0,0,0,0,0,0,0,0,0,0,0,0,0.0,0,0,0.0,0.0,0.0,2464.0,2697.0,3141.0
27108,8845,US,105740,62.1980555556,-159.773333333,,Census,City,AK,"Holy Cross, Alaska",0,0,0,0,0,0,0,0,0,30,131,135,231,0,337.0,226,157,256.0,199.0,241.0,277.0,227.0,178.0
27123,8951,US,105680,62.2402777778,-145.422777778,,Census,Cdp,AK,"Gulkana, Alaska",0,0,0,0,0,0,0,0,0,0,0,0,0,0,0.0,25,65,51.0,53.0,104.0,103.0,88.0,119.0
27184,8008,US,105246,59.1213888889,-161.585833333,,Census,City,AK,"Goodnews Bay, Alaska",0,0,0,0,0,0,0,0,0,0,0,0,0,0,0.0,48,0,0.0,0.0,168.0,241.0,230.0,243.0
27660,12105,US,105742,65.7019444444,-156.387222222,,Census,City,AK,"Huslia, Alaska",0,0,0,0,0,0,0,0,0,0,0,0,0,0,0.0,0,65,168.0,159.0,188.0,207.0,293.0,275.0
28280,8795,US,105273,60.4913888889,-164.826111111,,Census,City,AK,"Nightmute, Alaska",0,0,0,0,0,0,0,0,0,0,0,0,0,0,0.0,7,27,23.0,12.0,11.0,15.0,20.0,28.0
28305,6979,US,28989222,55.965,-133.793333333,,Census,Census Area,AK,"Cape Pole, Alaska",0,0,0,0,0,0,0,0,0,0,0,0,0,0,0.0,0,0,92.0,123.0,29.0,0.0,0.0,0.0
28355,19637,US,105206,55.3366666667,-160.493333333,,Census,City,AK,"Sand Point, Alaska",0,0,0,0,0,0,0,0,0,0,0,0,0,60,69.0,99,107,254.0,360.0,625.0,878.0,952.0,976.0
28392,9535,US,87472,,,,Census,Census Area,AK,"Ketchikan Gateway Borough, Alaska",0,0,0,0,0,0,0,0,0,0,0,0,0,0,0.0,0,0,10070.0,10041.0,11316.0,13828.0,14070.0,13477.0
28572,6651,US,105673,62.5777777778,-144.669722222,,Census,Cdp,AK,"Chistochina, Alaska",0,0,0,0,0,0,0,0,0,0,0,0,0,0,0.0,34,31,28.0,33.0,55.0,60.0,93.0,93.0
28699,26910,US,105444,64.8558333333,-147.978333333,,Census,Census-designated place,AK,"Ester, Alaska",0,0,0,0,0,0,0,0,0,0,0,0,213,0,0.0,218,74,81.0,264.0,149.0,147.0,1680.0,2422.0
29002,6609,US,105487,60.5197222222,-151.060833333,,Census,Cdp,AK,"Ridgeway, Alaska",0,0,0,0,0,0,0,0,0,0,0,0,0,0,0.0,0,0,0.0,0.0,0.0,2018.0,1932.0,2022.0
29062,8703,US,105504,57.5780555556,-154.3625,,Census,Census-designated place,AK,"Karluk, Alaska",0,0,0,0,0,0,0,0,0,302,1123,470,549,99,192.0,189,144,129.0,98.0,96.0,71.0,27.0,37.0
29451,28138,US,105547,61.6019444444,-149.117222222,,Census,City,AK,"Palmer, Alaska",0,0,0,0,0,0,0,0,0,0,0,0,0,0,0.0,150,890,1181.0,1140.0,2141.0,2866.0,4533.0,5937.0
29781,14312,US,105234,61.5788888889,-159.550277778,,Census,City,AK,"Aniak, Alaska",0,0,0,0,0,0,0,0,0,0,0,0,0,0,0.0,122,142,308.0,205.0,341.0,540.0,572.0,501.0
29827,13184,US,105747,65.0077777778,-150.626666667,,Census,Cdp,AK,"Manley Hot Springs, Alaska",0,0,0,0,0,0,0,0,0,0,0,0,101,29,45.0,39,29,72.0,34.0,61.0,96.0,72.0,89.0
29832,5709,US,912450,59.5044444444,-135.36,,Census,Ghost town,AK,"Dyea, Alaska",0,0,0,0,0,0,0,0,0,0,0,261,0,0,0.0,0,0,0.0,0.0,0.0,0.0,0.0,0.0
29934,12681,US,105473,60.9194444444,-149.641944444,,Census,Cdp,AK,"Hope, Alaska",0,0,0,0,0,0,0,0,0,0,0,0,0,44,15.0,71,63,44.0,51.0,103.0,161.0,137.0,192.0
29945,6475,US,105681,61.7033333333,-144.896666667,,Census,Cdp,AK,"Kenny Lake, Alaska",0,0,0,0,0,0,0,0,0,0,0,0,0,0,0.0,0,0,0.0,0.0,0.0,423.0,410.0,355.0
30038,8823,US,105523,59.9669444444,-154.851666667,,Census,City,AK,"Nondalton, Alaska",0,0,0,0,0,0,0,0,0,0,0,0,0,69,24.0,82,103,205.0,184.0,173.0,178.0,221.0,164.0
30152,7728,US,105733,67.2513888889,-150.176111111,,Census,Cdp,AK,"Coldfoot, Alaska",0,0,0,0,0,0,0,0,0,0,0,0,0,0,0.0,0,0,0.0,0.0,0.0,0.0,13.0,10.0
30376,6689,US,105292,64.0644444444,-148.996944444,,Census,Census-designated place,AK,"Ferry, Alaska",0,0,0,0,0,0,0,0,0,0,0,0,0,0,0.0,31,0,0.0,0.0,0.0,56.0,29.0,33.0
30466,10378,US,105606,55.5416666667,-132.401944444,,Census,City,AK,"Kasaan, Alaska",0,0,0,0,0,0,0,0,0,0,0,0,129,126,112.0,85,47,36.0,30.0,25.0,54.0,39.0,49.0
30547,15342,US,105591,66.9716666667,-160.430277778,,Census,City,AK,"Kiana, Alaska",0,0,0,0,0,0,0,0,0,0,0,0,0,98,115.0,167,181,253.0,278.0,345.0,385.0,388.0,361.0
30575,8453,US,105474,59.6733333333,-151.433055556,,Census,City,AK,"Kachemak, Alaska",0,0,0,0,0,0,0,0,0,0,0,0,0,0,0.0,0,0,0.0,76.0,403.0,365.0,431.0,472.0
30625,8815,US,87485,,,,Census,Census Area,AK,"Prince of Wales–Hyder Census Area, Alaska",0,0,0,0,0,0,0,0,0,0,0,0,0,0,0.0,0,0,1772.0,2106.0,3822.0,6278.0,6146.0,5559.0
30711,6330,US,105638,63.6502777778,-144.042777778,,Census,Cdp,AK,"Dot Lake Village, Alaska",0,0,0,0,0,0,0,0,0,0,0,0,0,0,0.0,0,0,0.0,0.0,0.0,0.0,38.0,62.0
30750,25234,US,105472,59.6430555556,-151.525833333,,Census,City,AK,"Homer, Alaska",0,0,0,0,0,0,0,0,0,0,0,0,0,0,0.0,325,307,1247.0,1083.0,2209.0,3660.0,3946.0,5003.0
30784,18230,US,105736,66.5675,-145.256388889,,Census,City,AK,"Fort Yukon, Alaska",0,0,0,0,0,0,0,0,0,109,0,156,321,319,304.0,274,446,701.0,448.0,619.0,580.0,595.0,583.0
30803,6237,US,24582712,,,,Census,NHRP,AK,"Kijik, Alaska",0,0,0,0,0,0,0,0,0,91,42,0,0,0,0.0,0,0,0.0,0.0,0.0,0.0,0.0,0.0
30884,14265,US,87483,,,,Census,Census Area,AK,"North Slope Borough, Alaska",0,0,0,0,0,0,0,0,0,0,0,0,0,0,0.0,0,0,2133.0,2663.0,4199.0,5979.0,7385.0,9430.0
30945,8322,US,105589,65.9847222222,-161.129722222,,Census,City,AK,"Buckland, Alaska",0,0,0,0,0,0,0,0,0,0,0,0,0,52,104.0,115,108,87.0,104.0,177.0,318.0,406.0,416.0
31011,10272,US,105568,63.6966666667,-170.460833333,,Census,City,AK,"Savoonga, Alaska",0,0,0,0,0,0,0,0,0,0,0,0,0,0,139.0,209,249,299.0,364.0,491.0,519.0,643.0,671.0
31107,17461,US,105724,66.5633333333,-152.647222222,,Census,City,AK,"Allakaket, Alaska",0,0,0,0,0,0,0,0,0,0,0,0,0,0,0.0,105,79,115.0,0.0,163.0,170.0,97.0,105.0
31182,10055,US,105513,,,,Census,City,AK,"Chignik, Alaska",0,0,0,0,0,0,0,0,0,0,0,0,0,0,0.0,224,253,99.0,83.0,178.0,188.0,79.0,91.0
31202,5652,US,105519,55.9111111111,-159.489166667,,Census,Cdp,AK,"Ivanof Bay, Alaska",0,0,0,0,0,0,0,0,0,0,0,0,0,0,0.0,0,0,0.0,48.0,40.0,35.0,22.0,7.0
31537,13354,US,105717,56.9708333333,-133.933888889,,Census,City,AK,"Kake, Alaska",0,0,0,0,0,0,0,0,0,261,0,0,232,387,386.0,419,376,455.0,448.0,555.0,700.0,710.0,557.0
