,article_length,country,id,lat,lon,other_years,poptype,settlement_type,state,title,y1790,y1800,y1810,y1820,y1830,y1840,y1850,y1860,y1870,y1880,y1890,y1900,y1910,y1920,y1930,y1940,y1950,y1960,y1970,y1980,y1990,y2000,y2010
5,7844,US,104707,34.3302777778,-87.9275,,Census,Town,AL,"Hodges, Alabama",0,0,0,0,0,0,0,0,0,0,0,0,0,279,247.0,260,220,194.0,207.0,250.0,272.0,261.0,288.0
48,7084,US,104579,33.5252777778,-85.3433333333,,Census,Town,AL,"Ranburne, Alabama",0,0,0,0,0,0,0,0,0,0,0,0,0,0,0.0,0,0,317.0,371.0,417.0,447.0,459.0,409.0
54,3040,US,48904220,31.1205555556,-85.6716666667,,Census,Unincorporated community,AL,"Dundee, Alabama",0,0,0,0,0,0,0,0,0,0,0,249,0,0,0.0,0,0,0.0,0.0,0.0,0.0,0.0,0.0
66,25637,US,77828,32.5969444444,-86.1513888889,,Census,US County,AL,"Elmore County, Alabama",0,0,0,0,0,0,0,0,14477,17502,21732,26099,28245,28085,34280.0,34546,31649,30524.0,33661.0,43390.0,49210.0,65874.0,79303.0
93,5681,US,6022587,31.88495,-85.1539,,Census,Town,AL,"Bakerhill, Alabama",0,0,0,0,0,0,0,0,0,0,0,0,0,0,0.0,0,0,0.0,0.0,0.0,0.0,0.0,279.0
100,3717,US,38492381,31.5577777778,-85.5455555556,,Census,Unincorporated community,AL,"Skipperville, Alabama",0,0,0,0,0,0,0,0,0,85,0,0,0,0,0.0,0,0,0.0,0.0,0.0,0.0,0.0,0.0
103,3946,US,39606165,33.2511111111,-86.2025,,Census,Unincorporated community,AL,"Sycamore, Alabama",0,0,0,0,0,0,0,0,0,0,0,0,0,0,631.0,0,0,0.0,0.0,0.0,0.0,0.0,0.0
113,11147,US,104877,34.9061111111,-86.4261111111,,Census,Cdp,AL,"New Market, Alabama",0,0,0,0,0,0,0,0,0,144,0,0,0,0,0.0,0,0,0.0,0.0,0.0,1094.0,1864.0,1597.0
207,24913,US,76957,34.1697222222,-85.5941666667,,Census,US County,AL,"Cherokee County, Alabama",0,0,0,0,0,8773,13884,18360,11132,19108,20459,21096,20226,20862,20219.0,19928,17634,16303.0,15606.0,18760.0,19543.0,23988.0,25989.0
215,10153,US,104719,31.1125,-86.0477777778,,Census,City,AL,"Samson, Alabama",0,0,0,0,0,0,0,0,0,0,0,0,1350,1646,1656.0,2182,2204,1932.0,2257.0,2402.0,2190.0,2071.0,1940.0
256,25190,US,76945,32.8452777778,-86.7144444444,,Census,US County,AL,"Chilton County, Alabama",0,0,0,0,0,0,0,0,6194,10793,14549,16522,23187,22770,24579.0,27955,26922,25693.0,25180.0,30612.0,32458.0,39593.0,43643.0
344,25255,US,76955,31.6736111111,-87.8380555556,,Census,US County,AL,"Clarke County, Alabama",0,0,0,5839,7595,8640,9786,15049,14663,17806,22624,27790,30987,26409,26016.0,27636,26548,25738.0,26724.0,27702.0,27240.0,27867.0,25833.0
361,8858,US,105103,33.1233333333,-85.5663888889,,Census,Town,AL,"Wadley, Alabama",0,0,0,0,0,0,0,0,0,0,0,0,426,508,527.0,493,535,605.0,626.0,532.0,517.0,640.0,751.0
408,4512,US,2258177,33.2291666667,-86.825,,Census,Unincorporated community,AL,"Siluria, Alabama",0,0,0,0,0,0,0,0,0,0,0,0,0,0,0.0,0,0,736.0,678.0,0.0,0.0,0.0,0.0
466,11186,US,104838,34.9166666667,-88.0641666667,,Census,Town,AL,"Waterloo, Alabama",0,0,0,0,0,0,0,0,0,196,0,0,435,415,497.0,524,327,215.0,262.0,260.0,250.0,208.0,203.0
474,3927,US,35041331,33.5522222222,-86.2691666667,,Census,Neighborhood,AL,"Cropwell, Alabama",0,0,0,0,0,0,0,0,0,105,0,0,0,0,0.0,0,0,0.0,0.0,0.0,0.0,0.0,0.0
523,14398,US,104818,33.4330555556,-86.7788888889,,Census,City,AL,"Vestavia Hills, Alabama",0,0,0,0,0,0,0,0,0,0,0,0,0,0,0.0,0,0,4029.0,12250.0,15722.0,19749.0,24476.0,34033.0
655,6332,US,22802650,32.9897222222,-85.2886111111,,Census,Census-designated place,AL,"Fredonia, Alabama",0,0,0,0,0,0,0,0,0,0,0,0,0,0,0.0,0,0,0.0,0.0,0.0,0.0,0.0,0.0
669,9846,US,104677,32.5938888889,-86.3933333333,,Census,Town,AL,"Deatsville, Alabama",0,0,0,0,0,0,0,0,0,0,0,0,194,0,0.0,0,0,0.0,0.0,0.0,0.0,340.0,1154.0
702,7446,US,104927,31.8263888889,-87.3205555556,,Census,Town,AL,"Vredenburgh, Alabama",0,0,0,0,0,0,0,0,0,0,0,0,0,874,815.0,666,796,632.0,521.0,433.0,313.0,327.0,312.0
885,10433,US,104761,33.5902777778,-86.9491666667,,Census,City,AL,"Adamsville, Alabama",0,0,0,0,0,0,0,0,0,0,0,0,649,0,0.0,0,1531,2095.0,2412.0,2498.0,4161.0,4965.0,4522.0
952,7151,US,104862,32.1530555556,-86.7116666667,,Census,Town,AL,"Gordonville, Alabama",0,0,0,0,0,0,0,0,0,0,0,0,0,0,0.0,0,0,0.0,0.0,0.0,0.0,318.0,326.0
1006,10101,US,104846,32.5608333333,-85.6675,,Census,Town,AL,"Notasulga, Alabama",0,0,0,0,0,0,0,0,0,236,332,0,512,619,756.0,863,816,884.0,833.0,876.0,979.0,916.0,965.0
1020,7361,US,104611,31.6675,-86.1747222222,,Census,Town,AL,"Glenwood, Alabama",0,0,0,0,0,0,0,0,0,0,0,0,336,386,429.0,393,413,416.0,378.0,341.0,208.0,191.0,187.0
1026,4998,US,35040050,31.6713888889,-86.7122222222,,Census,Unincorporated community,AL,"Chapman, Alabama",0,0,0,0,0,0,0,0,0,0,0,0,0,1142,1189.0,1167,943,617.0,0.0,0.0,0.0,0.0,0.0
1029,16227,US,104574,33.2719444444,-85.8366666667,,Census,Town,AL,"Ashland, Alabama",0,0,0,0,0,0,0,0,118,387,635,422,1062,1655,1476.0,1608,1593,1610.0,1921.0,2052.0,2034.0,1965.0,2037.0
1060,15716,US,105168,33.8905555556,-87.5241666667,,Census,City,AL,"Carbon Hill, Alabama",0,0,0,0,0,0,0,0,0,0,568,830,1627,2666,2519.0,2555,2179,1944.0,1929.0,2452.0,2115.0,2071.0,2021.0
1101,25856,US,80795,34.3680555556,-86.3038888889,,Census,US County,AL,"Marshall County, Alabama",0,0,0,0,0,7553,8846,11472,9871,14585,18935,23289,28553,32669,39802.0,42395,45090,48018.0,54211.0,65622.0,70832.0,82231.0,93019.0
1108,46287,US,104847,32.6472222222,-85.3894444444,,Census,City,AL,"Opelika, Alabama",0,0,0,0,0,0,0,0,0,3245,3703,4245,4734,4960,6156.0,8487,12295,15678.0,19027.0,21896.0,22122.0,23498.0,26477.0
1135,26643,US,104783,33.2797222222,-86.8561111111,,Census,City,AL,"Helena, Alabama",0,0,0,0,0,0,0,0,0,0,0,0,0,808,549.0,667,421,523.0,1110.0,2130.0,3918.0,10296.0,16793.0
1170,2530,US,36485080,32.895,-87.6202777778,,Census,Unincorporated community,AL,"Havana, Alabama",0,0,0,0,0,0,0,0,0,137,0,0,0,0,0.0,0,0,0.0,0.0,0.0,0.0,0.0,0.0
1172,10365,US,105148,33.1897222222,-86.3030555556,,Census,Town,AL,"Oak Grove, Alabama",0,0,0,0,0,0,0,0,0,0,0,0,0,0,0.0,0,0,0.0,482.0,638.0,436.0,457.0,528.0
1188,8480,US,104726,32.8763888889,-87.7408333333,,Census,Town,AL,"Akron, Alabama",0,0,0,0,0,0,0,0,0,0,0,0,0,675,793.0,504,684,604.0,535.0,604.0,468.0,521.0,356.0
1207,9539,US,104698,34.1738888889,-86.1213888889,,Census,Town,AL,"Sardis City, Alabama",0,0,0,0,0,0,0,0,0,0,0,0,0,0,0.0,0,0,0.0,368.0,883.0,1301.0,1438.0,1704.0
1229,22794,US,77369,31.4033333333,-85.9866666667,,Census,US County,AL,"Coffee County, Alabama",0,0,0,0,0,0,5940,9623,6171,8119,12170,20972,26119,30070,32556.0,31987,30720,30583.0,34872.0,38533.0,40240.0,43615.0,49948.0
1308,8233,US,104636,31.3136111111,-85.7672222222,,Census,City,AL,"Level Plains, Alabama",0,0,0,0,0,0,0,0,0,0,0,0,0,0,0.0,0,0,0.0,1007.0,867.0,1473.0,1544.0,2085.0
1327,16523,US,104803,33.4869444444,-86.7405555556,,Census,City,AL,"Mountain Brook, Alabama",0,0,0,0,0,0,0,0,0,0,0,0,0,0,0.0,0,8359,12680.0,19509.0,19718.0,19810.0,20604.0,20413.0
1331,4998,US,7204254,31.6508333333,-87.705,,Census,Census-designated place,AL,"Whatley, Alabama",0,0,0,0,0,0,0,0,0,0,0,0,187,0,0.0,0,0,0.0,0.0,0.0,0.0,0.0,150.0
1355,7784,US,99882,32.6602777778,-86.7111111111,,Census,Town,AL,"Billingsley, Alabama",0,0,0,0,0,0,0,0,0,0,0,0,256,214,189.0,183,158,179.0,110.0,106.0,150.0,116.0,144.0
1372,49598,US,104852,34.6058333333,-86.9833333333,,Census,City,AL,"Decatur, Alabama",0,0,0,0,0,0,606,0,671,1063,2765,3114,4228,4752,15593.0,16604,19974,29217.0,38044.0,42002.0,48761.0,53929.0,55683.0
1373,4803,US,34314613,33.44,-85.6905555556,,Census,Census-designated place,AL,"Delta, Alabama",0,0,0,0,0,0,0,0,0,0,0,0,0,0,0.0,0,0,0.0,0.0,0.0,0.0,0.0,0.0
1381,10367,US,105109,33.2311111111,-86.8236111111,,Census,City,AL,"Alabaster, Alabama",0,0,0,0,0,0,0,0,0,0,0,0,0,0,0.0,0,0,1623.0,2642.0,7079.0,14732.0,22619.0,30352.0
1387,7601,US,104749,34.9047222222,-86.0866666667,,Census,Town,AL,"Hytop, Alabama",0,0,0,0,0,0,0,0,0,0,0,0,0,0,0.0,0,0,0.0,0.0,0.0,0.0,315.0,354.0
1402,101375,US,105167,33.2066666667,-87.5347222222,,Census,City,AL,"Tuscaloosa, Alabama",0,0,0,0,0,1949,3500,3989,1689,2418,4215,5094,8407,11996,20659.0,27493,46396,63370.0,65773.0,75211.0,77759.0,77906.0,90468.0
1457,20912,US,104904,30.4030555556,-88.2480555556,,Census,Town,AL,"Bayou La Batre, Alabama",0,0,0,0,0,0,0,0,0,0,0,0,0,0,0.0,0,2196,2572.0,2664.0,2005.0,2456.0,2313.0,2558.0
1520,5314,US,44538472,34.8613888889,-87.4555555556,,Census,Unincorporated community,AL,"Center Star, Alabama",0,0,0,0,0,0,0,0,0,69,0,0,0,0,0.0,0,0,0.0,0.0,0.0,0.0,0.0,0.0
1570,7297,US,103745,33.6508333333,-85.8694444444,,Census,Census-designated place,AL,"West End-Cobb Town, Alabama",0,0,0,0,0,0,0,0,0,0,0,0,0,0,0.0,0,3228,5485.0,5515.0,5189.0,4034.0,3924.0,3465.0
1580,12020,US,104733,31.4219444444,-85.3363888889,,Census,Town,AL,"Newville, Alabama",0,0,0,0,0,0,0,0,0,0,0,0,522,547,528.0,578,565,546.0,465.0,814.0,531.0,553.0,539.0
1600,5740,US,105092,33.1336111111,-88.2969444444,,Census,Town,AL,"Memphis, Alabama",0,0,0,0,0,0,156,0,0,0,0,0,0,0,0.0,0,0,0.0,99.0,95.0,54.0,33.0,29.0
1613,5770,US,31624341,34.2977777778,-86.5569444444,,Census,Census-designated place,AL,"Joppa, Alabama",0,0,0,0,0,0,0,0,0,0,0,130,167,166,0.0,0,0,0.0,0.0,0.0,0.0,0.0,501.0
1618,13840,US,104580,31.4172222222,-86.0772222222,,Census,City,AL,"Elba, Alabama",0,0,0,0,0,0,0,0,0,222,285,635,1079,1681,2523.0,2363,2936,4321.0,4634.0,4355.0,4011.0,4185.0,3940.0
1763,8405,US,104752,34.6602777778,-86.3280555556,,Census,Town,AL,"Paint Rock, Alabama",0,0,0,0,0,0,0,0,0,41,0,394,534,332,320.0,282,276,264.0,226.0,221.0,214.0,185.0,210.0
1862,7354,US,4373447,30.7427777778,-87.7933333333,,Census,Unincorporated community,AL,"Stapleton, Alabama",0,0,0,0,0,0,0,0,0,0,0,0,0,0,0.0,0,0,0.0,0.0,0.0,0.0,0.0,0.0
1865,4551,US,23818663,34.6941666667,-88.1102777778,,Census,Unincorporated community,AL,"Allsboro, Alabama",0,0,0,0,0,0,0,0,0,106,0,0,0,0,0.0,0,0,0.0,0.0,0.0,0.0,0.0,0.0
1878,9045,US,101166,32.0744444444,-85.5202777778,,Census,Town,AL,"Midway, Alabama",0,0,0,0,0,0,0,0,0,450,612,430,464,524,710.0,617,544,594.0,558.0,593.0,455.0,457.0,499.0
2058,62763,US,104633,31.2272222222,-85.4072222222,,Census,City,AL,"Dothan, Alabama",0,0,0,0,0,0,0,0,0,0,247,3275,7016,10034,16046.0,17194,21584,31440.0,36733.0,48750.0,53589.0,57737.0,65496.0
2150,13174,US,2018347,32.3169444444,-87.1013888889,,Census,NHRP,AL,"Cahaba, Alabama",0,0,0,0,0,0,0,1920,431,384,0,0,0,0,0.0,0,0,0.0,0.0,0.0,0.0,0.0,0.0
2198,9335,US,105135,32.4336111111,-88.3716666667,,Census,Town,AL,"Cuba, Alabama",0,0,0,0,0,0,0,0,0,232,265,384,650,719,542.0,557,525,390.0,386.0,486.0,390.0,363.0,346.0
2200,3979,US,34688329,33.0602777778,-85.9330555556,,Census,Census-designated place,AL,"Hackneyville, Alabama",0,0,0,0,0,0,0,0,0,0,0,0,0,0,0.0,0,0,0.0,0.0,0.0,0.0,0.0,0.0
2213,12311,US,104831,34.8616666667,-87.5294444444,,Census,Town,AL,"Killen, Alabama",0,0,0,0,0,0,0,0,0,0,0,0,0,0,0.0,0,0,620.0,683.0,747.0,1047.0,1119.0,1108.0
2227,7691,US,104669,34.4458333333,-85.7791666667,,Census,Town,AL,"Pine Ridge, Alabama",0,0,0,0,0,0,0,0,0,0,0,0,0,0,0.0,0,0,0.0,0.0,0.0,227.0,243.0,282.0
2240,10089,US,105078,34.325,-86.7475,,Census,Town,AL,"Eva, Alabama",0,0,0,0,0,0,0,0,0,0,0,0,0,0,0.0,0,0,0.0,146.0,185.0,438.0,491.0,519.0
2314,30287,US,104869,32.4313888889,-85.7066666667,,Census,City,AL,"Tuskegee, Alabama",0,0,0,0,0,0,1563,0,0,2370,1803,2170,2803,2475,3314.0,3937,6712,1750.0,11028.0,13327.0,12257.0,11846.0,9865.0
2321,4219,US,34813132,32.8280555556,-85.9619444444,,Census,Census-designated place,AL,"Our Town, Alabama",0,0,0,0,0,0,0,0,0,0,0,0,0,0,0.0,0,0,0.0,0.0,0.0,0.0,0.0,0.0
2476,6700,US,105152,33.3936111111,-86.0327777778,,Census,Town,AL,"Waldo, Alabama",0,0,0,0,0,0,0,0,0,0,0,0,0,0,0.0,0,0,0.0,135.0,231.0,309.0,281.0,283.0
2481,4023,US,36624783,33.82899,-87.43167,,Census,Unincorporated community,AL,"Townley, Alabama",0,0,0,0,0,0,0,0,0,0,0,124,235,1554,0.0,0,0,0.0,0.0,0.0,0.0,0.0,0.0
2589,4891,US,42945983,33.5761111111,-85.5172222222,,Census,Unincorporated community,AL,"Arbacoochee, Alabama",0,0,0,0,0,0,0,0,0,50,0,0,0,0,0.0,0,0,0.0,0.0,0.0,0.0,0.0,0.0
2642,16903,US,104589,34.7308333333,-87.7027777778,,Census,City,AL,"Tuscumbia, Alabama",0,0,0,0,0,0,0,0,1214,1369,2491,2348,3324,3855,4533.0,5515,6734,8994.0,8828.0,9137.0,8413.0,7856.0,8423.0
2651,12140,US,104701,33.6577777778,-87.6058333333,,Census,Town,AL,"Berry, Alabama",0,0,0,0,0,0,0,0,0,0,0,245,372,491,500.0,639,715,645.0,679.0,916.0,1218.0,1238.0,1148.0
2654,15871,US,105182,31.9988,-87.2957,,Census,City,AL,"Camden, Alabama",0,0,0,0,0,0,800,0,0,590,545,478,648,700,697.0,909,931,1121.0,1742.0,2406.0,2414.0,2257.0,2020.0
2656,11108,US,104860,31.9877777778,-86.5711111111,,Census,Town,AL,"Fort Deposit, Alabama",0,0,0,0,0,0,0,0,0,350,518,1078,893,830,1092.0,1351,1358,1466.0,1438.0,1519.0,1240.0,1270.0,1344.0
2712,27288,US,81317,33.3833333333,-86.1666666667,,Census,US County,AL,"Talladega County, Alabama",0,0,0,0,0,12587,18624,23520,18064,23360,29346,35773,37921,41005,45241.0,51832,63639,65495.0,65280.0,73826.0,74107.0,80321.0,82291.0
2734,23649,US,77841,31.0922222222,-85.8383333333,,Census,US County,AL,"Geneva County, Alabama",0,0,0,0,0,0,0,0,2959,4342,10690,19096,26230,29315,30104.0,29172,25899,22310.0,21924.0,24253.0,23647.0,25764.0,26790.0
2833,7153,US,100800,31.6641666667,-85.4958333333,,Census,Town,AL,"Blue Springs, Alabama",0,0,0,0,0,0,0,0,0,0,0,0,117,162,164.0,167,111,94.0,137.0,112.0,108.0,121.0,96.0
2886,8864,US,105138,32.8172222222,-88.1577777778,,Census,Town,AL,"Gainesville, Alabama",0,0,0,0,0,0,1500,0,0,960,1017,817,532,355,329.0,283,319,214.0,255.0,207.0,449.0,220.0,208.0
2944,2570,US,12041398,33.559787,-86.975048,,Census,Community,AL,"Bayview, Alabama",0,0,0,0,0,0,0,0,0,0,0,0,0,0,0.0,0,1420,1081.0,0.0,0.0,0.0,0.0,0.0
2947,7191,US,104696,34.0572222222,-86.1033333333,,Census,Town,AL,"Ridgeville, Alabama",0,0,0,0,0,0,0,0,0,0,0,0,0,0,0.0,0,0,0.0,177.0,182.0,178.0,158.0,112.0
3019,3334,US,44936005,33.0547222222,-85.3308333333,,Census,Unincorporated community,AL,"Stroud, Alabama",0,0,0,0,0,0,0,0,0,0,285,0,0,442,396.0,125,79,0.0,0.0,0.0,0.0,0.0,0.0
3027,6192,US,104888,32.3488888889,-87.7783333333,,Census,Town,AL,"Providence, Alabama",0,0,0,0,0,0,0,0,0,0,0,0,0,0,0.0,0,0,0.0,252.0,363.0,307.0,311.0,223.0
3069,7122,US,104820,33.9327777778,-88.0202777778,,Census,Town,AL,"Beaverton, Alabama",0,0,0,0,0,0,0,0,0,0,0,0,0,0,164.0,231,192,162.0,265.0,360.0,319.0,226.0,201.0
3073,7819,US,104835,34.8727777778,-87.625,,Census,Town,AL,"St. Florian, Alabama",0,0,0,0,0,0,0,0,0,135,0,0,0,0,0.0,0,0,0.0,168.0,305.0,388.0,335.0,413.0
3106,6776,US,104608,31.3005555556,-86.3916666667,,Census,Town,AL,"Sanford, Alabama",0,0,0,0,0,0,0,0,0,0,0,0,742,0,0.0,0,0,247.0,256.0,250.0,282.0,269.0,241.0
3122,11957,US,105121,33.3044444444,-86.7847222222,,Census,City,AL,"Pelham, Alabama",0,0,0,0,0,0,0,0,0,0,0,0,0,0,0.0,0,0,0.0,931.0,6759.0,9765.0,14369.0,21352.0
3144,4151,US,44334804,34.9944444444,-86.9888888889,,Census,Unincorporated community,AL,"Veto, Alabama",0,0,0,0,0,0,0,0,0,69,0,0,0,0,0.0,0,0,0.0,0.0,0.0,0.0,0.0,0.0
3158,8130,US,28140558,31.1552777778,-88.01,,Census,Census-designated place,AL,"Calvert, Alabama",0,0,0,0,0,0,0,0,0,0,0,0,0,0,0.0,0,0,0.0,0.0,0.0,0.0,0.0,0.0
3191,4300,US,32491208,31.7305555556,-88.1975,,Census,,AL,"Bladon Springs, Alabama",0,0,0,0,0,0,0,0,0,573,440,0,0,0,0.0,0,0,0.0,0.0,0.0,0.0,0.0,0.0
3209,15556,US,104919,30.8252777778,-88.0919444444,,Census,City,AL,"Saraland, Alabama",0,0,0,0,0,0,0,0,0,0,0,0,0,0,0.0,0,0,4595.0,7840.0,9833.0,11751.0,12288.0,13405.0
3254,42034,US,100803,31.8891666667,-85.1536111111,,Census,City,AL,"Eufaula, Alabama",0,0,0,0,0,0,3000,0,3185,3836,4394,4532,4259,4939,5208.0,6269,6906,8357.0,9102.0,12097.0,13220.0,13908.0,13137.0
3255,53216,US,104883,32.5094444444,-87.8372222222,,Census,City,AL,"Demopolis, Alabama",0,0,0,0,0,0,812,473,1539,1389,1398,2606,2417,2779,4037.0,4137,5004,7377.0,7651.0,7678.0,7512.0,7540.0,7483.0
3267,7566,US,104635,31.3022222222,-85.4508333333,,Census,Town,AL,"Grimes, Alabama",0,0,0,0,0,0,0,0,0,0,0,0,0,0,0.0,0,0,0.0,191.0,298.0,443.0,459.0,558.0
3275,7615,US,104610,31.495,-86.3663888889,,Census,Town,AL,"Dozier, Alabama",0,0,0,0,0,0,0,0,0,0,0,0,288,237,377.0,399,362,335.0,304.0,494.0,483.0,391.0,329.0
3281,9013,US,104555,34.2325,-85.7705555556,,Census,Town,AL,"Sand Rock, Alabama",0,0,0,0,0,0,0,0,0,0,0,0,0,0,0.0,0,0,0.0,0.0,0.0,438.0,509.0,560.0
3310,24751,US,76926,32.9977777778,-87.1263888889,,Census,US County,AL,"Bibb County, Alabama",0,0,0,3676,6306,8284,9969,11894,7469,9487,13824,18498,22791,23144,20780.0,20155,17987,14357.0,13812.0,15723.0,16576.0,20826.0,22915.0
3316,21485,US,105119,33.105,-86.8627777778,,Census,City,AL,"Montevallo, Alabama",0,0,0,0,0,0,0,0,0,402,572,0,923,850,1245.0,1490,2150,2755.0,3719.0,3965.0,4239.0,4825.0,6323.0
3426,9287,US,105146,33.1827777778,-86.2644444444,,Census,Cdp,AL,"Mignon, Alabama",0,0,0,0,0,0,0,0,0,0,0,0,0,2028,2407.0,0,3053,2271.0,1726.0,2054.0,1548.0,1348.0,1284.0
3430,27425,US,76923,32.5366666667,-86.6483333333,,Census,US County,AL,"Autauga County, Alabama",0,0,0,3853,11874,14342,15023,16739,11623,13108,13330,17915,20038,18908,19694.0,20977,18186,18739.0,24460.0,32259.0,34222.0,43671.0,54571.0
3440,6436,US,104822,34.0258333333,-88.1716666667,,Census,Town,AL,"Detroit, Alabama",0,0,0,0,0,0,0,0,0,0,0,0,0,0,0.0,0,0,113.0,191.0,326.0,291.0,247.0,237.0
3458,6900,US,9651018,34.1908333333,-88.1472222222,,Census,Unincorporated community,AL,"Bexar, Alabama",0,0,0,0,0,0,0,0,0,37,0,0,0,0,0.0,0,0,0.0,0.0,0.0,0.0,0.0,0.0
3469,27824,US,104581,31.3275,-85.8444444444,,Census,City,AL,"Enterprise, Alabama",0,0,0,0,0,0,0,0,0,0,0,610,2322,3013,3702.0,4353,7288,11410.0,15591.0,18033.0,20123.0,21178.0,26562.0
3542,10330,US,104881,34.5875,-86.7363888889,,Census,Town,AL,"Triana, Alabama",0,0,0,0,0,0,0,0,0,146,0,0,0,0,0.0,0,0,0.0,228.0,285.0,499.0,458.0,496.0
3572,3711,US,32500093,32.1933333333,-88.3533333333,,Census,Unincorporated community,AL,"Pushmataha, Alabama",0,0,0,0,0,0,0,0,0,124,0,0,0,0,0.0,0,0,0.0,0.0,0.0,0.0,0.0,0.0
3593,7590,US,103742,33.7080555556,-85.8441666667,,Census,Census-designated place,AL,"Saks, Alabama",0,0,0,0,0,0,0,0,0,0,0,0,0,0,0.0,0,0,0.0,6609.0,11118.0,11138.0,10698.0,10744.0
3649,9509,US,104569,31.7611111111,-88.0888888889,,Census,Town,AL,"Coffeeville, Alabama",0,0,0,0,0,0,0,0,280,104,0,0,0,0,0.0,250,211,250.0,441.0,448.0,431.0,360.0,352.0
3675,13053,US,104833,34.8233333333,-87.2855555556,,Census,Town,AL,"Rogersville, Alabama",0,0,0,0,0,0,0,0,435,61,0,0,0,397,445.0,508,531,766.0,950.0,1224.0,1125.0,1199.0,1257.0
3694,5104,US,15238337,32.3858,-87.8981694444,,Census,Unincorporated community,AL,"Jefferson, Alabama",0,0,0,0,0,0,0,0,233,204,0,0,0,0,0.0,0,0,0.0,0.0,0.0,0.0,0.0,0.0
3700,3591,US,34953169,34.0325,-85.9252777778,,Census,Census-designated place,AL,"Tidmore Bend, Alabama",0,0,0,0,0,0,0,0,0,0,0,0,0,0,0.0,0,0,0.0,0.0,0.0,0.0,0.0,0.0
3790,9510,US,104675,32.4866666667,-86.1905555556,,Census,Census-designated place,AL,"Blue Ridge, Alabama",0,0,0,0,0,0,0,0,0,0,0,0,0,0,0.0,0,0,0.0,0.0,0.0,1151.0,1331.0,1341.0
3971,24429,US,81306,33.2891666667,-85.4602777778,,Census,US County,AL,"Randolph County, Alabama",0,0,0,0,0,4973,11581,20059,12006,16575,17219,21647,24659,27064,26861.0,25516,22513,19477.0,18331.0,20075.0,19881.0,22380.0,22913.0
3990,6961,US,104664,34.5694444444,-85.6383333333,,Census,Town,AL,"Hammondville, Alabama",0,0,0,0,0,0,0,0,0,0,0,0,0,0,0.0,93,94,134.0,221.0,369.0,420.0,486.0,488.0
4008,4086,US,23819027,33.905,-86.9625,,Census,Unincorporated community,AL,"Arkadelphia, Alabama",0,0,0,0,0,0,0,0,0,195,0,0,0,0,0.0,0,0,0.0,0.0,0.0,0.0,0.0,0.0
4023,7449,US,104823,33.5805555556,-87.9838888889,,Census,Town,AL,"Kennedy, Alabama",0,0,0,0,0,0,0,0,0,0,0,166,261,203,277.0,367,393,379.0,415.0,604.0,523.0,541.0,447.0
4086,3530,US,34688164,30.9955555556,-88.2375,,Census,Census-designated place,AL,"Gulfcrest, Alabama",0,0,0,0,0,0,0,0,0,0,0,0,0,0,0.0,0,0,0.0,0.0,0.0,0.0,0.0,0.0
4127,15158,US,105111,33.275,-86.3530555556,,Census,City,AL,"Childersburg, Alabama",0,0,0,0,0,0,0,0,0,0,777,372,449,418,459.0,515,4023,4884.0,4831.0,5084.0,4579.0,4927.0,5175.0
4159,12008,US,100805,32.94,-87.1747222222,,Census,City,AL,"Brent, Alabama",0,0,0,0,0,0,0,0,0,0,0,0,0,386,586.0,829,1100,1879.0,2093.0,2862.0,2776.0,4024.0,4947.0
4172,11338,US,104875,34.5380555556,-86.4122222222,,Census,City,AL,"New Hope, Alabama",0,0,0,0,0,0,0,0,0,146,0,208,301,315,446.0,0,0,953.0,1300.0,1546.0,2248.0,2539.0,2810.0
4276,7115,US,101163,34.1158333333,-86.3913888889,,Census,Town,AL,"Snead, Alabama",0,0,0,0,0,0,0,0,0,0,0,0,0,0,0.0,0,0,0.0,347.0,667.0,632.0,748.0,835.0
4378,5095,US,14940151,34.0052777778,-87.8563888889,,Census,Town,AL,"Twin, Alabama",0,0,0,0,0,0,0,0,0,0,0,0,0,0,0.0,0,0,0.0,0.0,0.0,0.0,0.0,399.0
4388,20627,US,105130,33.5708333333,-86.2738888889,,Census,City,AL,"Pell City, Alabama",0,0,0,0,0,0,0,0,0,0,0,98,530,825,835.0,900,1189,4165.0,5602.0,6616.0,8118.0,9565.0,12695.0
4508,19673,US,1309476,34.4747222222,-87.8663888889,,Census,Census-designated place,AL,"Belgreen, Alabama",0,0,0,0,0,0,0,0,0,81,0,0,0,0,0.0,0,0,0.0,0.0,0.0,0.0,0.0,129.0
4520,3428,US,3535492,34.4144444444,-87.0875,,Census,Unincorporated community,AL,"Danville, Alabama",0,0,0,0,0,0,0,0,0,117,0,0,0,0,0.0,0,0,0.0,0.0,0.0,0.0,0.0,0.0
4567,7083,US,104602,31.2438888889,-86.46,,Census,Town,AL,"Libertyville, Alabama",0,0,0,0,0,0,0,0,0,0,0,0,0,0,0.0,0,0,0.0,141.0,141.0,133.0,106.0,117.0
4590,8636,US,104739,31.1430555556,-85.0961111111,,Census,Town,AL,"Gordon, Alabama",0,0,0,0,0,0,0,0,0,150,0,356,293,319,299.0,327,275,222.0,312.0,362.0,493.0,408.0,332.0
4661,3612,US,20086864,32.5205555556,-87.0416666667,,Census,Unincorporated community,AL,"Summerfield, Alabama",0,0,0,0,0,0,0,0,0,0,383,0,0,0,0.0,0,0,0.0,0.0,0.0,0.0,0.0,0.0
4688,7358,US,105177,33.8230555556,-87.0861111111,,Census,Town,AL,"Sipsey, Alabama",0,0,0,0,0,0,0,0,0,0,0,0,0,0,0.0,0,0,0.0,608.0,678.0,568.0,552.0,437.0
4710,7187,US,104805,33.3669444444,-87.1013888889,,Census,Town,AL,"North Johns, Alabama",0,0,0,0,0,0,0,0,0,0,0,0,0,0,344.0,404,454,338.0,241.0,243.0,177.0,142.0,145.0
4718,3712,US,48411390,34.4177777778,-85.9869444444,,Census,Unincorporated community,AL,"Ten Broeck, Alabama",0,0,0,0,0,0,0,0,0,0,0,0,0,0,137.0,0,0,0.0,0.0,0.0,0.0,0.0,0.0
4740,7395,US,11616261,32.1288888889,-85.1769444444,,Census,Unincorporated community,AL,"Glenville, Alabama",0,0,0,0,0,0,900,0,0,99,282,0,0,0,0.0,0,0,0.0,0.0,0.0,0.0,0.0,0.0
4762,5614,US,1296040,33.6591666667,-85.7036111111,,Census,Census-designated place &amp; unincorporated community,AL,"Choccolocco, Alabama",0,0,0,0,0,0,0,0,0,0,601,0,0,0,0.0,0,0,0.0,0.0,0.0,0.0,0.0,2804.0
4776,9770,US,104671,34.4922222222,-85.8452777778,,Census,City,AL,"Rainsville, Alabama",0,0,0,0,0,0,0,0,0,0,0,0,0,0,0.0,0,0,398.0,2099.0,3907.0,3875.0,4499.0,4948.0
4777,6552,US,105186,31.9863888889,-87.5922222222,,Census,Town,AL,"Pine Hill, Alabama",0,0,0,0,0,0,0,0,0,0,0,0,470,375,433.0,418,408,367.0,697.0,510.0,481.0,966.0,975.0
4915,3514,US,34812744,31.0647222222,-88.0255555556,,Census,Census-designated place,AL,"Movico, Alabama",0,0,0,0,0,0,0,0,0,0,0,0,0,0,0.0,0,0,0.0,0.0,0.0,0.0,0.0,0.0
4960,7895,US,104713,31.1666666667,-85.9105555556,,Census,Town,AL,"Coffee Springs, Alabama",0,0,0,0,0,0,0,0,0,0,0,0,503,312,258.0,196,173,205.0,329.0,339.0,294.0,251.0,228.0
4970,9966,US,104550,34.2205555556,-85.5958333333,,Census,Town,AL,"Cedar Bluff, Alabama",0,0,0,0,0,0,0,0,0,85,194,0,0,418,0.0,0,563,687.0,956.0,1129.0,1174.0,1467.0,1820.0
5019,10423,US,104625,34.1086111111,-86.8669444444,,Census,City,AL,"Good Hope, Alabama",0,0,0,0,0,0,0,0,0,0,0,0,0,0,0.0,0,0,0.0,840.0,1442.0,1700.0,1966.0,2264.0
5028,25869,US,77872,31.5127777778,-85.2344444444,,Census,US County,AL,"Henry County, Alabama",0,0,0,2638,4020,5787,9019,14918,14191,18761,24847,36147,20943,21547,22820.0,21912,18674,15286.0,13254.0,15302.0,15374.0,16310.0,17302.0
5149,9044,US,104582,31.2205555556,-86.1708333333,,Census,Town,AL,"Kinston, Alabama",0,0,0,0,0,0,0,0,0,0,0,0,0,0,388.0,343,312,470.0,540.0,604.0,595.0,602.0,540.0
5179,10784,US,105087,33.2608333333,-88.0944444444,,Census,Town,AL,"Carrollton, Alabama",0,0,0,0,0,0,394,0,0,349,0,278,444,564,569.0,626,710,894.0,923.0,1104.0,1170.0,987.0,1019.0
5329,24795,US,77375,31.2419444444,-86.4525,,Census,US County,AL,"Covington County, Alabama",0,0,0,0,1522,2435,3645,6469,4868,5639,7536,15346,32124,38103,41356.0,42417,40373,35631.0,34079.0,36850.0,36478.0,37631.0,37765.0
5351,6597,US,12585382,31.7255555556,-86.7058333333,,Census,Unincorporated community,AL,"Bolling, Alabama",0,0,0,0,0,0,0,0,0,0,0,175,350,146,369.0,0,0,0.0,0.0,0.0,0.0,0.0,0.0
5388,5216,US,2759926,32.4391666667,-85.3641666667,,Census,Unincorporated community,AL,"Marvyn, Alabama",0,0,0,0,0,0,0,0,0,241,0,0,0,0,0.0,0,0,0.0,0.0,0.0,0.0,0.0,0.0
5481,8578,US,104627,34.1747222222,-86.6169444444,,Census,Town,AL,"Holly Pond, Alabama",0,0,0,0,0,0,0,0,0,0,0,144,0,168,224.0,226,182,193.0,325.0,493.0,602.0,645.0,798.0
5513,14179,US,104864,32.2730555556,-86.61,,Census,Town,AL,"Lowndesboro, Alabama",0,0,0,0,0,0,500,0,0,472,0,0,0,0,0.0,0,0,0.0,219.0,207.0,139.0,140.0,115.0
5604,11141,US,105080,34.4402777778,-86.9402777778,,Census,City,AL,"Hartselle, Alabama",0,0,0,0,0,0,0,0,0,226,596,670,1374,2009,2204.0,2584,3429,5000.0,7355.0,8858.0,10795.0,12019.0,14255.0
5630,6169,US,16324244,33.9994444444,-86.2452777778,,Census,Census-designated place,AL,"Gallant, Alabama",0,0,0,0,0,0,0,0,0,0,0,0,0,0,0.0,0,0,0.0,0.0,0.0,0.0,0.0,0.0
5740,14269,US,104845,32.6047222222,-85.5969444444,,Census,Town,AL,"Loachapoka, Alabama",0,0,0,0,0,0,0,0,0,408,357,0,0,0,360.0,0,0,0.0,192.0,335.0,259.0,165.0,180.0
5781,10382,US,104895,33.9730555556,-87.9166666667,,Census,City,AL,"Guin, Alabama",0,0,0,0,0,0,0,0,0,0,0,249,356,596,1099.0,1175,1137,1462.0,2220.0,2418.0,2464.0,2389.0,2376.0
5790,11857,US,105166,33.2538888889,-87.5922222222,,Census,City,AL,"Northport, Alabama",0,0,0,0,0,0,0,0,604,564,413,424,500,1606,2173.0,3187,3885,5245.0,9435.0,14291.0,17366.0,19435.0,23330.0
5832,14683,US,100801,31.8775,-85.4488888889,,Census,Town,AL,"Clayton, Alabama",0,0,0,0,0,0,400,0,0,761,997,998,1130,989,1717.0,1813,1583,1313.0,1626.0,1589.0,1564.0,1475.0,3008.0
5873,4880,US,16195538,31.0188111111,-88.0241861111,,Census,Census-designated place,AL,"Bucks, Alabama",0,0,0,0,0,0,0,0,0,0,0,0,0,0,0.0,0,0,0.0,0.0,0.0,0.0,0.0,0.0
5897,38546,US,104587,34.7508333333,-87.6502777778,,Census,City,AL,"Muscle Shoals, Alabama",0,0,0,0,0,0,0,0,0,0,0,0,0,0,719.0,1113,1937,4084.0,6907.0,8911.0,9611.0,11924.0,13156.0
5934,23944,US,104848,32.4708333333,-85.0027777778,,Census,City,AL,"Phenix City, Alabama",0,0,0,0,0,0,0,0,0,2224,3700,4163,4555,5432,13862.0,15351,23305,27630.0,25281.0,26928.0,25312.0,28265.0,32822.0
5950,9397,US,103737,33.6186111111,-85.8433333333,,Census,Town,AL,"Hobson City, Alabama",0,0,0,0,0,0,0,0,0,0,0,292,344,371,404.0,508,672,770.0,1124.0,1268.0,794.0,878.0,771.0
5953,3820,US,6893564,33.0186111111,-88.1919444444,,Census,Unincorporated community,AL,"Vienna, Alabama",0,0,0,0,0,0,0,0,0,0,0,74,79,0,0.0,0,0,0.0,0.0,0.0,0.0,0.0,0.0
6108,13255,US,105137,32.6902777778,-88.1241666667,,Census,Town,AL,"Epes, Alabama",0,0,0,0,0,0,0,0,0,53,0,331,374,722,362.0,328,342,337.0,293.0,399.0,267.0,206.0,192.0
6109,8815,US,105134,33.9402777778,-86.1994444444,,Census,Town,AL,"Steele, Alabama",0,0,0,0,0,0,0,0,0,98,0,0,0,0,0.0,0,0,625.0,798.0,795.0,1046.0,1093.0,1043.0
6117,4503,US,29600809,31.5825,-87.5858333333,,Census,Unincorporated community,AL,"Gosport, Alabama",0,0,0,0,0,0,500,0,0,0,0,0,0,0,0.0,0,0,0.0,0.0,0.0,0.0,0.0,0.0
6166,3610,US,34899749,31.2197222222,-88.1486111111,,Census,Census-designated place,AL,"Sims Chapel, Alabama",0,0,0,0,0,0,0,0,0,0,0,0,0,0,0.0,0,0,0.0,0.0,0.0,0.0,0.0,0.0
6351,14531,US,101167,32.14,-85.7127777778,,Census,City,AL,"Union Springs, Alabama",0,0,0,0,0,0,0,0,1455,1862,2049,2634,4055,4125,2875.0,3107,3232,3704.0,4324.0,4431.0,3975.0,3670.0,3980.0
6432,7357,US,105189,34.0813888889,-87.2105555556,,Census,Town,AL,"Arley, Alabama",0,0,0,0,0,0,0,0,0,0,0,0,0,0,0.0,0,0,0.0,164.0,276.0,338.0,290.0,357.0
6518,25795,US,77370,33.6772222222,-85.5025,,Census,US County,AL,"Cleburne County, Alabama",0,0,0,0,0,0,0,0,8017,10976,13218,13206,13385,13360,12877.0,13629,11904,10911.0,10996.0,12595.0,12730.0,14123.0,14972.0
6532,7220,US,105176,33.7325,-87.2791666667,,Census,Town,AL,"Parrish, Alabama",0,0,0,0,0,0,0,0,0,0,0,0,0,0,987.0,870,757,1608.0,1742.0,1583.0,1433.0,1268.0,982.0
6538,6172,US,34949091,33.4486111111,-86.48,,Census,Census-designated place,AL,"Sterrett, Alabama",0,0,0,0,0,0,0,0,0,0,0,0,0,0,0.0,0,0,0.0,0.0,0.0,0.0,0.0,0.0
6598,19550,US,104785,33.4683333333,-86.8080555556,,Census,City,AL,"Homewood, Alabama",0,0,0,0,0,0,0,0,0,0,0,0,0,0,6103.0,7397,12866,20289.0,21137.0,21412.0,22922.0,25043.0,25167.0
6624,4182,US,34658799,33.1455555556,-86.4058333333,,Census,Census-designated place,AL,"Fayetteville, Alabama",0,0,0,0,0,0,0,0,0,0,0,0,0,0,0.0,0,0,0.0,0.0,0.0,0.0,0.0,0.0
6686,7396,US,104695,34.0744444444,-86.0305555556,,Census,Town,AL,"Reece City, Alabama",0,0,0,0,0,0,0,0,0,0,0,0,0,0,0.0,0,0,470.0,496.0,718.0,657.0,634.0,653.0
6797,3849,US,4877508,33.4069444444,-86.7111111111,,Census,Unincorporated community,AL,"Inverness, Shelby County, Alabama",0,0,0,0,0,0,0,0,0,0,0,0,0,0,0.0,0,0,0.0,0.0,0.0,2528.0,0.0,0.0
6810,8576,US,104771,33.6391666667,-86.6802777778,,Census,City,AL,"Center Point, Alabama",0,0,0,0,0,0,0,0,0,0,0,0,0,0,0.0,0,0,0.0,15675.0,23317.0,22658.0,22784.0,16921.0
6992,109437,US,85427,33.6533333333,-86.8088888889,,Census,City,AL,"Birmingham, Alabama",0,0,0,0,0,0,0,0,0,3086,26178,38415,132685,178806,259678.0,267583,326037,340887.0,300910.0,284413.0,265968.0,242840.0,212237.0
7027,8880,US,104840,34.6380555556,-87.1883333333,,Census,Town,AL,"Hillsboro, Alabama",0,0,0,0,0,0,0,0,0,218,0,256,202,248,240.0,292,257,218.0,222.0,278.0,587.0,608.0,552.0
7035,6120,US,34899851,33.9727777778,-85.5538888889,,Census,Census-designated place,AL,"Spring Garden, Alabama",0,0,0,0,0,0,0,0,0,148,0,0,0,0,0.0,0,0,0.0,0.0,0.0,0.0,0.0,238.0
7069,2212,US,1642882,32.0602777778,-86.7013888889,,Census,Unincorporated community,AL,"Mount Willing, Alabama",0,0,0,0,0,0,0,0,0,0,231,0,0,0,0.0,0,0,0.0,0.0,0.0,0.0,0.0,0.0
7133,9256,US,104841,34.4822222222,-87.2855555556,,Census,City,AL,"Moulton, Alabama",0,0,0,0,0,0,0,0,0,0,0,290,354,519,639.0,752,1384,1716.0,2470.0,3197.0,3248.0,3260.0,3471.0
7139,9720,US,104811,33.7472222222,-87.0466666667,,Census,City,AL,"Sumiton, Alabama",0,0,0,0,0,0,0,0,0,0,0,0,0,0,0.0,0,1334,1287.0,2374.0,2815.0,2604.0,2665.0,2520.0
7177,23059,US,81303,31.7991666667,-85.9386111111,,Census,US County,AL,"Pike County, Alabama",0,0,0,0,7108,10108,15920,24435,17423,20640,24423,29172,30815,31631,32240.0,32493,30608,25987.0,25038.0,28050.0,27595.0,29605.0,32899.0
7201,6913,US,2721771,33.5240083333,-86.7780444444,,Census,Birmingham neighborhood,AL,Avondale (Birmingham),0,0,0,0,0,0,0,0,0,0,1642,3060,0,0,0.0,0,0,0.0,0.0,0.0,0.0,0.0,0.0
7294,12155,US,104893,34.2722222222,-87.7033333333,,Census,Town,AL,"Bear Creek, Alabama",0,0,0,0,0,0,0,0,0,0,0,0,214,222,208.0,243,223,243.0,336.0,353.0,913.0,1053.0,1070.0
7354,27616,US,77834,31.1266666667,-87.1622222222,,Census,US County,AL,"Escambia County, Alabama",0,0,0,0,0,0,0,0,4041,5719,8666,11320,18889,22464,27963.0,30671,31443,33511.0,34912.0,38440.0,35518.0,38440.0,38319.0
7355,14005,US,104767,33.6316666667,-86.9130555556,,Census,Town,AL,"Brookside, Alabama",0,0,0,0,0,0,0,0,0,0,380,658,623,666,466.0,714,733,999.0,990.0,1409.0,1365.0,1393.0,1363.0
7677,11201,US,104737,31.0536111111,-85.3022222222,,Census,Town,AL,"Cottonwood, Alabama",0,0,0,0,0,0,0,0,0,0,0,0,352,293,410.0,600,864,953.0,1149.0,1352.0,1385.0,1170.0,1289.0
7689,23615,US,76932,32.0977777778,-85.7172222222,,Census,US County,AL,"Bullock County, Alabama",0,0,0,0,0,0,0,0,24474,29066,27063,31944,30196,25333,20016.0,19810,16054,13462.0,11824.0,10596.0,11042.0,11714.0,10914.0
7811,4698,US,36470204,34.0277777778,-85.4952777778,,Census,Unincorporated community,AL,"Rock Run, Alabama",0,0,0,0,0,0,0,0,0,0,360,0,0,0,0.0,0,0,0.0,0.0,0.0,0.0,0.0,0.0
7880,9514,US,104873,34.8691666667,-86.5783333333,,Census,Census-designated place (cdp) &amp; unincorporated community,AL,"Meridianville, Alabama",0,0,0,0,0,0,0,0,0,105,0,0,0,0,0.0,0,0,0.0,0.0,1403.0,2852.0,4117.0,6021.0
7886,7946,US,104663,34.3536111111,-86.0038888889,,Census,Town,AL,"Geraldine, Alabama",0,0,0,0,0,0,0,0,0,0,0,0,0,0,0.0,0,0,340.0,610.0,911.0,801.0,786.0,896.0
7956,6441,US,104768,33.4591666667,-86.7319444444,,Census,Neighborhood,AL,"Cahaba Heights, Vestavia Hills",0,0,0,0,0,0,0,0,0,0,0,0,0,0,0.0,0,0,0.0,0.0,0.0,4778.0,5203.0,0.0
7959,22115,US,104909,30.2563888889,-88.1252777778,,Census,Town,AL,"Dauphin Island, Alabama",0,0,0,0,0,0,0,0,0,0,0,0,0,0,0.0,0,0,0.0,0.0,0.0,824.0,1371.0,1238.0
8136,4174,US,34656531,32.4480555556,-86.0941666667,,Census,Census-designated place,AL,"Emerald Mountain, Alabama",0,0,0,0,0,0,0,0,0,0,0,0,0,0,0.0,0,0,0.0,0.0,0.0,0.0,0.0,0.0
8148,6878,US,105081,34.5211111111,-86.8797222222,,Census,City,AL,"Priceville, Alabama",0,0,0,0,0,0,0,0,0,0,0,0,0,0,0.0,0,0,0.0,0.0,966.0,1323.0,1631.0,2658.0
8154,18136,US,104573,31.9113888889,-87.74,,Census,City,AL,"Thomasville, Alabama",0,0,0,0,0,0,0,0,0,0,291,686,1181,1002,1504.0,2000,2425,3182.0,3769.0,4387.0,4301.0,4649.0,4209.0
8212,9893,US,104676,32.5041666667,-86.3338888889,,Census,Town,AL,"Coosada, Alabama",0,0,0,0,0,0,0,0,0,45,0,0,0,0,0.0,0,0,0.0,240.0,980.0,912.0,1382.0,1224.0
8248,11132,US,104665,34.6336111111,-85.7430555556,,Census,City,AL,"Henagar, Alabama",0,0,0,0,0,0,0,0,0,0,0,0,0,0,0.0,0,0,0.0,812.0,1188.0,1934.0,2400.0,2344.0
8283,5074,US,20017131,31.5047222222,-87.9847222222,,Census,Census-designated place,AL,"Leroy, Alabama",0,0,0,0,0,0,0,0,0,0,0,0,0,0,0.0,0,0,0.0,0.0,0.0,0.0,0.0,0.0
8397,16730,US,6687793,30.315,-87.7288888889,,Census,Unincorporated community,AL,"Bon Secour, Alabama",0,0,0,0,0,0,0,0,0,0,0,0,0,0,0.0,0,0,0.0,0.0,0.0,0.0,0.0,0.0
8409,12627,US,105140,32.5872222222,-88.1880555556,,Census,City,AL,"Livingston, Alabama",0,0,0,0,0,0,0,0,500,738,850,851,877,968,1072.0,1170,1681,1544.0,2358.0,3187.0,3530.0,3297.0,3485.0
8459,33782,US,80796,30.7863888889,-88.2138888889,,Census,US County,AL,"Mobile County, Alabama",0,0,0,2672,6267,18741,27600,41131,49311,48653,51587,62740,80854,100117,118363.0,141974,231105,314301.0,317308.0,364980.0,378643.0,399843.0,412992.0
8468,10527,US,104551,34.1591666667,-85.6747222222,,Census,City,AL,"Centre, Alabama",0,0,0,0,0,0,250,0,0,144,347,282,0,0,0.0,1012,1672,2392.0,2418.0,2351.0,2893.0,3216.0,3489.0
8531,46264,US,100580,32.4163888889,-87.0247222222,,Census,City,AL,"Selma, Alabama",0,0,0,0,401,1199,3073,3177,6484,7529,7622,8713,13649,15589,18012.0,19834,22840,28385.0,27379.0,26684.0,23755.0,20512.0,20756.0
8599,8880,US,105110,33.3291666667,-86.6508333333,,Census,City,AL,"Chelsea, Alabama",0,0,0,0,0,0,0,0,0,0,0,0,0,0,0.0,0,0,0.0,0.0,0.0,1329.0,2949.0,10183.0
8658,3475,US,20588849,32.0815305556,-87.6288888889,,Census,Unincorporated community,AL,"Hampden, Alabama",0,0,0,0,0,0,0,0,40,0,0,0,0,0,0.0,0,0,0.0,0.0,0.0,0.0,0.0,0.0
8665,8500,US,104554,34.1825,-85.7688888889,,Census,Town,AL,"Leesburg, Alabama",0,0,0,0,0,0,0,0,0,0,0,0,0,0,0.0,0,0,0.0,98.0,116.0,218.0,799.0,1027.0
8696,7163,US,104616,31.7330555556,-86.3097222222,,Census,Town,AL,"Rutledge, Alabama",0,0,0,0,0,0,0,0,0,215,314,346,230,155,215.0,289,370,276.0,353.0,496.0,473.0,476.0,467.0
8742,7392,US,104720,31.1086111111,-85.5944444444,,Census,City,AL,"Slocomb, Alabama",0,0,0,0,0,0,0,0,0,0,0,0,896,581,964.0,1041,1219,1368.0,1883.0,2153.0,1906.0,2052.0,1980.0
8838,20509,US,105150,33.4347222222,-86.1013888889,,Census,City,AL,"Talladega, Alabama",0,0,0,0,0,0,1320,0,1933,1233,2063,5056,5854,6546,7596.0,9298,13134,17742.0,17662.0,19128.0,18175.0,15143.0,15676.0
8845,6247,US,104819,33.6497222222,-87.0711111111,,Census,Town,AL,"West Jefferson, Alabama",0,0,0,0,0,0,0,0,0,0,0,0,0,0,0.0,0,0,0.0,233.0,357.0,388.0,344.0,338.0
8862,29517,US,81322,31.4091666667,-88.2113888889,,Census,US County,AL,"Washington County, Alabama",0,1250,2920,4118,3474,5300,2713,4669,3912,4538,7935,11134,14454,14279,16365.0,16188,15612,15372.0,16241.0,16821.0,16694.0,18097.0,17581.0
8867,10350,US,104548,32.8113888889,-85.1780555556,,Census,City,AL,"Valley, Alabama",0,0,0,0,0,0,0,0,0,0,0,0,0,0,0.0,0,0,0.0,0.0,0.0,8173.0,9198.0,9524.0
8889,14796,US,104759,34.8694444444,-85.8319444444,,Census,City,AL,"Stevenson, Alabama",0,0,0,0,0,0,0,0,0,241,586,560,574,640,733.0,793,927,1456.0,2390.0,2568.0,2046.0,1770.0,12.0
8960,20867,US,77842,32.8522222222,-87.9508333333,,Census,US County,AL,"Greene County, Alabama",0,0,0,4554,15026,24024,31441,30859,18399,21931,22007,24182,22717,18133,19745.0,19185,16482,13600.0,10650.0,11021.0,10153.0,9974.0,9045.0
8978,3937,US,33601135,34.1091666667,-86.2411111111,,Census,Census-designated place,AL,"Bristow Cove, Alabama",0,0,0,0,0,0,0,0,0,0,0,0,0,0,0.0,0,0,0.0,0.0,0.0,0.0,0.0,0.0
9035,5417,US,13729712,30.9938888889,-87.8580555556,,Census,Unincorporated community,AL,"Stockton, Alabama",0,0,0,0,0,0,0,0,0,0,0,0,0,0,0.0,0,0,0.0,0.0,0.0,0.0,0.0,0.0
9043,14467,US,104560,32.9169444444,-86.7158333333,,Census,Town,AL,"Thorsby, Alabama",0,0,0,0,0,0,0,0,0,0,0,0,426,513,771.0,772,828,968.0,944.0,1422.0,1465.0,1820.0,1980.0
9138,8163,US,104760,34.6266666667,-86.2747222222,,Census,Town,AL,"Woodville, Alabama",0,0,0,0,0,0,0,0,0,221,0,0,0,191,196.0,183,165,196.0,322.0,609.0,687.0,761.0,746.0
9152,17423,US,104730,31.5663888889,-85.2513888889,,Census,City,AL,"Abbeville, Alabama",0,0,0,0,0,0,300,0,0,0,465,889,1141,1267,2047.0,2080,2162,2524.0,2996.0,3155.0,3173.0,2987.0,2688.0
9233,3648,US,34746136,34.1158333333,-85.9655555556,,Census,Census-designated place,AL,"Lookout Mountain, Alabama",0,0,0,0,0,0,0,0,0,0,0,0,0,0,0.0,0,0,0.0,0.0,0.0,0.0,0.0,0.0
9263,7586,US,104900,34.1713888889,-86.3197222222,,Census,Town,AL,"Douglas, Alabama",0,0,0,0,0,0,0,0,0,0,0,0,0,0,0.0,0,0,0.0,201.0,199.0,474.0,530.0,744.0
9270,10560,US,105104,33.3086111111,-85.4855555556,,Census,Town,AL,"Wedowee, Alabama",0,0,0,0,0,0,0,0,130,0,0,0,435,510,396.0,525,559,917.0,842.0,908.0,796.0,818.0,823.0
9384,13954,US,104688,34.0097222222,-86.0983333333,,Census,City,AL,"Attalla, Alabama",0,0,0,0,0,0,0,0,0,351,1254,1692,2513,3462,4585.0,4885,7537,8257.0,7510.0,7737.0,6859.0,6592.0,6048.0
9411,22933,US,81318,32.8613888889,-85.7972222222,,Census,US County,AL,"Tallapoosa County, Alabama",0,0,0,0,0,6444,15584,23827,16963,23401,25460,29675,31034,29744,31188.0,35270,35074,35007.0,33840.0,38766.0,38826.0,41475.0,41616.0
9417,6373,US,105090,33.4025,-88.2397222222,,Census,Census-designated place,AL,"Macedonia, Alabama",0,0,0,0,0,0,0,0,0,0,0,0,0,0,0.0,0,0,0.0,0.0,0.0,0.0,291.0,292.0
9426,11865,US,104668,34.5722222222,-85.5802777778,,Census,Town,AL,"Mentone, Alabama",0,0,0,0,0,0,0,0,0,0,0,0,0,0,0.0,154,241,250.0,407.0,476.0,474.0,451.0,360.0
9428,8205,US,105105,33.3736111111,-85.3958333333,,Census,Town,AL,"Woodland, Alabama",0,0,0,0,0,0,0,0,0,0,0,0,0,0,0.0,0,0,0.0,177.0,192.0,189.0,192.0,184.0
9454,7083,US,104565,32.2036111111,-88.0525,,Census,Town,AL,"Pennington, Alabama",0,0,0,0,0,0,0,0,0,0,0,0,0,0,0.0,0,0,0.0,301.0,355.0,302.0,353.0,221.0
9460,27411,US,104786,33.3863888889,-86.805,,Census,City,AL,"Hoover, Alabama",0,0,0,0,0,0,0,0,0,0,0,0,0,0,0.0,0,0,0.0,688.0,18996.0,39788.0,62742.0,81619.0
9467,9214,US,104717,31.1438888889,-85.5233333333,,Census,Town,AL,"Malvern, Alabama",0,0,0,0,0,0,0,0,0,0,0,0,173,221,207.0,190,196,213.0,227.0,558.0,570.0,1215.0,1448.0
9496,3619,US,34953486,34.1633333333,-86.0694444444,,Census,Census-designated place,AL,"Whitesboro, Alabama",0,0,0,0,0,0,0,0,0,0,0,0,0,0,0.0,0,0,0.0,0.0,0.0,0.0,0.0,0.0
9556,7760,US,105124,33.0816666667,-86.8794444444,,Census,Town,AL,"Wilton, Alabama",0,0,0,0,0,0,0,0,0,0,0,0,0,522,562.0,422,413,428.0,573.0,642.0,602.0,580.0,687.0
9572,10594,US,104716,31.1036111111,-85.6944444444,,Census,City,AL,"Hartford, Alabama",0,0,0,0,0,0,0,0,0,0,0,382,1159,1561,1419.0,1494,1655,1956.0,2648.0,2647.0,2448.0,2369.0,2624.0
9581,13247,US,103738,33.8158333333,-85.7605555556,,Census,City,AL,"Jacksonville, Alabama",0,0,0,0,0,0,716,703,958,882,1237,1176,2231,2395,2840.0,2995,4751,5678.0,7715.0,9735.0,10283.0,8404.0,12548.0
9584,13194,US,104653,31.4480555556,-85.6419444444,,Census,City,AL,"Ozark, Alabama",0,0,0,0,0,0,0,0,0,512,1195,1570,2229,2518,3103.0,3601,5238,9534.0,13555.0,13188.0,12922.0,15119.0,14907.0
9657,10631,US,104679,32.5422222222,-86.3152777778,,Census,Town,AL,"Elmore, Alabama",0,0,0,0,0,0,0,0,0,106,0,0,0,0,0.0,0,0,0.0,0.0,0.0,0.0,199.0,1262.0
9665,12293,US,104806,33.6861111111,-86.6816666667,,Census,City,AL,"Pinson, Alabama",0,0,0,0,0,0,0,0,0,0,0,0,0,0,0.0,0,0,0.0,0.0,0.0,10987.0,5033.0,7163.0
9733,8555,US,30483935,31.54016,-87.51554,,Census,,AL,"Claiborne, Alabama",0,0,0,0,0,0,0,0,0,199,0,0,0,0,0.0,0,0,0.0,0.0,0.0,0.0,0.0,0.0
9795,25267,US,77873,31.1522222222,-85.2933333333,,Census,US County,AL,"Houston County, Alabama",0,0,0,0,0,0,0,0,0,0,0,0,32414,37334,45935.0,45665,46522,50718.0,56574.0,74632.0,81331.0,88787.0,101547.0
9828,2779,US,48876026,34.4688888889,-87.4008333333,,Census,Unincorporated community,AL,"Landersville, Alabama",0,0,0,0,0,0,0,0,0,67,0,0,0,0,0.0,0,0,0.0,0.0,0.0,0.0,0.0,0.0
9877,12345,US,99893,30.2913888889,-87.5619444444,,Census,City,AL,"Orange Beach, Alabama",0,0,0,0,0,0,0,0,0,0,0,0,0,0,0.0,0,0,0.0,0.0,0.0,2253.0,3784.0,5441.0
9878,4723,US,34952881,31.3622222222,-88.2486111111,,Census,Census-designated place,AL,"Tibbie, Alabama",0,0,0,0,0,0,0,0,0,0,0,0,0,0,0.0,0,0,0.0,0.0,0.0,0.0,0.0,0.0
9889,16338,US,5869904,31.2855555556,-88.4191666667,,Census,Unknown,AL,"Semmes, Alabama",0,0,0,0,0,0,0,0,0,0,0,0,0,0,0.0,0,0,0.0,0.0,0.0,0.0,0.0,0.0
9899,11848,US,105154,32.7991666667,-85.6527777778,,Census,Town,AL,"Camp Hill, Alabama",0,0,0,0,0,0,0,0,0,0,366,686,896,952,1131.0,1147,1296,1270.0,1554.0,1628.0,1415.0,1273.0,1014.0
9914,7581,US,105157,33.0836111111,-85.7841666667,,Census,Town,AL,"Goldville, Alabama",0,0,0,0,0,0,0,0,0,0,0,0,0,0,0.0,0,0,0.0,34.0,89.0,61.0,37.0,55.0
9925,9725,US,104801,33.6841666667,-86.875,,Census,Census-designated place (cdp) &amp; unincorporated community,AL,"Mount Olive, Jefferson County, Alabama",0,0,0,0,0,0,0,0,0,0,0,0,0,0,0.0,0,0,0.0,0.0,0.0,0.0,3957.0,4079.0
9951,7445,US,104788,33.5319444444,-86.6869444444,,Census,City,AL,"Irondale, Alabama",0,0,0,0,0,0,0,0,0,0,0,525,572,809,1517.0,1486,1876,3501.0,3166.0,6510.0,9454.0,9813.0,12349.0
9998,8034,US,105128,33.5925,-86.4963888889,,Census,City,AL,"Moody, Alabama",0,0,0,0,0,0,0,0,0,0,0,0,0,0,0.0,0,0,0.0,504.0,1840.0,4921.0,8053.0,11726.0
10040,14542,US,104706,33.9283333333,-87.8080555556,,Census,City,AL,"Winfield, Alabama",0,0,0,0,0,0,0,0,0,0,0,316,419,753,1254.0,1662,2108,2907.0,3292.0,3781.0,3689.0,4540.0,4717.0
10078,8098,US,104769,33.6452777778,-86.9327777778,,Census,Town,AL,"Cardiff, Alabama",0,0,0,0,0,0,0,0,0,0,203,562,426,463,146.0,246,204,202.0,127.0,140.0,72.0,82.0,55.0
10237,5317,US,48912963,31.0491666667,-86.6183333333,,Census,Unincorporated community,AL,"Falco, Alabama",0,0,0,0,0,0,0,0,0,0,0,0,0,592,96.0,80,0,0.0,0.0,0.0,0.0,0.0,0.0
10276,8701,US,105089,33.3213888889,-87.9036111111,,Census,Town,AL,"Gordo, Alabama",0,0,0,0,0,0,0,0,0,0,0,0,707,642,811.0,934,952,1714.0,1991.0,2112.0,1918.0,1677.0,1750.0
10312,6230,US,14705411,32.2975,-85.1688888889,,Census,Unincorporated community,AL,"Seale, Alabama",0,0,0,0,0,0,0,0,0,257,299,386,312,316,335.0,289,343,0.0,0.0,0.0,0.0,0.0,0.0
10351,26908,US,77366,34.1491666667,-87.3747222222,,Census,US County,AL,"Winston County, Alabama",0,0,0,0,0,0,1542,3576,4155,4253,6552,9554,12855,14378,15596.0,18746,18250,14858.0,16654.0,21953.0,22053.0,24843.0,24484.0
10379,34254,US,80780,34.803,-86.967,,Census,US County,AL,"Limestone County, Alabama",0,0,0,9871,14807,14374,16483,15306,15017,21600,21201,22387,26880,31341,36629.0,35642,35766,36513.0,41699.0,46005.0,54135.0,65676.0,82782.0
10498,18284,US,104816,33.6216666667,-86.5963888889,,Census,City,AL,"Trussville, Alabama",0,0,0,0,0,0,0,0,0,0,462,742,0,0,0.0,0,1575,2510.0,2985.0,3507.0,8266.0,12924.0,19933.0
10599,9838,US,105094,33.3808333333,-88.015,,Census,City,AL,"Reform, Alabama",0,0,0,0,0,0,0,0,0,0,0,198,550,1069,898.0,885,1141,1241.0,1893.0,2245.0,2105.0,1978.0,1702.0
10604,13537,US,104734,31.1838888889,-85.2352777778,,Census,Town,AL,"Ashford, Alabama",0,0,0,0,0,0,0,0,0,0,0,286,479,754,920.0,1224,1400,1511.0,1980.0,2165.0,1926.0,1853.0,2148.0
10662,3329,US,38265302,34.4583333333,-87.4816666667,,Census,Unincorporated community,AL,"Mount Hope, Lawrence County, Alabama",0,0,0,0,0,0,0,0,0,94,0,0,0,0,0.0,0,0,0.0,0.0,0.0,0.0,0.0,0.0
10681,14011,US,104871,34.8527777778,-86.7477777778,,Census,Census-designated place (cdp) &amp; unincorporated community,AL,"Harvest, Alabama",0,0,0,0,0,0,0,0,0,0,0,0,0,0,0.0,0,0,0.0,0.0,0.0,1922.0,3054.0,5281.0
10704,10133,US,104714,31.0386111111,-85.8452777778,,Census,Census-designated place,AL,"Eunola, Alabama",0,0,0,0,0,0,0,0,0,0,0,132,0,0,0.0,113,112,124.0,141.0,169.0,199.0,182.0,243.0
10733,14307,US,104777,33.4766666667,-86.9166666667,,Census,City,AL,"Fairfield, Alabama",0,0,0,0,0,0,0,0,0,0,0,0,0,5003,11059.0,11703,13177,15816.0,14369.0,13242.0,12200.0,12381.0,11117.0
10750,4827,US,3114496,30.4130555556,-87.4369444444,,Census,Unincorporated community,AL,"Lillian, Alabama",0,0,0,0,0,0,0,0,0,0,0,0,0,0,0.0,0,0,0.0,0.0,0.0,0.0,0.0,0.0
10792,10659,US,104547,32.8633333333,-85.1997222222,,Census,City,AL,"Lanett, Alabama",0,0,0,0,0,0,0,0,0,655,777,2909,3820,4976,5204.0,6141,7434,7674.0,6908.0,8922.0,8985.0,7897.0,6468.0
10811,26480,US,104765,33.3911111111,-86.9563888889,,Census,City,AL,"Bessemer, Alabama",0,0,0,0,0,0,0,0,0,0,4544,6358,10864,18674,20721.0,22826,28445,33054.0,33663.0,31729.0,33497.0,29672.0,27456.0
10850,9092,US,105082,34.47,-86.7988888889,,Census,Town,AL,"Somerville, Alabama",0,0,0,0,0,0,217,0,115,209,0,0,0,0,0.0,0,0,166.0,185.0,140.0,211.0,347.0,724.0
10860,17129,US,104745,34.9472222222,-85.7138888889,,Census,City,AL,"Bridgeport, Alabama",0,0,0,0,0,0,0,0,0,0,0,1247,2125,2018,2124.0,2031,2386,2906.0,2908.0,2974.0,2936.0,2728.0,2418.0
10911,6719,US,105171,33.9197222222,-87.6211111111,,Census,Town,AL,"Eldridge, Alabama",0,0,0,0,0,0,0,0,0,0,0,0,0,0,0.0,0,0,0.0,249.0,230.0,225.0,184.0,130.0
11011,3960,US,19225525,32.2166666667,-85.8888888889,,Census,Census-designated place (cdp),AL,"Fitzpatrick, Alabama",0,0,0,0,0,0,0,0,0,0,357,447,398,339,0.0,0,0,0.0,0.0,0.0,0.0,0.0,83.0
11076,10930,US,100810,33.1186111111,-87.1227777778,,Census,Town,AL,"West Blocton, Alabama",0,0,0,0,0,0,0,0,0,0,0,0,892,1023,1070.0,1317,1280,1156.0,1172.0,1147.0,1468.0,1372.0,1240.0
11088,4118,US,46522043,34.2155555556,-85.6838888889,,Census,Unincorporated community,AL,"Round Mountain, Alabama",0,0,0,0,0,0,0,0,0,0,0,0,210,0,0.0,0,0,0.0,0.0,0.0,0.0,0.0,0.0
11094,5179,US,21443847,32.7505555556,-85.4363888889,,Census,,AL,"Oak Bowery, Alabama",0,0,0,0,0,0,0,0,0,120,0,0,0,0,0.0,0,0,0.0,0.0,0.0,0.0,0.0,0.0
11108,8631,US,104892,32.2694444444,-87.625,,Census,Town,AL,"Thomaston, Alabama",0,0,0,0,0,0,0,0,0,0,0,0,309,372,377.0,345,1027,857.0,824.0,679.0,497.0,383.0,417.0
11130,7097,US,104596,31.3002777778,-86.3191666667,,Census,Town,AL,"Babbie, Alabama",0,0,0,0,0,0,0,0,0,0,0,0,0,0,0.0,0,0,60.0,82.0,553.0,576.0,627.0,603.0
11335,27597,US,77857,34.7833333333,-86.0,,Census,US County,AL,"Jackson County, Alabama",0,0,0,8751,12700,15715,14088,18283,19410,25114,28026,30508,32918,35864,36881.0,41802,38998,36681.0,39202.0,51407.0,47796.0,53926.0,53227.0
11336,4041,US,34655012,34.1830555556,-86.7936111111,,Census,Census-designated place,AL,"East Point, Alabama",0,0,0,0,0,0,0,0,0,0,0,0,0,0,0.0,0,0,0.0,0.0,0.0,0.0,0.0,0.0
11438,4464,US,34881097,32.6036111111,-85.8052777778,,Census,Census-designated place,AL,"Reeltown, Alabama",0,0,0,0,0,0,0,0,0,0,0,0,0,0,0.0,0,0,0.0,0.0,0.0,0.0,0.0,0.0
11452,162945,US,20952,30.6944444444,-88.0430555556,"[[y1785,746],[y1788,1468],[y2016,192904]]", USA,City,AL,"Mobile, Alabama",0,0,0,1500,3194,12672,20515,29258,32034,29132,31076,38469,51521,60777,68202.0,78720,129009,202779.0,190026.0,200452.0,196278.0,198915.0,195111.0
11480,21495,US,81299,32.6358333333,-87.2919444444,,Census,US County,AL,"Perry County, Alabama",0,0,0,3646,11490,19086,22285,27724,24975,30741,29332,31783,31222,25373,26385.0,26610,20439,17358.0,15388.0,15012.0,12759.0,11861.0,10591.0
11498,29975,US,104851,34.7897222222,-86.9694444444,,Census,City,AL,"Athens, Alabama",0,0,0,0,0,0,991,0,887,1011,940,1010,1715,3323,4238.0,4342,6309,9330.0,14360.0,14558.0,16901.0,18967.0,21897.0
11629,4956,US,15264666,31.343,-87.845,,Census,Census-designated place,AL,"Carlton, Alabama",0,0,0,0,0,0,0,0,0,0,0,0,0,0,0.0,0,0,0.0,0.0,0.0,0.0,0.0,0.0
11652,11565,US,99888,30.4144444444,-87.5983333333,,Census,Town,AL,"Elberta, Alabama",0,0,0,0,0,0,0,0,0,0,0,0,0,0,0.0,0,0,384.0,395.0,491.0,458.0,552.0,1498.0
11716,8969,US,104901,34.5027777778,-86.2552777778,,Census,Town,AL,"Grant, Alabama",0,0,0,0,0,0,0,0,0,0,0,0,0,0,0.0,0,191,274.0,382.0,632.0,638.0,665.0,896.0
11801,28124,US,77384,31.4333333333,-85.6,,Census,US County,AL,"Dale County, Alabama",0,0,0,0,2031,7397,6382,12197,11325,12677,17225,21189,21608,22711,23175.0,22685,20828,31066.0,52995.0,47821.0,49633.0,49129.0,50251.0
12003,6889,US,104614,31.8502777778,-86.2072222222,,Census,Town,AL,"Petrey, Alabama",0,0,0,0,0,0,0,0,0,0,0,0,0,165,168.0,258,171,165.0,122.0,93.0,80.0,63.0,58.0
12071,10646,US,105141,32.4933333333,-88.2977777778,,Census,City,AL,"York, Alabama",0,0,0,0,0,0,0,0,0,232,415,528,710,1651,1796.0,1783,1774,2932.0,3044.0,3392.0,3160.0,2854.0,2538.0
12105,3751,US,34658638,31.1683333333,-88.0641666667,,Census,Census-designated place,AL,"Fairford, Alabama",0,0,0,0,0,0,0,0,0,0,0,0,0,0,0.0,0,0,0.0,0.0,0.0,0.0,0.0,0.0
12116,10562,US,104782,33.6269444444,-86.9622222222,,Census,City,AL,"Graysville, Alabama",0,0,0,0,0,0,0,0,0,0,0,319,428,0,244.0,0,879,2870.0,3182.0,2642.0,2241.0,2344.0,2165.0
12134,13467,US,104715,31.0380555556,-85.8766666667,,Census,City,AL,"Geneva, Alabama",0,0,0,0,0,0,0,0,126,0,637,1032,969,1581,1593.0,2803,3579,3840.0,4398.0,4866.0,4681.0,4388.0,4452.0
12150,7218,US,104566,31.7716666667,-88.3311111111,,Census,Town,AL,"Silas, Alabama",0,0,0,0,0,0,0,0,0,0,0,0,0,0,0.0,0,383,353.0,345.0,343.0,245.0,529.0,452.0
12153,14601,US,104613,31.7144444444,-86.2633333333,,Census,City,AL,"Luverne, Alabama",0,0,0,0,0,0,0,0,0,0,451,731,1384,1464,1874.0,2243,2221,2238.0,2440.0,2639.0,2555.0,2635.0,2800.0
12176,10179,US,104630,31.5980555556,-85.7186111111,,Census,Town,AL,"Ariton, Alabama",0,0,0,0,0,0,0,0,0,0,0,0,431,625,611.0,561,620,687.0,643.0,844.0,743.0,772.0,764.0
12198,7081,US,104687,31.0586111111,-87.0566666667,,Census,Town,AL,"Riverview, Alabama",0,0,0,0,0,0,0,0,0,0,0,0,0,0,0.0,0,0,0.0,110.0,132.0,90.0,99.0,184.0
12251,10108,US,104674,34.5652777778,-85.6163888889,,Census,Town,AL,"Valley Head, Alabama",0,0,0,0,0,0,0,0,0,0,233,0,0,0,430.0,439,418,424.0,470.0,609.0,577.0,611.0,558.0
12299,4844,US,28142172,30.8233333333,-88.3613888889,,Census,Unincorporated community,AL,"Wilmer, Alabama",0,0,0,0,0,0,0,0,0,0,0,0,0,0,0.0,0,0,0.0,426.0,581.0,494.0,0.0,0.0
12344,9897,US,104800,33.7475,-86.8069444444,,Census,Town,AL,"Morris, Alabama",0,0,0,0,0,0,0,0,0,0,156,187,299,0,0.0,0,0,638.0,519.0,623.0,1136.0,1827.0,1859.0
12376,6561,US,104567,31.9136111111,-88.3083333333,,Census,Town,AL,"Toxey, Alabama",0,0,0,0,0,0,0,0,0,0,0,0,0,0,0.0,0,251,157.0,304.0,265.0,211.0,152.0,137.0
12381,22826,US,77377,31.7280555556,-86.31,,Census,US County,AL,"Crenshaw County, Alabama",0,0,0,0,0,0,0,0,11156,11726,15425,19668,23313,23017,23656.0,23631,18981,14909.0,13188.0,14110.0,13635.0,13665.0,13906.0
12382,7734,US,104605,31.2830555556,-86.2547222222,,Census,City,AL,"Opp, Alabama",0,0,0,0,0,0,0,0,0,0,0,0,863,1556,2918.0,3178,5240,5535.0,6493.0,7204.0,6985.0,6607.0,6659.0
12397,9543,US,104631,31.2375,-85.7125,,Census,Town,AL,"Clayhatchee, Alabama",0,0,0,0,0,0,0,0,0,0,0,0,0,0,0.0,0,0,0.0,505.0,560.0,411.0,501.0,589.0
12411,11987,US,99897,30.6686111111,-87.9222222222,,Census,City,AL,"Spanish Fort, Alabama",0,0,0,0,0,0,0,0,0,0,0,0,0,0,0.0,0,0,0.0,2364.0,3415.0,3732.0,5423.0,6798.0
12504,15116,US,105172,33.8422222222,-87.2772222222,,Census,City,AL,"Jasper, Alabama",0,0,0,0,0,0,0,0,0,269,780,1661,2509,3246,5313.0,6847,8589,10799.0,10798.0,11894.0,13553.0,14052.0,14352.0
12527,14902,US,104905,30.7647222222,-88.0836111111,,Census,City,AL,"Chickasaw, Alabama",0,0,0,0,0,0,0,0,0,0,0,0,0,0,0.0,0,4920,10002.0,8447.0,7402.0,6649.0,6364.0,6106.0
12557,9711,US,100808,33.1644444444,-87.2316666667,,Census,Town,AL,"Vance, Alabama",0,0,0,0,0,0,0,0,0,82,0,0,0,0,0.0,0,0,0.0,68.0,254.0,248.0,500.0,1529.0
12571,7106,US,105151,33.1208333333,-86.4452777778,,Census,Town,AL,"Talladega Springs, Alabama",0,0,0,0,0,0,0,0,0,0,0,0,0,257,118.0,150,222,177.0,143.0,196.0,148.0,124.0,166.0
12585,7815,US,104735,31.1891666667,-85.2788888889,,Census,Town,AL,"Avon, Alabama",0,0,0,0,0,0,0,0,0,0,0,0,0,0,0.0,0,0,132.0,374.0,433.0,462.0,466.0,543.0
12587,6359,US,105187,31.96,-87.4822222222,,Census,Town,AL,"Yellow Bluff, Alabama",0,0,0,0,0,0,0,0,0,0,0,0,0,0,0.0,0,0,0.0,0.0,0.0,245.0,181.0,188.0
12609,21267,US,104910,30.4738888889,-88.3416666667,,Census,Cdp,AL,"Grand Bay, Alabama",0,0,0,0,0,0,0,0,0,0,0,0,0,0,0.0,0,0,0.0,0.0,3185.0,3383.0,3918.0,3672.0
12619,11342,US,104813,33.5875,-86.7661111111,,Census,City,AL,"Tarrant, Alabama",0,0,0,0,0,0,0,0,0,0,0,0,0,734,7341.0,6833,7571,7810.0,6835.0,8148.0,8046.0,7022.0,6397.0
12638,14358,US,104826,33.8947222222,-88.1319444444,,Census,City,AL,"Sulligent, Alabama",0,0,0,0,0,0,0,0,0,0,0,303,619,1071,1078.0,1287,1209,1346.0,1762.0,2130.0,1886.0,2151.0,1927.0
12643,8147,US,105096,31.8133333333,-85.8402777778,,Census,Town,AL,"Banks, Alabama",0,0,0,0,0,0,0,0,0,0,0,198,307,299,296.0,252,222,201.0,170.0,160.0,195.0,224.0,179.0
12684,4534,US,20562979,32.023,-88.031,,Census,Census-designated place,AL,"Putnam, Alabama",0,0,0,0,0,0,0,0,0,0,0,0,0,0,0.0,0,0,0.0,0.0,0.0,0.0,0.0,0.0
12733,6882,US,104887,32.2472222222,-87.9472222222,,Census,Town,AL,"Myrtlewood, Alabama",0,0,0,0,0,0,0,0,0,0,0,0,0,0,0.0,0,0,403.0,334.0,252.0,197.0,139.0,130.0
12800,6870,US,101159,33.9691666667,-86.6363888889,,Census,Town,AL,"Nectar, Alabama",0,0,0,0,0,0,0,0,0,0,0,0,0,0,0.0,0,0,0.0,0.0,367.0,238.0,372.0,345.0
13076,3416,US,48934478,31.3238888889,-85.6552777778,,Census,Unincorporated community,AL,"Kelly, Alabama",0,0,0,0,0,0,0,0,0,0,0,0,0,0,0.0,0,0,0.0,325.0,0.0,0.0,0.0,0.0
13126,7335,US,105102,33.1602777778,-85.2902777778,,Census,Cdp,AL,"Rock Mills, Alabama",0,0,0,0,0,0,0,0,0,0,385,420,349,267,0.0,0,0,0.0,0.0,0.0,0.0,676.0,600.0
13155,10299,US,104789,33.7711111111,-86.7952777778,,Census,City,AL,"Kimberly, Alabama",0,0,0,0,0,0,0,0,0,0,0,0,0,0,0.0,0,0,763.0,847.0,1043.0,1096.0,1801.0,2711.0
13306,8805,US,105132,33.6144444444,-86.2005555556,,Census,Town,AL,"Riverside, Alabama",0,0,0,0,0,0,0,0,0,0,0,300,277,240,131.0,135,116,159.0,351.0,849.0,1004.0,1564.0,2208.0
13520,11198,US,104827,33.7563888889,-88.1113888889,,Census,City,AL,"Vernon, Alabama",0,0,0,0,0,0,0,0,0,208,192,291,423,440,519.0,759,791,1492.0,2190.0,2609.0,2247.0,2143.0,2000.0
13564,7470,US,105158,32.8816666667,-85.8186111111,,Census,Town,AL,"Jackson's Gap, Alabama",0,0,0,0,0,0,0,0,0,0,207,0,0,0,0.0,0,0,0.0,0.0,0.0,789.0,761.0,829.0
13733,8811,US,105127,33.6758333333,-86.4677777778,,Census,City,AL,"Margaret, Alabama",0,0,0,0,0,0,0,0,0,0,0,0,0,0,0.0,0,1144,715.0,685.0,757.0,616.0,1169.0,4428.0
13755,23603,US,77372,32.9363888889,-86.2463888889,,Census,US County,AL,"Coosa County, Alabama",0,0,0,0,0,6995,14543,19273,11945,15113,15906,16144,16634,14839,12460.0,13460,11766,10726.0,10662.0,11377.0,11063.0,12202.0,11539.0
13804,5614,US,17956479,32.7011111111,-86.4711111111,,Census,Census-designated place,AL,"Marbury, Alabama",0,0,0,0,0,0,0,0,0,0,0,0,0,0,0.0,0,0,0.0,0.0,0.0,0.0,0.0,0.0
13872,3605,US,34899911,34.3919444444,-87.7263888889,,Census,Census-designated place,AL,"Spruce Pine, Alabama",0,0,0,0,0,0,0,0,0,0,0,0,0,0,0.0,0,0,0.0,0.0,0.0,0.0,0.0,0.0
13893,5116,US,31547093,33.1894444444,-87.4516666667,,Census,Unincorporated community,AL,"Cottondale, Alabama",0,0,0,0,0,0,0,0,0,0,0,0,0,0,0.0,0,0,0.0,0.0,0.0,0.0,0.0,0.0
13896,9076,US,104764,33.7,-86.5122222222,,Census,Town,AL,"Argo, Alabama",0,0,0,0,0,0,0,0,0,0,0,0,0,0,0.0,0,0,0.0,0.0,0.0,930.0,1780.0,4071.0
13938,7966,US,104731,31.4088888889,-85.1358333333,,Census,Town,AL,"Haleburg, Alabama",0,0,0,0,0,0,0,0,0,0,0,0,0,0,274.0,232,93,0.0,104.0,106.0,97.0,108.0,103.0
13972,13855,US,105155,32.8319444444,-85.7641666667,,Census,City,AL,"Dadeville, Alabama",0,0,0,0,0,0,0,0,0,740,873,1136,1193,1146,1549.0,2025,2354,2940.0,2847.0,3263.0,3276.0,3212.0,3230.0
14040,3946,US,34877631,33.0063888889,-85.4655555556,,Census,Census-designated place,AL,"Penton, Alabama",0,0,0,0,0,0,0,0,0,0,0,0,0,0,0.0,0,0,0.0,0.0,0.0,0.0,0.0,0.0
14042,25226,US,24102783,33.7158333333,-86.3180555556,,Census,US County,AL,"St. Clair County, Alabama",0,0,0,4166,5975,5638,6829,11013,9360,14462,17353,19425,20715,23383,24510.0,27336,26687,25388.0,27956.0,41205.0,50009.0,64742.0,83593.0
14114,7479,US,104747,34.6075,-85.9155555556,,Census,Town,AL,"Dutton, Alabama",0,0,0,0,0,0,0,0,0,0,0,0,0,0,0.0,0,0,0.0,423.0,276.0,243.0,310.0,315.0
14152,9527,US,104744,31.2602777778,-85.2836111111,,Census,Town,AL,"Webb, Alabama",0,0,0,0,0,0,0,0,0,0,0,0,256,415,400.0,379,344,331.0,354.0,448.0,1039.0,1298.0,1430.0
14217,8925,US,105108,32.4655555556,-85.0888888889,,Census,Census-designated place (cdp) &amp; unincorporated community,AL,"Ladonia, Alabama",0,0,0,0,0,0,0,0,0,0,0,0,0,0,0.0,0,0,0.0,0.0,0.0,2905.0,3229.0,3142.0
14230,41156,US,99887,30.6311111111,-87.8863888889,,Census,City,AL,"Daphne, Alabama",0,0,0,0,0,0,0,0,0,0,549,0,0,0,582.0,630,1041,1527.0,2382.0,3406.0,11290.0,16581.0,21570.0
14310,3883,US,35040300,32.2708333333,-85.2758333333,,Census,Unincorporated community,AL,"Hatchechubbee, Alabama",0,0,0,0,0,0,0,0,0,148,0,0,0,0,0.0,0,0,0.0,0.0,0.0,0.0,0.0,0.0
14332,5354,US,19008413,32.9797222222,-86.0336111111,,Census,Town,AL,"Kellyton, Alabama",0,0,0,0,0,0,0,0,0,0,0,0,0,241,168.0,0,0,0.0,0.0,0.0,0.0,0.0,217.0
14400,3783,US,25706850,31.5138888889,-87.4930555556,,Census,Unincorporated community,AL,"Perdue Hill, Alabama",0,0,0,0,0,0,0,0,0,110,282,0,0,0,0.0,0,0,0.0,0.0,0.0,0.0,0.0,0.0
14461,3880,US,34900060,33.0797222222,-85.2530555556,,Census,Census-designated place,AL,"Standing Rock, Alabama",0,0,0,0,0,0,0,0,0,0,0,0,0,698,0.0,0,0,0.0,0.0,0.0,0.0,0.0,168.0
14462,8688,US,100811,33.9041666667,-86.5163888889,,Census,Town,AL,"Allgood, Alabama",0,0,0,0,0,0,0,0,0,0,0,0,0,0,0.0,0,0,147.0,272.0,387.0,464.0,629.0,622.0
14498,3546,US,47527024,32.9111111111,-87.7061111111,,Census,Unincorporated community,AL,"Stewart, Alabama",0,0,0,0,0,0,0,0,0,41,255,0,0,0,0.0,0,0,0.0,0.0,0.0,0.0,0.0,0.0
14554,13381,US,99890,30.4055555556,-87.6813888889,,Census,City,AL,"Foley, Alabama",0,0,0,0,0,0,0,0,0,0,0,0,0,243,791.0,864,1301,2889.0,3368.0,4003.0,4937.0,7590.0,14618.0
14569,2728,US,49894816,31.853485,-87.0297059,,Census,Ghost town,AL,"Ruthven, Alabama",0,0,0,0,0,0,0,0,0,0,0,0,0,0,523.0,0,0,0.0,0.0,0.0,0.0,0.0,0.0
14576,3892,US,34812881,33.8577777778,-85.6569444444,,Census,Census-designated place,AL,"Nances Creek, Alabama",0,0,0,0,0,0,0,0,0,0,0,0,0,0,0.0,0,0,0.0,0.0,0.0,0.0,0.0,0.0
14681,8054,US,101171,31.5427777778,-86.7197222222,,Census,Town,AL,"McKenzie, Alabama",0,0,0,0,0,0,0,0,0,0,0,0,0,293,396.0,504,504,558.0,491.0,605.0,464.0,644.0,530.0
14740,3927,US,14705091,32.4566666667,-85.0044444444,,Census,,AL,"Girard, Alabama",0,0,0,0,0,0,748,0,0,0,0,3840,4215,4942,0.0,0,0,0.0,0.0,0.0,0.0,0.0,0.0
14797,26915,US,80775,34.5213888889,-87.3102777778,,Census,US County,AL,"Lawrence County, Alabama",0,0,0,8652,14984,13313,15258,13975,16658,21392,20725,20124,21984,24307,26942.0,27880,27128,24501.0,27281.0,30170.0,31513.0,34803.0,34339.0
14799,8037,US,105163,33.2461111111,-87.6791666667,,Census,Town,AL,"Coker, Alabama",0,0,0,0,0,0,0,0,0,0,0,0,0,0,0.0,0,0,0.0,0.0,0.0,0.0,808.0,979.0
14814,8881,US,104874,34.8305555556,-86.5202777778,,Census,Cdp,AL,"Moores Mill, Alabama",0,0,0,0,0,0,0,0,0,0,0,0,0,0,0.0,0,0,0.0,0.0,0.0,3362.0,5178.0,5682.0
14846,9676,US,104583,31.3811111111,-85.9244444444,,Census,Town,AL,"New Brockton, Alabama",0,0,0,0,0,0,0,0,0,0,0,0,328,467,727.0,878,1055,1093.0,1374.0,1392.0,1184.0,1250.0,1146.0
14868,5251,US,9156551,34.7111111111,-85.9452777778,,Census,Ghost town,AL,"Bellefonte, Alabama",0,0,0,0,0,0,0,181,72,0,0,0,0,0,0.0,0,0,0.0,0.0,0.0,0.0,0.0,0.0
14969,13353,US,39605649,33.5594444444,-86.9311111111,,Census,Unincorporated community,AL,"Docena, Alabama",0,0,0,0,0,0,0,0,0,0,0,0,0,0,0.0,0,1551,0.0,1140.0,0.0,0.0,0.0,0.0
14987,7375,US,104606,31.4077777778,-86.6102777778,,Census,Town,AL,"Red Level, Alabama",0,0,0,0,0,0,0,0,0,0,0,0,317,385,445.0,516,656,327.0,616.0,504.0,588.0,556.0,487.0
14994,11155,US,101160,33.9422222222,-86.4788888889,,Census,City,AL,"Oneonta, Alabama",0,0,0,0,0,0,0,0,0,0,0,583,609,876,1387.0,2376,2802,4136.0,4390.0,4824.0,4844.0,5576.0,6567.0
15047,27231,US,104621,34.1775,-86.8447222222,,Census,City,AL,"Cullman, Alabama",0,0,0,0,0,0,0,0,0,426,1017,1255,2130,2467,2786.0,5074,7523,10883.0,12601.0,13084.0,13367.0,13995.0,14775.0
15194,9541,US,104699,34.0638888889,-86.2791666667,,Census,Town,AL,"Walnut Grove, Alabama",0,0,0,0,0,0,0,0,0,126,0,251,204,167,216.0,206,222,237.0,224.0,510.0,717.0,710.0,698.0
15197,8220,US,105106,32.24,-85.4152777778,,Census,Town,AL,"Hurtsboro, Alabama",0,0,0,0,0,0,0,0,0,0,433,407,764,868,884.0,894,920,1056.0,937.0,752.0,707.0,592.0,553.0
15246,8265,US,105162,33.1691666667,-87.3458333333,,Census,Town,AL,"Coaling, Alabama",0,0,0,0,0,0,0,0,0,190,0,0,0,0,0.0,0,0,0.0,0.0,0.0,0.0,1115.0,1657.0
15247,1874,US,49512066,31.8143197,-87.1722083,,Census,Ghost town,AL,"Nadawah, Alabama",0,0,0,0,0,0,0,0,0,0,0,0,0,373,93.0,0,0,0.0,0.0,0.0,0.0,0.0,0.0
15275,8694,US,104812,33.5127777778,-87.0205555556,,Census,Town,AL,"Sylvan Springs, Alabama",0,0,0,0,0,0,0,0,0,0,0,0,0,0,0.0,0,0,245.0,344.0,450.0,1470.0,1465.0,1542.0
15288,15773,US,104856,34.715,-86.7397222222,,Census,City,AL,"Madison, Alabama",0,0,0,0,0,0,0,0,0,410,0,412,426,435,431.0,455,530,1435.0,3086.0,4057.0,14904.0,29329.0,42938.0
15429,11283,US,104799,33.5394444444,-86.9397222222,,Census,Cdp,AL,"Minor, Alabama",0,0,0,0,0,0,0,0,0,0,0,0,0,0,0.0,0,0,0.0,0.0,0.0,3313.0,1116.0,1094.0
15437,3298,US,20088881,32.0872222222,-87.0341666667,,Census,Unincorporated community,AL,"Carlowville, Alabama",0,0,0,0,0,0,0,0,0,154,0,0,0,0,0.0,0,0,0.0,0.0,0.0,0.0,0.0,0.0
15542,6200,US,103735,33.6058333333,-85.9630555556,,Census,Former cdp,AL,"Bynum, Alabama",0,0,0,0,0,0,0,0,0,0,0,0,0,0,0.0,0,0,0.0,0.0,2235.0,1917.0,1863.0,0.0
15556,13544,US,105136,32.7297222222,-88.3141666667,,Census,Town,AL,"Emelle, Alabama",0,0,0,0,0,0,0,0,0,0,0,0,0,0,0.0,0,0,0.0,0.0,0.0,44.0,31.0,53.0
15601,8686,US,105117,33.4036111111,-86.6905555556,,Census,Census-designated place (cdp) &amp; unincorporated community,AL,"Meadowbrook, Alabama",0,0,0,0,0,0,0,0,0,0,0,0,0,0,0.0,0,0,0.0,0.0,0.0,4621.0,4697.0,8769.0
15713,18009,US,104709,34.44,-88.1383333333,,Census,City,AL,"Red Bay, Alabama",0,0,0,0,0,0,0,0,0,0,0,0,472,753,1297.0,1560,1805,1954.0,2464.0,3232.0,3451.0,3374.0,3158.0
15878,7733,US,105123,33.235,-86.4863888889,,Census,Town,AL,"Wilsonville, Alabama",0,0,0,0,0,0,0,0,0,93,0,1095,933,815,770.0,749,692,683.0,659.0,914.0,1185.0,1551.0,1827.0
15879,10343,US,104894,34.0225,-87.7672222222,,Census,Town,AL,"Brilliant, Alabama",0,0,0,0,0,0,0,0,0,0,0,0,0,0,522.0,591,700,749.0,726.0,871.0,751.0,762.0,900.0
15906,19703,US,101170,31.8311111111,-86.6275,,Census,City,AL,"Greenville, Alabama",0,0,0,0,0,0,0,0,2856,2471,2806,3162,3377,3471,3985.0,5075,6731,6894.0,8033.0,7807.0,7492.0,7228.0,8135.0
15909,3760,US,20667161,34.6525833333,-87.2497222222,,Census,Unincorporated community,AL,"Wheeler, Alabama",0,0,0,0,0,0,0,0,0,114,0,0,0,0,0.0,0,0,0.0,0.0,0.0,0.0,0.0,0.0
15941,26414,US,77381,32.3247222222,-87.1052777778,,Census,US County,AL,"Dallas County, Alabama",0,0,0,6003,14017,25199,29727,33625,40705,48433,49350,54657,53401,54697,55094.0,55245,56270,56667.0,55296.0,53981.0,48130.0,46365.0,43820.0
16013,15032,US,104863,32.1825,-86.5805555556,,Census,Town,AL,"Hayneville, Alabama",0,0,0,0,0,0,800,0,0,0,355,0,0,0,0.0,0,0,0.0,473.0,592.0,969.0,1177.0,932.0
16111,11282,US,105161,33.2388888889,-87.3197222222,,Census,Town,AL,"Brookwood, Alabama",0,0,0,0,0,0,0,0,0,0,0,0,0,0,0.0,0,0,0.0,196.0,492.0,658.0,1483.0,1828.0
16120,23196,US,105153,32.9330555556,-85.9361111111,,Census,City,AL,"Alexander City, Alabama",0,0,0,0,0,0,0,0,0,796,679,1061,1710,2293,4519.0,6640,6430,13140.0,12358.0,13807.0,14917.0,15008.0,14875.0
16138,7342,US,105144,33.1483333333,-86.2894444444,,Census,Town,AL,"Gantts Quarry, Alabama",0,0,0,0,0,0,0,0,0,0,0,0,0,413,542.0,456,426,238.0,63.0,71.0,7.0,,0.0
16206,25235,US,81301,33.2786111111,-88.0930555556,,Census,US County,AL,"Pickens County, Alabama",0,0,0,0,6622,17118,21512,22316,17690,21479,22470,24402,25055,25353,24902.0,27671,24349,21882.0,20326.0,21481.0,20699.0,20949.0,19746.0
16232,9977,US,105164,33.2302777778,-87.4861111111,,Census,Census-designated place (cdp) &amp; unincorporated community,AL,"Holt, Alabama",0,0,0,0,0,0,0,0,0,0,0,0,0,0,0.0,0,2453,0.0,0.0,0.0,4125.0,4102.0,3638.0
16238,12022,US,100813,34.0816666667,-86.5886111111,,Census,Town,AL,"Blountsville, Alabama",0,0,0,0,0,0,0,0,0,222,288,0,287,427,468.0,576,695,672.0,1254.0,1509.0,1527.0,1768.0,1684.0
16341,6671,US,104868,32.4013888889,-85.9433333333,,Census,Town,AL,"Shorter, Alabama",0,0,0,0,0,0,0,0,0,0,0,0,0,0,0.0,0,0,0.0,0.0,0.0,461.0,355.0,474.0
16442,27109,US,104918,30.7480555556,-88.1002777778,,Census,City,AL,"Prichard, Alabama",0,0,0,0,0,0,0,0,0,0,0,0,0,0,4580.0,6084,19014,47371.0,41578.0,39541.0,34311.0,28633.0,22659.0
16470,17304,US,103741,33.9261111111,-85.6130555556,,Census,City,AL,"Piedmont, Alabama",0,0,0,0,0,0,0,0,0,381,711,1745,2226,2645,3668.0,4019,4498,4794.0,5063.0,5544.0,5288.0,5120.0,4878.0
16490,4594,US,34223465,33.4706617,-86.5133163,,Census,Census-designated place &amp; unincorporated community,AL,"Vandiver, Alabama",0,0,0,0,0,0,0,0,0,0,0,0,0,0,0.0,0,0,0.0,0.0,0.0,0.0,0.0,0.0
16531,7475,US,100804,31.7802777778,-85.5575,,Census,Town,AL,"Louisville, Alabama",0,0,0,0,0,0,0,0,0,211,288,416,483,504,587.0,662,622,890.0,785.0,791.0,728.0,612.0,519.0
16701,11280,US,104896,34.2713888889,-87.8305555556,,Census,Town,AL,"Hackleburg, Alabama",0,0,0,0,0,0,0,0,0,0,0,0,286,376,628.0,492,534,527.0,726.0,883.0,1161.0,1527.0,1516.0
16745,10939,US,104766,33.4388888889,-86.9452777778,,Census,City,AL,"Brighton, Alabama",0,0,0,0,0,0,0,0,0,0,0,0,1502,3665,1708.0,1377,1689,2884.0,2277.0,5308.0,4518.0,3640.0,2945.0
16863,7126,US,22517014,30.3419444444,-87.5030555556,,Census,Town,AL,"Perdido Beach, Alabama",0,0,0,0,0,0,0,0,0,0,0,0,0,0,0.0,0,0,0.0,0.0,0.0,0.0,0.0,581.0
16920,26275,US,80784,34.7658333333,-86.5577777778,,Census,US County,AL,"Madison County, Alabama",0,0,4699,17481,27990,25706,26427,26451,31267,37625,38119,43702,47041,51268,64623.0,66317,72903,117348.0,186540.0,196966.0,238912.0,276700.0,334811.0
16936,21052,US,104557,32.8397222222,-86.6280555556,,Census,City,AL,"Clanton, Alabama",0,0,0,0,0,0,0,0,0,0,623,611,1123,1411,1847.0,3982,4640,5683.0,5868.0,5832.0,7669.0,7800.0,8619.0
16946,8217,US,101169,31.64,-86.7391666667,,Census,Town,AL,"Georgiana, Alabama",0,0,0,0,0,0,0,0,0,277,456,567,999,1550,1480.0,1627,1596,2093.0,2148.0,1993.0,1933.0,1737.0,1738.0
17057,10222,US,104921,30.5505555556,-88.1808333333,,Census,Cdp,AL,"Theodore, Alabama",0,0,0,0,0,0,0,0,0,0,277,0,0,0,0.0,0,0,0.0,0.0,6392.0,6509.0,6811.0,6130.0
17079,29196,US,77379,34.1333333333,-86.8666666667,,Census,US County,AL,"Cullman County, Alabama",0,0,0,0,0,0,0,0,0,6355,13439,17849,28321,33034,41051.0,47343,49046,45572.0,52445.0,61642.0,67613.0,77483.0,80406.0
17089,8671,US,105179,31.2661111111,-88.0313888889,,Census,Town,AL,"McIntosh, Alabama",0,0,0,0,0,0,0,0,0,0,0,0,0,0,0.0,0,0,0.0,297.0,319.0,250.0,244.0,238.0
17211,9854,US,104853,34.93,-86.9769444444,,Census,Town,AL,"Elkmont, Alabama",0,0,0,0,0,0,0,0,0,233,0,174,188,261,192.0,185,179,169.0,394.0,429.0,389.0,470.0,434.0
17218,5741,US,104667,34.3922222222,-85.9733333333,,Census,"&quot;gr1&quot;&gt;publisher=[[united states census bureau|accessdate=2011-04-23|date=2011-02-12|title=us gazetteer files: 2010, 2000, and 1990}}",AL,"Lakeview, Alabama",0,0,0,0,0,0,0,0,0,0,0,0,0,0,0.0,0,0,0.0,13.0,441.0,166.0,163.0,143.0
17259,14362,US,100806,32.95,-87.1344444444,,Census,City,AL,"Centreville, Alabama",0,0,0,0,0,0,0,0,0,0,239,422,730,793,791.0,893,1160,1981.0,2233.0,2504.0,2508.0,2466.0,2778.0
17413,4203,US,44556719,34.3566666667,-86.3594444444,,Census,Unincorporated community,AL,"Warrenton, Alabama",0,0,0,0,0,0,0,0,60,0,0,0,0,0,0.0,0,0,0.0,0.0,0.0,0.0,0.0,0.0
17455,7842,US,105193,34.0916666667,-87.6044444444,,Census,Town,AL,"Natural Bridge, Alabama",0,0,0,0,0,0,0,0,0,0,0,0,0,335,100.0,0,0,0.0,0.0,0.0,0.0,28.0,37.0
17527,14155,US,101158,33.8963888889,-86.6305555556,,Census,Town,AL,"Locust Fork, Alabama",0,0,0,0,0,0,0,0,0,0,0,0,0,0,0.0,0,0,0.0,0.0,488.0,342.0,1016.0,1186.0
17598,4518,US,34314656,33.4933333333,-86.5441666667,,Census,Census-designated place,AL,"Dunnavant, Alabama",0,0,0,0,0,0,0,0,0,0,0,0,0,0,0.0,0,0,0.0,0.0,0.0,0.0,0.0,0.0
17604,12184,US,104559,32.7819444444,-86.8755555556,,Census,Town,AL,"Maplesville, Alabama",0,0,0,0,0,0,0,0,0,0,0,0,0,376,456.0,0,806,679.0,596.0,754.0,725.0,672.0,708.0
17687,3522,US,43011203,32.1852777778,-85.8180555556,,Census,Unincorporated community,AL,"Thompson, Alabama",0,0,0,0,0,0,0,0,0,0,0,145,263,206,0.0,0,0,0.0,0.0,0.0,0.0,0.0,0.0
17703,9673,US,99880,32.4322222222,-86.6533333333,,Census,Town,AL,"Autaugaville, Alabama",0,0,0,0,0,0,0,0,0,0,0,0,313,362,450.0,456,459,440.0,870.0,843.0,681.0,820.0,870.0
17715,3822,US,19783076,32.0068138889,-86.9669277778,,Census,Unincorporated community,AL,"Furman, Alabama",0,0,0,0,0,0,0,0,0,0,195,184,125,190,229.0,0,0,0.0,0.0,0.0,0.0,0.0,0.0
17729,7795,US,104628,34.2336111111,-86.8627777778,,Census,Town,AL,"South Vinemont, Alabama",0,0,0,0,0,0,0,0,0,0,0,0,0,0,0.0,0,0,0.0,480.0,615.0,543.0,425.0,749.0
17772,9759,US,104659,32.3783333333,-87.0063888889,,Census,Census-designated place,AL,"Selmont-West Selmont, Alabama",0,0,0,0,0,0,0,0,0,0,0,0,0,0,0.0,0,0,0.0,2270.0,5255.0,3823.0,3502.0,2671.0
17821,4629,US,34689482,32.8922222222,-86.1533333333,,Census,Census-designated place,AL,"Hissop, Alabama",0,0,0,0,0,0,0,0,0,0,0,0,0,0,0.0,0,0,0.0,0.0,0.0,0.0,0.0,0.0
17830,8314,US,104882,32.3497222222,-87.6411111111,,Census,Town,AL,"Dayton, Alabama",0,0,0,0,0,0,0,0,426,473,412,427,382,245,202.0,153,85,99.0,115.0,113.0,77.0,60.0,52.0
17880,3973,US,34659303,31.3427777778,-88.4077777778,,Census,Census-designated place,AL,"Fruitdale, Alabama",0,0,0,0,0,0,0,0,0,0,0,0,0,0,0.0,0,0,0.0,0.0,0.0,0.0,0.0,0.0
17886,11397,US,104678,32.6411111111,-86.0383333333,,Census,Village,AL,"Eclectic, Alabama",0,0,0,0,0,0,0,0,0,0,0,0,315,555,678.0,606,715,926.0,1184.0,1124.0,1087.0,1037.0,1001.0
18047,6817,US,105159,33.0302777778,-85.7866666667,,Census,Town,AL,"New Site, Alabama",0,0,0,0,0,0,0,0,0,72,0,0,0,0,0.0,0,0,0.0,548.0,430.0,669.0,848.0,773.0
18058,6839,US,105183,31.9211111111,-87.0827777778,,Census,Town,AL,"Oak Hill, Alabama",0,0,0,0,0,0,0,0,0,0,0,0,0,0,0.0,159,123,116.0,86.0,63.0,28.0,37.0,26.0
18059,27504,US,104690,34.01,-86.0102777778,,Census,City,AL,"Gadsden, Alabama",0,0,0,0,0,0,0,0,0,1697,2901,4282,10557,14737,24042.0,36975,55725,58088.0,53928.0,47565.0,42523.0,38978.0,36856.0
18064,8368,US,100802,31.7097222222,-85.6066666667,,Census,City,AL,"Clio, Alabama",0,0,0,0,0,0,0,0,0,0,0,326,580,838,867.0,841,840,929.0,1065.0,1224.0,1365.0,2206.0,1399.0
18075,12837,US,104591,31.435,-86.9547222222,,Census,City,AL,"Evergreen, Conecuh County, Alabama",0,0,0,0,0,0,0,0,0,985,1783,1277,1582,1813,2007.0,2216,3454,3703.0,3924.0,4171.0,3911.0,3630.0,3944.0
18077,7241,US,101154,33.8194444444,-86.7291666667,,Census,Town,AL,"County Line, Alabama",0,0,0,0,0,0,0,0,0,0,0,0,0,0,0.0,0,0,278.0,199.0,199.0,189.0,257.0,258.0
18119,34715,US,104681,32.5408333333,-86.2077777778,,Census,City,AL,"Wetumpka, Alabama",0,0,0,0,0,0,3824,0,1137,816,619,562,1103,1520,2357.0,3089,3813,3672.0,3912.0,4341.0,4670.0,5726.0,6528.0
18130,12287,US,105188,34.2,-87.1777777778,,Census,Town,AL,"Addison, Alabama",0,0,0,0,0,0,0,0,0,0,0,0,0,0,0.0,0,590,343.0,692.0,746.0,626.0,723.0,758.0
18268,6775,US,104842,34.6763888889,-87.3077777778,,Census,Town,AL,"North Courtland, Alabama",0,0,0,0,0,0,0,0,0,0,0,0,0,0,0.0,0,0,0.0,0.0,0.0,973.0,799.0,632.0
18369,12193,US,104689,34.2027777778,-86.1602777778,,Census,City,AL,"Boaz, Alabama",0,0,0,0,0,0,0,0,0,0,0,253,1010,1369,1691.0,1927,3078,4654.0,5635.0,7151.0,6928.0,7411.0,9551.0
18411,20433,US,104682,31.0230555556,-87.4919444444,,Census,City,AL,"Atmore, Alabama",0,0,0,0,0,0,0,0,0,0,0,0,1060,1775,3035.0,3200,5720,8173.0,8293.0,8789.0,8046.0,7676.0,10194.0
18549,7603,US,104753,34.685,-85.8466666667,,Census,Town,AL,"Pisgah, Alabama",0,0,0,0,0,0,0,0,0,0,0,0,0,0,0.0,0,217,214.0,519.0,699.0,652.0,706.0,722.0
18570,9814,US,105133,33.7688888889,-86.4711111111,,Census,City,AL,"Springville, Alabama",0,0,0,0,0,0,0,0,0,185,0,496,350,450,437.0,460,553,822.0,1153.0,1476.0,1910.0,2521.0,4080.0
18595,15843,US,104710,34.5102777778,-87.7283333333,,Census,City,AL,"Russellville, Alabama",0,0,0,0,0,0,0,0,180,186,920,1602,2046,2269,3146.0,3510,6012,6628.0,7814.0,8195.0,7812.0,8971.0,9830.0
18641,8455,US,105147,33.5333333333,-85.9541666667,,Census,Town,AL,"Munford, Alabama",0,0,0,0,0,0,0,0,0,147,0,0,0,0,0.0,0,0,0.0,0.0,0.0,0.0,2446.0,1292.0
18667,9022,US,104798,33.4558333333,-86.9269444444,,Census,Town,AL,"Midfield, Alabama",0,0,0,0,0,0,0,0,0,0,0,0,0,0,0.0,0,0,3556.0,6621.0,6182.0,5559.0,5626.0,5365.0
18701,12126,US,105145,33.5930555556,-86.1388888889,,Census,City,AL,"Lincoln, Alabama",0,0,0,0,0,0,0,0,0,0,0,0,0,498,429.0,420,547,629.0,1127.0,2081.0,2941.0,4577.0,6266.0
18915,5065,US,34899588,33.1102777778,-86.5841666667,,Census,Census-designated place,AL,"Shelby, Alabama",0,0,0,0,0,0,0,0,0,567,753,0,0,0,0.0,0,0,0.0,0.0,0.0,0.0,0.0,1044.0
18921,10923,US,104917,31.0930555556,-88.0111111111,,Census,Town,AL,"Mount Vernon, Alabama",0,0,0,0,0,0,0,0,0,0,0,0,0,0,0.0,0,0,553.0,1079.0,1038.0,902.0,844.0,1574.0
18922,45034,US,103733,33.6611111111,-85.8333333333,,Census,City,AL,"Anniston, Alabama",0,0,0,0,0,0,0,0,0,942,9998,9695,12794,17734,22345.0,25523,31066,33320.0,31533.0,29135.0,26623.0,24276.0,23106.0
18959,27453,US,104780,33.66,-86.8127777778,,Census,City,AL,"Gardendale, Alabama",0,0,0,0,0,0,0,0,0,0,0,0,0,0,0.0,0,0,4712.0,6537.0,8005.0,9251.0,11626.0,13893.0
18983,9551,US,105115,33.4283333333,-86.6927777778,,Census,Census-designated place (cdp) &amp; unincorporated community,AL,"Brook Highland, Alabama",0,0,0,0,0,0,0,0,0,0,0,0,0,0,0.0,0,0,0.0,0.0,0.0,1840.0,5799.0,6746.0
19004,10133,US,104738,31.1994444444,-85.3061111111,,Census,Town,AL,"Cowarts, Alabama",0,0,0,0,0,0,0,0,0,0,0,0,0,0,0.0,0,0,0.0,350.0,418.0,1400.0,1546.0,1871.0
19017,6984,US,101161,33.9897222222,-86.5119444444,,Census,Town,AL,"Rosa, Alabama",0,0,0,0,0,0,0,0,0,0,0,0,0,0,0.0,0,0,0.0,0.0,204.0,139.0,313.0,316.0
19028,7030,US,104563,32.1722222222,-88.2894444444,,Census,Town,AL,"Lisman, Alabama",0,0,0,0,0,0,0,0,0,0,0,0,0,521,521.0,545,606,909.0,636.0,638.0,481.0,653.0,539.0
19105,9405,US,104742,31.1352777778,-85.4361111111,,Census,Town,AL,"Rehobeth, Alabama",0,0,0,0,0,0,0,0,0,0,0,0,0,0,0.0,0,0,0.0,0.0,0.0,0.0,993.0,1297.0
19183,9651,US,105165,33.28,-87.1386111111,,Census,Town,AL,"Lake View, Alabama",0,0,0,0,0,0,0,0,0,0,0,0,0,0,0.0,0,0,0.0,0.0,0.0,0.0,1357.0,1943.0
19189,27012,US,57769,33.2722222222,-85.8611111111,,Census,US County,AL,"Clay County, Alabama",0,0,0,0,0,0,0,0,9560,12938,15765,17099,21006,22645,17768.0,16907,13929,12400.0,12636.0,13703.0,13252.0,14254.0,13932.0
19263,4525,US,12712611,30.4936111111,-88.1036111111,,Census,Census-designated place (cdp) &amp; unincorporated community,AL,"Belle Fontaine, Alabama",0,0,0,0,0,0,0,0,0,0,0,0,0,0,0.0,0,0,0.0,0.0,0.0,0.0,0.0,0.0
19264,14110,US,105098,31.7191666667,-85.8180555556,,Census,City,AL,"Brundidge, Alabama",0,0,0,0,0,0,0,0,0,387,0,537,815,941,1434.0,1909,2605,2523.0,2709.0,3213.0,2472.0,2341.0,2076.0
19285,12003,US,105085,32.4488888889,-87.5122222222,,Census,City,AL,"Uniontown, Alabama",0,0,0,0,0,0,290,0,1444,810,854,1047,1836,1359,1424.0,1869,1798,1993.0,2133.0,2112.0,1730.0,1623.0,1775.0
19449,7203,US,104815,33.8188888889,-86.7466666667,,Census,Town,AL,"Trafford, Alabama",0,0,0,0,0,0,0,0,0,0,0,0,0,0,0.0,0,551,529.0,628.0,673.0,739.0,523.0,646.0
19481,9677,US,104724,32.6475,-87.8672222222,,Census,Town,AL,"Forkland, Alabama",0,0,0,0,0,0,0,0,0,205,0,0,0,0,0.0,0,0,0.0,304.0,429.0,667.0,629.0,649.0
19514,36322,US,104829,34.8202777778,-87.6627777778,,Census,City,AL,"Florence, Alabama",0,0,0,0,0,0,802,1395,2003,1359,6012,6478,6689,10529,11729.0,15043,23879,31649.0,34031.0,37029.0,36426.0,36264.0,39319.0
19533,12002,US,104637,31.3080555556,-85.4905555556,,Census,Town,AL,"Midland City, Alabama",0,0,0,0,0,0,0,0,0,0,0,304,539,665,755.0,647,784,854.0,1172.0,1903.0,1819.0,1703.0,2344.0
19534,10332,US,105079,34.3716666667,-86.9083333333,,Census,Town,AL,"Falkville, Alabama",0,0,0,0,0,0,0,0,0,105,0,343,335,362,543.0,567,613,682.0,946.0,1310.0,1337.0,1202.0,1279.0
19540,6952,US,105139,32.8683333333,-88.3058333333,,Census,Town,AL,"Geiger, Alabama",0,0,0,0,0,0,0,0,0,0,0,0,0,116,121.0,192,133,104.0,120.0,200.0,270.0,161.0,170.0
19596,7951,US,104705,33.9494444444,-87.8716666667,,Census,Town,AL,"Gu-Win, Alabama",0,0,0,0,0,0,0,0,0,0,0,0,0,0,0.0,0,0,80.0,231.0,266.0,243.0,204.0,176.0
19664,3436,US,20600372,32.7619444444,-86.1019444444,,Census,Unincorporated community,AL,"Equality, Alabama",0,0,0,0,0,0,0,0,0,0,0,0,0,200,196.0,0,0,0.0,0.0,0.0,0.0,0.0,0.0
19680,11100,US,105190,34.1513888889,-87.4041666667,,Census,Town,AL,"Double Springs, Alabama",0,0,0,0,0,0,0,0,0,0,0,0,0,0,0.0,0,524,811.0,957.0,1057.0,1138.0,1003.0,1083.0
19691,3895,US,34812425,33.1913888889,-85.9258333333,,Census,Census-designated place,AL,"Millerville, Alabama",0,0,0,0,0,0,0,0,0,0,0,0,0,0,0.0,0,0,0.0,0.0,0.0,0.0,0.0,0.0
19710,12378,US,104886,32.3011111111,-87.7927777778,,Census,City,AL,"Linden, Alabama",0,0,0,0,0,0,0,171,300,0,0,0,600,700,982.0,1203,1363,2516.0,2697.0,2773.0,2548.0,2424.0,2123.0
19716,18345,US,105112,33.1833333333,-86.6091666667,,Census,City,AL,"Columbiana, Alabama",0,0,0,0,0,0,0,0,0,496,654,1075,1079,1073,1180.0,1197,1761,2264.0,2248.0,2655.0,2968.0,3316.0,4197.0
19767,6770,US,105191,34.0405555556,-87.5408333333,,Census,Town,AL,"Lynn, Alabama",0,0,0,0,0,0,0,0,0,0,0,0,0,0,0.0,0,0,531.0,286.0,554.0,611.0,597.0,659.0
19772,25655,US,77855,32.7608333333,-87.6297222222,,Census,US County,AL,"Hale County, Alabama",0,0,0,0,0,0,0,0,21792,26553,27501,31011,27883,24289,26265.0,25533,20832,19537.0,15888.0,15604.0,15498.0,17185.0,15760.0
19895,7051,US,12149383,31.5536111111,-87.1602777778,,Census,Unincorporated community,AL,"Burnt Corn, Alabama",0,0,0,0,0,0,0,0,0,33,0,0,0,0,0.0,0,0,0.0,0.0,0.0,0.0,0.0,0.0
19903,6804,US,104795,33.5536111111,-86.9944444444,,Census,Town,AL,"Maytown, Alabama",0,0,0,0,0,0,0,0,0,0,0,0,0,0,0.0,0,0,297.0,667.0,538.0,651.0,435.0,385.0
19962,8953,US,104544,33.0169444444,-85.3511111111,,Census,Town,AL,"Five Points, Alabama",0,0,0,0,0,0,0,0,0,0,0,0,0,835,1010.0,778,253,285.0,247.0,197.0,200.0,146.0,141.0
19977,11580,US,105101,33.1488888889,-85.3697222222,,Census,City,AL,"Roanoke, Alabama",0,0,0,0,0,0,0,0,0,327,631,1155,2034,3841,4373.0,4168,5392,5288.0,5251.0,5809.0,6362.0,6563.0,6074.0
19990,8576,US,104808,33.4758333333,-87.0788888889,,Census,Cdp,AL,"Rock Creek, Alabama",0,0,0,0,0,0,0,0,0,0,0,0,0,0,0.0,0,0,0.0,0.0,0.0,0.0,1495.0,1456.0
20056,22817,US,104584,34.7583333333,-87.9686111111,,Census,Town,AL,"Cherokee, Alabama",0,0,0,0,0,0,0,0,0,282,0,261,269,524,659.0,786,748,1349.0,1484.0,1589.0,1479.0,1237.0,1048.0
20122,3550,US,34780733,31.1913888889,-88.0075,,Census,Census-designated place,AL,"Malcolm, Alabama",0,0,0,0,0,0,0,0,0,0,0,0,0,0,0.0,0,0,0.0,0.0,0.0,0.0,0.0,0.0
20125,6499,US,104604,31.2213888889,-86.2777777778,,Census,Town,AL,"Onycha, Alabama",0,0,0,0,0,0,0,0,0,0,0,0,0,0,0.0,0,0,0.0,118.0,147.0,150.0,208.0,184.0
20131,24834,US,77870,33.7805555556,-88.0963888889,,Census,US County,AL,"Lamar County, Alabama",0,0,0,0,0,0,0,0,8893,12142,14187,16084,17487,18149,18001.0,19708,16441,14271.0,14335.0,16453.0,15715.0,15904.0,14564.0
20241,4911,US,15238061,32.0580611111,-87.7875,,Census,Unincorporated community,AL,"Dixons Mills, Alabama",0,0,0,0,0,0,0,0,120,0,0,0,0,0,0.0,0,0,0.0,0.0,0.0,0.0,0.0,0.0
20252,9811,US,104867,32.4552777778,-85.8027777778,,Census,Town,AL,"Franklin, Alabama",0,0,0,0,0,0,0,0,0,0,0,0,0,0,0.0,0,0,0.0,173.0,133.0,152.0,149.0,149.0
20255,18110,US,1857459,32.4858469,-87.030369,,Census,City,AL,"Valley Grande, Alabama",0,0,0,0,0,0,0,0,0,0,0,0,0,0,0.0,0,0,0.0,0.0,0.0,0.0,0.0,4020.0
20361,4694,US,20086462,32.1655555556,-86.9119444444,,Census,Unincorporated community,AL,"Pleasant Hill, Alabama",0,0,0,0,0,0,0,0,0,193,0,0,0,0,0.0,0,0,0.0,0.0,0.0,0.0,0.0,0.0
20395,10165,US,105131,33.7433333333,-86.1422222222,,Census,Town,AL,"Ragland, Alabama",0,0,0,0,0,0,0,0,0,0,0,309,483,613,981.0,1070,1008,1166.0,1239.0,1860.0,1807.0,1918.0,1639.0
20515,10407,US,104561,32.0913888889,-88.2205555556,,Census,Town,AL,"Butler, Alabama",0,0,0,0,0,0,0,0,0,194,0,0,0,0,501.0,670,659,1765.0,2064.0,1882.0,1872.0,1952.0,1894.0
20521,10007,US,104721,31.1683333333,-85.4680555556,,Census,Town,AL,"Taylor, Alabama",0,0,0,0,0,0,0,0,0,0,0,0,0,0,0.0,0,0,0.0,174.0,1003.0,1352.0,1898.0,2375.0
20529,4813,US,18512794,34.3605555556,-85.5216666667,,Census,Census-designated place,AL,"Broomtown, Alabama",0,0,0,0,0,0,0,0,0,0,0,0,0,0,0.0,0,0,0.0,0.0,0.0,0.0,0.0,0.0
20565,10038,US,104552,34.2652777778,-85.8613888889,,Census,Town,AL,"Collinsville, Alabama",0,0,0,0,0,0,0,0,0,160,367,524,673,793,892.0,957,1023,1199.0,1300.0,1383.0,1429.0,1644.0,1983.0
20606,4023,US,34953245,33.0163888889,-86.3122222222,,Census,Census-designated place,AL,"Weogufka, Alabama",0,0,0,0,0,0,0,0,0,0,0,0,0,171,0.0,0,0,0.0,0.0,0.0,0.0,0.0,282.0
20609,11765,US,104907,31.0925,-88.2441666667,,Census,City,AL,"Citronelle, Alabama",0,0,0,0,0,0,250,0,0,169,0,696,935,932,1082.0,1057,1350,1918.0,1935.0,2841.0,3671.0,3659.0,3905.0
20617,16042,US,99885,32.4591666667,-86.4513888889,,Census,City,AL,"Prattville, Alabama",0,0,0,0,0,0,672,0,1346,977,724,1929,2222,2316,2331.0,2664,4385,6616.0,13116.0,18647.0,19587.0,24303.0,33960.0
20645,16347,US,104708,34.3513888889,-87.7075,,Census,Town,AL,"Phil Campbell, Alabama",0,0,0,0,0,0,0,0,0,0,0,0,0,418,472.0,533,469,898.0,1230.0,1549.0,1317.0,1091.0,1148.0
20646,9772,US,104870,34.7,-86.3763888889,,Census,Town,AL,"Gurley, Alabama",0,0,0,0,0,0,0,0,0,0,570,831,750,727,581.0,0,0,0.0,647.0,735.0,1007.0,876.0,801.0
20651,14174,US,104897,34.23,-87.6188888889,,Census,City,AL,"Haleyville, Alabama",0,0,0,0,0,0,0,0,0,0,0,165,1111,1404,2115.0,2427,3331,3740.0,4190.0,5306.0,4452.0,4182.0,4173.0
20688,6933,US,104629,34.2413888889,-86.9430555556,,Census,Town,AL,"West Point, Alabama",0,0,0,0,0,0,0,0,0,0,0,0,0,0,0.0,0,0,0.0,162.0,248.0,257.0,295.0,586.0
20712,6872,US,104804,33.5536111111,-86.9752777778,,Census,Town,AL,"Mulga, Alabama",0,0,0,0,0,0,0,0,0,0,0,0,0,0,0.0,0,532,482.0,582.0,405.0,261.0,973.0,836.0
20743,3376,US,31378124,32.02459,-86.45191,,Census,Unincorporated community,AL,"Sandy Ridge, Alabama",0,0,0,0,0,0,0,0,0,168,0,0,0,0,0.0,0,0,0.0,0.0,0.0,0.0,0.0,0.0
20761,4462,US,34689912,33.5236111111,-85.6372222222,,Census,Census-designated place,AL,"Hollis Crossroads, Alabama",0,0,0,0,0,0,0,0,0,0,0,0,0,0,0.0,0,0,0.0,0.0,0.0,0.0,0.0,0.0
20816,3856,US,34953414,33.7472222222,-85.6891666667,,Census,Census-designated place,AL,"White Plains, Calhoun County, Alabama",0,0,0,0,0,0,0,0,0,140,202,0,0,0,0.0,0,0,0.0,0.0,0.0,0.0,0.0,811.0
20900,9744,US,99894,30.4966666667,-87.9097222222,,Census,Census-designated place (cdp) &amp; unincorporated community,AL,"Point Clear, Alabama",0,0,0,0,0,0,0,0,0,49,0,0,0,0,0.0,0,0,0.0,0.0,1812.0,2125.0,1876.0,2125.0
20945,9567,US,104922,30.5888888889,-88.1977777778,,Census,Census-designated place (cdp) &amp; unincorporated community,AL,"Tillmans Corner, Alabama",0,0,0,0,0,0,0,0,0,0,0,0,0,0,0.0,0,0,0.0,0.0,15941.0,17988.0,15685.0,17398.0
20964,14134,US,104779,33.615,-86.8011111111,,Unknown,City,AL,"Fultondale, Alabama",0,0,0,0,0,0,0,0,0,0,0,0,0,0,0.0,0,0,0.0,0.0,0.0,0.0,0.0,0.0
21010,7661,US,104796,33.5205555556,-86.9366666667,,Census,Cdp,AL,"McDonald Chapel, Alabama",0,0,0,0,0,0,0,0,0,0,0,0,0,0,0.0,0,0,0.0,0.0,0.0,0.0,1054.0,717.0
21022,4644,US,4014770,33.6058333333,-86.0213888889,,Census,Unincorporated community,AL,"Eastaboga, Alabama",0,0,0,0,0,0,0,0,0,0,0,820,0,0,0.0,0,0,0.0,0.0,0.0,0.0,0.0,0.0
21030,7695,US,104754,34.7413888889,-86.1905555556,,Census,Town,AL,"Pleasant Groves, Alabama",0,0,0,0,0,0,0,0,0,0,0,0,0,0,0.0,0,0,0.0,0.0,0.0,0.0,447.0,420.0
21090,12718,US,104703,33.6919444444,-87.8322222222,,Census,City,AL,"Fayette, Alabama",0,0,0,0,0,0,0,0,0,180,0,452,636,1741,2109.0,2668,3707,4227.0,4568.0,5287.0,4909.0,4922.0,4619.0
21104,14621,US,104902,34.3480555556,-86.2944444444,,Census,City,AL,"Guntersville, Alabama",0,0,0,0,0,0,0,0,244,325,471,618,1145,1909,2826.0,4398,5253,6592.0,6491.0,7041.0,7038.0,7395.0,8197.0
21128,8850,US,101155,34.0091666667,-86.7480555556,,Census,Town,AL,"Garden City, Alabama",0,0,0,0,0,0,0,0,0,0,0,0,0,0,0.0,0,534,536.0,745.0,655.0,578.0,564.0,492.0
21425,18186,US,104660,34.2866666667,-85.9905555556,,Census,Town,AL,"Crossville, Alabama",0,0,0,0,0,0,0,0,0,0,0,0,0,0,316.0,436,609,579.0,1035.0,1222.0,1350.0,1431.0,1862.0
21432,9058,US,104729,32.5947222222,-87.5355555556,,Census,Town,AL,"Newbern, Alabama",0,0,0,0,0,0,0,0,0,454,0,564,515,438,389.0,388,367,316.0,286.0,307.0,222.0,231.0,186.0
21449,9335,US,104859,32.3061111111,-86.8175,,Census,Town,AL,"Benton, Alabama",0,0,0,0,0,0,0,0,0,0,265,0,0,0,0.0,0,0,0.0,115.0,74.0,48.0,47.0,49.0
21456,13607,US,104872,34.9236111111,-86.5669444444,,Census,Census-designated place (cdp) &amp; unincorporated community,AL,"Hazel Green, Alabama",0,0,0,0,0,0,0,0,0,0,0,0,0,0,0.0,0,0,0.0,0.0,1503.0,2208.0,3805.0,3630.0
21487,4925,US,15238639,32.1129888889,-87.9875888889,,Census,Census-designated place,AL,"Nanafalia, Alabama",0,0,0,0,0,0,0,0,0,0,0,0,0,0,0.0,0,0,0.0,0.0,0.0,0.0,0.0,0.0
21548,13632,US,104920,30.8544444444,-88.0544444444,,Census,City,AL,"Satsuma, Alabama",0,0,0,0,0,0,0,0,0,0,0,0,0,0,0.0,0,0,1491.0,2035.0,3822.0,5194.0,5687.0,6168.0
21586,4224,US,32161607,32.0936111111,-88.1630555556,,Census,Unincorporated community,AL,"Mount Sterling, Alabama",0,0,0,0,0,0,0,0,0,126,0,0,0,0,0.0,0,0,0.0,0.0,0.0,0.0,0.0,0.0
21602,5197,US,25707471,30.9216666667,-88.2005555556,,Census,Census-designated place,AL,"Chunchula, Alabama",0,0,0,0,0,0,0,0,0,214,258,0,0,0,0.0,0,0,0.0,0.0,0.0,0.0,0.0,210.0
21604,4062,US,33598331,32.4488888889,-88.1336111111,,Census,Census-designated place (cdp) &amp; unincorporated community,AL,"Bellamy, Alabama",0,0,0,0,0,0,0,0,0,0,0,0,0,0,0.0,0,0,0.0,0.0,0.0,0.0,0.0,0.0
21632,13602,US,104839,34.6683333333,-87.3105555556,,Census,Town,AL,"Courtland, Alabama",0,0,0,0,0,0,0,0,0,580,579,488,478,367,359.0,454,507,495.0,547.0,456.0,803.0,769.0,609.0
21641,6953,US,104692,34.1477777778,-86.1316666667,,Census,Neighborhood,AL,"Mountainboro, Boaz",0,0,0,0,0,0,0,0,0,0,0,0,0,0,0.0,0,0,0.0,311.0,266.0,261.0,338.0,0.0
21644,12692,US,105129,33.6816666667,-86.3991666667,,Census,Town,AL,"Odenville, Alabama",0,0,0,0,0,0,0,0,0,0,0,0,0,375,318.0,347,302,300.0,533.0,724.0,796.0,1131.0,3585.0
21645,6902,US,104545,32.8377777778,-85.2330555556,,Census,Census-designated place,AL,"Huguley, Alabama",0,0,0,0,0,0,0,0,0,0,0,0,0,0,0.0,0,0,0.0,0.0,2947.0,3161.0,2955.0,2540.0
21699,8393,US,103744,33.7558333333,-85.8086111111,,Census,City,AL,"Weaver, Alabama",0,0,0,0,0,0,0,0,0,0,0,0,0,0,0.0,0,743,1401.0,2091.0,2765.0,2715.0,2619.0,3038.0
21711,9506,US,104684,31.0922222222,-87.0530555556,,Census,City,AL,"East Brewton, Alabama",0,0,0,0,0,0,0,0,0,0,0,0,0,826,1002.0,1340,2173,2511.0,2336.0,3012.0,2579.0,2496.0,2478.0
21778,4310,US,23090884,34.7697222222,-86.4302777778,,Census,Unincorporated community,AL,"Maysville, Alabama",0,0,0,0,0,0,0,0,0,0,218,0,0,0,0.0,0,0,0.0,0.0,0.0,0.0,0.0,0.0
21833,25197,US,81321,33.8036111111,-87.2977777778,,Census,US County,AL,"Walker County, Alabama",0,0,0,0,2202,4032,5124,7980,6543,9479,16078,25162,37013,50593,59445.0,64201,63769,54211.0,56246.0,68660.0,67670.0,70713.0,67023.0
21839,10167,US,103736,33.9530555556,-85.9358333333,,Census,City,AL,"Glencoe, Alabama",0,0,0,0,0,0,0,0,0,0,0,0,0,0,0.0,669,1466,2592.0,2901.0,4648.0,4670.0,5152.0,5160.0
21854,6795,US,105091,33.1491666667,-88.1738888889,,Census,Town,AL,"McMullen, Alabama",0,0,0,0,0,0,0,0,0,0,0,0,0,0,0.0,0,0,0.0,73.0,164.0,112.0,66.0,10.0
21899,25833,US,76951,32.0202777778,-88.2630555556,,Census,US County,AL,"Choctaw County, Alabama",0,0,0,0,0,0,8389,13877,12676,15731,17526,18136,18483,20753,20513.0,20195,19152,17870.0,16589.0,16839.0,16018.0,15922.0,13859.0
21902,11883,US,106407,32.4975,-86.3686111111,,Census,City,AL,"Millbrook, Alabama",0,0,0,0,0,0,0,0,0,0,0,0,0,0,0.0,0,0,0.0,2382.0,3101.0,6050.0,10386.0,14640.0
21911,9939,US,104571,31.7061111111,-87.7741666667,,Census,Town,AL,"Grove Hill, Alabama",0,0,0,0,0,0,0,0,200,176,225,0,0,0,491.0,730,1443,1834.0,1825.0,1912.0,1551.0,1438.0,1570.0
21995,18691,US,99891,30.2677777778,-87.7013888889,,Census,City,AL,"Gulf Shores, Alabama",0,0,0,0,0,0,0,0,0,0,0,0,0,0,0.0,0,0,356.0,909.0,1349.0,3261.0,5044.0,9741.0
22121,9729,US,103739,33.8030555556,-86.0366666667,,Census,Town,AL,"Ohatchee, Alabama",0,0,0,0,0,0,0,0,0,0,0,0,0,0,0.0,0,0,437.0,445.0,860.0,1042.0,1215.0,1170.0
22126,9349,US,105156,33.055,-85.6388888889,,Census,Town,AL,"Daviston, Alabama",0,0,0,0,0,0,0,0,0,0,141,0,127,89,144.0,124,110,129.0,247.0,334.0,261.0,267.0,214.0
22127,12743,US,104736,31.2922222222,-85.1119444444,,Census,Town,AL,"Columbia, Alabama",0,0,0,0,0,0,0,0,0,290,960,1132,1122,860,926.0,829,849,783.0,891.0,881.0,922.0,804.0,740.0
22134,7317,US,104903,34.4,-86.4461111111,,Census,Town,AL,"Union Grove, Alabama",0,0,0,0,0,0,0,0,0,0,0,0,0,0,0.0,0,0,0.0,118.0,127.0,119.0,94.0,77.0
22194,3658,US,34812640,33.4263888889,-85.4933333333,,Census,Census-designated place,AL,"Morrison Crossroads, Alabama",0,0,0,0,0,0,0,0,0,0,0,0,0,0,0.0,0,0,0.0,0.0,0.0,0.0,0.0,0.0
22196,6306,US,11446223,31.3052777778,-87.5019444444,,Census,Census-designated place,AL,"Uriah, Alabama",0,0,0,0,0,0,0,0,0,0,0,0,0,0,0.0,0,0,0.0,0.0,0.0,0.0,0.0,0.0
22440,7050,US,104577,33.7308333333,-85.4316666667,,Census,Town,AL,"Fruithurst, Alabama",0,0,0,0,0,0,0,0,0,0,0,374,257,223,225.0,281,318,255.0,229.0,239.0,177.0,270.0,284.0
22512,8647,US,104562,31.8766666667,-88.3208333333,,Census,Town,AL,"Gilbertown, Alabama",0,0,0,0,0,0,0,0,0,0,0,0,0,229,0.0,0,413,270.0,207.0,218.0,235.0,187.0,215.0
22523,3319,US,1667354,33.1244444444,-85.5522222222,,Census,Unincorporated community,AL,"Louina, Alabama",0,0,0,0,0,0,0,0,0,148,0,0,0,0,0.0,0,0,0.0,0.0,0.0,0.0,0.0,0.0
22528,4170,US,30220740,31.2169444444,-88.3172222222,,Census,Unincorporated community,AL,"Deer Park, Alabama",0,0,0,0,0,0,0,0,0,0,0,0,0,0,0.0,0,0,0.0,0.0,0.0,0.0,0.0,0.0
22577,4355,US,43293824,32.3508333333,-85.3647222222,,Census,Unincorporated community,AL,"Uchee, Alabama",0,0,0,0,0,0,0,0,0,63,0,0,0,0,0.0,0,0,0.0,0.0,0.0,0.0,0.0,0.0
22603,37975,US,105100,31.8088888889,-85.97,,Census,City,AL,"Troy, Alabama",0,0,0,0,0,0,600,0,1058,2294,3449,4097,4961,5696,6814.0,7055,8555,10234.0,11482.0,13124.0,13051.0,13935.0,18033.0
22633,3708,US,4648695,34.0380555556,-87.9511111111,,Census,Ghost town,AL,"Pikeville, Marion County, Alabama",0,0,0,0,0,0,0,0,0,57,0,0,0,0,0.0,0,0,0.0,0.0,0.0,0.0,0.0,0.0
22695,28757,US,80788,34.1363888889,-87.8841666667,,Census,US County,AL,"Marion County, Alabama",0,0,0,0,4058,5847,7833,11182,6059,9364,11347,14494,17495,22008,25967.0,28776,27264,21837.0,23788.0,30041.0,29830.0,31214.0,30776.0
22764,3843,US,34881014,32.8872222222,-86.0377777778,,Census,Census-designated place,AL,"Ray, Alabama",0,0,0,0,0,0,0,0,0,0,0,0,0,0,0.0,0,0,0.0,0.0,0.0,0.0,0.0,0.0
22881,4816,US,31074708,31.5896,-87.69305,,Census,Unincorporated community,AL,"Suggsville, Alabama",0,0,0,0,0,0,0,0,0,134,0,0,0,0,0.0,0,0,0.0,0.0,0.0,0.0,0.0,0.0
22906,9711,US,104673,34.5583333333,-85.7961111111,,Census,Town,AL,"Sylvania, Alabama",0,0,0,0,0,0,0,0,0,0,0,0,0,0,0.0,0,0,0.0,476.0,1156.0,932.0,1186.0,1837.0
22915,8918,US,105122,33.3858333333,-86.41,,Census,City,AL,"Vincent, Alabama",0,0,0,0,0,0,0,0,0,0,0,765,995,1034,1192.0,1108,1240,1402.0,1419.0,1652.0,1767.0,1853.0,1988.0
22938,3897,US,34687537,33.4575,-85.3208333333,,Census,Census-designated place,AL,"Graham, Alabama",0,0,0,0,0,0,0,0,0,0,0,0,0,0,0.0,0,0,0.0,0.0,0.0,0.0,0.0,0.0
22958,3592,US,34746085,34.0344444444,-86.1452777778,,Census,Census-designated place,AL,"Ivalee, Alabama",0,0,0,0,0,0,0,0,0,0,0,0,0,0,0.0,0,0,0.0,0.0,0.0,0.0,0.0,0.0
22967,6971,US,104686,31.0272222222,-87.1722222222,,Census,Town,AL,"Pollard, Alabama",0,0,0,0,0,0,0,0,0,347,389,267,599,631,304.0,339,271,210.0,86.0,144.0,100.0,120.0,137.0
22983,2535,US,32911668,32.2072222222,-87.4372222222,,Census,Unincorporated community,AL,"Gastonburg, Alabama",0,0,0,0,0,0,0,0,0,0,0,0,145,140,136.0,0,0,0.0,0.0,0.0,0.0,0.0,0.0
23072,22878,US,77837,33.72,-87.7386111111,,Census,US County,AL,"Fayette County, Alabama",0,0,0,0,3547,6942,9681,12850,7136,10135,12823,14132,16248,18365,18443.0,21651,19388,16148.0,16252.0,18809.0,17962.0,18495.0,17241.0
23133,4763,US,19793499,32.185,-87.469,,Census,Census-designated place,AL,"Catherine, Alabama",0,0,0,0,0,0,0,0,0,0,0,0,0,0,0.0,0,0,0.0,0.0,0.0,0.0,0.0,0.0
23166,4789,US,2449144,33.9311111111,-86.7941666667,,Census,Unincorporated community,AL,"Blount Springs, Alabama",0,0,0,0,0,0,0,0,0,156,0,0,0,0,0.0,0,0,0.0,0.0,0.0,0.0,0.0,0.0
23222,10162,US,104884,32.4591666667,-87.5930555556,,Census,Town,AL,"Faunsdale, Alabama",0,0,0,0,0,0,0,0,0,0,211,333,352,268,264.0,185,199,124.0,227.0,174.0,96.0,87.0,98.0
23245,8100,US,104704,33.8994444444,-87.7302777778,,Census,Town,AL,"Glen Allen, Alabama",0,0,0,0,0,0,0,0,0,0,0,0,0,0,0.0,0,0,131.0,276.0,312.0,350.0,442.0,510.0
23312,7320,US,104599,31.4075,-86.4833333333,,Census,Town,AL,"Gantt, Alabama",0,0,0,0,0,0,0,0,0,0,0,0,0,0,0.0,0,0,0.0,270.0,314.0,265.0,241.0,222.0
23314,6274,US,30220722,31.2638888889,-88.3447222222,,Census,Unincorporated community,AL,"Vinegar Bend, Alabama",0,0,0,0,0,0,0,0,0,0,0,0,0,0,0.0,0,0,0.0,0.0,0.0,0.0,0.0,0.0
23320,14338,US,104556,33.1027777778,-86.7536111111,,Census,City,AL,"Calera, Alabama",0,0,0,0,0,0,0,0,0,234,753,770,754,852,975.0,1092,1361,1928.0,1655.0,2035.0,2136.0,3158.0,11620.0
23359,9628,US,100812,34.0291666667,-86.3205555556,,Census,Town,AL,"Altoona, Alabama",0,0,0,0,0,0,0,0,0,0,0,0,1071,1078,1098.0,995,860,744.0,781.0,928.0,960.0,984.0,933.0
23405,8138,US,104576,33.7069444444,-85.5105555556,,Census,Town,AL,"Edwardsville, Alabama",0,0,0,0,0,0,0,0,0,207,446,448,303,334,226.0,194,179,168.0,146.0,207.0,118.0,186.0,202.0
23447,24092,US,81316,32.5916666667,-88.2041666667,,Census,US County,AL,"Sumter County, Alabama",0,0,0,0,0,29937,22250,24035,24109,28728,29574,32710,28699,25569,26929.0,27321,23610,20041.0,16974.0,16908.0,16174.0,14798.0,13763.0
23534,6413,US,105126,33.6477777778,-86.4366666667,,Census,Town,AL,"Branchville, Alabama",0,0,0,0,0,0,0,0,0,0,0,0,0,0,0.0,0,0,0.0,225.0,365.0,370.0,825.0,0.0
23541,4124,US,36599551,34.14149,-87.25806,,Census,Unincorporated community,AL,"Houston, Alabama",0,0,0,0,0,0,0,0,0,103,0,0,0,0,0.0,0,0,0.0,0.0,0.0,0.0,0.0,0.0
23543,10132,US,105093,33.2305555556,-88.2725,,Census,Town,AL,"Pickensville, Alabama",0,0,0,0,0,0,276,0,0,264,0,241,214,158,0.0,0,0,0.0,132.0,132.0,169.0,662.0,608.0
23550,7587,US,18999999,33.3494444444,-86.5469444444,,Census,City,AL,"Westover, Alabama",0,0,0,0,0,0,0,0,0,0,0,0,0,0,0.0,0,0,0.0,0.0,0.0,0.0,0.0,1275.0
23590,8723,US,103732,33.7658333333,-85.8841666667,,Census,Census-designated place,AL,"Alexandria, Alabama",0,0,0,0,0,0,0,0,0,121,0,0,0,0,0.0,0,0,0.0,0.0,0.0,0.0,3692.0,3917.0
23599,7912,US,105174,33.9886111111,-87.4877777778,,Census,Town,AL,"Nauvoo, Alabama",0,0,0,0,0,0,0,0,0,0,0,0,392,489,648.0,533,416,318.0,265.0,259.0,240.0,284.0,221.0
23679,4052,US,34314585,31.7138888889,-88.2969444444,,Census,Census-designated place,AL,"Cullomburg, Alabama",0,0,0,0,0,0,0,0,0,0,0,0,0,0,0.0,0,0,0.0,0.0,0.0,0.0,0.0,0.0
23697,12794,US,106419,32.7355555556,-85.5741666667,,Census,Town,AL,"Waverly, Alabama",0,0,0,0,0,0,0,0,0,0,0,0,0,208,383.0,321,306,250.0,247.0,228.0,152.0,184.0,145.0
23704,9072,US,25707599,30.9297222222,-88.0269444444,,Census,,AL,"Axis, Alabama",0,0,0,0,0,0,0,0,0,0,0,0,0,0,0.0,0,0,0.0,0.0,0.0,0.0,0.0,0.0
23732,8469,US,40380491,32.3119444444,-85.5533333333,,Census,Unincorporated community,AL,"Warriorstand, Alabama",0,0,0,0,0,0,0,0,0,145,215,0,0,0,0.0,0,0,0.0,0.0,0.0,0.0,0.0,0.0
23764,10418,US,104878,34.5861111111,-86.4586111111,,Census,Town,AL,"Owens Cross Roads, Alabama",0,0,0,0,0,0,0,0,0,0,0,0,0,0,0.0,0,0,0.0,767.0,804.0,695.0,1124.0,1521.0
23786,23503,US,76928,33.9666666667,-86.5833333333,,Census,US County,AL,"Blount County, Alabama",0,0,0,2415,4233,5570,7367,10865,9945,15369,21927,23119,21456,25538,28020.0,29490,28975,25449.0,26853.0,36459.0,39248.0,51024.0,57322.0
23796,7581,US,104670,34.5336111111,-85.8947222222,,Census,Town,AL,"Powell, Alabama",0,0,0,0,0,0,0,0,0,0,0,0,0,0,0.0,0,0,0.0,474.0,636.0,762.0,926.0,955.0
23889,12015,US,104558,32.9588888889,-86.7436111111,,Census,City,AL,"Jemison, Alabama",0,0,0,0,0,0,0,0,0,102,0,245,413,419,459.0,456,847,977.0,1423.0,1828.0,1898.0,2248.0,2585.0
23930,10711,US,104603,31.0113888889,-86.3505555556,,Census,Town,AL,"Lockhart, Alabama",0,0,0,0,0,0,0,0,0,0,0,0,0,0,0.0,910,819,799.0,698.0,547.0,484.0,548.0,516.0
23976,15428,US,104908,30.8952777778,-88.0147222222,,Census,City,AL,"Creola, Alabama",0,0,0,0,0,0,0,0,0,0,0,0,0,0,0.0,0,0,0.0,472.0,1652.0,1896.0,2002.0,1926.0
24024,9711,US,105083,34.6038888889,-87.0861111111,,Census,Town,AL,"Trinity, Alabama",0,0,0,0,0,0,0,0,0,142,0,191,198,243,208.0,249,342,454.0,881.0,1328.0,1380.0,1841.0,2095.0
24096,25265,US,77367,34.4516666667,-86.8572222222,,Census,US County,AL,"Morgan County, Alabama",0,0,0,5263,9062,9841,10125,11335,12187,16428,24089,28820,33781,40196,46176.0,48148,52924,60454.0,77306.0,90231.0,100043.0,111064.0,119490.0
24126,3886,US,33601099,33.2158333333,-86.875,,Census,Census-designated place (cdp) &amp; unincorporated community,AL,"Brantleyville, Alabama",0,0,0,0,0,0,0,0,0,0,0,0,0,0,0.0,0,0,0.0,0.0,0.0,0.0,0.0,0.0
24142,7418,US,104866,32.3138888889,-86.7138888889,,Census,Town,AL,"White Hall, Alabama",0,0,0,0,0,0,0,0,0,0,0,0,0,0,0.0,0,0,0.0,367.0,251.0,814.0,1014.0,858.0
24254,7073,US,105173,33.9030555556,-87.5566666667,,Census,Town,AL,"Kansas, Alabama",0,0,0,0,0,0,0,0,0,0,0,0,0,0,0.0,0,0,211.0,227.0,267.0,230.0,260.0,226.0
24337,25354,US,77838,34.4333333333,-87.85,,Census,US County,AL,"Franklin County, Alabama",0,0,0,4988,11078,14270,19610,18627,8006,9155,10681,16511,19369,22011,25372.0,27552,25705,21988.0,23933.0,28350.0,27814.0,31223.0,31704.0
24341,27101,US,104680,32.5394444444,-85.8930555556,,Census,City,AL,"Tallassee, Alabama",0,0,0,0,0,0,0,0,0,1182,1413,0,1347,2034,843.0,1011,4225,4934.0,4809.0,4763.0,5112.0,4934.0,4819.0
24376,25941,US,81291,31.5708333333,-87.3697222222,,Census,US County,AL,"Monroe County, Alabama",0,0,0,8838,8782,10680,12013,15667,14214,17091,18990,23666,27155,28884,30070.0,29465,25732,22372.0,20883.0,22651.0,23968.0,24324.0,23068.0
24448,6951,US,104622,34.0519444444,-86.8827777778,,Census,Town,AL,"Dodge City, Alabama",0,0,0,0,0,0,0,0,0,0,0,0,0,0,0.0,0,0,0.0,0.0,0.0,0.0,612.0,593.0
24550,7645,US,101157,33.8841666667,-86.4222222222,,Census,Town,AL,"Highland Lake, Alabama",0,0,0,0,0,0,0,0,0,0,0,0,0,0,0.0,0,0,0.0,108.0,210.0,304.0,408.0,412.0
24556,6985,US,101162,33.8738888889,-86.8258333333,,Census,Cdp,AL,"Smoke Rise, Alabama",0,0,0,0,0,0,0,0,0,0,0,0,0,0,0.0,0,0,0.0,0.0,0.0,0.0,0.0,0.0
24667,6509,US,104855,34.9841666667,-87.1477777778,,Census,Town,AL,"Lester, Alabama",0,0,0,0,0,0,0,0,0,0,0,0,0,0,0.0,0,0,0.0,70.0,117.0,89.0,107.0,111.0
24723,13163,US,101165,33.8136111111,-86.8113888889,,Census,City,AL,"Warrior, Alabama",0,0,0,0,0,0,0,0,0,0,0,1018,660,568,646.0,1008,1384,2448.0,2621.0,3260.0,3280.0,3169.0,3176.0
24725,4657,US,48934025,31.4758333333,-85.4658333333,,Census,Unincorporated community,AL,"Echo, Alabama",0,0,0,0,0,0,0,0,0,123,0,0,0,0,0.0,0,0,0.0,0.0,0.0,0.0,0.0,0.0
24841,4133,US,38510130,31.1733333333,-85.7933333333,,Census,Unincorporated community,AL,"Bellwood, Alabama",0,0,0,0,0,0,0,0,0,0,0,0,201,0,299.0,285,263,273.0,0.0,0.0,0.0,0.0,0.0
24853,6605,US,104775,33.4688888889,-87.0380555556,,Census,Cdp,AL,"Concord, Alabama",0,0,0,0,0,0,0,0,0,0,0,0,0,0,0.0,0,0,0.0,0.0,0.0,0.0,1809.0,1837.0
24854,15819,US,104926,31.5180555556,-87.3275,,Census,City,AL,"Monroeville, Alabama",0,0,0,0,0,0,0,0,0,122,0,422,616,1017,1355.0,1724,2772,3632.0,4846.0,5674.0,6993.0,6862.0,6519.0
24939,6633,US,104600,31.3580555556,-86.4702777778,,Census,Town,AL,"Heath, Alabama",0,0,0,0,0,0,0,0,0,0,0,0,0,0,0.0,0,0,125.0,229.0,354.0,182.0,249.0,254.0
24957,6759,US,104638,31.3152777778,-85.4544444444,,Census,Town,AL,"Napier Field, Alabama",0,0,0,0,0,0,0,0,0,0,0,0,0,0,0.0,0,0,0.0,572.0,493.0,462.0,404.0,354.0
25027,3577,US,34881051,32.4813888889,-86.1438888889,,Census,Census-designated place,AL,"Redland, Alabama",0,0,0,0,0,0,0,0,0,0,0,0,0,0,0.0,0,0,0.0,0.0,0.0,0.0,0.0,0.0
25059,5179,US,33597861,33.1008333333,-85.5297222222,,Census,Census-designated place,AL,"Abanda, Alabama",0,0,0,0,0,0,0,0,0,0,0,0,0,0,0.0,0,0,0.0,0.0,0.0,0.0,0.0,0.0
25168,4860,US,8641867,33.9944444444,-86.97,,Census,Unincorporated community,AL,"Bremen, Alabama",0,0,0,0,0,0,0,0,0,51,0,0,0,0,0.0,0,0,0.0,0.0,0.0,0.0,0.0,0.0
25242,7407,US,104586,34.5908333333,-87.6755555556,,Census,Town,AL,"Littleville, Alabama",0,0,0,0,0,0,0,0,0,0,0,0,0,0,0.0,0,0,460.0,858.0,1262.0,925.0,978.0,1011.0
25289,8667,US,103743,33.9036111111,-86.0261111111,,Census,City,AL,"Southside, Alabama",0,0,0,0,0,0,0,0,0,0,0,0,0,0,0.0,0,0,436.0,983.0,5141.0,5580.0,7036.0,8412.0
25299,10190,US,104794,33.4272222222,-86.9225,,Census,City,AL,"Lipscomb, Alabama",0,0,0,0,0,0,0,0,0,0,0,0,0,1605,1774.0,1740,2550,2811.0,3225.0,3741.0,2892.0,2458.0,2210.0
25383,10632,US,104740,31.2916666667,-85.3455555556,,Census,Town,AL,"Kinsey, Alabama",0,0,0,0,0,0,0,0,0,0,0,342,340,0,0.0,0,0,283.0,219.0,1239.0,1679.0,1796.0,2198.0
25388,8853,US,104837,34.8722222222,-87.6925,,Census,Census-designated place (cdp),AL,"Underwood-Petersville, Alabama",0,0,0,0,0,0,0,0,0,0,0,0,0,0,0.0,0,0,0.0,0.0,3836.0,3092.0,3137.0,3247.0
25486,10721,US,104928,32.2697222222,-86.1402777778,,Census,Town,AL,"Pike Road, Alabama",0,0,0,0,0,0,0,0,0,0,0,0,0,0,0.0,0,0,0.0,0.0,0.0,0.0,310.0,5406.0
25516,12603,US,104694,33.9438888889,-86.0616666667,,Census,City,AL,"Rainbow City, Alabama",0,0,0,0,0,0,0,0,0,0,0,0,0,0,0.0,0,0,1625.0,3107.0,6299.0,7673.0,8428.0,9602.0
25547,32591,US,81310,33.2652777778,-86.6677777778,,Census,US County,AL,"Shelby County, Alabama",0,0,0,2416,5704,6112,9536,12618,12218,17236,20886,23684,26949,27097,27576.0,28962,30362,32132.0,38037.0,66298.0,99358.0,143293.0,195085.0
25556,3919,US,34899693,33.4308333333,-86.6108333333,,Census,Census-designated place,AL,"Shoal Creek, Alabama",0,0,0,0,0,0,0,0,0,0,0,0,0,0,0.0,0,0,0.0,0.0,0.0,0.0,0.0,0.0
25693,23839,US,76938,33.7694444444,-85.8208333333,,Census,US County,AL,"Calhoun County, Alabama",0,0,0,0,0,14260,17163,21539,13980,19591,33835,34874,39115,47822,55611.0,63319,79539,95878.0,103092.0,119761.0,116034.0,112249.0,118572.0
25795,7509,US,104700,33.6458333333,-87.9308333333,,Census,Town,AL,"Belk, Alabama",0,0,0,0,0,0,0,0,0,0,0,0,0,0,0.0,0,0,0.0,64.0,308.0,255.0,214.0,215.0
25814,5625,US,34783796,31.38,-87.4283333333,,Census,Census-designated place,AL,"Megargel, Alabama",0,0,0,0,0,0,0,0,0,0,0,0,0,0,0.0,0,0,0.0,0.0,0.0,0.0,0.0,0.0
25834,25989,US,99889,30.5263888889,-87.8955555556,,Census,City,AL,"Fairhope, Alabama",0,0,0,0,0,0,0,0,0,0,0,0,590,853,1549.0,1845,3354,4858.0,5720.0,7286.0,8485.0,12480.0,15326.0
25926,5085,US,35041691,31.0077777778,-87.6272222222,,Census,Unincorporated community,AL,"Perdido, Alabama",0,0,0,0,0,0,0,0,0,0,0,0,0,0,0.0,0,0,0.0,0.0,0.0,0.0,0.0,0.0
25929,8189,US,104748,34.7169444444,-85.9655555556,,Census,Town,AL,"Hollywood, Alabama",0,0,0,0,0,0,0,0,0,0,0,168,234,276,274.0,311,477,246.0,301.0,1110.0,916.0,950.0,1000.0
25958,13537,US,104617,34.3277777778,-86.4986111111,,Census,City,AL,"Arab, Alabama",0,0,0,0,0,0,0,0,0,0,0,0,0,264,425.0,640,1592,2989.0,4399.0,6053.0,6321.0,7174.0,8050.0
26009,9837,US,105170,33.7291666667,-87.0902777778,,Census,City,AL,"Dora, Alabama",0,0,0,0,0,0,0,0,0,0,0,385,916,1117,1143.0,1032,984,1776.0,1862.0,2327.0,2214.0,2413.0,2025.0
26070,10083,US,104662,34.4466666667,-85.9063888889,,Census,Town,AL,"Fyffe, Alabama",0,0,0,0,0,0,0,0,0,0,0,0,0,0,0.0,0,0,230.0,311.0,1305.0,1094.0,971.0,1018.0
26074,25261,US,105086,33.1261111111,-88.1541666667,,Census,City,AL,"Aliceville, Alabama",0,0,0,0,0,0,0,0,0,0,0,0,640,944,1066.0,1475,3170,3194.0,2851.0,3207.0,3009.0,2567.0,2486.0
26078,14686,US,103740,33.5969444444,-85.8386111111,,Census,City,AL,"Oxford, Alabama",0,0,0,0,0,0,0,0,0,780,1473,1372,1090,1108,1206.0,1393,1697,3603.0,4361.0,8939.0,9362.0,14592.0,21348.0
26092,17402,US,3450114,32.0783555556,-87.2803694444,,Census,Census-designated place,AL,"Boykin, Alabama",0,0,0,0,0,0,0,0,0,0,0,0,0,0,0.0,0,0,0.0,0.0,0.0,0.0,0.0,0.0
26110,3263,US,21627843,31.8308333333,-87.0936111111,,Census,Unincorporated community,AL,"McWilliams, Alabama",0,0,0,0,0,0,0,0,0,0,0,0,184,156,248.0,0,0,0.0,0.0,0.0,0.0,0.0,0.0
26156,4559,US,33598111,34.0586111111,-85.8080555556,,Census,Census-designated place,AL,"Ballplay, Alabama",0,0,0,0,0,0,0,0,0,0,0,0,0,0,0.0,0,0,0.0,0.0,0.0,0.0,0.0,0.0
26286,6870,US,105088,33.4133333333,-88.2152777778,,Census,Town,AL,"Ethelsville, Alabama",0,0,0,0,0,0,0,0,0,0,0,0,0,0,0.0,0,0,62.0,98.0,95.0,52.0,81.0,81.0
26314,8930,US,99895,30.5544444444,-87.7055555556,,Census,City,AL,"Robertsdale, Alabama",0,0,0,0,0,0,0,0,0,0,0,0,0,0,678.0,779,1128,1474.0,2078.0,2306.0,2401.0,3782.0,5276.0
26349,14564,US,104578,33.6438888889,-85.5827777778,,Census,City,AL,"Heflin, Alabama",0,0,0,0,0,0,0,0,0,0,383,460,839,1026,1231.0,1684,1982,2400.0,2872.0,3014.0,2906.0,3002.0,3480.0
26377,6241,US,34689865,33.1175,-86.1444444444,,Census,Census-designated place,AL,"Hollins, Alabama",0,0,0,0,0,0,0,0,0,0,422,238,688,0,0.0,0,0,0.0,0.0,0.0,0.0,0.0,545.0
26451,24635,US,81324,31.985,-87.3108333333,,Census,US County,AL,"Wilcox County, Alabama",0,0,0,2917,9548,15278,17352,24618,28377,31828,30816,35631,33810,31080,24880.0,26279,23476,18739.0,16303.0,14755.0,13568.0,13183.0,11670.0
26486,29286,US,105149,33.1783333333,-86.2511111111,,Census,City,AL,"Sylacauga, Alabama",0,0,0,0,0,0,0,0,0,0,464,880,1456,2141,4115.0,6269,9606,12857.0,12255.0,12708.0,12520.0,12616.0,12749.0
26588,11868,US,104626,34.0633333333,-86.7608333333,,Census,City,AL,"Hanceville, Alabama",0,0,0,0,0,0,0,0,0,150,0,0,464,441,780.0,650,775,1174.0,2027.0,2220.0,2246.0,2951.0,2982.0
26607,11301,US,104925,31.4336111111,-87.4019444444,,Census,Town,AL,"Frisco City, Alabama",0,0,0,0,0,0,0,0,0,0,0,0,442,576,1021.0,994,1068,1177.0,1286.0,1424.0,1581.0,1460.0,1309.0
26657,19178,US,104683,31.1175,-87.0711111111,,Census,City,AL,"Brewton, Alabama",0,0,0,0,0,0,0,0,0,0,1115,1382,2185,2682,2818.0,3323,5146,6309.0,6747.0,6680.0,5885.0,5498.0,5408.0
26760,14300,US,105113,33.3258333333,-86.4261111111,,Census,Town,AL,"Harpersville, Alabama",0,0,0,0,0,0,0,0,0,194,0,0,0,0,0.0,0,348,667.0,639.0,934.0,772.0,1620.0,1637.0
26822,7163,US,104672,34.4652777778,-85.8772222222,,Census,Town,AL,"Shiloh, DeKalb County, Alabama",0,0,0,0,0,0,0,0,0,0,0,0,0,0,0.0,0,0,0.0,233.0,297.0,252.0,289.0,274.0
26963,3922,US,38510367,31.1541666667,-85.1755555556,,Census,Unincorporated community,AL,"Pansey, Alabama",0,0,0,0,0,0,0,0,0,0,0,0,106,166,0.0,0,0,0.0,0.0,0.0,0.0,0.0,0.0
26968,14384,US,104575,33.3125,-85.7525,,Census,City,AL,"Lineville, Alabama",0,0,0,0,0,0,0,0,0,0,234,211,1053,1507,1329.0,1300,1548,1612.0,1984.0,2257.0,2394.0,2401.0,2395.0
26981,11010,US,18770037,33.201248,-87.150242,,Census,Town,AL,"Woodstock, Alabama",0,0,0,0,0,0,0,0,0,0,0,0,0,0,0.0,0,0,0.0,0.0,0.0,0.0,986.0,1428.0
26999,49823,US,104844,32.5977777778,-85.4808333333,,Census,City,AL,"Auburn, Alabama",0,0,0,0,0,0,0,0,1018,1161,1440,1447,1408,2143,2800.0,4652,12939,16261.0,22767.0,28471.0,33830.0,42987.0,53380.0
27090,8682,US,105142,33.2636111111,-86.3336111111,,Census,Town,AL,"Bon Air, Alabama",0,0,0,0,0,0,0,0,0,0,0,0,0,0,0.0,371,360,297.0,214.0,118.0,91.0,96.0,116.0
27145,8044,US,104924,31.4272222222,-87.3405555556,,Census,Town,AL,"Excel, Alabama",0,0,0,0,0,0,0,0,0,0,0,0,0,0,0.0,0,316,313.0,422.0,385.0,571.0,582.0,723.0
27159,23789,US,77368,34.6766666667,-87.8172222222,,Census,US County,AL,"Colbert County, Alabama",0,0,0,0,0,0,0,0,12537,16153,20189,22341,24802,31997,29860.0,34093,39561,46506.0,49632.0,54519.0,51666.0,54984.0,54428.0
27212,9689,US,104756,34.5780555556,-85.9880555556,,Census,Town,AL,"Section, Alabama",0,0,0,0,0,0,0,0,0,0,0,0,0,0,0.0,0,476,595.0,702.0,821.0,777.0,769.0,770.0
27231,12564,US,104807,33.4925,-86.9730555556,,Census,City,AL,"Pleasant Grove, Alabama",0,0,0,0,0,0,0,0,0,0,0,0,0,0,0.0,1066,1802,3097.0,5090.0,7102.0,8458.0,9983.0,10110.0
27262,6622,US,104725,32.9941666667,-87.9052777778,,Census,Town,AL,"Union, Alabama",0,0,0,0,0,0,0,0,0,0,0,0,0,0,0.0,0,0,0.0,231.0,358.0,321.0,227.0,237.0
27274,7717,US,100816,33.9919444444,-86.5758333333,,Census,Town,AL,"Cleveland, Alabama",0,0,0,0,0,0,0,0,0,0,0,0,0,0,0.0,0,0,0.0,413.0,487.0,739.0,1241.0,1303.0
27423,9348,US,104593,33.0597222222,-86.0527777778,,Census,Town,AL,"Goodwater, Alabama",0,0,0,0,0,0,0,0,0,0,589,728,740,920,996.0,1028,1227,2023.0,2172.0,1895.0,1840.0,1633.0,1475.0
27446,3346,US,39580926,33.7344444444,-85.3861111111,,Census,Unincorporated community,AL,"Muscadine, Alabama",0,0,0,0,0,0,0,0,0,0,100,132,130,114,98.0,0,0,0.0,0.0,0.0,0.0,0.0,0.0
27448,11746,US,104850,34.9869444444,-86.8430555556,,Census,Town,AL,"Ardmore, Alabama",0,0,0,0,0,0,0,0,0,0,0,0,0,0,266.0,381,408,439.0,761.0,1096.0,1090.0,1034.0,1194.0
27636,9113,US,104828,34.92,-87.2702777778,,Census,Town,AL,"Anderson, Alabama",0,0,0,0,0,0,0,0,0,0,0,0,0,0,0.0,0,0,0.0,373.0,405.0,339.0,354.0,282.0
27670,9481,US,104824,33.5602777778,-88.0802777778,,Census,Town,AL,"Millport, Alabama",0,0,0,0,0,0,0,0,0,0,244,357,529,604,714.0,700,682,943.0,1070.0,1287.0,1203.0,1160.0,1049.0
27687,13212,US,104585,34.6997222222,-87.5308333333,,Census,Town,AL,"Leighton, Alabama",0,0,0,0,0,0,0,0,0,279,0,506,540,598,670.0,810,1080,1158.0,1231.0,1218.0,988.0,849.0,729.0
27744,10788,US,104773,33.7,-86.6227777778,,Census,City,AL,"Clay, Alabama",0,0,0,0,0,0,0,0,0,0,0,0,0,0,0.0,0,0,0.0,0.0,0.0,0.0,4947.0,9708.0
27750,13037,US,104849,32.5391666667,-85.0986111111,,Census,City,AL,"Smiths Station, Alabama",0,0,0,0,0,0,0,0,0,0,0,0,0,0,0.0,0,0,0.0,0.0,0.0,3456.0,21756.0,4926.0
27756,26090,US,77365,34.05,-86.0333333333,,Census,US County,AL,"Etowah County, Alabama",0,0,0,0,0,0,0,0,10109,15398,21926,27361,39109,47275,63399.0,72580,93892,96980.0,94144.0,103057.0,99840.0,103459.0,104430.0
27829,15585,US,99886,30.8833333333,-87.7769444444,,Census,City,AL,"Bay Minette, Alabama",0,0,0,0,0,0,0,0,0,0,0,0,749,1092,1545.0,1763,3732,5197.0,6727.0,7455.0,7168.0,7820.0,8044.0
27850,6893,US,104741,31.035,-85.3972222222,,Census,Town,AL,"Madrid, Alabama",0,0,0,0,0,0,0,0,0,0,0,0,0,0,279.0,229,312,245.0,238.0,172.0,211.0,303.0,350.0
27889,4970,US,3991997,31.9477777778,-85.7052777778,,Census,Unincorporated community,AL,"Perote, Alabama",0,0,0,0,0,0,0,0,0,245,0,0,0,134,143.0,0,0,0.0,0.0,0.0,0.0,0.0,0.0
27893,3459,US,36485899,32.4569444444,-85.1897222222,,Census,Unincorporated community,AL,"Crawford, Russell County, Alabama",0,0,0,0,0,0,0,187,0,124,0,0,0,0,0.0,0,0,0.0,0.0,0.0,0.0,0.0,0.0
27905,189459,US,303,,,,Census,US State,AL,Alabama,0,1250,9046,127901,309527,590756,771623,964201,996992,1262505,1513401,1828697,2138093,2348174,2646248.0,2832961,3061743,3266740.0,3444165.0,3893888.0,4040587.0,4447100.0,4779745.0
27955,8357,US,104607,31.35,-86.5333333333,,Census,Town,AL,"River Falls, Alabama",0,0,0,0,0,0,0,0,0,0,0,0,760,1107,556.0,413,376,401.0,580.0,669.0,710.0,616.0,526.0
27972,8631,US,104750,34.5347222222,-86.0822222222,,Census,Town,AL,"Langston, Alabama",0,0,0,0,0,0,0,0,0,0,0,270,314,500,0.0,0,0,0.0,0.0,0.0,207.0,254.0,270.0
28037,8649,US,104865,32.1730555556,-86.6772222222,,Census,Town,AL,"Mosses, Alabama",0,0,0,0,0,0,0,0,0,0,0,0,0,0,0.0,0,0,0.0,158.0,649.0,1072.0,1101.0,1029.0
28116,37248,US,81320,,,,Census,US County,AL,"Tuscaloosa County, Alabama",0,0,0,8229,13646,16583,18056,23200,20081,24957,30352,36147,47559,53680,64153.0,76036,94092,109047.0,116029.0,137541.0,150522.0,164875.0,194656.0
28141,24351,US,77827,34.4572222222,-85.8066666667,,Census,US County,AL,"DeKalb County, Alabama",0,0,0,0,0,5929,8245,10705,7126,12675,21106,23558,28261,34426,40104.0,43075,45048,41417.0,41981.0,53658.0,54651.0,64452.0,71109.0
28177,7598,US,19765973,34.6,-86.9777777778,,Census,NHRP,AL,"Albany, Alabama",0,0,0,0,0,0,0,0,0,0,3565,4437,6118,7652,0.0,0,0,0.0,0.0,0.0,0.0,0.0,0.0
28190,24057,US,76943,32.9111111111,-85.3938888889,,Census,US County,AL,"Chambers County, Alabama",0,0,0,0,0,17333,23960,23214,17562,23440,26319,32554,36056,41201,39313.0,42146,39528,37828.0,36356.0,39191.0,36876.0,36583.0,34215.0
28256,24642,US,104787,33.4377777778,-86.9975,,Census,City,AL,"Hueytown, Alabama",0,0,0,0,0,0,0,0,0,0,0,0,0,0,0.0,0,0,5997.0,8174.0,13452.0,15280.0,15364.0,16105.0
28259,5924,US,43278818,33.5936111111,-86.8572222222,,Census,Unincorporated community,AL,"Coalburg, Alabama",0,0,0,0,0,0,0,0,0,0,842,0,0,0,0.0,0,0,0.0,0.0,0.0,0.0,0.0,0.0
28321,2644,US,46521967,33.9875,-85.52,,Census,Unincorporated community,AL,"Pleasant Gap, Alabama",0,0,0,0,0,0,0,0,0,120,0,0,0,0,0.0,0,0,0.0,0.0,0.0,0.0,0.0,0.0
28406,3574,US,47637035,32.5277777778,-87.2863888889,,Census,Unincorporated community,AL,"Hamburg, Alabama",0,0,0,0,0,0,92,0,0,0,0,0,0,0,0.0,0,0,0.0,0.0,0.0,0.0,0.0,0.0
28421,4176,US,4014800,33.5863888889,-86.0216666667,,Census,Unincorporated community,AL,"Old Eastaboga, Alabama",0,0,0,0,0,0,0,0,0,0,0,398,94,0,0.0,0,0,0.0,0.0,0.0,0.0,0.0,0.0
28433,17037,US,105169,33.76,-87.1869444444,,Census,City,AL,"Cordova, Alabama",0,0,0,0,0,0,0,0,0,0,0,567,1747,1622,1830.0,1881,3156,3184.0,2750.0,3123.0,2623.0,2423.0,2095.0
28574,9844,US,104553,34.2677777778,-85.5580555556,,Census,Town,AL,"Gaylesville, Alabama",0,0,0,0,0,0,0,0,0,183,0,266,204,226,204.0,183,194,144.0,161.0,192.0,149.0,140.0,144.0
28583,7731,US,104618,34.2669444444,-86.6027777778,,Census,Town,AL,"Baileyton, Alabama",0,0,0,0,0,0,0,0,0,0,0,0,0,0,0.0,0,0,0.0,341.0,396.0,352.0,684.0,610.0
28664,6505,US,6879177,32.1297222222,-86.4858333333,,Census,Unincorporated community,AL,"Letohatchee, Alabama",0,0,0,0,0,0,0,0,0,73,112,0,0,0,0.0,0,0,0.0,0.0,0.0,0.0,0.0,0.0
28745,17620,US,104723,32.8405555556,-87.8888888889,,Census,City,AL,"Eutaw, Alabama",0,0,0,0,0,0,2000,0,0,1101,1115,884,1001,1359,1721.0,1895,2348,2784.0,2805.0,2444.0,2281.0,1878.0,2934.0
28760,20940,US,104595,31.3,-86.4833333333,,Census,City,AL,"Andalusia, Alabama",0,0,0,0,0,0,0,0,0,596,270,551,2480,4023,5154.0,6886,9162,10263.0,10092.0,10415.0,9269.0,8794.0,9015.0
28780,15571,US,104793,33.5455555556,-86.5575,,Census,City,AL,"Leeds, Alabama",0,0,0,0,0,0,0,0,0,0,250,0,810,1600,2529.0,2910,3306,6162.0,6991.0,8638.0,9946.0,10455.0,11773.0
28823,6446,US,105180,31.6313888889,-88.3188888889,,Census,Town,AL,"Millry, Alabama",0,0,0,0,0,0,0,0,0,0,0,0,0,0,0.0,0,607,645.0,911.0,956.0,781.0,615.0,546.0
28839,11561,US,105178,31.4613888889,-88.2477777778,,Census,Town,AL,"Chatom, Alabama",0,0,0,0,0,0,0,0,0,0,0,0,0,0,0.0,0,609,993.0,1059.0,1122.0,1094.0,1193.0,1288.0
28844,7284,US,101156,33.8933333333,-86.7569444444,,Census,Town,AL,"Hayden, Alabama",0,0,0,0,0,0,0,0,0,0,0,0,0,0,0.0,0,203,187.0,195.0,268.0,385.0,470.0,444.0
28907,5453,US,15885202,30.7566666667,-88.1030555556,,Census,Unincorporated community,AL,"Whistler, Alabama",0,0,0,0,0,0,0,0,0,1333,0,0,0,0,0.0,0,0,0.0,0.0,0.0,0.0,0.0,0.0
28916,12564,US,104857,34.6269444444,-86.8811111111,,Census,Town,AL,"Mooresville, Alabama",0,0,0,0,0,0,0,0,165,183,143,150,137,144,114.0,129,101,93.0,72.0,58.0,54.0,59.0,53.0
28974,7006,US,104891,32.09737,-87.86751,,Census,Town,AL,"Sweet Water, Alabama",0,0,0,0,0,0,0,0,0,0,0,0,0,0,0.0,0,0,0.0,265.0,253.0,243.0,234.0,258.0
28975,9443,US,99896,30.5452777778,-87.7505555556,,Census,Town,AL,"Silverhill, Alabama",0,0,0,0,0,0,0,0,0,0,0,0,0,0,314.0,270,354,417.0,552.0,624.0,556.0,616.0,706.0
29050,7651,US,104590,31.2977777778,-87.025,,Census,Town,AL,"Castleberry, Alabama",0,0,0,0,0,0,0,0,0,0,0,167,225,313,427.0,609,667,669.0,666.0,847.0,669.0,590.0,583.0
29052,7660,US,104832,34.9661111111,-87.3727777778,,Census,Town,AL,"Lexington, Alabama",0,0,0,0,0,0,0,0,0,72,0,0,0,0,0.0,0,0,315.0,278.0,884.0,821.0,840.0,735.0
29068,11532,US,104843,34.6713888889,-87.4083333333,,Census,Town,AL,"Town Creek, Alabama",0,0,0,0,0,0,0,0,0,150,201,280,344,405,427.0,637,763,810.0,1203.0,1201.0,1379.0,1216.0,1100.0
29073,5736,US,44282214,33.41,-86.1208333333,,Census,Unincorporated community,AL,"Bemiston, Alabama",0,0,0,0,0,0,0,0,0,0,0,0,0,0,0.0,0,1007,0.0,0.0,0.0,0.0,0.0,0.0
29102,7999,US,104597,31.2313888889,-86.5205555556,,Census,Town,AL,"Carolina, Alabama",0,0,0,0,0,0,0,0,0,0,0,0,0,0,0.0,0,0,0.0,192.0,203.0,201.0,248.0,297.0
29107,10237,US,99898,30.4877777778,-87.6997222222,,Census,Town,AL,"Summerdale, Alabama",0,0,0,0,0,0,0,0,0,0,0,0,0,0,267.0,239,489,533.0,550.0,546.0,559.0,655.0,862.0
29144,7189,US,104601,31.2405555556,-86.3191666667,,Census,Town,AL,"Horn Hill, Alabama",0,0,0,0,0,0,0,0,0,0,0,0,0,0,0.0,0,0,0.0,136.0,186.0,0.0,235.0,228.0
29167,12979,US,104732,31.3533333333,-85.3397222222,,Census,City,AL,"Headland, Alabama",0,0,0,0,0,0,0,0,0,0,0,602,1090,1252,1811.0,2052,2091,2650.0,2545.0,3327.0,3266.0,3523.0,4510.0
29216,10417,US,105114,33.3680555556,-86.7411111111,,Census,Town,AL,"Indian Springs Village, Alabama",0,0,0,0,0,0,0,0,0,0,0,0,0,0,0.0,0,0,0.0,0.0,0.0,0.0,2225.0,2363.0
29310,4189,US,33774621,34.0775,-85.8741666667,,Census,Census-designated place,AL,"Coats Bend, Alabama",0,0,0,0,0,0,0,0,0,0,0,0,0,0,0.0,0,0,0.0,0.0,0.0,0.0,0.0,0.0
29363,14144,US,105125,33.837,-86.255,,Census,City,AL,"Ashville, Alabama",0,0,0,0,0,0,0,117,0,0,0,362,278,349,369.0,385,494,973.0,986.0,1489.0,1494.0,2260.0,2212.0
29391,128911,US,104854,34.73,-86.585,,Census,City,AL,"Huntsville, Alabama",0,0,0,0,0,2496,2863,3634,4907,4977,7995,8068,7611,8018,11554.0,13050,16437,72365.0,139282.0,142513.0,159789.0,158216.0,180105.0
29399,6664,US,104570,31.7902777778,-87.7327777778,,Census,Town,AL,"Fulton, Alabama",0,0,0,0,0,0,0,0,0,0,0,140,518,709,766.0,707,696,688.0,628.0,606.0,384.0,308.0,272.0
29411,10139,US,99892,30.6236111111,-87.7547222222,,Census,Town,AL,"Loxley, Alabama",0,0,0,0,0,0,0,0,0,0,0,0,0,0,0.0,0,0,831.0,859.0,804.0,1161.0,1348.0,1632.0
29466,24539,US,104899,34.2652777778,-86.2111111111,,Census,City,AL,"Albertville, Alabama",0,0,0,0,0,0,0,0,0,0,0,0,1544,1666,2716.0,3651,5397,8250.0,9963.0,12039.0,14507.0,17247.0,21160.0
29502,25104,US,76925,31.8658333333,-85.3961111111,,Census,US County,AL,"Barbour County, Alabama",0,0,0,0,0,12024,23632,30812,29309,33979,34898,35152,32728,32067,32425.0,32722,28892,24700.0,22543.0,24756.0,25417.0,29038.0,27457.0
29505,6860,US,104712,31.0111111111,-85.7441666667,,Census,Town,AL,"Black, Alabama",0,0,0,0,0,0,0,0,0,0,0,0,485,614,335.0,348,239,133.0,171.0,156.0,174.0,202.0,207.0
29560,3605,US,34812985,34.1336111111,-86.2280555556,,Census,Census-designated place,AL,"New Union, Alabama",0,0,0,0,0,0,0,0,0,0,0,0,0,0,0.0,0,0,0.0,0.0,0.0,0.0,0.0,0.0
29569,7506,US,104654,31.3127777778,-85.5458333333,,Census,Town,AL,"Pinckard, Alabama",0,0,0,0,0,0,0,0,0,0,0,711,541,969,633.0,555,515,578.0,609.0,771.0,618.0,667.0,647.0
29622,7601,US,104623,34.2486111111,-86.6875,,Census,Town,AL,"Fairview, Alabama",0,0,0,0,0,0,0,0,0,0,0,0,0,0,0.0,0,0,0.0,313.0,450.0,383.0,522.0,446.0
29661,11779,US,104691,34.0,-85.8666666667,,Census,City,AL,"Hokes Bluff, Alabama",0,0,0,0,0,0,0,0,0,0,0,0,0,0,0.0,0,1158,1619.0,2133.0,3216.0,3739.0,4149.0,4286.0
29711,6480,US,7960910,32.7847222222,-85.3058333333,,Census,Town,AL,"Cusseta, Alabama",0,0,0,0,0,0,0,0,0,0,0,0,0,0,0.0,0,0,0.0,0.0,0.0,0.0,0.0,123.0
29758,22266,US,77371,31.4255555556,-86.9938888889,,Census,US County,AL,"Conecuh County, Alabama",0,0,0,5713,7444,8197,9322,11311,9574,12605,14594,17514,21433,24593,25429.0,25489,21776,17762.0,15645.0,15884.0,14054.0,14089.0,13228.0
29810,15314,US,1758528,31.5402777778,-88.0552777778,,Census,,AL,"St. Stephens, Alabama",0,0,0,0,0,0,0,0,0,0,387,0,0,0,0.0,0,0,0.0,0.0,0.0,0.0,0.0,495.0
29837,7175,US,104592,31.4088888889,-87.2394444444,,Census,Town,AL,"Repton, Alabama",0,0,0,0,0,0,0,0,0,0,0,170,331,422,420.0,365,364,314.0,277.0,313.0,293.0,280.0,282.0
29861,14687,US,104588,34.7597222222,-87.6947222222,,Census,City,AL,"Sheffield, Alabama",0,0,0,0,0,0,0,0,0,0,2731,3333,4865,6682,6221.0,7933,10767,13491.0,13115.0,11903.0,10380.0,9652.0,9039.0
29931,19066,US,104632,31.3022222222,-85.7108333333,,Census,City,AL,"Daleville, Alabama",0,0,0,0,0,0,0,0,0,0,0,0,0,0,0.0,0,0,693.0,5182.0,4250.0,5117.0,4653.0,5295.0
29932,26469,US,104661,34.4536111111,-85.7063888889,,Census,City,AL,"Fort Payne, Alabama",0,0,0,0,0,0,0,0,0,0,2698,1037,1317,2025,3375.0,4424,6226,7029.0,8435.0,11485.0,11838.0,12938.0,14012.0
29987,52728,US,77868,,,,Census,US County,AL,"Jefferson County, Alabama",0,0,0,0,6855,7131,8989,11746,12345,23272,88501,140420,226476,310054,431493.0,459930,558928,634864.0,644991.0,671371.0,651525.0,662047.0,658466.0
30064,4195,US,38491030,31.6086111111,-85.43,,Census,Unincorporated community,AL,"Clopton, Alabama",0,0,0,0,0,0,0,0,0,142,0,0,0,0,0.0,0,0,0.0,0.0,0.0,0.0,0.0,0.0
30072,13466,US,104639,31.35,-85.6,,Census,Town,AL,"Newton, Alabama",0,0,0,0,0,0,0,0,0,469,520,457,524,680,661.0,616,745,958.0,1865.0,1540.0,1580.0,1708.0,1511.0
30096,87928,US,57690,32.3616666667,-86.2791666667,,Census,City,AL,"Montgomery, Alabama",0,0,0,0,695,2179,8728,8843,10588,16713,21883,30346,38136,43464,66079.0,78084,106525,134393.0,133386.0,177857.0,187106.0,201568.0,205764.0
30139,31038,US,80787,,,,Census,US County,AL,"Marengo County, Alabama",0,0,0,2933,7700,17264,27831,31171,26151,30890,33095,38315,39923,36065,36426.0,35736,29494,27098.0,23819.0,25047.0,23084.0,22539.0,21027.0
30141,8002,US,101164,34.0819444444,-86.4194444444,,Census,Town,AL,"Susan Moore, Alabama",0,0,0,0,0,0,0,0,0,0,0,0,0,0,0.0,0,0,0.0,0.0,0.0,658.0,721.0,763.0
30243,7446,US,104620,33.945,-86.8994444444,,Census,Town,AL,"Colony, Alabama",0,0,0,0,0,0,0,0,0,0,0,0,0,0,0.0,0,0,0.0,0.0,0.0,298.0,385.0,268.0
30267,9389,US,104778,33.5741666667,-86.9027777778,,Census,Census-designated place (cdp) &amp; unincorporated community,AL,"Forestdale, Alabama",0,0,0,0,0,0,0,0,0,0,0,0,0,0,0.0,0,0,0.0,6091.0,10814.0,10395.0,10509.0,10162.0
30372,11446,US,104666,34.7038888889,-85.6738888889,,Census,Town,AL,"Ider, Alabama",0,0,0,0,0,0,0,0,0,0,0,0,0,0,0.0,0,0,0.0,379.0,698.0,671.0,664.0,723.0
30380,8543,US,104722,32.7636111111,-88.0258333333,,Census,Town,AL,"Boligee, Alabama",0,0,0,0,0,0,0,0,0,36,0,0,0,0,178.0,241,168,134.0,225.0,164.0,268.0,369.0,328.0
30392,8934,US,104776,33.5230555556,-86.9563888889,,Census,Cdp,AL,"Edgewater, Alabama",0,0,0,0,0,0,0,0,0,0,0,0,0,0,0.0,0,1984,0.0,0.0,0.0,0.0,730.0,883.0
30535,11397,US,104598,31.0075,-86.3247222222,,Census,Town,AL,"Florala, Alabama",0,0,0,0,0,0,0,0,0,0,0,0,2439,2633,2580.0,2999,2713,3011.0,2701.0,2165.0,2075.0,1964.0,1980.0
30567,4895,US,34690039,32.6361111111,-86.3266666667,,Census,Census-designated place,AL,"Holtville, Alabama",0,0,0,0,0,0,0,0,0,0,0,0,0,0,0.0,0,0,0.0,0.0,0.0,0.0,0.0,0.0
30609,3550,US,34688975,33.3983333333,-86.6513888889,,Census,Census-designated place,AL,"Highland Lakes, Alabama",0,0,0,0,0,0,0,0,0,0,0,0,0,0,0.0,0,0,0.0,0.0,0.0,0.0,0.0,0.0
30610,3251,US,39590402,32.2866666667,-85.8488888889,,Census,Unincorporated community,AL,"Hardaway, Alabama",0,0,0,0,0,0,0,0,0,0,0,200,300,310,0.0,0,0,0.0,0.0,0.0,0.0,0.0,0.0
30619,9375,US,104781,33.6486111111,-86.6363888889,,Census,Census-designated place (cdp) &amp; unincorporated community,AL,"Grayson Valley, Alabama",0,0,0,0,0,0,0,0,0,0,0,0,0,0,0.0,0,0,0.0,0.0,0.0,0.0,5447.0,5736.0
30708,26589,US,58119,,,,Census,US County,AL,"Montgomery County, Alabama",0,0,0,6604,12695,24574,29711,35904,43704,52356,56172,72047,82178,80853,98671.0,114420,138965,169210.0,167790.0,197038.0,209085.0,223510.0,229363.0
30734,11149,US,4373372,30.3997222222,-87.7761111111,,Census,Town,AL,"Magnolia Springs, Alabama",0,0,0,0,0,0,0,0,0,0,0,0,0,0,0.0,0,0,0.0,0.0,0.0,0.0,0.0,723.0
30759,21661,US,81308,32.2866666667,-85.1938888889,,Census,US County,AL,"Russell County, Alabama",0,0,0,0,0,13513,19548,26592,21636,24837,24093,27083,25937,27448,27377.0,35775,40364,46351.0,45394.0,47356.0,46860.0,49756.0,52947.0
30780,13725,US,104572,31.5216666667,-87.8911111111,,Census,City,AL,"Jackson, Alabama",0,0,0,0,0,0,0,0,0,0,0,1039,1379,1331,1828.0,2039,3072,4959.0,5957.0,6073.0,5819.0,5419.0,5228.0
30827,27832,US,80771,34.8991666667,-87.6502777778,,Census,US County,AL,"Lauderdale County, Alabama",0,0,0,4963,11781,14485,17172,17420,15091,21035,23739,26559,30936,39556,41130.0,46230,54179,61622.0,68111.0,80546.0,79661.0,87966.0,92709.0
30853,23780,US,80783,32.3852777778,-85.6936111111,,Census,US County,AL,"Macon County, Alabama",0,0,0,0,0,11247,26898,26802,17727,17371,18439,23126,26049,23561,27103.0,27654,30561,26717.0,24841.0,26829.0,24928.0,24105.0,21452.0
30892,7616,US,105184,31.8677777778,-86.9875,,Census,Town,AL,"Pine Apple, Alabama",0,0,0,0,0,0,0,0,0,358,520,623,627,464,438.0,455,445,355.0,347.0,298.0,365.0,145.0,132.0
30917,3469,US,38203771,31.2627777778,-86.7711111111,,Census,Unincorporated community,AL,"Brooklyn, Conecuh County, Alabama",0,0,0,0,0,0,0,0,0,67,0,0,0,0,0.0,0,0,0.0,0.0,0.0,0.0,0.0,0.0
30919,10706,US,104609,31.5841666667,-86.2563888889,,Census,Town,AL,"Brantley, Alabama",0,0,0,0,0,0,0,0,0,0,0,390,803,702,1053.0,1126,1102,1014.0,1066.0,1151.0,1015.0,920.0,809.0
30991,7193,US,104923,31.7330555556,-87.2066666667,,Census,Town,AL,"Beatrice, Alabama",0,0,0,0,0,0,0,0,0,0,0,0,345,293,342.0,410,375,506.0,455.0,558.0,454.0,412.0,301.0
31017,14944,US,104727,32.7022222222,-87.5961111111,,Census,City,AL,"Greensboro, Alabama",0,0,0,0,0,0,2500,0,1760,1833,1759,2416,2048,1809,1795.0,2034,2217,3081.0,3371.0,3248.0,3047.0,2731.0,2497.0
31033,28327,US,80779,32.6013888889,-85.3536111111,,Census,US County,AL,"Lee County, Alabama",0,0,0,0,0,0,0,0,21750,27262,28694,31826,32867,32821,36063.0,36455,45073,49754.0,61268.0,76283.0,87146.0,115092.0,140247.0
31040,15935,US,104898,34.1352777778,-87.9888888889,,Census,City,AL,"Hamilton, Alabama",0,0,0,0,0,0,0,0,0,0,0,235,422,487,695.0,1002,1623,1934.0,3088.0,5093.0,5787.0,6786.0,6885.0
31136,37928,US,80782,32.15,-86.65,,Census,US County,AL,"Lowndes County, Alabama",0,0,0,0,9410,19539,21915,27716,25719,31176,31550,35651,31894,25406,22878.0,22661,18018,15417.0,12897.0,13253.0,12658.0,13473.0,11299.0
31161,10485,US,104594,32.8880555556,-86.2194444444,,Census,Town,AL,"Rockford, Alabama",0,0,0,0,0,0,171,0,0,0,240,0,0,274,320.0,394,373,328.0,603.0,494.0,461.0,428.0,477.0
31178,8452,US,105099,31.7194444444,-86.1258333333,,Census,Town,AL,"Goshen, Alabama",0,0,0,0,0,0,0,0,0,0,0,0,347,337,367.0,356,286,260.0,279.0,365.0,302.0,300.0,266.0
31181,7643,US,104711,34.375,-88.0536111111,,Census,Town,AL,"Vina, Alabama",0,0,0,0,0,0,0,0,0,0,0,0,0,339,448.0,472,313,184.0,366.0,346.0,356.0,400.0,358.0
31187,29411,US,104755,34.6513888889,-86.0425,,Census,City,AL,"Scottsboro, Alabama",0,0,0,0,0,0,0,0,357,722,959,1014,1019,1417,2304.0,2834,4731,6449.0,9324.0,14758.0,13786.0,14762.0,14770.0
31190,7873,US,104757,34.8030555556,-86.1236111111,,Census,Town,AL,"Skyline, Alabama",0,0,0,0,0,0,0,0,0,0,0,0,0,0,0.0,0,0,0.0,0.0,0.0,740.0,843.0,851.0
31209,10250,US,104657,32.3055555556,-87.2452777778,,Census,Town,AL,"Orrville, Alabama",0,0,0,0,0,0,0,0,0,270,321,0,255,341,394.0,416,416,422.0,362.0,349.0,234.0,230.0,204.0
31244,12355,US,104728,32.9986111111,-87.6261111111,,Census,Town,AL,"Moundville, Alabama",0,0,0,0,0,0,0,0,0,0,0,0,253,328,757.0,812,901,922.0,996.0,1310.0,1348.0,1809.0,2427.0
31300,16013,US,104546,32.8983333333,-85.4005555556,,Census,City,AL,"LaFayette, Alabama",0,0,0,0,0,0,0,1113,1382,1061,1369,1629,1632,1911,2119.0,2138,2353,2605.0,3530.0,3647.0,3151.0,3234.0,3003.0
31323,21491,US,76933,31.7494444444,-86.6822222222,,Census,US County,AL,"Butler County, Alabama",0,0,0,1405,5650,8685,10836,18122,14981,19649,21641,25761,29030,29531,30195.0,32447,29228,24560.0,22007.0,21680.0,21892.0,21399.0,20947.0
31332,21709,US,105084,32.6327777778,-87.3172222222,,Census,City,AL,"Marion, Alabama",0,0,0,0,0,0,1544,1408,2646,2074,1982,1698,1834,2035,2141.0,2382,2822,3807.0,4289.0,4467.0,4211.0,3511.0,3686.0
31373,7902,US,105175,33.7136111111,-87.3861111111,,Census,Town,AL,"Oakman, Alabama",0,0,0,0,0,0,0,0,0,0,421,503,1065,1083,927.0,897,1022,849.0,853.0,770.0,846.0,944.0,789.0
31412,4437,US,32555942,31.93487,-87.75472,,Census,,AL,"Choctaw Corner, Alabama",0,0,0,0,0,0,250,0,0,150,0,0,0,0,0.0,0,0,0.0,0.0,0.0,0.0,0.0,0.0
31447,34681,US,76924,30.7330555556,-87.7202777778,,Census,US County,AL,"Baldwin County, Alabama",0,0,1427,1713,2324,2951,4414,7530,6004,8603,8941,13194,18178,20730,28289.0,32324,40997,49088.0,59382.0,78556.0,98280.0,140415.0,182265.0
31485,3840,US,34881157,31.4202777778,-87.8425,,Census,Census-designated place,AL,"Rockville, Alabama",0,0,0,0,0,0,0,0,0,0,0,0,0,0,0.0,0,0,0.0,0.0,0.0,0.0,0.0,0.0
31512,9403,US,104685,31.0088888889,-87.2555555556,,Census,Town,AL,"Flomaton, Alabama",0,0,0,0,0,0,0,0,0,0,0,0,559,724,915.0,837,1036,1454.0,1584.0,1882.0,1811.0,1588.0,1440.0
31539,6745,US,104564,31.9863888889,-88.3388888889,,Census,Town,AL,"Needham, Alabama",0,0,0,0,0,0,0,0,0,0,0,0,0,0,0.0,0,0,0.0,0.0,0.0,99.0,97.0,94.0
