,article_length,country,id,lat,lon,other_years,poptype,settlement_type,state,title,y1790,y1800,y1810,y1820,y1830,y1840,y1850,y1860,y1870,y1880,y1890,y1900,y1910,y1920,y1930,y1940,y1950,y1960,y1970,y1980,y1990,y2000,y2010
4,6712,US,106635,33.9902777778,-114.401111111,,Census,"&quot;gr1&quot;&gt;publisher=[[united states census bureau|accessdate=2011-04-23|date=2011-02-12|title=us gazetteer files: 2010, 2000, and 1990}}",AZ,"Poston, Arizona",0,0,0,0,0,0,0,0,0,0,0,0,0,0,0.0,0,0,0.0,0.0,0.0,0.0,0.0,0.0
38,4464,US,52179834,33.365,-110.7675,,Census,Census-designated place,AZ,"Six Shooter Canyon, Arizona",0,0,0,0,0,0,0,0,0,0,0,0,0,0,0.0,0,0,0.0,0.0,0.0,0.0,0.0,0.0
59,4371,US,50628398,32.6769444444,-109.072222222,,Census,Census-designated place,AZ,"Franklin, Arizona",0,0,0,0,0,0,0,0,0,0,0,0,0,0,0.0,0,0,0.0,0.0,0.0,0.0,0.0,0.0
87,4334,US,48911117,31.9025,-111.780277778,,Census,Census designated place,AZ,"Ali Molina, Arizona",0,0,0,0,0,0,0,0,0,0,0,0,0,0,0.0,0,0,0.0,0.0,0.0,0.0,0.0,0.0
353,4535,US,31228566,32.5088888889,-112.316388889,,Census,Cdp,AZ,"Kaka, Arizona",0,0,0,0,0,0,0,0,0,0,0,0,0,0,0.0,0,0,0.0,0.0,0.0,0.0,0.0,0.0
362,33522,US,106767,31.3538888889,-110.939166667,,Census,City,AZ,"Nogales, Arizona",0,0,0,0,0,0,0,0,0,0,1194,1761,3514,5199,6006.0,5135,6153,7286.0,8946.0,15683.0,19489.0,20878.0,20837.0
389,4240,US,43318791,33.2383333333,-110.783333333,,Census,Census-designated place,AZ,"El Capitan, Arizona",0,0,0,0,0,0,0,0,0,0,0,0,0,0,0.0,0,0,0.0,0.0,0.0,0.0,0.0,0.0
459,6271,US,106634,34.2277777778,-114.182222222,,Census,Cdp,AZ,"Parker Strip, Arizona",0,0,0,0,0,0,0,0,0,0,0,0,0,0,0.0,0,0,0.0,0.0,0.0,1646.0,3302.0,0.0
464,4190,US,52158977,34.1830555556,-111.339444444,,Census,Census-designated place,AZ,"Oxbow Estates, Arizona",0,0,0,0,0,0,0,0,0,0,0,0,0,0,0.0,0,0,0.0,0.0,0.0,0.0,0.0,0.0
479,6944,US,106638,33.8255555556,-113.538055556,,Census,Cdp,AZ,"Wenden, Arizona",0,0,0,0,0,0,0,0,0,0,0,0,0,0,0.0,0,0,0.0,0.0,0.0,0.0,0.0,0.0
533,7437,US,106615,33.3511111111,-110.452222222,,Census,Census-designated place,AZ,"San Carlos, Arizona",0,0,0,0,0,0,0,0,0,0,0,0,0,0,0.0,0,0,0.0,2542.0,2668.0,2918.0,3716.0,0.0
602,4444,US,25772282,34.2575,-109.692777778,,Census,Census-designated place,AZ,"Vernon, Arizona",0,0,0,0,0,0,0,0,0,0,0,0,0,0,0.0,0,0,0.0,0.0,0.0,0.0,0.0,0.0
712,7646,US,106679,35.255,-114.020555556,,Census,Cdp,AZ,"New Kingman-Butler, Arizona",0,0,0,0,0,0,0,0,0,0,0,0,0,0,0.0,0,0,0.0,0.0,0.0,11627.0,14812.0,12134.0
720,197989,US,49121,33.45,-112.066666667,,Census,State capital,AZ,"Phoenix, Arizona",0,0,0,0,0,0,0,0,240,1708,3152,5544,11314,29053,48118.0,65414,106818,439170.0,581572.0,789704.0,983403.0,1321045.0,1445632.0
745,9890,US,106561,36.9675,-109.389166667,,Census,Census-designated place,AZ,"Red Mesa, Arizona",0,0,0,0,0,0,0,0,0,0,0,0,0,0,0.0,0,0,0.0,0.0,0.0,0.0,0.0,0.0
770,7129,US,106631,33.3163888889,-114.665,,Census,Cdp,AZ,"Cibola, Arizona",0,0,0,0,0,0,0,0,0,0,0,0,0,0,0.0,0,0,0.0,0.0,0.0,0.0,0.0,0.0
789,4249,US,31228768,33.3763888889,-112.236666667,,Census,Cdp,AZ,"Maricopa Colony, Arizona",0,0,0,0,0,0,0,0,0,0,0,0,0,0,0.0,0,0,0.0,0.0,0.0,0.0,0.0,0.0
916,3659,US,30938436,34.1094444444,-111.353611111,,Census,Census-designated place,AZ,"Rye, Arizona",0,0,0,0,0,0,0,0,0,0,0,0,0,0,0.0,0,0,0.0,0.0,0.0,0.0,0.0,0.0
985,8655,US,106559,34.0766666667,-109.854722222,,Census,Census-designated place,AZ,"McNary, Arizona",0,0,0,0,0,0,0,0,0,0,0,0,0,0,0.0,0,0,0.0,0.0,0.0,0.0,0.0,0.0
1055,5482,US,52639447,35.9480555556,-110.098055556,,Census,Cdp,AZ,"Low Mountain, Arizona",0,0,0,0,0,0,0,0,0,0,0,0,0,0,0.0,0,0,0.0,0.0,0.0,0.0,0.0,0.0
1063,37153,US,87957,32.9869444444,-111.327222222,,Census,US County,AZ,"Pinal County, Arizona",0,0,0,0,0,0,0,0,0,3440,4251,7779,9045,16130,22081.0,28841,43191,62673.0,67916.0,90918.0,116379.0,179727.0,375770.0
1193,7570,US,106710,31.9577777778,-110.767222222,,Census,Cdp,AZ,"Corona de Tucson, Arizona",0,0,0,0,0,0,0,0,0,0,0,0,0,0,0.0,0,0,0.0,0.0,0.0,0.0,0.0,0.0
1294,4408,US,38334431,32.9288888889,-109.827777778,,Census,Census-designated place,AZ,"Bryce, Arizona",0,0,0,0,0,0,0,0,0,0,0,0,0,0,0.0,0,0,0.0,0.0,0.0,0.0,0.0,0.0
1476,7170,US,106690,35.9230555556,-110.665555556,,Census,Cdp,AZ,"Hotevilla-Bacavi, Arizona",0,0,0,0,0,0,0,0,0,0,0,0,0,0,0.0,0,0,0.0,0.0,0.0,0.0,0.0,0.0
1512,6504,US,106720,32.0411111111,-112.314444444,,Census,Cdp,AZ,"Pisinemo, Arizona",0,0,0,0,0,0,0,0,0,0,0,0,0,0,0.0,0,0,0.0,0.0,0.0,0.0,0.0,0.0
1531,7682,US,106694,35.8708333333,-110.618333333,,Census,Cdp,AZ,"Kykotsmovi Village, Arizona",0,0,0,0,0,0,0,0,0,0,0,0,0,0,0.0,0,0,0.0,0.0,0.0,0.0,0.0,0.0
1601,11821,US,106726,32.2713888889,-110.751666667,,Census,Cdp,AZ,"Tanque Verde, Arizona",0,0,0,0,0,0,0,0,0,0,0,0,0,0,0.0,0,0,0.0,0.0,0.0,0.0,0.0,0.0
1603,16093,US,106787,34.5325,-112.2525,,Census,Town,AZ,"Dewey-Humboldt, Arizona",0,0,0,0,0,0,0,0,0,0,0,0,0,0,0.0,0,0,0.0,0.0,0.0,3640.0,3453.0,3894.0
1636,5280,US,52758511,32.0341666667,-111.955,,Census,Cdp,AZ,"Nolic, Arizona",0,0,0,0,0,0,0,0,0,0,0,0,0,0,0.0,0,0,0.0,0.0,0.0,0.0,0.0,0.0
1739,4535,US,53137048,32.6230555556,-114.145277778,,Census,Census-designated place,AZ,"Wellton Hills, Arizona",0,0,0,0,0,0,0,0,0,0,0,0,0,0,0.0,0,0,0.0,0.0,0.0,0.0,0.0,0.0
2024,3793,US,53137013,32.6572222222,-114.710555556,,Census,Census-designated place,AZ,"Wall Lane, Arizona",0,0,0,0,0,0,0,0,0,0,0,0,0,0,0.0,0,0,0.0,0.0,0.0,0.0,0.0,0.0
2111,7614,US,5403134,33.9427777778,-113.174166667,,Census,Cdp,AZ,"Aguila, Arizona",0,0,0,0,0,0,0,0,0,0,0,0,0,0,0.0,0,0,0.0,0.0,0.0,0.0,0.0,798.0
2195,12798,US,106657,33.2630555556,-111.634722222,,Census,Town,AZ,"Queen Creek, Arizona",0,0,0,0,0,0,0,0,0,0,0,0,0,0,0.0,0,0,0.0,0.0,1378.0,2667.0,4316.0,26361.0
2239,8279,US,2104842,33.3619444444,-111.451666667,,Census,Cdp,AZ,"Gold Canyon, Arizona",0,0,0,0,0,0,0,0,0,0,0,0,0,0,0.0,0,0,0.0,0.0,0.0,0.0,0.0,0.0
2244,6206,US,5403195,33.3255555556,-112.764166667,,Census,Census-designated place,AZ,"Arlington, Arizona",0,0,0,0,0,0,0,0,0,0,0,0,0,0,0.0,0,0,0.0,0.0,0.0,0.0,0.0,0.0
2362,4636,US,6864654,34.3252777778,-111.093333333,,Census,Census-designated place,AZ,"Kohls Ranch, Arizona",0,0,0,0,0,0,0,0,0,0,0,0,0,0,0.0,0,0,0.0,0.0,0.0,0.0,0.0,0.0
2366,5876,US,52996786,34.1163888889,-109.891111111,,Census,Cdp,AZ,"Pinetop Country Club, Arizona",0,0,0,0,0,0,0,0,0,0,0,0,0,0,0.0,0,0,0.0,0.0,0.0,0.0,0.0,0.0
2368,11772,US,872164,35.0263888889,-114.383611111,,Census,Unincorporated community,AZ,"Oatman, Arizona",0,0,0,0,0,0,0,0,0,0,0,0,0,0,0.0,0,0,0.0,0.0,0.0,0.0,0.0,0.0
2416,5735,US,52800891,32.6497222222,-114.641666667,,Census,Cdp,AZ,"Padre Ranchitos, Arizona",0,0,0,0,0,0,0,0,0,0,0,0,0,0,0.0,0,0,0.0,0.0,0.0,0.0,0.0,0.0
2419,6415,US,106792,34.2783333333,-112.7575,,Census,Cdp,AZ,"Peeples Valley, Arizona",0,0,0,0,0,0,0,0,0,0,0,0,0,0,0.0,0,0,0.0,0.0,0.0,0.0,0.0,0.0
2422,10856,US,106692,36.7141666667,-110.260277778,,Census,Cdp,AZ,"Kayenta, Arizona",0,0,0,0,0,0,0,0,0,0,0,0,0,0,0.0,0,0,0.0,0.0,0.0,0.0,0.0,0.0
2435,8127,US,106576,31.6361111111,-110.336388889,,Census,Town,AZ,"Huachuca City, Arizona",0,0,0,0,0,0,0,0,0,0,0,0,0,0,0.0,0,0,1330.0,1241.0,1661.0,1782.0,1751.0,1853.0
2553,9240,US,106755,33.0541666667,-110.908888889,,Census,Town,AZ,"Kearny, Arizona",0,0,0,0,0,0,0,0,0,0,0,0,0,0,0.0,0,0,902.0,2829.0,2646.0,2262.0,2249.0,1950.0
2559,21326,US,87939,33.8402777778,-113.942777778,,Census,US County,AZ,"La Paz County, Arizona",0,0,0,0,0,0,0,0,0,0,0,0,0,0,0.0,0,0,0.0,0.0,0.0,13844.0,19715.0,20489.0
2599,137856,US,21883824,,,,Census,US State,AZ,Arizona,0,0,0,0,0,0,0,6482,9658,40440,88243,122931,204354,334162,435573.0,499261,749587,1302161.0,1745944.0,2718215.0,3665228.0,5130632.0,6392017.0
2638,55503,US,106788,34.7488888889,-112.113888889,,Census,Town,AZ,"Jerome, Arizona",0,0,0,0,0,0,0,0,0,0,250,2861,2393,4030,4932.0,2295,1233,243.0,290.0,420.0,403.0,329.0,444.0
2653,5100,US,13188002,31.5269444444,-110.978611111,,Census,Former cdp,AZ,"Rio Rico, Arizona",0,0,0,0,0,0,0,0,0,0,0,0,0,0,0.0,0,0,0.0,0.0,0.0,0.0,0.0,0.0
2747,9470,US,106677,34.9569444444,-114.584722222,,Census,Census-designated place,AZ,"Mohave Valley, Arizona",0,0,0,0,0,0,0,0,0,0,0,0,0,0,0.0,0,0,0.0,0.0,0.0,6962.0,13694.0,0.0
2977,4160,US,31228370,33.5372222222,-112.444166667,,Census,Cdp,AZ,"Citrus Park, Arizona",0,0,0,0,0,0,0,0,0,0,0,0,0,0,0.0,0,0,0.0,0.0,0.0,0.0,0.0,0.0
3011,10298,US,106611,33.3966666667,-110.871666667,,Census,Town,AZ,"Miami, Arizona",0,0,0,0,0,0,0,0,0,0,0,0,1390,6689,7693.0,4722,4329,3350.0,3394.0,2716.0,2018.0,1936.0,1837.0
3129,11766,US,4069364,34.9558333333,-110.333888889,,Census,Census-designated place (cdp),AZ,"Joseph City, Arizona",0,0,0,0,0,0,0,0,0,0,0,0,0,0,0.0,0,0,0.0,0.0,0.0,0.0,0.0,0.0
3298,25119,US,106609,33.3997222222,-110.781666667,,Census,City,AZ,"Globe, Arizona",0,0,0,0,0,0,0,0,0,0,0,0,7083,7044,7157.0,6141,6419,6217.0,7333.0,6708.0,6062.0,7486.0,7532.0
3305,6915,US,10583136,35.4055555556,-110.084722222,,Census,Unincorporated community,AZ,"Indian Wells, Arizona",0,0,0,0,0,0,0,0,0,0,0,0,0,0,0.0,0,0,0.0,0.0,0.0,0.0,0.0,0.0
3398,8101,US,106691,35.7719444444,-110.126944444,,Census,Cdp,AZ,"Jeddito, Arizona",0,0,0,0,0,0,0,0,0,0,0,0,0,0,0.0,0,0,0.0,0.0,0.0,0.0,0.0,0.0
3511,3680,US,28000169,35.3875,-113.657777778,,Census,Unincorporated community,AZ,"Valentine, Arizona",0,0,0,0,0,0,0,0,0,0,0,0,0,0,0.0,0,0,0.0,0.0,0.0,0.0,0.0,0.0
3613,3850,US,2979718,,,,Census,Unknown,AZ,"Linden, Arizona",0,0,0,0,0,0,0,0,0,0,0,0,0,0,0.0,0,0,0.0,0.0,0.0,0.0,0.0,0.0
3655,9924,US,28000147,35.3691666667,-113.727222222,,Census,Unincorporated community,AZ,"Hackberry, Arizona",0,0,0,0,0,0,0,0,0,0,0,0,0,0,0.0,0,0,0.0,0.0,0.0,0.0,0.0,0.0
3839,20333,US,106612,34.2394444444,-111.3275,,Census,Town,AZ,"Payson, Arizona",0,0,0,0,0,0,0,0,0,0,0,0,0,0,0.0,0,0,0.0,1787.0,5068.0,8377.0,13620.0,15301.0
3852,12658,US,106789,34.6402777778,-111.783333333,,Census,Cdp,AZ,"Lake Montezuma, Arizona",0,0,0,0,0,0,0,0,0,0,0,0,0,0,0.0,0,0,0.0,0.0,0.0,0.0,0.0,0.0
3864,18793,US,106646,33.6,-111.72,,Census,Town,AZ,"Fountain Hills, Arizona",0,0,0,0,0,0,0,0,0,0,0,0,0,0,0.0,0,0,0.0,0.0,2771.0,10030.0,20235.0,22489.0
3956,7889,US,106598,35.2913888889,-111.958888889,,Census,Cdp,AZ,"Parks, Arizona",0,0,0,0,0,0,0,0,0,0,0,0,0,0,0.0,0,0,0.0,0.0,0.0,0.0,0.0,0.0
4000,4620,US,32930010,32.6011111111,-111.886111111,,Census,Cdp,AZ,"Tat Momoli, Arizona",0,0,0,0,0,0,0,0,0,0,0,0,0,0,0.0,0,0,0.0,0.0,0.0,0.0,0.0,0.0
4012,18697,US,106641,33.3705555556,-112.590833333,"[[y2015,62582]]",Census,City,AZ,"Buckeye, Arizona",0,0,0,0,0,0,0,0,0,0,0,200,684,726,1077.0,1305,1932,2286.0,2599.0,3434.0,4436.0,6537.0,50876.0
4049,4462,US,10952083,31.6852777778,-109.686944444,,Census,Unknown,AZ,"Elfrida, Arizona",0,0,0,0,0,0,0,0,0,0,0,0,0,0,0.0,0,0,0.0,0.0,0.0,0.0,0.0,0.0
4115,2454,US,47566604,35.4231,-113.808,,Census,Small town,AZ,"Antares, Arizona",0,0,0,0,0,0,0,0,0,0,0,0,0,0,0.0,0,0,0.0,0.0,0.0,0.0,0.0,0.0
4152,4168,US,52226966,34.4072222222,-111.267222222,,Census,Census-designated place,AZ,"Washington Park, Arizona",0,0,0,0,0,0,0,0,0,0,0,0,0,0,0.0,0,0,0.0,0.0,0.0,0.0,0.0,0.0
4219,4374,US,52158878,34.3463888889,-111.141944444,,Census,Census-designated place,AZ,"Mead Ranch, Arizona",0,0,0,0,0,0,0,0,0,0,0,0,0,0,0.0,0,0,0.0,0.0,0.0,0.0,0.0,0.0
4246,7517,US,106624,32.73,-109.713888889,,Census,Census-designated place,AZ,"Swift Trail Junction, Arizona",0,0,0,0,0,0,0,0,0,0,0,0,0,0,0.0,0,0,0.0,0.0,0.0,0.0,0.0,0.0
4277,17114,US,106715,31.85,-111.0,,Census,Cdp,AZ,"Green Valley, Arizona",0,0,0,0,0,0,0,0,0,0,0,0,0,0,0.0,0,0,0.0,0.0,0.0,0.0,0.0,0.0
4292,5190,US,52193356,35.2202777778,-114.072222222,,Census,Cdp,AZ,"Clacks Canyon, Arizona",0,0,0,0,0,0,0,0,0,0,0,0,0,0,0.0,0,0,0.0,0.0,0.0,0.0,0.0,0.0
4303,4582,US,31944178,33.3511111111,-110.705277778,,Census,Census-designated place,AZ,"East Globe, Arizona",0,0,0,0,0,0,0,0,0,0,0,0,0,0,0.0,0,0,0.0,0.0,0.0,0.0,0.0,0.0
4361,4389,US,39150101,36.1847222222,-109.442777778,,Census,Census-designated place,AZ,"Del Muerto, Arizona",0,0,0,0,0,0,0,0,0,0,0,0,0,0,0.0,0,0,0.0,0.0,0.0,0.0,0.0,0.0
4447,4234,US,52149455,34.305,-111.010833333,,Census,Census-designated place,AZ,"Hunter Creek, Arizona",0,0,0,0,0,0,0,0,0,0,0,0,0,0,0.0,0,0,0.0,0.0,0.0,0.0,0.0,0.0
4569,5746,US,52985629,31.9666666667,-110.466388889,,Census,Cdp,AZ,"Pimaco Two, Arizona",0,0,0,0,0,0,0,0,0,0,0,0,0,0,0.0,0,0,0.0,0.0,0.0,0.0,0.0,0.0
4626,29798,US,106648,33.35,-111.789166667,,Census,Town,AZ,"Gilbert, Arizona",0,0,0,0,0,0,0,0,0,0,0,0,0,865,791.0,837,1114,1833.0,1971.0,5717.0,29188.0,109697.0,208453.0
4683,10507,US,106625,32.8327777778,-109.762777778,,Census,Town,AZ,"Thatcher, Arizona",0,0,0,0,0,0,0,0,0,0,320,644,904,899,895.0,1106,1284,1581.0,2320.0,3374.0,3763.0,4022.0,4865.0
4815,46542,US,23652881,31.4672222222,-110.706944444,,Census,Populated place,AZ,"Harshaw, Arizona",0,0,0,0,0,0,0,0,0,640,260,0,150,377,259.0,150,100,,0.0,0.0,0.0,0.0,0.0
4861,39277,US,87946,35.6819444444,-113.863055556,,Census,US County,AZ,"Mohave County, Arizona",0,0,0,0,0,0,0,0,179,1190,1444,3426,3773,5259,5572.0,8591,8510,7736.0,25857.0,55865.0,93497.0,155032.0,200186.0
4958,13556,US,106599,36.2241666667,-112.693888889,,Census,Cdp,AZ,"Supai, Arizona",0,0,0,0,0,0,0,0,0,0,0,0,0,0,0.0,0,0,0.0,0.0,0.0,423.0,0.0,208.0
4994,5633,US,52475689,32.7094444444,-114.678333333,,Census,Cdp,AZ,"Donovan Estates, Arizona",0,0,0,0,0,0,0,0,0,0,0,0,0,0,0.0,0,0,0.0,0.0,0.0,0.0,0.0,0.0
5011,35180,US,87933,33.7911111111,-110.836388889,,Census,US County,AZ,"Gila County, Arizona",0,0,0,0,0,0,0,0,0,0,2021,4973,16348,25678,31016.0,23867,24158,25745.0,29255.0,37080.0,40216.0,51335.0,53597.0
5038,5562,US,53288293,35.4816666667,-110.456111111,,Census,Cdp,AZ,"Seba Dalkai, Arizona",0,0,0,0,0,0,0,0,0,0,0,0,0,0,0.0,0,0,0.0,0.0,0.0,0.0,0.0,0.0
5040,7563,US,106805,32.6713888889,-114.140833333,,Census,Town,AZ,"Wellton, Arizona",0,0,0,0,0,0,0,0,0,0,0,0,0,0,0.0,0,0,0.0,957.0,911.0,1066.0,1829.0,2882.0
5066,35996,US,106574,31.4183333333,-109.897777778,,Census,City,AZ,"Bisbee, Arizona",0,0,0,0,0,0,0,0,0,0,1535,0,9019,9205,8023.0,5853,3801,9914.0,8328.0,7154.0,6288.0,6090.0,5575.0
5141,10351,US,24261872,35.04,-114.623055556,,Census,Populated place,AZ,"Mojave City, Arizona",0,0,0,0,0,0,0,0,159,0,0,30,175,0,0.0,0,0,0.0,0.0,0.0,0.0,0.0,0.0
5158,14666,US,105934,36.1547222222,-109.579166667,,Census,Census-designated place,AZ,"Chinle, Arizona",0,0,0,0,0,0,0,0,0,0,0,0,0,0,0.0,0,0,0.0,0.0,0.0,0.0,0.0,0.0
5194,10968,US,106628,33.0497222222,-109.327777778,,Census,Census-designated place,AZ,"Morenci, Arizona",0,0,0,0,0,0,0,0,0,0,0,0,0,0,0.0,0,0,0.0,0.0,0.0,0.0,0.0,0.0
5210,5436,US,52458135,35.2205555556,-114.561666667,,Census,Cdp,AZ,"Katherine, Arizona",0,0,0,0,0,0,0,0,0,0,0,0,0,0,0.0,0,0,0.0,0.0,0.0,0.0,0.0,0.0
5237,4111,US,52158930,34.2855555556,-111.294166667,,Census,Census-designated place,AZ,"Mesa del Caballo, Arizona",0,0,0,0,0,0,0,0,0,0,0,0,0,0,0.0,0,0,0.0,0.0,0.0,0.0,0.0,0.0
5305,6790,US,106784,34.3122222222,-112.106666667,,Census,Cdp,AZ,"Cordes Lakes, Arizona",0,0,0,0,0,0,0,0,0,0,0,0,0,0,0.0,0,0,0.0,0.0,0.0,0.0,0.0,0.0
5387,3325,US,748240,32.2686111111,-112.738888889,,Census,Unknown,AZ,"Why, Arizona",0,0,0,0,0,0,0,0,0,0,0,0,0,0,0.0,0,0,0.0,0.0,0.0,0.0,0.0,0.0
5426,17713,US,106684,35.3644444444,-110.320277778,,Census,Cdp,AZ,"Dilkon, Arizona",0,0,0,0,0,0,0,0,0,0,0,0,0,0,0.0,0,0,0.0,0.0,0.0,0.0,0.0,0.0
5436,27736,US,87936,33.0091666667,-109.885277778,,Census,US County,AZ,"Graham County, Arizona",0,0,0,0,0,0,0,0,0,0,5670,14162,23999,10148,10373.0,12113,12985,14045.0,16578.0,22862.0,26554.0,33489.0,37220.0
5474,4235,US,48796750,32.2872222222,-112.009166667,,Census,Census-designated place,AZ,"Ak Chin, Pima County, Arizona",0,0,0,0,0,0,0,0,0,0,0,0,0,0,0.0,0,0,0.0,0.0,0.0,0.0,0.0,30.0
5526,21318,US,106782,34.7666666667,-112.05,,Census,Town,AZ,"Clarkdale, Arizona",0,0,0,0,0,0,0,0,0,0,0,0,0,2435,5526.0,0,1609,1095.0,892.0,1512.0,2144.0,3422.0,4097.0
5615,5382,US,52670662,35.1636111111,-114.089722222,,Census,Cdp,AZ,"McConnico, Arizona",0,0,0,0,0,0,0,0,0,0,0,0,0,0,0.0,0,0,0.0,0.0,0.0,0.0,0.0,0.0
5721,16304,US,106597,36.9141666667,-111.459722222,,Census,City,AZ,"Page, Arizona",0,0,0,0,0,0,0,0,0,0,0,0,0,0,0.0,0,0,2960.0,1439.0,4907.0,6598.0,6809.0,7247.0
5751,4100,US,43288785,31.8083333333,-111.988888889,,Census,Cdp,AZ,"Cowlic, Arizona",0,0,0,0,0,0,0,0,0,0,0,0,0,0,0.0,0,0,0.0,0.0,0.0,0.0,0.0,0.0
5776,6461,US,106672,35.6158333333,-114.260833333,,Census,Cdp,AZ,"Dolan Springs, Arizona",0,0,0,0,0,0,0,0,0,0,0,0,0,0,0.0,0,0,0.0,0.0,0.0,0.0,0.0,0.0
5857,3383,US,53139808,35.4108333333,-113.862777778,,Census,Cdp,AZ,"Valle Vista, Arizona",0,0,0,0,0,0,0,0,0,0,0,0,0,0,0.0,0,0,0.0,0.0,0.0,0.0,0.0,0.0
5915,3837,US,754343,34.9805805556,-110.058175,,Census,Unincorporated community,AZ,"Sun Valley, Arizona",0,0,0,0,0,0,0,0,0,0,0,0,0,0,0.0,0,0,0.0,0.0,0.0,0.0,0.0,0.0
6164,5372,US,28000226,35.7380555556,-114.3975,,Census,Census-designated places,AZ,"White Hills, Arizona",0,0,0,0,0,0,0,0,0,0,0,0,0,0,0.0,0,0,0.0,0.0,0.0,0.0,0.0,0.0
6220,25589,US,106649,33.5386111111,-112.186388889,,Census,City,AZ,"Glendale, Arizona",0,0,0,0,0,0,0,0,0,0,0,0,1000,2737,3665.0,4855,8179,15893.0,36228.0,97172.0,147864.0,218812.0,226721.0
6468,5701,US,52501436,34.1547222222,-109.993611111,,Census,Cdp,AZ,"Lake of the Woods, Arizona",0,0,0,0,0,0,0,0,0,0,0,0,0,0,0.0,0,0,0.0,0.0,0.0,0.0,0.0,0.0
6496,11719,US,106703,33.8330555556,-109.974444444,,Census,Census designated place,AZ,"Whiteriver, Arizona",0,0,0,0,0,0,0,0,0,0,0,0,0,0,0.0,0,0,0.0,0.0,2257.0,3775.0,5220.0,4104.0
6589,67269,US,57554,35.1991666667,-111.631111111,,Census,City,AZ,"Flagstaff, Arizona",0,0,0,0,0,0,0,0,0,0,964,1271,1633,3186,3891.0,5080,7663,18214.0,26117.0,34743.0,45857.0,52894.0,65870.0
6896,6742,US,106732,33.03,-112.062222222,,Census,Cdp,AZ,"Ak-Chin Village, Arizona",0,0,0,0,0,0,0,0,0,0,0,0,0,0,0.0,0,0,0.0,0.0,0.0,353.0,669.0,862.0
6910,15055,US,1352916,31.7230555556,-110.188333333,"[[y1884,100]]",Census,Ghost town,AZ,"Fairbank, Arizona",0,0,0,0,0,0,0,0,0,0,478,171,225,269,197.0,192,50,75.0,,0.0,0.0,0.0,0.0
6929,4862,US,10148435,33.4244444444,-112.868055556,,Census,Census-designated place,AZ,"Wintersburg, Arizona",0,0,0,0,0,0,0,0,0,0,0,0,0,0,0.0,0,0,0.0,0.0,0.0,0.0,0.0,0.0
6933,7908,US,106727,32.0486111111,-111.285277778,,Census,Cdp,AZ,"Three Points, Arizona",0,0,0,0,0,0,0,0,0,0,0,0,0,0,0.0,0,0,0.0,0.0,0.0,0.0,0.0,0.0
6961,6884,US,106580,31.4883333333,-110.232222222,,Census,Cdp,AZ,"Sierra Vista Southeast, Arizona",0,0,0,0,0,0,0,0,0,0,0,0,0,0,0.0,0,0,0.0,0.0,0.0,9237.0,14348.0,14797.0
6985,10719,US,27999987,35.0430555556,-114.6225,,Census,Census designated place,AZ,"Fort Mohave, Arizona",0,0,0,0,0,0,0,0,0,0,0,0,0,0,0.0,0,0,0.0,0.0,0.0,0.0,0.0,0.0
7192,32386,US,87952,35.4977777778,-110.289722222,,Census,US County,AZ,"Navajo County, Arizona",0,0,0,0,0,0,0,0,0,0,0,8829,11471,16077,21202.0,25309,29446,37994.0,47715.0,67629.0,77658.0,97470.0,107449.0
7258,11375,US,106764,33.2888888889,-111.103888889,,Census,Town,AZ,"Superior, Arizona",0,0,0,0,0,0,0,0,0,0,0,0,0,2464,4295.0,0,0,4875.0,4975.0,4600.0,3468.0,3254.0,2837.0
7300,5268,US,52274884,32.6452777778,-114.706666667,,Census,Cdp,AZ,"Drysdale, Arizona",0,0,0,0,0,0,0,0,0,0,0,0,0,0,0.0,0,0,0.0,0.0,0.0,0.0,0.0,0.0
7342,4636,US,37830681,31.3902777778,-110.878333333,,Census,Census-designated place,AZ,"Beyerville, Arizona",0,0,0,0,0,0,0,0,0,0,0,0,0,0,0.0,0,0,0.0,0.0,0.0,0.0,0.0,0.0
7400,45655,US,106793,34.5416666667,-112.469444444,,Census,City,AZ,"Prescott, Arizona",0,0,0,0,0,0,0,0,668,1836,1759,3559,5092,5010,5517.0,6018,6764,12861.0,13631.0,19865.0,26455.0,33938.0,39843.0
7510,11766,US,106702,34.4658333333,-110.104444444,,Census,Town,AZ,"Taylor, Arizona",0,0,0,0,0,0,0,0,0,0,0,0,0,0,0.0,0,0,0.0,888.0,1915.0,2418.0,3176.0,4112.0
7545,5676,US,52345363,34.7819444444,-114.477777778,,Census,Cdp,AZ,"Golden Shores, Arizona",0,0,0,0,0,0,0,0,0,0,0,0,0,0,0.0,0,0,0.0,0.0,0.0,0.0,0.0,0.0
7583,10524,US,106632,33.6147222222,-114.514722222,,Census,Cdp,AZ,"Ehrenberg, Arizona",0,0,0,0,0,0,0,0,0,0,0,0,0,0,0.0,0,0,0.0,0.0,0.0,0.0,0.0,0.0
7593,20292,US,106663,33.6305555556,-112.366666667,,Census,City,AZ,"Surprise, Arizona",0,0,0,0,0,0,0,0,0,0,0,0,0,0,0.0,0,0,0.0,2427.0,3723.0,7122.0,30848.0,117517.0
7750,7771,US,25798593,33.9530555556,-109.209166667,,Census,Census-designated place,AZ,"Nutrioso, Arizona",0,0,0,0,0,0,0,0,0,0,0,0,0,0,0.0,0,0,0.0,0.0,0.0,0.0,0.0,0.0
7827,17205,US,60573,34.2436111111,-110.048055556,,Census,City,AZ,"Show Low, Arizona",0,0,0,0,0,0,0,0,0,0,0,0,201,258,315.0,0,0,1625.0,2129.0,4298.0,5019.0,7695.0,10660.0
7878,3562,US,38330656,33.6511111111,-113.409166667,,Census,Census-designated place,AZ,"Sunwest, Arizona",0,0,0,0,0,0,0,0,0,0,0,0,0,0,0.0,0,0,0.0,0.0,0.0,0.0,0.0,0.0
7927,8835,US,106667,33.5947222222,-112.298888889,,Census,Town,AZ,"Youngtown, Arizona",0,0,0,0,0,0,0,0,0,0,0,0,0,0,0.0,0,0,0.0,1886.0,2254.0,2542.0,3010.0,6156.0
8005,3355,US,53140262,32.7,-111.926944444,,Census,Cdp,AZ,"Vaiva Vo, Arizona",0,0,0,0,0,0,0,0,0,0,0,0,0,0,0.0,0,0,0.0,0.0,0.0,0.0,0.0,0.0
8088,130940,US,57180,32.2216666667,-110.926388889,,Census,City,AZ,"Tucson, Arizona",0,0,0,0,0,0,400,915,3215,7007,5150,7531,13193,20292,32506.0,35752,45454,212892.0,262933.0,330537.0,405371.0,486699.0,520116.0
8127,8449,US,106661,33.6702777778,-112.357777778,,Census,Cdp,AZ,"Sun City West, Arizona",0,0,0,0,0,0,0,0,0,0,0,0,0,0,0.0,0,0,0.0,0.0,3772.0,15997.0,26344.0,24535.0
8208,13022,US,106626,33.0405555556,-109.300833333,,Census,Town,AZ,"Clifton, Arizona",0,0,0,0,0,0,0,0,0,0,600,0,4874,4163,2305.0,2668,3466,4191.0,5087.0,4245.0,2840.0,2596.0,3311.0
8326,7922,US,106693,35.8127777778,-110.204166667,,Census,Cdp,AZ,"Keams Canyon, Arizona",0,0,0,0,0,0,0,0,0,0,0,0,0,0,0.0,0,0,0.0,0.0,0.0,0.0,0.0,0.0
8430,12146,US,106781,34.7583333333,-112.449722222,,Census,Town,AZ,"Chino Valley, Arizona",0,0,0,0,0,0,0,0,0,0,0,0,0,0,0.0,0,0,0.0,803.0,2858.0,4837.0,7835.0,10817.0
8439,20536,US,106757,33.0566666667,-112.046666667,,Census,City,AZ,"Maricopa, Arizona",0,0,0,0,0,0,0,0,0,0,0,0,0,0,0.0,0,0,0.0,0.0,0.0,0.0,1040.0,43482.0
8516,4450,US,22498068,31.8796833333,-109.655616667,,Census,Census-designated place,AZ,"Sunizona, Arizona",0,0,0,0,0,0,0,0,0,0,0,0,0,0,0.0,0,0,0.0,0.0,0.0,0.0,0.0,0.0
8561,7173,US,106569,35.7469444444,-109.855,,Census,Census-designated place,AZ,"Steamboat, Arizona",0,0,0,0,0,0,0,0,0,0,0,0,0,0,0.0,0,0,0.0,0.0,0.0,0.0,0.0,0.0
8611,6947,US,106700,36.5983333333,-110.658055556,,Census,Cdp,AZ,"Shonto, Arizona",0,0,0,0,0,0,0,0,0,0,0,0,0,0,0.0,0,0,0.0,0.0,0.0,0.0,0.0,0.0
8760,6080,US,106676,34.9661111111,-114.567777778,,Census,Cdp,AZ,"Mesquite Creek, Arizona",0,0,0,0,0,0,0,0,0,0,0,0,0,0,0.0,0,0,0.0,0.0,0.0,0.0,0.0,0.0
8784,3372,US,53132314,31.7144444444,-111.773888889,,Census,Cdp,AZ,"South Komelik, Arizona",0,0,0,0,0,0,0,0,0,0,0,0,0,0,0.0,0,0,0.0,0.0,0.0,0.0,0.0,0.0
8823,7807,US,106562,36.7194444444,-109.625,,Census,Census-designated place,AZ,"Rock Point, Arizona",0,0,0,0,0,0,0,0,0,0,0,0,0,0,0.0,0,0,0.0,0.0,0.0,0.0,0.0,0.0
8842,11444,US,23448867,33.1702777778,-111.572222222,,Census,Unincorporated community,AZ,"San Tan Valley, Arizona",0,0,0,0,0,0,0,0,0,0,0,0,0,0,0.0,0,0,0.0,0.0,0.0,0.0,0.0,0.0
8865,8780,US,12034915,33.2922222222,-112.160833333,,Census,Cdp,AZ,"Komatke, Arizona",0,0,0,0,0,0,0,0,0,0,0,0,0,0,0.0,0,0,0.0,0.0,0.0,0.0,0.0,0.0
8884,5066,US,52163927,32.2472222222,-112.6,,Census,Cdp,AZ,"Charco, Arizona",0,0,0,0,0,0,0,0,0,0,0,0,0,0,0.0,0,0,0.0,0.0,0.0,0.0,0.0,0.0
8939,6377,US,106716,32.1322222222,-110.876944444,,Census,Cdp,AZ,"Littletown, Arizona",0,0,0,0,0,0,0,0,0,0,0,0,0,0,0.0,0,0,0.0,0.0,0.0,0.0,0.0,0.0
9026,9133,US,106790,34.4191666667,-112.249722222,,Census,Cdp,AZ,"Mayer, Arizona",0,0,0,0,0,0,0,0,0,0,0,0,0,0,0.0,0,0,0.0,0.0,0.0,0.0,0.0,0.0
9110,11774,US,106779,34.0697222222,-112.139444444,,Census,Cdp,AZ,"Black Canyon City, Arizona",0,0,0,0,0,0,0,0,0,0,0,0,0,0,0.0,0,0,0.0,0.0,0.0,0.0,0.0,0.0
9240,4800,US,52148870,34.3694444444,-111.361666667,,Census,Census-designated place,AZ,"Geronimo Estates, Arizona",0,0,0,0,0,0,0,0,0,0,0,0,0,0,0.0,0,0,0.0,0.0,0.0,0.0,0.0,0.0
9396,31632,US,106555,35.7025,-109.553333333,,Census,Census-designated place,AZ,"Ganado, Arizona",0,0,0,0,0,0,0,0,0,0,0,0,0,0,0.0,0,0,0.0,0.0,0.0,0.0,0.0,0.0
9424,8318,US,106783,34.1461111111,-112.846666667,,Census,Cdp,AZ,"Congress, Arizona",0,0,0,0,0,0,0,0,0,0,0,0,0,0,0.0,0,0,0.0,0.0,0.0,0.0,0.0,0.0
9547,19619,US,1349486,33.8672222222,-112.146944444,,Census,Census-designated place,AZ,"Anthem, Arizona",0,0,0,0,0,0,0,0,0,0,0,0,0,0,0.0,0,0,0.0,0.0,0.0,0.0,0.0,0.0
9708,6881,US,106590,36.9127777778,-112.668611111,,Census,Cdp,AZ,"Kaibab, Arizona",0,0,0,0,0,0,0,0,0,0,0,0,0,0,0.0,0,0,0.0,0.0,0.0,0.0,0.0,0.0
9762,5577,US,9512732,36.9538888889,-112.981388889,,Census,Cdp,AZ,"Centennial Park, Arizona",0,0,0,0,0,0,0,0,0,0,0,0,0,0,0.0,0,0,0.0,0.0,0.0,0.0,0.0,0.0
9775,4156,US,48917115,31.8169444444,-112.558333333,,Census,Populated place,AZ,"Ali Chuk, Arizona",0,0,0,0,0,0,0,0,0,0,0,0,0,0,0.0,0,0,0.0,0.0,0.0,0.0,0.0,0.0
9802,4782,US,42482103,34.3549944444,-111.021638889,,Census,Census-designated place,AZ,"Christopher Creek, Arizona",0,0,0,0,0,0,0,0,0,0,0,0,0,0,0.0,0,0,0.0,0.0,0.0,0.0,0.0,0.0
9856,5336,US,52365960,32.0052777778,-111.7125,,Census,Cdp,AZ,"Haivana Nakya, Arizona",0,0,0,0,0,0,0,0,0,0,0,0,0,0,0.0,0,0,0.0,0.0,0.0,0.0,0.0,0.0
9898,6651,US,106748,32.7447222222,-111.797777778,,Census,Cdp,AZ,"Chuichu, Arizona",0,0,0,0,0,0,0,0,0,0,0,0,0,0,0.0,0,0,0.0,0.0,0.0,0.0,0.0,0.0
9923,5635,US,52295613,32.7061111111,-114.521388889,,Census,Cdp,AZ,"El Prado Estates, Arizona",0,0,0,0,0,0,0,0,0,0,0,0,0,0,0.0,0,0,0.0,0.0,0.0,0.0,0.0,0.0
10130,3389,US,53140304,33.1413888889,-111.901111111,,Census,Cdp,AZ,"Wet Camp Village, Arizona",0,0,0,0,0,0,0,0,0,0,0,0,0,0,0.0,0,0,0.0,0.0,0.0,0.0,0.0,0.0
10216,7173,US,106591,36.5772222222,-111.099722222,,Census,Cdp,AZ,"Kaibito, Arizona",0,0,0,0,0,0,0,0,0,0,0,0,0,0,0.0,0,0,0.0,0.0,0.0,0.0,0.0,0.0
10267,4800,US,47001174,32.5983333333,-114.660555556,,Census,Cdp,AZ,"Orange Grove Mobile Manor, Arizona",0,0,0,0,0,0,0,0,0,0,0,0,0,0,0.0,0,0,0.0,0.0,0.0,0.0,0.0,0.0
10282,9893,US,106660,33.6141666667,-112.281944444,,Census,Census-designated place &amp; unincorporated community,AZ,"Sun City, Arizona",0,0,0,0,0,0,0,0,0,0,0,0,0,0,0.0,0,0,0.0,13670.0,40505.0,38126.0,38309.0,37499.0
10348,6789,US,106791,34.9008333333,-112.484166667,,Census,Cdp,AZ,"Paulden, Arizona",0,0,0,0,0,0,0,0,0,0,0,0,0,0,0.0,0,0,0.0,0.0,0.0,0.0,0.0,0.0
10363,5630,US,52551294,35.1369444444,-113.968333333,,Census,Cdp,AZ,"Lazy Y U, Arizona",0,0,0,0,0,0,0,0,0,0,0,0,0,0,0.0,0,0,0.0,0.0,0.0,0.0,0.0,0.0
10593,7738,US,106620,32.9880555556,-110.770277778,,Census,Town,AZ,"Winkelman, Arizona",0,0,0,0,0,0,0,0,0,0,0,0,484,573,729.0,524,548,1123.0,974.0,1060.0,676.0,443.0,353.0
10657,6970,US,106687,35.5255555556,-109.865,,Census,Cdp,AZ,"Greasewood, Arizona",0,0,0,0,0,0,0,0,0,0,0,0,0,0,0.0,0,0,0.0,0.0,0.0,0.0,0.0,0.0
10735,4033,US,42482041,33.8955555556,-110.173611111,,Census,Census-designated place,AZ,"Cedar Creek, Arizona",0,0,0,0,0,0,0,0,0,0,0,0,0,0,0.0,0,0,0.0,0.0,0.0,0.0,0.0,0.0
10745,8083,US,106706,32.4186111111,-111.328055556,,Census,Cdp,AZ,"Avra Valley, Arizona",0,0,0,0,0,0,0,0,0,0,0,0,0,0,0.0,0,0,0.0,0.0,0.0,0.0,0.0,0.0
10781,7924,US,4529462,33.7763888889,-112.528611111,,Census,Census-designated place,AZ,"Wittmann, Arizona",0,0,0,0,0,0,0,0,0,0,0,0,0,0,0.0,0,0,0.0,0.0,0.0,0.0,0.0,0.0
10924,9302,US,106756,32.7222222222,-110.644166667,,Census,Town,AZ,"Mammoth, Arizona",0,0,0,0,0,0,0,0,0,0,0,0,651,324,239.0,0,0,1913.0,1953.0,1906.0,1845.0,1762.0,1426.0
10945,34930,US,106721,31.9291666667,-110.982222222,,Census,Town,AZ,"Sahuarita, Arizona",0,0,0,0,0,0,0,0,0,0,0,0,0,0,0.0,0,0,0.0,0.0,0.0,1629.0,3242.0,25259.0
10967,4171,US,25919201,34.7813888889,-110.043333333,,Census,Unincorporated community,AZ,"Woodruff, Arizona",0,0,0,0,0,0,0,0,0,0,0,0,0,0,0.0,0,0,0.0,0.0,0.0,0.0,0.0,0.0
11062,15204,US,106758,32.6161111111,-110.781944444,,Census,Cdp,AZ,"Oracle, Arizona",0,0,0,0,0,0,0,0,0,0,0,0,0,0,0.0,0,0,0.0,0.0,0.0,0.0,0.0,0.0
11259,17323,US,106566,34.1363888889,-109.279166667,,Census,Town,AZ,"Springerville, Arizona",0,0,0,0,0,0,0,0,0,364,443,0,296,479,565.0,0,689,719.0,1151.0,1452.0,1802.0,1972.0,1961.0
11273,4305,US,49213207,32.8080555556,-113.442777778,,Census,Census designated place,AZ,"Aztec, Arizona",0,0,0,0,0,0,0,0,0,0,0,0,0,0,0.0,0,0,0.0,0.0,0.0,0.0,0.0,0.0
11298,6329,US,106796,34.3425,-112.16,,Census,Cdp,AZ,"Spring Valley, Arizona",0,0,0,0,0,0,0,0,0,0,0,0,0,0,0.0,0,0,0.0,0.0,0.0,0.0,0.0,0.0
11369,6155,US,106722,32.3258333333,-112.042777778,,Census,Cdp,AZ,"Santa Rosa, Arizona",0,0,0,0,0,0,0,0,0,0,0,0,0,0,0.0,0,0,0.0,0.0,0.0,0.0,0.0,0.0
11397,12392,US,106584,32.2555555556,-109.835555556,,Census,City,AZ,"Willcox, Arizona",0,0,0,0,0,0,0,0,0,0,396,0,1632,905,806.0,884,1266,2441.0,2568.0,3243.0,3122.0,3733.0,3757.0
11434,10469,US,106774,31.6255555556,-111.051944444,,Census,Census-designated place,AZ,"Tubac, Arizona",0,0,0,0,0,0,0,0,0,0,0,0,0,0,0.0,0,0,0.0,0.0,0.0,0.0,0.0,0.0
11499,5987,US,106797,34.4188888889,-112.604444444,,Census,Cdp,AZ,"Wilhoit, Arizona",0,0,0,0,0,0,0,0,0,0,0,0,0,0,0.0,0,0,0.0,0.0,0.0,0.0,0.0,0.0
11613,4231,US,27997038,32.0280555556,-110.038611111,,Census,Census-designated place,AZ,"Dragoon, Arizona",0,0,0,0,0,0,0,0,0,0,0,0,0,0,0.0,0,0,0.0,0.0,0.0,0.0,0.0,0.0
11797,19423,US,106717,32.3866666667,-111.125555556,,Census,Town,AZ,"Marana, Arizona",0,0,0,0,0,0,0,0,0,0,0,0,0,0,0.0,0,0,0.0,1154.0,1674.0,2187.0,13556.0,34961.0
12007,9983,US,106621,34.1013888889,-110.963611111,,Census,Census-designated place,AZ,"Young, Arizona",0,0,0,0,0,0,0,0,0,0,0,0,0,0,0.0,0,0,0.0,0.0,0.0,0.0,0.0,0.0
12188,39403,US,106664,33.4127777778,-111.943055556,,Census,City,AZ,"Tempe, Arizona",0,0,0,0,0,0,0,0,0,135,897,885,1473,1963,2495.0,2906,7684,24897.0,63550.0,106919.0,141865.0,158945.0,161719.0
12265,4256,US,42482303,34.0644444444,-111.350555556,,Census,Census-designated place,AZ,"Deer Creek, Arizona",0,0,0,0,0,0,0,0,0,0,0,0,0,0,0.0,0,0,0.0,0.0,0.0,0.0,0.0,0.0
12374,8482,US,23160149,32.9194444444,-112.894722222,,Census,Census-designated place,AZ,"Theba, Arizona",0,0,0,0,0,0,0,0,0,0,0,0,0,0,0.0,0,0,0.0,0.0,0.0,0.0,0.0,0.0
12516,6300,US,106725,32.0633333333,-110.943611111,,Census,Cdp,AZ,"Summit, Arizona",0,0,0,0,0,0,0,0,0,0,0,0,0,0,0.0,0,0,0.0,0.0,0.0,0.0,0.0,0.0
12536,4327,US,49193462,31.7388888889,-111.073888889,,Census,Census designated place,AZ,"Arivaca Junction, Arizona",0,0,0,0,0,0,0,0,0,0,0,0,0,0,0.0,0,0,0.0,0.0,0.0,0.0,0.0,0.0
12640,9329,US,106613,33.3038888889,-110.455,,Census,Census-designated place,AZ,"Peridot, Arizona",0,0,0,0,0,0,0,0,0,0,0,0,0,0,0.0,0,0,0.0,0.0,0.0,0.0,0.0,0.0
12642,9253,US,106558,36.36,-109.628055556,,Census,Census-designated place,AZ,"Many Farms, Arizona",0,0,0,0,0,0,0,0,0,0,0,0,0,0,0.0,0,0,0.0,0.0,0.0,0.0,0.0,0.0
13068,8738,US,106683,34.0397222222,-110.485555556,,Census,Census-designated place,AZ,"Cibecue, Arizona",0,0,0,0,0,0,0,0,0,0,0,0,0,0,0.0,0,0,0.0,0.0,0.0,0.0,0.0,0.0
13088,31848,US,96622,34.86,-111.789166667,,Census,City,AZ,"Sedona, Arizona",0,0,0,0,0,0,0,0,0,0,0,0,0,0,0.0,0,0,0.0,2022.0,5368.0,7720.0,10192.0,10031.0
13098,5796,US,106678,34.9497222222,-114.593611111,,Census,Cdp,AZ,"Mojave Ranch Estates, Arizona",0,0,0,0,0,0,0,0,0,0,0,0,0,0,0.0,0,0,0.0,0.0,0.0,0.0,0.0,0.0
13166,3709,US,27997416,31.8138888889,-111.825555556,,Census,Unincorporated community,AZ,"Topawa, Arizona",0,0,0,0,0,0,0,0,0,0,0,0,0,0,0.0,0,0,0.0,0.0,0.0,0.0,0.0,0.0
13194,12062,US,106581,31.8980555556,-110.218055556,,Census,Cdp,AZ,"St. David, Arizona",0,0,0,0,0,0,0,0,0,0,0,0,0,0,0.0,0,0,0.0,0.0,0.0,0.0,0.0,0.0
13247,6217,US,52044512,31.9216666667,-112.048888889,,Census,Cdp,AZ,"Gu Oidak, Arizona",0,0,0,0,0,0,0,0,0,0,0,0,0,0,0.0,0,0,0.0,0.0,0.0,0.0,0.0,0.0
13275,15107,US,106724,32.1961111111,-110.968888889,,Census,City,AZ,"South Tucson, Arizona",0,0,0,0,0,0,0,0,0,0,0,0,0,0,0.0,1066,2364,7004.0,6220.0,6554.0,5171.0,5490.0,5652.0
13351,53711,US,106669,35.1155555556,-114.588611111,,Census,City,AZ,"Bullhead City, Arizona",0,0,0,0,0,0,0,0,0,0,0,0,0,0,0.0,0,0,0.0,0.0,10719.0,21951.0,33769.0,39540.0
13439,6349,US,106798,34.6744444444,-112.530555556,,Census,Cdp,AZ,"Williamson, Arizona",0,0,0,0,0,0,0,0,0,0,0,0,0,0,0.0,0,0,0.0,0.0,0.0,0.0,0.0,0.0
13532,5586,US,52400694,34.0861111111,-109.915,,Census,Cdp,AZ,"Hondah, Arizona",0,0,0,0,0,0,0,0,0,0,0,0,0,0,0.0,0,0,0.0,0.0,0.0,0.0,0.0,0.0
13540,7145,US,106686,35.835,-110.378333333,,Census,Cdp,AZ,"First Mesa, Arizona",0,0,0,0,0,0,0,0,0,0,0,0,0,0,0.0,0,0,0.0,0.0,0.0,0.0,0.0,0.0
13586,5597,US,52996292,35.0886111111,-113.873888889,,Census,Cdp,AZ,"Pine Lake, Arizona",0,0,0,0,0,0,0,0,0,0,0,0,0,0,0.0,0,0,0.0,0.0,0.0,0.0,0.0,0.0
13622,3998,US,31234531,32.5783333333,-112.003055556,,Census,Cdp,AZ,"Kohatk, Arizona",0,0,0,0,0,0,0,0,0,0,0,0,0,0,0.0,0,0,0.0,0.0,0.0,0.0,0.0,0.0
13658,6333,US,106629,34.1669444444,-114.271666667,,Census,Cdp,AZ,"Bluewater, Arizona",0,0,0,0,0,0,0,0,0,0,0,0,0,0,0.0,0,0,0.0,0.0,0.0,505.0,730.0,0.0
13981,3405,US,53140230,33.1152777778,-111.741944444,,Census,Cdp,AZ,"Upper Santan Village, Arizona",0,0,0,0,0,0,0,0,0,0,0,0,0,0,0.0,0,0,0.0,0.0,0.0,0.0,0.0,0.0
14424,13707,US,17458026,32.8208333333,-113.541944444,,Census,Cdp,AZ,"Dateland, Arizona",0,0,0,0,0,0,0,0,0,0,0,0,0,0,0.0,0,0,0.0,0.0,0.0,0.0,0.0,0.0
14425,3632,US,38330535,33.8388888889,-113.886944444,,Census,Census-designated place,AZ,"Utting, Arizona",0,0,0,0,0,0,0,0,0,0,0,0,0,0,0.0,0,0,0.0,0.0,0.0,0.0,0.0,0.0
14458,14808,US,106749,32.9772222222,-111.523055556,,Census,City,AZ,"Coolidge, Arizona",0,0,0,0,0,0,0,0,0,0,0,0,0,0,0.0,0,0,4990.0,5314.0,6851.0,6934.0,7786.0,11825.0
14609,4171,US,27997142,31.6011111111,-109.67,,Census,Census-designated place,AZ,"McNeal, Arizona",0,0,0,0,0,0,0,0,0,0,0,0,0,0,0.0,0,0,0.0,0.0,0.0,0.0,0.0,0.0
14705,4817,US,6616366,34.3,-110.233333333,,Census,Unincorporated community,AZ,"Pinedale, Arizona",0,0,0,0,0,0,0,0,0,0,0,0,0,0,0.0,0,0,0.0,0.0,0.0,0.0,0.0,0.0
14831,3836,US,53138678,32.1827777778,-112.365555556,,Census,Census-designated place,AZ,"Wahak Hotrontk, Arizona",0,0,0,0,0,0,0,0,0,0,0,0,0,0,0.0,0,0,0.0,0.0,0.0,0.0,0.0,0.0
14867,24671,US,106670,36.9894444444,-112.978055556,,Census,Town,AZ,"Colorado City, Arizona",0,0,0,0,0,0,0,0,0,0,0,0,0,0,0.0,0,0,0.0,0.0,1439.0,2426.0,3334.0,4821.0
14948,4398,US,42516163,34.2983333333,-111.364444444,,Census,Census-designated place,AZ,"East Verde Estates, Arizona",0,0,0,0,0,0,0,0,0,0,0,0,0,0,0.0,0,0,0.0,0.0,0.0,0.0,0.0,0.0
14983,9453,US,106761,32.605,-110.633333333,,Census,Cdp,AZ,"San Manuel, Arizona",0,0,0,0,0,0,0,0,0,0,0,0,0,0,0.0,0,0,4524.0,4332.0,5443.0,4009.0,4375.0,3551.0
14986,10968,US,106665,33.4502777778,-112.255,,Census,City,AZ,"Tolleson, Arizona",0,0,0,0,0,0,0,0,0,0,0,0,0,0,910.0,1731,3042,3886.0,3881.0,4433.0,4434.0,4974.0,6545.0
15065,6636,US,9632253,33.8566666667,-112.623333333,,Census,Census-designated place,AZ,"Morristown, Arizona",0,0,0,0,0,0,0,0,0,0,0,0,0,0,0.0,0,0,0.0,0.0,0.0,0.0,0.0,0.0
15108,10918,US,826549,34.17,-113.846111111,,Census,Populated place,AZ,"Swansea, Arizona",0,0,0,0,0,0,0,0,0,0,0,0,400,337,,0,0,0.0,0.0,0.0,0.0,0.0,0.0
15122,3751,US,38330478,33.7444444444,-113.752222222,,Census,Census-designated place,AZ,"Vicksburg, Arizona",0,0,0,0,0,0,0,0,0,0,0,0,0,0,0.0,0,0,0.0,0.0,0.0,0.0,0.0,0.0
15344,6919,US,106682,36.5305555556,-110.063888889,,Census,Cdp,AZ,"Chilchinbito, Arizona",0,0,0,0,0,0,0,0,0,0,0,0,0,0,0.0,0,0,0.0,0.0,0.0,0.0,0.0,0.0
15386,4029,US,31329223,33.2327777778,-112.159444444,,Census,Cdp,AZ,"Santa Cruz, Arizona",0,0,0,0,0,0,0,0,0,0,0,0,0,0,0.0,0,0,0.0,0.0,0.0,0.0,0.0,0.0
15443,4991,US,52170225,34.1944444444,-111.308611111,,Census,Census-designated place,AZ,"Round Valley, Arizona",0,0,0,0,0,0,0,0,0,0,0,0,0,0,0.0,0,0,0.0,0.0,0.0,0.0,0.0,0.0
15497,3659,US,3192009,34.7080555556,-113.611111111,,Census,Unknown,AZ,"Wikieup, Arizona",0,0,0,0,0,0,0,0,0,0,0,0,0,0,0.0,0,0,0.0,0.0,0.0,0.0,0.0,0.0
15597,8990,US,106618,33.84,-111.284722222,,Census,Census-designated place,AZ,"Tonto Basin, Arizona",0,0,0,0,0,0,0,0,0,0,0,0,0,0,0.0,0,0,0.0,0.0,0.0,0.0,0.0,0.0
15609,16493,US,106572,35.6727777778,-109.062222222,,Census,City,AZ,"Window Rock, Arizona",0,0,0,0,0,0,0,0,0,0,0,0,0,0,0.0,0,0,0.0,0.0,0.0,0.0,0.0,0.0
15632,34079,US,87932,,,,Census,US County,AZ,"Cochise County, Arizona",0,0,0,0,0,0,0,0,0,0,6938,9251,34591,46465,40998.0,34627,31488,55039.0,61910.0,85686.0,97624.0,117755.0,131346.0
15761,3379,US,53139932,35.1311111111,-114.126944444,,Census,Cdp,AZ,"Walnut Creek, Arizona",0,0,0,0,0,0,0,0,0,0,0,0,0,0,0.0,0,0,0.0,0.0,0.0,0.0,0.0,0.0
15791,21670,US,106746,32.8858333333,-111.743888889,,Census,City,AZ,"Casa Grande, Arizona",0,0,0,0,0,0,0,0,0,33,328,0,0,948,1351.0,1545,4181,8311.0,10536.0,14971.0,19076.0,25224.0,48571.0
15816,8685,US,16120321,32.8675,-109.792777778,,Census,Census-designated place,AZ,"Central, Arizona",0,0,0,0,0,0,0,0,0,0,0,0,0,0,0.0,0,0,0.0,0.0,0.0,0.0,0.0,0.0
15822,5059,US,52193244,35.4227777778,-113.648611111,,Census,Cdp,AZ,"Crozier, Arizona",0,0,0,0,0,0,0,0,0,0,0,0,0,0,0.0,0,0,0.0,0.0,0.0,0.0,0.0,0.0
15870,6632,US,106592,36.8738888889,-111.438055556,,Census,Census-designated place,AZ,"LeChee, Arizona",0,0,0,0,0,0,0,0,0,0,0,0,0,0,0.0,0,0,0.0,0.0,0.0,0.0,0.0,0.0
16003,6380,US,106685,33.8002777778,-109.928611111,,Census,Cdp,AZ,"East Fork, Arizona",0,0,0,0,0,0,0,0,0,0,0,0,0,0,0.0,0,0,0.0,0.0,0.0,0.0,0.0,0.0
16008,13448,US,106651,33.3666666667,-111.9625,,Census,Town,AZ,"Guadalupe, Arizona",0,0,0,0,0,0,0,0,0,0,0,0,0,0,0.0,0,0,0.0,4039.0,4506.0,5458.0,5228.0,5523.0
16046,11344,US,16065622,33.0369444444,-109.965277778,,Census,Census-designated place,AZ,"Fort Thomas, Arizona",0,0,0,0,0,0,0,0,0,0,0,0,0,0,0.0,0,0,0.0,0.0,0.0,0.0,0.0,0.0
16109,19629,US,106689,34.9072222222,-110.162777778,,Census,City,AZ,"Holbrook, Arizona",0,0,0,0,0,0,0,0,0,0,206,0,609,1206,1115.0,1184,2336,3438.0,4759.0,5785.0,4686.0,4917.0,5053.0
16124,7357,US,116592,34.7083333333,-111.9925,,Census,Cdp,AZ,"Verde Village, Arizona",0,0,0,0,0,0,0,0,0,0,0,0,0,0,0.0,0,0,0.0,0.0,0.0,0.0,0.0,0.0
16309,14280,US,106640,33.4336111111,-112.349722222,,Census,City,AZ,"Avondale, Arizona",0,0,0,0,0,0,0,0,0,0,0,0,0,0,0.0,0,2505,6151.0,6626.0,8168.0,16169.0,35883.0,76238.0
16317,6721,US,27471277,32.3263888889,-109.486944444,,Census,Unknown,AZ,"Bowie, Arizona",0,0,0,0,0,0,0,0,0,0,0,0,0,0,0.0,0,0,0.0,0.0,0.0,0.0,0.0,0.0
16334,25309,US,106675,34.49,-114.308888889,,Census,City,AZ,"Lake Havasu City, Arizona",0,0,0,0,0,0,0,0,0,0,0,0,0,0,0.0,0,0,0.0,4111.0,15909.0,24363.0,41938.0,52527.0
16384,3380,US,53289311,34.1958333333,-110.023055556,,Census,Cdp,AZ,"Wagon Wheel, Arizona",0,0,0,0,0,0,0,0,0,0,0,0,0,0,0.0,0,0,0.0,0.0,0.0,0.0,0.0,0.0
16435,11678,US,106652,33.4933333333,-112.358333333,,Census,City,AZ,"Litchfield Park, Arizona",0,0,0,0,0,0,0,0,0,0,0,0,0,0,0.0,0,0,0.0,1664.0,3657.0,3303.0,3810.0,5476.0
16474,4350,US,42482158,33.4302777778,-110.764444444,,Census,Census-designated place,AZ,"Copper Hill, Arizona",0,0,0,0,0,0,0,0,0,0,0,0,0,0,0.0,0,0,0.0,0.0,0.0,0.0,0.0,0.0
16477,5501,US,52539058,31.7658333333,-110.991944444,,Census,Cdp,AZ,"Elephant Head, Arizona",0,0,0,0,0,0,0,0,0,0,0,0,0,0,0.0,0,0,0.0,0.0,0.0,0.0,0.0,0.0
16655,8033,US,106698,35.8175,-110.504166667,,Census,Cdp,AZ,"Second Mesa, Arizona",0,0,0,0,0,0,0,0,0,0,0,0,0,0,0.0,0,0,0.0,0.0,0.0,0.0,0.0,0.0
16820,43158,US,106644,33.3,-111.833333333,,Census,City,AZ,"Chandler, Arizona",0,0,0,0,0,0,0,0,0,0,0,0,0,0,1378.0,1239,3799,9531.0,13763.0,29673.0,89862.0,176581.0,236123.0
16888,76575,US,106659,33.5,-111.933333333,,Census,City,AZ,"Scottsdale, Arizona",0,0,0,0,0,0,0,0,0,0,0,0,0,1047,2761.0,0,2032,10026.0,67823.0,88622.0,130075.0,202705.0,217385.0
16938,6328,US,106804,32.6958333333,-113.963055556,,Census,Cdp,AZ,"Tacna, Arizona",0,0,0,0,0,0,0,0,0,0,0,0,0,0,0.0,0,0,0.0,0.0,0.0,0.0,0.0,0.0
17045,7689,US,106750,32.9297222222,-110.733888889,,Census,Cdp,AZ,"Dudleyville, Arizona",0,0,0,0,0,0,0,0,0,0,0,0,0,0,0.0,0,0,0.0,0.0,0.0,0.0,0.0,0.0
17052,27724,US,106650,33.45,-112.358333333,,Census,City,AZ,"Goodyear, Arizona",0,0,0,0,0,0,0,0,0,0,0,0,0,0,1135.0,0,1254,1654.0,2140.0,2747.0,6258.0,18911.0,65275.0
17134,6613,US,106578,31.3588888889,-109.566111111,,Census,Cdp,AZ,"Pirtleville, Arizona",0,0,0,0,0,0,0,0,0,0,0,0,0,0,0.0,0,0,0.0,0.0,0.0,0.0,0.0,0.0
17313,6442,US,106801,32.5577777778,-114.783333333,,Census,Cdp,AZ,"Gadsden, Arizona",0,0,0,0,0,0,0,0,0,0,0,0,0,0,0.0,0,0,0.0,0.0,0.0,0.0,0.0,0.0
17316,8283,US,106614,34.3844444444,-111.455,,Census,Census-designated place,AZ,"Pine, Arizona",0,0,0,0,0,0,0,0,0,0,0,0,0,0,0.0,0,0,0.0,0.0,0.0,0.0,0.0,0.0
17329,8379,US,106786,34.7322222222,-112.018611111,,Census,City,AZ,"Cottonwood, Arizona",0,0,0,0,0,0,0,0,0,0,0,0,0,0,0.0,0,1626,1879.0,2610.0,4550.0,5918.0,9179.0,11265.0
17331,4200,US,15827514,33.6797222222,-113.944722222,,Census,Census-designated place,AZ,"Brenda, Arizona",0,0,0,0,0,0,0,0,0,0,0,0,0,0,0.0,0,0,0.0,0.0,0.0,0.0,0.0,0.0
17453,3369,US,53288390,35.4861111111,-110.406111111,,Census,Cdp,AZ,"Tees Toh, Arizona",0,0,0,0,0,0,0,0,0,0,0,0,0,0,0.0,0,0,0.0,0.0,0.0,0.0,0.0,0.0
17569,13119,US,106593,35.2975,-111.005555556,,Census,Cdp,AZ,"Leupp, Arizona",0,0,0,0,0,0,0,0,0,0,0,0,0,0,0.0,0,0,0.0,0.0,0.0,0.0,0.0,0.0
17587,11616,US,106658,33.7222222222,-111.676666667,,Census,Cdp,AZ,"Rio Verde, Arizona",0,0,0,0,0,0,0,0,0,0,0,0,0,0,0.0,0,0,0.0,0.0,0.0,0.0,0.0,0.0
17626,36883,US,106718,32.4211111111,-110.976111111,,Census,Town,AZ,"Oro Valley, Arizona",0,0,0,0,0,0,0,0,0,0,0,0,0,0,0.0,0,0,0.0,581.0,1489.0,6670.0,29700.0,41011.0
17638,5371,US,52656420,32.1702777778,-112.134166667,,Census,Cdp,AZ,"Maish Vaya, Arizona",0,0,0,0,0,0,0,0,0,0,0,0,0,0,0.0,0,0,0.0,0.0,0.0,0.0,0.0,0.0
17819,23906,US,106752,33.0386111111,-111.386944444,,Census,Town,AZ,"Florence, Arizona",0,0,0,0,0,0,0,0,0,902,1486,0,807,1161,1318.0,1383,1776,2143.0,2173.0,3391.0,7510.0,17054.0,25536.0
17907,3762,US,25920519,33.7905555556,-109.986666667,,Census,Unincorporated community,AZ,"Fort Apache, Arizona",0,0,0,0,0,0,0,0,0,0,0,0,0,0,0.0,0,0,0.0,0.0,0.0,0.0,0.0,0.0
18000,4449,US,52149555,33.3588888889,-110.785555556,,Census,Census-designated place,AZ,"Icehouse Canyon, Arizona",0,0,0,0,0,0,0,0,0,0,0,0,0,0,0.0,0,0,0.0,0.0,0.0,0.0,0.0,0.0
18008,11294,US,106777,34.5766666667,-113.174722222,,Census,Cdp,AZ,"Bagdad, Arizona",0,0,0,0,0,0,0,0,0,0,0,0,0,0,0.0,0,0,0.0,0.0,0.0,0.0,0.0,0.0
18131,9624,US,106799,34.2225,-112.749722222,,Census,Cdp,AZ,"Yarnell, Arizona",0,0,0,0,0,0,0,0,0,0,0,0,0,0,0.0,0,0,0.0,0.0,0.0,0.0,0.0,0.0
18160,7560,US,106617,33.3511111111,-110.46,,Census,Town,AZ,"Star Valley, Arizona",0,0,0,0,0,0,0,0,0,0,0,0,0,0,0.0,0,0,0.0,0.0,0.0,0.0,1536.0,2310.0
18296,4395,US,39150264,35.4755555556,-109.1275,,Census,Census-designated place,AZ,"Oak Springs, Arizona",0,0,0,0,0,0,0,0,0,0,0,0,0,0,0.0,0,0,0.0,0.0,0.0,0.0,0.0,0.0
18352,3911,US,53136970,32.5944444444,-114.655,,Census,Census-designated place,AZ,"Rancho Mesa Verde, Arizona",0,0,0,0,0,0,0,0,0,0,0,0,0,0,0.0,0,0,0.0,0.0,0.0,0.0,0.0,0.0
18397,4183,US,42352026,31.3798222222,-110.118408333,,Census,Census-designated place,AZ,"Palominas, Arizona",0,0,0,0,0,0,0,0,0,0,0,0,0,0,0.0,0,0,0.0,0.0,0.0,0.0,0.0,0.0
18399,6688,US,106800,32.6577777778,-114.411944444,,Census,Cdp,AZ,"Fortuna Foothills, Arizona",0,0,0,0,0,0,0,0,0,0,0,0,0,0,0.0,0,0,0.0,0.0,0.0,7737.0,20478.0,26265.0
18517,24755,US,87938,33.1016666667,-109.268611111,,Census,US County,AZ,"Greenlee County, Arizona",0,0,0,0,0,0,0,0,0,0,0,0,0,15362,9886.0,8698,12805,11509.0,10330.0,11406.0,8008.0,8547.0,8437.0
18572,4209,US,44132292,32.9138888889,-109.197222222,,Census,Census-designated place,AZ,"York, Arizona",0,0,0,0,0,0,0,0,0,0,0,0,0,0,0.0,0,0,0.0,0.0,0.0,0.0,0.0,0.0
18580,4336,US,52227204,33.4808333333,-110.851944444,,Census,Census-designated place,AZ,"Wheatfields, Gila County, Arizona",0,0,0,0,0,0,0,0,0,0,0,0,0,0,0.0,0,0,0.0,0.0,0.0,0.0,0.0,0.0
18653,4371,US,52227285,34.3711111111,-111.283333333,,Census,Census-designated place,AZ,"Whispering Pines, Gila County, Arizona",0,0,0,0,0,0,0,0,0,0,0,0,0,0,0.0,0,0,0.0,0.0,0.0,0.0,0.0,0.0
18724,23326,US,106647,32.95,-112.724722222,,Census,Town,AZ,"Gila Bend, Arizona",0,0,0,0,0,0,0,0,0,0,0,0,199,745,1275.0,0,0,1813.0,1795.0,1585.0,1747.0,1980.0,1922.0
18803,3376,US,53289362,35.6047222222,-110.08,,Census,Cdp,AZ,"Whitecone, Arizona",0,0,0,0,0,0,0,0,0,0,0,0,0,0,0.0,0,0,0.0,0.0,0.0,0.0,0.0,0.0
18845,6679,US,6740584,36.0019444444,-114.068055556,,Census,Unincorporated community,AZ,"Meadview, Arizona",0,0,0,0,0,0,0,0,0,0,0,0,0,0,0.0,0,0,0.0,0.0,0.0,0.0,0.0,0.0
18858,17594,US,106795,35.3283333333,-112.874166667,,Census,Cdp,AZ,"Seligman, Arizona",0,0,0,0,0,0,0,0,0,0,0,0,0,0,0.0,0,0,0.0,0.0,0.0,0.0,0.0,0.0
19191,3881,US,31234200,32.5627777778,-110.698333333,,Census,Cdp,AZ,"Campo Bonito, Arizona",0,0,0,0,0,0,0,0,0,0,0,0,0,0,0.0,0,0,0.0,0.0,0.0,0.0,0.0,0.0
19194,9851,US,106556,35.2836111111,-109.237777778,,Census,Census-designated place,AZ,"Houck, Arizona",0,0,0,0,0,0,0,0,0,0,0,0,0,0,0.0,0,0,0.0,0.0,0.0,0.0,0.0,0.0
19252,25592,US,87958,31.5333333333,-110.833333333,,Census,US County,AZ,"Santa Cruz County, Arizona",0,0,0,0,0,0,0,0,0,0,0,4545,6766,12689,9684.0,9482,9417,10808.0,13966.0,20459.0,29676.0,38381.0,47420.0
19329,11593,US,106751,32.7636111111,-111.6,,Census,City,AZ,"Eloy, Arizona",0,0,0,0,0,0,0,0,0,0,0,0,0,0,0.0,0,3580,4899.0,5381.0,6240.0,7211.0,10375.0,16631.0
19372,6481,US,106719,32.3308333333,-111.229722222,,Census,Cdp,AZ,"Picture Rocks, Arizona",0,0,0,0,0,0,0,0,0,0,0,0,0,0,0.0,0,0,0.0,0.0,0.0,0.0,0.0,0.0
19383,13702,US,106780,34.5666666667,-111.856111111,,Census,Town,AZ,"Camp Verde, Arizona",0,0,0,0,0,0,0,0,0,0,0,0,0,0,0.0,0,0,0.0,0.0,3824.0,6243.0,9451.0,10873.0
19431,6975,US,106699,35.8177777778,-110.534722222,,Census,Cdp,AZ,"Shongopovi, Arizona",0,0,0,0,0,0,0,0,0,0,0,0,0,0,0.0,0,0,0.0,0.0,0.0,730.0,632.0,0.0
19537,17963,US,106642,33.8272222222,-111.923611111,,Census,Town,AZ,"Carefree, Arizona",0,0,0,0,0,0,0,0,0,0,0,0,0,0,0.0,0,0,0.0,0.0,964.0,1657.0,2927.0,3363.0
19637,10403,US,106587,36.9494444444,-112.521666667,,Census,Town,AZ,"Fredonia, Arizona",0,0,0,0,0,0,0,0,0,0,0,0,0,0,0.0,0,0,643.0,798.0,1040.0,1207.0,1036.0,1314.0
19651,4347,US,52169721,33.3788888889,-110.753888889,,Census,Census-designated place,AZ,"Pinal, Arizona",0,0,0,0,0,0,0,0,0,0,0,0,0,0,0.0,0,0,0.0,0.0,0.0,0.0,0.0,0.0
19667,5309,US,52217171,32.7402777778,-114.482777778,,Census,Cdp,AZ,"Buckshot, Arizona",0,0,0,0,0,0,0,0,0,0,0,0,0,0,0.0,0,0,0.0,0.0,0.0,0.0,0.0,0.0
19689,6519,US,106729,32.1808333333,-111.109722222,,Census,Cdp,AZ,"Tucson Estates, Arizona",0,0,0,0,0,0,0,0,0,0,0,0,0,0,0.0,0,0,0.0,0.0,2814.0,2662.0,9755.0,0.0
19728,8770,US,39264515,35.4194444444,-109.493888889,,Census,Census-designated place,AZ,"Wide Ruins, Arizona",0,0,0,0,0,0,0,0,0,0,0,0,0,0,0.0,0,0,0.0,0.0,0.0,0.0,0.0,0.0
19781,7912,US,106585,36.6208333333,-111.656388889,,Census,Cdp,AZ,"Bitter Springs, Arizona",0,0,0,0,0,0,0,0,0,0,0,0,0,0,0.0,0,0,0.0,0.0,0.0,0.0,0.0,0.0
19798,6792,US,25920308,34.3616666667,-110.295277778,,Census,Census-designated place (cdp),AZ,"Clay Springs, Arizona",0,0,0,0,0,0,0,0,0,0,0,0,0,0,0.0,0,0,0.0,0.0,0.0,0.0,0.0,0.0
19860,13199,US,2303087,32.4383333333,-110.759166667,,Census,Census-designated place,AZ,"Summerhaven, Arizona",0,0,0,0,0,0,0,0,0,0,0,0,0,0,0.0,0,0,0.0,0.0,0.0,0.0,0.0,0.0
19867,3855,US,31329442,33.12,-111.837777778,,Census,Cdp,AZ,"Sweet Water Village, Arizona",0,0,0,0,0,0,0,0,0,0,0,0,0,0,0.0,0,0,0.0,0.0,0.0,0.0,0.0,0.0
19887,6712,US,106759,33.295,-111.297777778,,Census,Cdp,AZ,"Queen Valley, Arizona",0,0,0,0,0,0,0,0,0,0,0,0,0,0,0.0,0,0,0.0,0.0,0.0,0.0,0.0,0.0
19993,9641,US,21483525,33.1386111111,-110.125,,Census,Census-designated place,AZ,"Bylas, Arizona",0,0,0,0,0,0,0,0,0,0,0,0,0,0,0.0,0,0,0.0,0.0,0.0,0.0,0.0,0.0
20154,3469,US,53138784,35.4905555556,-113.562222222,,Census,Cdp,AZ,"Truxton, Arizona",0,0,0,0,0,0,0,0,0,0,0,0,0,0,0.0,0,0,0.0,0.0,0.0,0.0,0.0,0.0
20190,10007,US,106622,32.8886111111,-109.828333333,,Census,Town,AZ,"Pima, Arizona",0,0,0,0,0,0,0,0,0,0,750,521,500,515,980.0,867,824,806.0,1184.0,1599.0,1725.0,1989.0,2387.0
20218,65279,US,106582,31.7158333333,-110.064722222,,Census,City,AZ,"Tombstone, Arizona",0,0,0,0,0,0,0,0,0,3423,1875,646,1582,1178,849.0,822,910,1283.0,1241.0,1632.0,1220.0,1504.0,1380.0
20400,1629,US,41879458,31.99,-110.435277778,,Census,Census-designated place,AZ,"Mescal, Arizona",0,0,0,0,0,0,0,0,0,0,0,0,0,0,0.0,0,0,0.0,0.0,0.0,0.0,0.0,0.0
20501,35207,US,87961,34.5613888889,-112.54,,Census,US County,AZ,"Yavapai County, Arizona",0,0,0,0,0,0,0,0,2142,5013,8685,13799,15996,24016,28470.0,26511,24991,28912.0,36733.0,68145.0,107714.0,167517.0,211073.0
20546,3967,US,39264407,35.7025,-109.938055556,,Census,Census-designated place,AZ,"Toyei, Arizona",0,0,0,0,0,0,0,0,0,0,0,0,0,0,0.0,0,0,0.0,0.0,0.0,0.0,0.0,0.0
20588,6339,US,106731,32.1408333333,-111.113611111,,Census,Cdp,AZ,"Valencia West, Arizona",0,0,0,0,0,0,0,0,0,0,0,0,0,0,0.0,0,0,0.0,0.0,0.0,3277.0,2380.0,0.0
20663,8586,US,106768,31.5416666667,-110.753333333,,Census,Town,AZ,"Patagonia, Arizona",0,0,0,0,0,0,0,0,0,0,0,0,0,0,0.0,0,700,540.0,630.0,980.0,888.0,881.0,913.0
20722,42556,US,87956,,,,Census,US County,AZ,"Pima County, Arizona",0,0,0,0,0,0,0,0,5716,17006,12673,14689,22818,34680,55676.0,72838,141216,265660.0,351667.0,531443.0,666880.0,843746.0,980263.0
20734,6968,US,106637,33.7636111111,-113.608611111,,Census,Cdp,AZ,"Salome, Arizona",0,0,0,0,0,0,0,0,0,0,0,0,0,0,0.0,0,0,0.0,0.0,0.0,0.0,0.0,0.0
20818,7022,US,106723,32.3258333333,-112.042777778,,Census,Cdp,AZ,"Sells, Arizona",0,0,0,0,0,0,0,0,0,0,0,0,0,0,0.0,0,0,0.0,0.0,0.0,0.0,0.0,0.0
20826,4245,US,42515986,33.105,-110.755,,Census,Census-designated place,AZ,"Dripping Springs, Arizona",0,0,0,0,0,0,0,0,0,0,0,0,0,0,0.0,0,0,0.0,0.0,0.0,0.0,0.0,0.0
20932,5006,US,2210706,36.8872222222,-113.929722222,,Census,Census-designated place,AZ,"Littlefield, Arizona",0,0,0,0,0,0,0,0,0,0,0,0,0,0,0.0,0,0,0.0,0.0,0.0,0.0,0.0,0.0
20985,8635,US,25920420,34.4752777778,-109.605833333,,Census,Census-designated place,AZ,"Concho, Arizona",0,0,0,0,0,0,0,0,0,0,0,0,0,0,0.0,0,0,0.0,0.0,0.0,0.0,0.0,0.0
20997,25089,US,106707,32.3463888889,-111.009722222,,Census,Cdp,AZ,"Casas Adobes, Arizona",0,0,0,0,0,0,0,0,0,0,0,0,0,0,0.0,0,0,0.0,0.0,0.0,0.0,0.0,0.0
21074,7164,US,106605,33.7877777778,-110.023611111,,Census,Census-designated place,AZ,"Canyon Day, Arizona",0,0,0,0,0,0,0,0,0,0,0,0,0,0,0.0,0,0,0.0,0.0,0.0,0.0,0.0,0.0
21187,5420,US,52367605,36.0308333333,-110.504722222,,Census,Cdp,AZ,"Hard Rock, Arizona",0,0,0,0,0,0,0,0,0,0,0,0,0,0,0.0,0,0,0.0,0.0,0.0,0.0,0.0,0.0
21242,21465,US,3432996,32.4961111111,-114.768333333,,Census,City,AZ,"San Luis, Arizona",0,0,0,0,0,0,0,0,0,0,0,0,0,0,0.0,0,0,0.0,189.0,1946.0,4212.0,15322.0,25505.0
21363,30276,US,106656,33.5825,-112.238611111,,Census,City,AZ,"Peoria, Arizona",0,0,0,0,0,0,0,0,0,0,0,0,300,2371,1748.0,0,0,2593.0,4792.0,12171.0,50675.0,108364.0,154065.0
21393,30572,US,87962,32.7869444444,-113.982777778,,Census,US County,AZ,"Yuma County, Arizona",0,0,0,0,0,0,0,0,1621,3215,2671,4145,7733,14904,17816.0,19326,28006,46235.0,60827.0,90554.0,106895.0,160026.0,195751.0
21531,7495,US,106765,31.705,-111.065555556,,Census,Census-designated place,AZ,"Amado, Arizona",0,0,0,0,0,0,0,0,0,0,0,0,0,0,0.0,0,0,0.0,0.0,0.0,0.0,0.0,0.0
21570,3968,US,38314781,36.9094444444,-112.758888889,,Census,Census-designated place,AZ,"Moccasin, Arizona",0,0,0,0,0,0,0,0,0,0,0,0,0,0,0.0,0,0,0.0,0.0,0.0,0.0,0.0,0.0
21661,8591,US,106711,32.1429138889,-111.026536111,,Census,Cdp,AZ,"Drexel Heights, Arizona",0,0,0,0,0,0,0,0,0,0,0,0,0,0,0.0,0,0,0.0,0.0,0.0,0.0,0.0,0.0
21707,7205,US,106606,33.41,-110.816388889,,Census,Census-designated place,AZ,"Central Heights-Midland City, Arizona",0,0,0,0,0,0,0,0,0,0,0,0,0,0,0.0,0,0,0.0,0.0,0.0,0.0,0.0,0.0
21763,4134,US,31194179,32.7191666667,-114.66,,Census,Cdp,AZ,"Avenue B and C, Arizona",0,0,0,0,0,0,0,0,0,0,0,0,0,0,0.0,0,0,0.0,0.0,0.0,0.0,0.0,0.0
21856,5584,US,52758994,33.9963888889,-109.959166667,,Census,Cdp,AZ,"North Fork, Arizona",0,0,0,0,0,0,0,0,0,0,0,0,0,0,0.0,0,0,0.0,0.0,0.0,0.0,0.0,0.0
21875,4406,US,2204709,35.6536111111,-112.138611111,,Census,Census-designated place,AZ,"Valle, Arizona",0,0,0,0,0,0,0,0,0,0,0,0,0,0,0.0,0,0,0.0,0.0,0.0,0.0,0.0,0.0
21959,4020,US,31329310,33.1527777778,-111.816666667,,Census,Cdp,AZ,"Stotonic Village, Arizona",0,0,0,0,0,0,0,0,0,0,0,0,0,0,0.0,0,0,0.0,0.0,0.0,0.0,0.0,0.0
21966,45632,US,87944,,,,Census,US County,AZ,"Maricopa County, Arizona",0,0,0,0,0,0,0,0,0,5689,10986,20457,34488,89576,150970.0,186193,331770,663510.0,971228.0,1509175.0,2122101.0,3072149.0,3817117.0
22025,19335,US,106666,33.965,-112.748055556,,Census,Town,AZ,"Wickenburg, Arizona",0,0,0,0,0,0,0,0,174,104,0,0,570,527,734.0,995,1736,2445.0,2698.0,3535.0,4515.0,5082.0,6363.0
22044,7671,US,106571,36.3047222222,-109.223333333,,Census,Census-designated place,AZ,"Tsaile, Arizona",0,0,0,0,0,0,0,0,0,0,0,0,0,0,0.0,0,0,0.0,0.0,0.0,0.0,0.0,0.0
22145,13829,US,106776,35.2211111111,-112.487222222,,Census,Cdp,AZ,"Ash Fork, Arizona",0,0,0,0,0,0,0,0,0,0,0,0,0,0,0.0,0,0,0.0,0.0,0.0,0.0,0.0,0.0
22248,3320,US,31194107,32.1122222222,-110.687777778,,Census,Cdp,AZ,"Rincon Valley, Arizona",0,0,0,0,0,0,0,0,0,0,0,0,0,0,0.0,0,0,0.0,0.0,0.0,0.0,0.0,0.0
22288,7335,US,106565,35.8966666667,-109.158611111,,Census,Census-designated place,AZ,"Sawmill, Arizona",0,0,0,0,0,0,0,0,0,0,0,0,0,0,0.0,0,0,0.0,0.0,0.0,0.0,0.0,0.0
22296,6004,US,106681,34.9183333333,-114.610833333,,Census,Cdp,AZ,"Willow Valley, Arizona",0,0,0,0,0,0,0,0,0,0,0,0,0,0,0.0,0,0,0.0,0.0,0.0,0.0,0.0,0.0
22319,4229,US,52148777,34.3169444444,-111.299444444,,Census,Census-designated place,AZ,"Freedom Acres, Arizona",0,0,0,0,0,0,0,0,0,0,0,0,0,0,0.0,0,0,0.0,0.0,0.0,0.0,0.0,0.0
22358,22498,US,106575,31.345,-109.541388889,,Census,City,AZ,"Douglas, Arizona",0,0,0,0,0,0,0,0,0,0,0,0,6437,9916,9828.0,8623,9442,11925.0,12462.0,13058.0,12822.0,14312.0,17378.0
22490,11621,US,5846510,33.8480555556,-109.143055556,,Census,Census-designated place,AZ,"Alpine, Arizona",0,0,0,0,0,0,0,0,0,0,0,0,0,0,0.0,0,0,0.0,0.0,0.0,0.0,0.0,0.0
22568,13294,US,106627,32.7258333333,-109.097777778,,Census,Town,AZ,"Duncan, Arizona",0,0,0,0,0,0,0,0,0,0,0,0,0,0,0.0,887,941,862.0,773.0,603.0,662.0,812.0,696.0
22626,5506,US,52164761,31.9408333333,-111.776388889,,Census,Cdp,AZ,"Chiawuli Tak, Arizona",0,0,0,0,0,0,0,0,0,0,0,0,0,0,0.0,0,0,0.0,0.0,0.0,0.0,0.0,0.0
22683,9630,US,106630,33.9336111111,-114.008333333,,Census,Cdp,AZ,"Bouse, Arizona",0,0,0,0,0,0,0,0,0,0,0,0,0,0,0.0,0,0,0.0,0.0,0.0,0.0,0.0,0.0
22777,4261,US,52158712,34.0105555556,-111.319166667,,Census,Census-designated place,AZ,"Jakes Corner, Arizona",0,0,0,0,0,0,0,0,0,0,0,0,0,0,0.0,0,0,0.0,0.0,0.0,0.0,0.0,0.0
22844,4220,US,43318825,34.3152777778,-111.334444444,,Census,Census-designated place,AZ,"Flowing Springs, Arizona",0,0,0,0,0,0,0,0,0,0,0,0,0,0,0.0,0,0,0.0,0.0,0.0,0.0,0.0,0.0
22921,11472,US,1255100,33.4936111111,-112.937222222,,Census,Census-designated place,AZ,"Tonopah, Arizona",0,0,0,0,0,0,0,0,0,0,0,0,0,0,0.0,0,0,0.0,0.0,0.0,0.0,0.0,0.0
23077,7455,US,106610,33.0013888889,-110.785555556,,Census,Town,AZ,"Hayden, Arizona",0,0,0,0,0,0,0,0,0,0,0,0,582,2508,2364.0,0,1494,1760.0,1283.0,1205.0,909.0,892.0,662.0
23351,5533,US,52639604,33.1427777778,-111.785277778,,Census,Cdp,AZ,"Lower Santan Village, Arizona",0,0,0,0,0,0,0,0,0,0,0,0,0,0,0.0,0,0,0.0,0.0,0.0,0.0,0.0,0.0
23483,11669,US,106643,33.8333333333,-111.950833333,,Census,Town,AZ,"Cave Creek, Arizona",0,0,0,0,0,0,0,0,0,0,0,0,0,0,0.0,0,0,0.0,0.0,1712.0,2925.0,3728.0,5015.0
23531,6226,US,32056222,36.7936111111,-114.012777778,,Census,Census-designated place,AZ,"Scenic, Arizona",0,0,0,0,0,0,0,0,0,0,0,0,0,0,0.0,0,0,0.0,0.0,0.0,0.0,0.0,0.0
23571,20182,US,106601,36.1291666667,-111.238611111,,Census,Unincorporated town cdp,AZ,"Tuba City, Arizona",0,0,0,0,0,0,0,0,0,0,0,0,0,0,0.0,0,0,0.0,0.0,0.0,0.0,0.0,0.0
23633,4430,US,27933391,35.3538888889,-109.053611111,,Census,Census-designated place,AZ,"Lupton, Arizona",0,0,0,0,0,0,0,0,0,0,0,0,0,0,0.0,0,0,0.0,0.0,0.0,0.0,0.0,0.0
23657,3571,US,38334494,32.82,-109.591944444,,Census,Census-designated place,AZ,"San Jose, Arizona",0,0,0,0,0,0,0,0,0,0,0,0,0,0,0.0,0,0,0.0,0.0,0.0,0.0,0.0,0.0
23683,5749,US,106697,36.1008333333,-110.219444444,,Census,"&quot;gr1&quot;&gt;publisher=[[united states census bureau|accessdate=2011-04-23|date=2011-02-12|title=us gazetteer files: 2010, 2000, and 1990}}",AZ,"Pinon, Arizona",0,0,0,0,0,0,0,0,0,0,0,0,0,0,0.0,0,0,0.0,0.0,0.0,0.0,0.0,0.0
23699,5863,US,42394411,35.2361194444,-111.745441667,,Census,Census-designated place,AZ,"Fort Valley, Arizona",0,0,0,0,0,0,0,0,0,0,0,0,0,0,0.0,0,0,0.0,0.0,0.0,0.0,0.0,0.0
23882,4450,US,52169899,33.6327777778,-110.937777778,,Census,Census-designated place,AZ,"Rock House, Arizona",0,0,0,0,0,0,0,0,0,0,0,0,0,0,0.0,0,0,0.0,0.0,0.0,0.0,0.0,0.0
23920,6288,US,106668,34.8536111111,-114.584166667,,Census,Cdp,AZ,"Arizona Village, Arizona",0,0,0,0,0,0,0,0,0,0,0,0,0,0,0.0,0,0,0.0,0.0,0.0,0.0,0.0,0.0
23922,9541,US,15802582,34.8722222222,-114.149444444,,Census,Unincorporated community,AZ,"Yucca, Arizona",0,0,0,0,0,0,0,0,0,0,0,0,0,0,0.0,0,0,0.0,0.0,0.0,0.0,0.0,0.0
23934,14704,US,106655,33.5447222222,-111.956388889,,Census,Town,AZ,"Paradise Valley, Arizona",0,0,0,0,0,0,0,0,0,0,0,0,0,0,0.0,0,0,0.0,6637.0,11085.0,11773.0,13664.0,12820.0
23962,8639,US,105935,36.8372222222,-109.860833333,,Census,Census-designated place,AZ,"Dennehotso, Arizona",0,0,0,0,0,0,0,0,0,0,0,0,0,0,0.0,0,0,0.0,0.0,0.0,0.0,0.0,0.0
24059,8999,US,106730,32.0019444444,-110.700277778,,Census,Cdp,AZ,"Vail, Arizona",0,0,0,0,0,0,0,0,0,0,0,0,0,0,0.0,0,0,0.0,0.0,0.0,0.0,0.0,0.0
24169,5436,US,52749299,32.4297222222,-111.265,,Census,Cdp,AZ,"Nelson, Pima County, Arizona",0,0,0,0,0,0,0,0,0,0,0,0,0,0,0.0,0,0,0.0,0.0,0.0,0.0,0.0,0.0
24184,21746,US,106603,35.2494444444,-112.19,,Census,City,AZ,"Williams, Arizona",0,0,0,0,0,0,0,0,0,0,199,0,1267,1350,2166.0,2622,2152,3559.0,2386.0,2266.0,2532.0,2842.0,3023.0
24217,7210,US,106563,36.4147222222,-109.855555556,,Census,Census-designated place,AZ,"Rough Rock, Arizona",0,0,0,0,0,0,0,0,0,0,0,0,0,0,0.0,0,0,0.0,0.0,0.0,0.0,0.0,0.0
24284,6976,US,105928,35.755,-109.630277778,,Census,Census-designated place,AZ,"Burnside, Arizona",0,0,0,0,0,0,0,0,0,0,0,0,0,0,0.0,0,0,0.0,0.0,0.0,0.0,0.0,0.0
24335,3382,US,53203238,33.8730555556,-109.976111111,,Census,Cdp,AZ,"Rainbow City, Arizona",0,0,0,0,0,0,0,0,0,0,0,0,0,0,0.0,0,0,0.0,0.0,0.0,0.0,0.0,0.0
24440,3388,US,53289234,33.8011111111,-109.946111111,,Census,Cdp,AZ,"Turkey Creek, Arizona",0,0,0,0,0,0,0,0,0,0,0,0,0,0,0.0,0,0,0.0,0.0,0.0,0.0,0.0,0.0
24558,3374,US,53288336,33.7883333333,-109.958888889,,Census,Cdp,AZ,"Seven Mile, Arizona",0,0,0,0,0,0,0,0,0,0,0,0,0,0,0.0,0,0,0.0,0.0,0.0,0.0,0.0,0.0
24662,7555,US,106607,33.4086111111,-110.8475,,Census,Census-designated place,AZ,"Claypool, Arizona",0,0,0,0,0,0,0,0,0,0,0,0,0,0,0.0,0,0,0.0,0.0,0.0,0.0,0.0,0.0
24731,8505,US,106577,31.3372222222,-109.944444444,,Census,Cdp,AZ,"Naco, Arizona",0,0,0,0,0,0,0,0,0,0,0,0,0,0,0.0,0,0,0.0,0.0,0.0,0.0,0.0,0.0
24904,20719,US,106785,34.7161111111,-111.91,,Census,Cdp,AZ,"Cornville, Arizona",0,0,0,0,0,0,0,0,0,0,0,0,0,0,0.0,0,0,0.0,0.0,0.0,2089.0,3335.0,3280.0
24990,5015,US,39150014,35.6522222222,-109.679166667,,Census,Census-designated place,AZ,"Cornfields, Arizona",0,0,0,0,0,0,0,0,0,0,0,0,0,0,0.0,0,0,0.0,0.0,0.0,0.0,0.0,0.0
25131,8198,US,106595,35.0911111111,-111.660277778,,Census,Cdp,AZ,"Mountainaire, Arizona",0,0,0,0,0,0,0,0,0,0,0,0,0,0,0.0,0,0,0.0,0.0,0.0,0.0,0.0,0.0
25189,9922,US,106596,34.9447222222,-111.6375,,Census,Cdp,AZ,"Munds Park, Arizona",0,0,0,0,0,0,0,0,0,0,0,0,0,0,0.0,0,0,0.0,0.0,0.0,0.0,0.0,0.0
25240,7835,US,106803,32.5972222222,-114.712222222,,Census,City,AZ,"Somerton, Arizona",0,0,0,0,0,0,0,0,0,0,0,0,0,938,891.0,1247,1825,1613.0,2225.0,3969.0,5282.0,7266.0,14287.0
25494,12056,US,106673,35.2230555556,-114.215,,Census,Cdp,AZ,"Golden Valley, Arizona",0,0,0,0,0,0,0,0,0,0,0,0,0,0,0.0,0,0,0.0,0.0,0.0,0.0,0.0,0.0
25523,8876,US,106619,33.3469444444,-110.995277778,,Census,Census-designated place,AZ,"Top-of-the-World, Arizona",0,0,0,0,0,0,0,0,0,0,0,0,0,0,0.0,0,0,0.0,0.0,0.0,0.0,0.0,0.0
25524,4300,US,48911083,31.9113888889,-111.801666667,,Census,Census designated place,AZ,"Ali Chukson, Arizona",0,0,0,0,0,0,0,0,0,0,0,0,0,0,0.0,0,0,0.0,0.0,0.0,0.0,0.0,0.0
25585,41361,US,106688,34.4130555556,-110.564444444,,Census,Cdp,AZ,"Heber-Overgaard, Arizona",0,0,0,0,0,0,0,0,0,0,0,0,0,0,0.0,0,0,0.0,0.0,0.0,1581.0,2722.0,2822.0
25722,8615,US,106645,33.6088888889,-112.324722222,,Census,City,AZ,"El Mirage, Arizona",0,0,0,0,0,0,0,0,0,0,0,0,0,0,0.0,0,0,1723.0,3258.0,4307.0,5001.0,7609.0,31797.0
25781,7413,US,106560,35.9147222222,-109.464166667,,Census,Census-designated place,AZ,"Nazlini, Arizona",0,0,0,0,0,0,0,0,0,0,0,0,0,0,0.0,0,0,0.0,0.0,0.0,0.0,0.0,0.0
25787,5200,US,52193831,34.5713888889,-114.3925,,Census,Cdp,AZ,"Crystal Beach, Arizona",0,0,0,0,0,0,0,0,0,0,0,0,0,0,0.0,0,0,0.0,0.0,0.0,0.0,0.0,0.0
25947,34108,US,106806,32.6922222222,-114.615277778,,Census,City,AZ,"Yuma, Arizona",0,0,0,0,0,0,0,0,1144,1200,1773,1519,2914,4237,4892.0,5325,9145,23974.0,29007.0,42481.0,56966.0,77515.0,93064.0
25982,16692,US,106709,32.2938888889,-110.883888889,,Census,Cdp,AZ,"Catalina Foothills, Arizona",0,0,0,0,0,0,0,0,0,0,0,0,0,0,0.0,0,0,0.0,0.0,0.0,0.0,0.0,0.0
26237,9209,US,106778,34.7830555556,-111.761111111,,Census,"&quot;gr1&quot;&gt;publisher=[[united states census bureau|accessdate=2011-04-23|date=2011-02-12|title=us gazetteer files: 2010, 2000, and 1990}}",AZ,"Village of Oak Creek, Arizona",0,0,0,0,0,0,0,0,0,0,0,0,0,0,0.0,0,0,0.0,0.0,0.0,0.0,0.0,0.0
26332,10048,US,1952579,34.01,-109.458611111,,Census,Census-designated place,AZ,"Greer, Arizona",0,0,0,0,0,0,0,0,0,0,0,0,0,0,0.0,0,0,0.0,0.0,0.0,0.0,0.0,0.0
26433,7219,US,106557,36.4186111111,-109.236388889,,Census,Census-designated place,AZ,"Lukachukai, Arizona",0,0,0,0,0,0,0,0,0,0,0,0,0,0,0.0,0,0,0.0,0.0,0.0,0.0,0.0,0.0
26454,3786,US,53138659,32.4661111111,-112.243333333,,Census,Census-designated place,AZ,"Ventana, Arizona",0,0,0,0,0,0,0,0,0,0,0,0,0,0,0.0,0,0,0.0,0.0,0.0,0.0,0.0,0.0
26455,4400,US,42439786,34.2930555556,-111.0675,,Census,Census-designated place,AZ,"Bear Flat, Arizona",0,0,0,0,0,0,0,0,0,0,0,0,0,0,0.0,0,0,0.0,0.0,0.0,0.0,0.0,0.0
26479,5651,US,53037633,35.1466666667,-113.905833333,,Census,Cdp,AZ,"Pinion Pines, Arizona",0,0,0,0,0,0,0,0,0,0,0,0,0,0,0.0,0,0,0.0,0.0,0.0,0.0,0.0,0.0
26510,49496,US,106653,33.415,-111.831388889,,Census,City,AZ,"Mesa, Arizona",0,0,0,0,0,0,0,0,0,0,0,722,1692,3036,3711.0,7224,16790,33772.0,63049.0,152404.0,288104.0,396375.0,439041.0
26546,5057,US,13150022,35.2700111111,-111.517380556,,Census,Unincorporated town cdp,AZ,"Doney Park, Arizona",0,0,0,0,0,0,0,0,0,0,0,0,0,0,0.0,0,0,0.0,0.0,0.0,0.0,0.0,0.0
26639,17720,US,106567,34.5019444444,-109.371666667,,Census,City,AZ,"St. Johns, Arizona",0,0,0,0,0,0,0,0,0,546,482,0,835,1386,1386.0,0,1469,1310.0,1320.0,3368.0,3294.0,3269.0,3480.0
26650,4442,US,52149096,34.2063888889,-110.973333333,,Census,Census-designated place,AZ,"Haigler Creek, Arizona",0,0,0,0,0,0,0,0,0,0,0,0,0,0,0.0,0,0,0.0,0.0,0.0,0.0,0.0,0.0
26769,15162,US,105936,34.1066666667,-109.292777778,,Census,Town,AZ,"Eagar, Arizona",0,0,0,0,0,0,0,0,0,0,0,0,397,635,562.0,0,637,873.0,1279.0,2791.0,4025.0,4033.0,4885.0
26864,4037,US,25920191,34.3552777778,-109.995833333,,Census,Unincorporated community and cdp,AZ,"White Mountain Lakes Estates, Arizona",0,0,0,0,0,0,0,0,0,0,0,0,0,0,0.0,0,0,0.0,0.0,0.0,0.0,0.0,0.0
26888,3705,US,38330589,34.1886111111,-114.224722222,,Census,Census-designated place,AZ,"Cienega Springs, Arizona",0,0,0,0,0,0,0,0,0,0,0,0,0,0,0.0,0,0,0.0,0.0,0.0,0.0,0.0,0.0
26900,9719,US,106714,32.2913888889,-111.008888889,,Census,Cdp,AZ,"Flowing Wells, Arizona",0,0,0,0,0,0,0,0,0,0,0,0,0,0,0.0,0,0,0.0,0.0,0.0,14013.0,15050.0,16419.0
26927,2633,US,12722621,32.4147222222,-111.156111111,,Census,Unknown,AZ,"Rillito, Arizona",0,0,0,0,0,0,0,0,0,0,0,0,0,0,0.0,0,0,0.0,0.0,0.0,0.0,0.0,0.0
27002,5229,US,16884841,35.9997222222,-114.810277778,,Census,Cdp,AZ,"Grand Canyon West, Arizona",0,0,0,0,0,0,0,0,0,0,0,0,0,0,0.0,0,0,0.0,0.0,0.0,0.0,0.0,0.0
27079,4515,US,37831408,31.3633333333,-110.81,,Census,Census-designated place,AZ,"Kino Springs, Arizona",0,0,0,0,0,0,0,0,0,0,0,0,0,0,0.0,0,0,0.0,0.0,0.0,0.0,0.0,0.0
27221,8557,US,8662030,32.7077777778,-110.682222222,,Census,A former populated place,AZ,"Tiger, Arizona",0,0,0,0,0,0,0,0,0,0,0,0,0,0,0.0,500,783,,0.0,0.0,0.0,0.0,0.0
27239,10449,US,16615952,35.2163888889,-109.333611111,,Census,Census-designated place,AZ,"Sanders, Arizona",0,0,0,0,0,0,0,0,0,0,0,0,0,0,0.0,0,0,0.0,0.0,0.0,0.0,0.0,0.0
27337,11063,US,13278846,32.8125,-109.633888889,,Census,Census-designated place,AZ,"Solomon, Arizona",0,0,0,0,0,0,0,0,0,0,0,0,0,0,0.0,0,0,0.0,0.0,0.0,0.0,0.0,0.0
27461,6408,US,106671,34.5475,-114.366666667,,Census,Cdp,AZ,"Desert Hills, Arizona",0,0,0,0,0,0,0,0,0,0,0,0,0,0,0.0,0,0,0.0,0.0,0.0,0.0,0.0,0.0
27516,4519,US,31228426,33.2761111111,-112.166944444,,Census,Cdp,AZ,"Gila Crossing, Arizona",0,0,0,0,0,0,0,0,0,0,0,0,0,0,0.0,0,0,0.0,0.0,0.0,0.0,0.0,0.0
27523,4163,US,42482242,33.3527777778,-110.6525,,Census,Census-designated place,AZ,"Cutter, Arizona",0,0,0,0,0,0,0,0,0,0,0,0,0,0,0.0,0,0,0.0,0.0,0.0,0.0,0.0,0.0
27552,3565,US,38330620,33.5769444444,-114.241944444,,Census,Census-designated place,AZ,"La Paz Valley, Arizona",0,0,0,0,0,0,0,0,0,0,0,0,0,0,0.0,0,0,0.0,0.0,0.0,0.0,0.0,0.0
27635,4902,US,52189142,32.0538888889,-111.802777778,,Census,Cdp,AZ,"Comobabi, Arizona",0,0,0,0,0,0,0,0,0,0,0,0,0,0,0.0,0,0,0.0,0.0,0.0,0.0,0.0,0.0
27640,7694,US,106594,36.1116666667,-111.220833333,,Census,Cdp,AZ,"Moenkopi, Arizona",0,0,0,0,0,0,0,0,0,0,0,0,0,0,0.0,0,0,0.0,0.0,0.0,0.0,0.0,0.0
27658,4310,US,31234444,33.1972222222,-111.8725,,Census,Cdp,AZ,"Goodyear Village, Arizona",0,0,0,0,0,0,0,0,0,0,0,0,0,0,0.0,0,0,0.0,0.0,0.0,0.0,0.0,0.0
27679,4555,US,39150078,36.0730555556,-109.892222222,,Census,Census-designated place,AZ,"Cottonwood, Apache County, Arizona",0,0,0,0,0,0,0,0,0,0,0,0,0,0,0.0,0,0,0.0,0.0,0.0,0.0,0.0,0.0
27713,18106,US,106623,32.8233333333,-109.714722222,,Census,City,AZ,"Safford, Arizona",0,0,0,0,0,0,0,0,0,173,0,0,929,1336,1706.0,2266,3756,4648.0,5493.0,7010.0,7359.0,9232.0,9566.0
27754,35017,US,87931,35.6333333333,-112.1,,Census,US County,AZ,"Coconino County, Arizona",0,0,0,0,0,0,0,0,0,0,0,5514,8130,9982,14064.0,18770,23910,41857.0,48326.0,75008.0,96591.0,116320.0,134421.0
27845,8618,US,106616,34.4077777778,-111.493611111,,Census,Census-designated place,AZ,"Strawberry, Arizona",0,0,0,0,0,0,0,0,0,0,0,0,0,0,0.0,0,0,0.0,0.0,0.0,0.0,0.0,0.0
27895,15725,US,106705,32.3813888889,-112.869444444,,Census,Cdp,AZ,"Ajo, Arizona",0,0,0,0,0,0,0,0,0,0,0,0,0,0,0.0,0,5817,7049.0,5881.0,5189.0,2919.0,3705.0,3304.0
27999,17956,US,106633,34.1447222222,-114.289722222,,Census,Town,AZ,"Parker, Arizona",0,0,0,0,0,0,0,0,0,0,0,0,420,0,1315.0,0,1201,1642.0,1948.0,2542.0,2897.0,3140.0,3083.0
28019,14453,US,2871615,31.5772222222,-111.331388889,,Census,Unincorporated community,AZ,"Arivaca, Arizona",0,0,0,0,0,0,0,0,0,0,0,0,0,0,0.0,0,0,0.0,0.0,0.0,0.0,0.0,0.0
28121,9326,US,106708,32.4911111111,-110.907777778,,Census,Cdp,AZ,"Catalina, Arizona",0,0,0,0,0,0,0,0,0,0,0,0,0,0,0.0,0,0,0.0,0.0,0.0,0.0,0.0,0.0
28235,17129,US,106573,31.9555555556,-110.306666667,,Census,City,AZ,"Benson, Arizona",0,0,0,0,0,0,0,0,0,0,348,0,1035,825,925.0,962,1440,2494.0,2839.0,4190.0,3824.0,4711.0,5105.0
28249,3959,US,31328625,33.2761111111,-112.166944444,,Census,Cdp,AZ,"Sacaton Flats Village, Arizona",0,0,0,0,0,0,0,0,0,0,0,0,0,0,0.0,0,0,0.0,0.0,0.0,0.0,0.0,0.0
28297,15746,US,106636,33.665,-114.220833333,,Census,Town,AZ,"Quartzsite, Arizona",0,0,0,0,0,0,0,0,0,0,0,0,0,0,0.0,0,0,0.0,0.0,1193.0,1876.0,3354.0,3677.0
28317,3385,US,53140164,33.1416666667,-111.981111111,,Census,Cdp,AZ,"Sacate Village, Arizona",0,0,0,0,0,0,0,0,0,0,0,0,0,0,0.0,0,0,0.0,0.0,0.0,0.0,0.0,0.0
28336,6513,US,106600,36.3177777778,-110.970277778,,Census,Cdp,AZ,"Tonalea, Arizona",0,0,0,0,0,0,0,0,0,0,0,0,0,0,0.0,0,0,0.0,0.0,0.0,0.0,0.0,0.0
28576,7906,US,106608,34.1019444444,-111.285277778,,Census,Census-designated place,AZ,"Gisela, Arizona",0,0,0,0,0,0,0,0,0,0,0,0,0,0,0.0,0,0,0.0,0.0,0.0,0.0,0.0,0.0
28654,4081,US,31233919,32.9577777778,-111.316944444,,Census,Cdp,AZ,"Cactus Forest, Arizona",0,0,0,0,0,0,0,0,0,0,0,0,0,0,0.0,0,0,0.0,0.0,0.0,0.0,0.0,0.0
28710,7646,US,106564,36.4969444444,-109.458055556,,Census,Census-designated place,AZ,"Round Rock, Arizona",0,0,0,0,0,0,0,0,0,0,0,0,0,0,0.0,0,0,0.0,0.0,0.0,0.0,0.0,0.0
28840,5582,US,52665153,32.9863888889,-114.465833333,,Census,Cdp,AZ,"Martinez Lake, Arizona",0,0,0,0,0,0,0,0,0,0,0,0,0,0,0.0,0,0,0.0,0.0,0.0,0.0,0.0,0.0
28954,11302,US,31234373,33.1202777778,-111.888055556,,Census,Cdp,AZ,"Casa Blanca, Arizona",0,0,0,0,0,0,0,0,0,0,0,0,0,0,0.0,0,0,0.0,0.0,0.0,0.0,0.0,0.0
28968,6648,US,13082098,35.4144444444,-114.199444444,,Census,Unincorporated community,AZ,"Chloride, Arizona",0,0,0,0,0,0,0,0,0,0,0,0,0,0,0.0,0,0,0.0,0.0,0.0,0.0,0.0,0.0
29066,4132,US,48917085,32.3727777778,-112.030833333,,Census,Populated place,AZ,"Anegam, Arizona",0,0,0,0,0,0,0,0,0,0,0,0,0,0,0.0,0,0,0.0,0.0,0.0,0.0,0.0,0.0
29198,7279,US,106604,35.0375,-110.748888889,,Census,Cdp,AZ,"Winslow West, Arizona",0,0,0,0,0,0,0,0,0,0,0,0,0,0,0.0,0,0,0.0,0.0,0.0,0.0,0.0,0.0
29215,7620,US,106773,31.6688888889,-110.653888889,,Census,Census-designated place,AZ,"Sonoita, Arizona",0,0,0,0,0,0,0,0,0,0,0,0,0,0,0.0,0,0,0.0,0.0,0.0,0.0,0.0,0.0
29234,40103,US,87927,35.4238888889,-109.4425,,Census,US County,AZ,"Apache County, Arizona",0,0,0,0,0,0,0,0,0,5283,4281,8297,9196,13196,17765.0,24095,27767,30438.0,32298.0,52108.0,61591.0,69423.0,71518.0
29358,5311,US,52153809,36.9341666667,-112.911666667,,Census,Cdp,AZ,"Cane Beds, Arizona",0,0,0,0,0,0,0,0,0,0,0,0,0,0,0.0,0,0,0.0,0.0,0.0,0.0,0.0,0.0
29435,9070,US,106586,35.875,-111.413333333,,Census,Cdp,AZ,"Cameron, Arizona",0,0,0,0,0,0,0,0,0,0,0,0,0,0,0.0,0,0,0.0,0.0,0.0,0.0,0.0,0.0
29439,3360,US,53136911,31.6294444444,-111.780277778,,Census,Cdp,AZ,"San Miguel, Arizona",0,0,0,0,0,0,0,0,0,0,0,0,0,0,0.0,0,0,0.0,0.0,0.0,0.0,0.0,0.0
29500,12420,US,106760,33.08,-111.745833333,,Census,Cdp,AZ,"Sacaton, Arizona",0,0,0,0,0,0,0,0,0,0,0,0,0,0,0.0,0,0,0.0,0.0,0.0,0.0,0.0,0.0
29627,19523,US,106704,35.0286111111,-110.700833333,,Census,City,AZ,"Winslow, Arizona",0,0,0,0,0,0,0,0,0,0,363,1305,2381,3730,3917.0,4577,6518,8862.0,8066.0,7921.0,8190.0,9520.0,9655.0
29659,14751,US,106794,34.6022222222,-112.321944444,,Census,Town,AZ,"Prescott Valley, Arizona",0,0,0,0,0,0,0,0,0,0,0,0,0,0,0.0,0,0,0.0,244.0,2284.0,8904.0,23535.0,38822.0
29668,4064,US,39261796,36.2797222222,-109.167777778,,Census,Census-designated place,AZ,"Sehili, Arizona",0,0,0,0,0,0,0,0,0,0,0,0,0,0,0.0,0,0,0.0,0.0,0.0,0.0,0.0,0.0
29677,7098,US,106662,33.2147222222,-111.87,,Census,Cdp,AZ,"Sun Lakes, Arizona",0,0,0,0,0,0,0,0,0,0,0,0,0,0,0.0,0,0,0.0,0.0,1925.0,6578.0,11936.0,13975.0
29714,10643,US,106680,35.5344444444,-113.423333333,,Census,Cdp,AZ,"Peach Springs, Arizona",0,0,0,0,0,0,0,0,0,0,0,0,0,0,0.0,0,0,0.0,0.0,0.0,787.0,600.0,1090.0
29735,6991,US,106583,31.7038888889,-110.348055556,,Census,Cdp,AZ,"Whetstone (CDP), Arizona",0,0,0,0,0,0,0,0,0,0,0,0,0,0,0.0,0,0,0.0,0.0,0.0,0.0,0.0,0.0
29749,3393,US,31185422,32.5402777778,-110.855833333,,Census,Cdp,AZ,"Saddlebrooke, Arizona",0,0,0,0,0,0,0,0,0,0,0,0,0,0,0.0,0,0,0.0,0.0,0.0,0.0,0.0,0.0
29762,3759,US,38330962,32.7641666667,-109.720555556,,Census,Census-designated place,AZ,"Cactus Flats, Arizona",0,0,0,0,0,0,0,0,0,0,0,0,0,0,0.0,0,0,0.0,0.0,0.0,0.0,0.0,0.0
29770,9042,US,106734,33.0322222222,-111.595833333,,Census,Cdp,AZ,"Blackwater, Arizona",0,0,0,0,0,0,0,0,0,0,0,0,0,0,0.0,0,0,0.0,0.0,0.0,0.0,0.0,0.0
29774,4264,US,42439863,34.3408333333,-111.298611111,,Census,Census-designated place,AZ,"Beaver Valley, Arizona",0,0,0,0,0,0,0,0,0,0,0,0,0,0,0.0,0,0,0.0,0.0,0.0,0.0,0.0,0.0
29791,4720,US,39150164,35.5019444444,-109.528055556,,Census,Census-designated place,AZ,"Klagetoh, Arizona",0,0,0,0,0,0,0,0,0,0,0,0,0,0,0.0,0,0,0.0,0.0,0.0,0.0,0.0,0.0
29830,4819,US,28021880,33.6675,-111.134166667,,Census,Census-designated place,AZ,"Roosevelt, Arizona",0,0,0,0,0,0,0,0,0,0,0,0,0,0,0.0,0,0,0.0,0.0,0.0,0.0,0.0,0.0
29926,14686,US,106602,35.9755555556,-112.129166667,,Census,Town,AZ,"Tusayan, Arizona",0,0,0,0,0,0,0,0,0,0,0,0,0,0,0.0,0,0,0.0,0.0,0.0,0.0,562.0,558.0
29942,3827,US,53138701,32.3886111111,-110.698611111,,Census,Census-designated place,AZ,"Willow Canyon, Arizona",0,0,0,0,0,0,0,0,0,0,0,0,0,0,0.0,0,0,0.0,0.0,0.0,0.0,0.0,0.0
30108,9795,US,106568,35.6625,-109.095,,Census,Census-designated place,AZ,"St. Michaels, Arizona",0,0,0,0,0,0,0,0,0,0,0,0,0,0,0.0,0,0,0.0,0.0,0.0,1119.0,1295.0,1443.0
30119,16224,US,106701,34.5222222222,-110.091388889,,Census,Town,AZ,"Snowflake, Arizona",0,0,0,0,0,0,0,0,0,275,0,0,494,758,1259.0,0,929,982.0,1977.0,3510.0,3679.0,4460.0,5590.0
30194,4227,US,37210775,33.9938888889,-110.288611111,,Census,Census-designated place,AZ,"Carrizo, Arizona",0,0,0,0,0,0,0,0,0,0,0,0,0,0,0.0,0,0,0.0,0.0,0.0,0.0,0.0,0.0
30214,11659,US,106554,35.7419444444,-109.066666667,,Census,Census-designated place,AZ,"Fort Defiance, Arizona",0,0,0,0,0,0,0,0,0,0,0,0,0,0,0.0,0,0,0.0,0.0,0.0,0.0,0.0,0.0
30249,3898,US,42394479,35.4308305556,-110.843055556,,Census,Census-designated place,AZ,"Tolani Lake, Arizona",0,0,0,0,0,0,0,0,0,0,0,0,0,0,0.0,0,0,0.0,0.0,0.0,0.0,0.0,0.0
30255,3759,US,17640664,34.2588888889,-113.507777778,,Census,Census-designated place,AZ,"Alamo Lake, Arizona",0,0,0,0,0,0,0,0,0,0,0,0,0,0,0.0,0,0,0.0,0.0,0.0,0.0,0.0,0.0
30355,5355,US,52483613,32.0813888889,-111.895833333,,Census,Cdp,AZ,"Ko Vaya, Arizona",0,0,0,0,0,0,0,0,0,0,0,0,0,0,0.0,0,0,0.0,0.0,0.0,0.0,0.0,0.0
30437,6867,US,20874883,31.3805305556,-110.154547222,,Census,Census-designated place,AZ,"Miracle Valley, Arizona",0,0,0,0,0,0,0,0,0,0,0,0,0,0,0.0,0,0,0.0,0.0,0.0,0.0,0.0,0.0
30693,5778,US,27997369,32.2677777778,-109.2275,,Census,Census-designated place,AZ,"San Simon, Arizona",0,0,0,0,0,0,0,0,0,0,0,0,0,0,0.0,0,0,0.0,0.0,0.0,0.0,0.0,0.0
31095,8231,US,106570,36.9230555556,-109.088333333,,Census,Census-designated place,AZ,"Teec Nos Pos, Arizona",0,0,0,0,0,0,0,0,0,0,0,0,0,0,0.0,0,0,0.0,0.0,0.0,0.0,0.0,0.0
31139,10440,US,106639,33.415,-111.546111111,,Census,City,AZ,"Apache Junction, Arizona",0,0,0,0,0,0,0,0,0,0,0,0,0,0,0.0,0,0,0.0,3863.0,9935.0,18092.0,31814.0,35840.0
31236,37568,US,106579,31.5455555556,-110.276388889,,Census,City,AZ,"Sierra Vista, Arizona",0,0,0,0,0,0,0,0,0,0,0,0,0,0,0.0,0,0,3121.0,6689.0,24937.0,32983.0,37775.0,43888.0
31251,4642,US,51097229,34.3161111111,-111.131944444,,Census,Census-designated place,AZ,"Tonto Village, Arizona",0,0,0,0,0,0,0,0,0,0,0,0,0,0,0.0,0,0,0.0,0.0,0.0,0.0,0.0,0.0
31432,35014,US,106674,35.2083333333,-114.025833333,,Census,City,AZ,"Kingman, Arizona",0,0,0,0,0,0,0,0,0,0,322,0,900,1276,2275.0,0,3342,4525.0,7312.0,9257.0,12722.0,20069.0,28068.0
31435,8729,US,106696,34.1419444444,-109.964166667,,Census,Town,AZ,"Pinetop-Lakeside, Arizona",0,0,0,0,0,0,0,0,0,0,0,0,0,0,0.0,0,0,0.0,0.0,2315.0,2422.0,3582.0,4282.0
31484,10849,US,106654,33.8691666667,-112.085833333,,Census,Cdp,AZ,"New River, Arizona",0,0,0,0,0,0,0,0,0,0,0,0,0,0,0.0,0,0,0.0,0.0,0.0,0.0,10740.0,14952.0
31486,6258,US,106763,32.8816666667,-111.963611111,,Census,Cdp,AZ,"Stanfield, Arizona",0,0,0,0,0,0,0,0,0,0,0,0,0,0,0.0,0,0,0.0,0.0,0.0,0.0,0.0,0.0
