,article_length,country,id,lat,lon,other_years,poptype,settlement_type,state,title,y1790,y1800,y1810,y1820,y1830,y1840,y1850,y1860,y1870,y1880,y1890,y1900,y1910,y1920,y1930,y1940,y1950,y1960,y1970,y1980,y1990,y2000,y2010
3,19770,US,107996,34.0338888889,-117.313611111,,Census,City,CA,"Grand Terrace, California",0,0,0,0,0,0,0,0,0,0,0,0,0,0,0.0,0,0,0.0,5901.0,8498.0,10946.0,11626.0,12040.0
17,22670,US,107671,33.7583333333,-118.364166667,,Census,City,CA,"Rancho Palos Verdes, California",0,0,0,0,0,0,0,0,0,0,0,0,0,0,0.0,0,0,0.0,0.0,36577.0,41659.0,41145.0,41643.0
23,38323,US,107361,39.5166666667,-121.55,,Census,City,CA,"Oroville, California",0,0,0,0,0,0,0,2429,1425,1743,1787,0,3859,3340,3698.0,4421,5387,6115.0,7536.0,8683.0,11960.0,13004.0,15546.0
27,11552,US,108069,37.7916666667,-120.991666667,,Census,City,CA,"Escalon, California",0,0,0,0,0,0,0,0,0,0,0,0,0,0,0.0,0,0,1763.0,2366.0,3127.0,4437.0,5963.0,7132.0
42,17392,US,107351,38.3527777778,-120.932777778,,Census,City,CA,"Ione, California",0,0,0,0,0,0,0,0,0,686,806,0,0,0,0.0,0,0,1118.0,2369.0,2207.0,6516.0,7129.0,7918.0
82,23000,US,108206,41.6072222222,-122.841944444,,Census,City,CA,"Fort Jones, California",0,0,0,0,0,0,0,0,0,0,266,356,316,331,302.0,360,525,483.0,515.0,544.0,639.0,660.0,839.0
94,13896,US,107417,38.0330555556,-122.266944444,,Census,Census-designated place,CA,"Rodeo, California",0,0,0,0,0,0,0,0,0,0,0,0,0,0,0.0,0,0,0.0,5356.0,8286.0,7589.0,8717.0,8679.0
141,14260,US,3964529,39.3636111111,-123.815833333,,Census,Census-designated place,CA,"Caspar, California",0,0,0,0,0,0,0,0,0,0,0,0,0,0,0.0,0,0,0.0,0.0,0.0,0.0,0.0,0.0
185,10872,US,107540,34.8175,-118.996388889,,Census,Census-designated place,CA,"Lake of the Woods, California",0,0,0,0,0,0,0,0,0,0,0,0,0,0,0.0,0,0,0.0,0.0,0.0,0.0,0.0,0.0
239,10588,US,107910,33.9747222222,-116.970277778,,Census,Census-designated place,CA,"Cherry Valley, California",0,0,0,0,0,0,0,0,0,0,0,0,0,0,0.0,0,0,0.0,0.0,0.0,0.0,0.0,0.0
248,45575,US,107630,33.9213888889,-118.406111111,,Census,City,CA,"El Segundo, California",0,0,0,0,0,0,0,0,0,0,0,0,0,1563,3503.0,3738,8011,14219.0,15620.0,13752.0,15223.0,16033.0,16654.0
417,11313,US,4145598,38.4205555556,-121.527222222,,Census,Census-designated place,CA,"Clarksburg, California",0,0,0,0,0,0,0,0,0,0,0,0,0,0,0.0,0,0,0.0,0.0,0.0,0.0,0.0,0.0
495,8867,US,107886,39.8688888889,-120.472222222,,Census,Census-designated place,CA,"Lake Davis, California",0,0,0,0,0,0,0,0,0,0,0,0,0,0,0.0,0,0,0.0,0.0,0.0,0.0,0.0,0.0
509,110819,US,27003223,33.02,-116.77,,Census,County,CA,"San Diego County, California",0,0,0,0,0,0,798,4324,4951,8018,34987,35090,61665,112248,209659.0,289348,556808,1033011.0,1357854.0,1861846.0,2498016.0,2813833.0,3095313.0
556,7710,US,2708305,38.2944444444,-120.913333333,,Census,Census-designated place,CA,"Buena Vista, Amador County, California",0,0,0,0,0,0,0,0,0,0,0,0,0,0,0.0,0,0,0.0,0.0,0.0,0.0,0.0,0.0
558,16544,US,108202,41.965,-121.918888889,,Census,City,CA,"Dorris, California",0,0,0,0,0,0,0,0,0,0,0,0,214,424,762.0,863,892,973.0,840.0,836.0,892.0,886.0,939.0
559,13432,US,108173,37.1313888889,-122.124444444,,Census,Census-designated place,CA,"Boulder Creek, California",0,0,0,0,0,0,0,0,0,0,489,0,544,0,0.0,0,1497,1306.0,1806.0,5662.0,6725.0,4081.0,4923.0
561,24437,US,463954,35.2463888889,-116.681944444,,Census,Census-designated place,CA,Fort Irwin National Training Center,0,0,0,0,0,0,0,0,0,0,0,0,0,0,0.0,0,0,0.0,0.0,0.0,0.0,0.0,0.0
575,67316,US,81605,35.0569,-118.25,,Census,Metropolitan region,CA,Greater Los Angeles,0,0,0,0,0,0,0,0,0,0,0,250187,648316,1150252,2597066.0,3252720,4934246,7751616.0,9972037.0,11497486.0,14531529.0,16373645.0,17877006.0
621,18392,US,108286,35.8886111111,-119.486666667,,Census,Census-designated place,CA,"Alpaugh, California",0,0,0,0,0,0,0,0,0,0,0,0,0,0,0.0,0,0,0.0,0.0,0.0,0.0,0.0,0.0
629,25227,US,20661694,34.0483333333,-117.250555556,,Census,City,CA,"Loma Linda, California",0,0,0,0,0,0,0,0,0,0,0,0,0,0,0.0,0,0,0.0,9797.0,10694.0,17400.0,18681.0,23261.0
724,14616,US,108103,37.6925,-122.478888889,,Census,Census-designated place,CA,"Broadmoor, California",0,0,0,0,0,0,0,0,0,0,0,0,0,0,0.0,0,0,0.0,0.0,0.0,0.0,0.0,0.0
815,12308,US,19350660,41.2305555556,-120.504166667,,Census,Census-designated place,CA,"Likely, California",0,0,0,0,0,0,0,0,0,0,0,0,0,0,0.0,0,0,0.0,0.0,0.0,0.0,0.0,0.0
826,24471,US,107637,34.1675,-118.660833333,,Census,General law city,CA,"Hidden Hills, California",0,0,0,0,0,0,0,0,0,0,0,0,0,0,0.0,0,0,0.0,1529.0,1760.0,1729.0,1875.0,1856.0
827,7076,US,27431901,36.1427777778,-118.609166667,,Census,Census-designated place,CA,"Camp Nelson, California",0,0,0,0,0,0,0,0,0,0,0,0,0,0,0.0,0,0,0.0,0.0,0.0,0.0,0.0,0.0
830,12930,US,107698,33.9225,-118.301111111,,Census,Census-designated place,CA,"West Athens, California",0,0,0,0,0,0,0,0,0,0,0,0,0,0,0.0,0,0,0.0,13286.0,8531.0,8859.0,9101.0,8729.0
840,10725,US,108297,36.3813888889,-119.025833333,,Census,Census designated place,CA,"Lemon Cove, California",0,0,0,0,0,0,0,0,0,0,0,0,0,0,0.0,0,0,0.0,0.0,0.0,0.0,0.0,0.0
843,9749,US,107860,39.7777777778,-120.616388889,,Census,Census-designated place,CA,"Blairsden, California",0,0,0,0,0,0,0,0,0,0,0,0,0,0,0.0,0,0,0.0,0.0,0.0,0.0,0.0,0.0
850,16136,US,108128,34.6141666667,-120.193888889,,Census,City,CA,"Buellton, California",0,0,0,0,0,0,0,0,0,0,0,0,0,0,0.0,0,0,0.0,1402.0,2364.0,3506.0,3828.0,4828.0
851,20483,US,107957,38.7,-121.283333333,,Census,City,CA,"Citrus Heights, California",0,0,0,0,0,0,0,0,0,0,0,0,0,0,0.0,0,0,0.0,21760.0,85911.0,107439.0,85071.0,83301.0
859,66407,US,77520,33.8361111111,-117.889722222,,Census,Charter city,CA,"Anaheim, California",0,0,0,0,0,0,0,0,881,833,1273,1456,2628,5526,10995.0,11031,14556,104184.0,166408.0,219494.0,266406.0,328014.0,336265.0
879,26964,US,3060066,33.7133333333,-115.400555556,,Census,Census-designated place,CA,"Desert Center, California",0,0,0,0,0,0,0,0,0,0,0,0,0,0,0.0,0,0,0.0,0.0,0.0,0.0,0.0,0.0
884,16719,US,107587,38.7525,-122.615,,Census,Census-designated place,CA,"Middletown, California",0,0,0,0,0,0,0,0,0,0,0,0,0,0,0.0,0,0,0.0,0.0,0.0,0.0,1020.0,1323.0
903,11000,US,107382,39.0175,-122.057777778,,Census,Census-designated place,CA,"Arbuckle, California",0,0,0,0,0,0,0,0,0,0,0,0,0,0,0.0,0,0,0.0,0.0,0.0,0.0,0.0,0.0
927,21804,US,107603,34.0827777778,-117.971666667,,Census,City,CA,"Baldwin Park, California",0,0,0,0,0,0,0,0,0,0,0,0,0,0,0.0,0,0,33951.0,47285.0,50554.0,69330.0,75837.0,75390.0
1107,37710,US,107602,34.1305555556,-117.906944444,,Census,City,CA,"Azusa, California",0,0,0,0,0,0,0,363,320,0,0,863,1477,2460,4808.0,5209,11042,20497.0,25217.0,29380.0,41333.0,44712.0,46361.0
1143,19627,US,933803,34.4708333333,-118.628055556,,Census,Unincorporated community,CA,"Castaic, California",0,0,0,0,0,0,0,0,0,0,0,0,0,0,0.0,0,0,0.0,0.0,0.0,0.0,0.0,0.0
1157,32092,US,107644,33.9022222222,-118.009722222,,Census,General law city,CA,"La Mirada, California",0,0,0,0,0,0,0,0,0,0,0,0,0,0,0.0,0,0,22444.0,30808.0,40986.0,40452.0,46783.0,48527.0
1192,8966,US,107874,39.9058333333,-120.748611111,,Census,Census-designated place,CA,"Greenhorn, California",0,0,0,0,0,0,0,0,0,0,0,0,0,0,0.0,0,0,0.0,0.0,0.0,0.0,0.0,0.0
1206,14825,US,16268282,37.8191666667,-118.476388889,,Census,Census designated place,CA,"Benton, California",0,0,0,0,0,0,0,0,0,0,0,0,0,0,0.0,0,0,0.0,0.0,0.0,0.0,0.0,0.0
1234,7304,US,16123354,39.0058333333,-122.009444444,,Census,Census-designated place,CA,"College City, California",0,0,0,0,0,0,0,0,0,0,0,0,0,0,0.0,0,0,0.0,0.0,0.0,0.0,0.0,0.0
1270,15589,US,107981,36.8441666667,-121.537222222,,Census,City,CA,"San Juan Bautista, California",0,0,0,0,0,0,0,0,0,484,463,449,326,501,772.0,678,1031,1046.0,1164.0,1276.0,1570.0,1549.0,1862.0
1300,9659,US,107880,40.0058333333,-120.956944444,,Census,Census-designated place,CA,"Keddie, California",0,0,0,0,0,0,0,0,0,0,0,0,0,0,0.0,0,0,0.0,0.0,0.0,0.0,0.0,0.0
1310,13768,US,117171,34.6177777778,-117.833611111,,Census,Census-designated place,CA,"Lake Los Angeles, California",0,0,0,0,0,0,0,0,0,0,0,0,0,0,0.0,0,0,0.0,0.0,0.0,7977.0,11523.0,12328.0
1323,8110,US,1978783,34.6344444444,-120.115555556,,Census,Census-designated place,CA,"Ballard, California",0,0,0,0,0,0,0,0,0,0,0,0,0,0,0.0,0,0,0.0,0.0,0.0,0.0,0.0,0.0
1396,15790,US,107393,37.9411111111,-121.935833333,,Census,City,CA,"Clayton, California",0,0,0,0,0,0,0,0,0,0,0,0,0,0,0.0,0,0,0.0,1385.0,4325.0,7317.0,10762.0,10897.0
1405,15825,US,107450,36.7236111111,-120.06,,Census,City,CA,"Kerman, California",0,0,0,0,0,0,0,0,0,0,0,0,0,0,0.0,0,1563,1970.0,2667.0,4002.0,5448.0,8551.0,13544.0
1411,16421,US,107545,35.6780555556,-119.229166667,,Census,City,CA,"McFarland, California",0,0,0,0,0,0,0,0,0,0,0,0,0,0,0.0,0,0,3686.0,4177.0,5151.0,7005.0,9618.0,12707.0
1424,10734,US,107490,33.4041666667,-116.039722222,,Census,Census-designated place,CA,"Desert Shores, California",0,0,0,0,0,0,0,0,0,0,0,0,0,0,0.0,0,0,0.0,0.0,0.0,0.0,0.0,0.0
1434,29404,US,108281,40.1766666667,-122.238055556,,Census,City,CA,"Red Bluff, California",0,0,0,0,0,0,0,0,992,2106,2608,2750,3530,3104,3517.0,3824,4905,7202.0,7676.0,9490.0,12363.0,13147.0,14076.0
1444,9742,US,107777,36.8652777778,-121.735,,Census,Census-designated place,CA,"Las Lomas, California",0,0,0,0,0,0,0,0,0,0,0,0,0,0,0.0,0,0,0.0,0.0,0.0,0.0,0.0,0.0
1500,43719,US,107827,33.8030555556,-117.8325,,Census,City,CA,"Orange, California",0,0,0,0,0,0,0,0,0,679,866,1216,2920,4884,8066.0,7901,10027,26444.0,77365.0,91450.0,110658.0,128821.0,136416.0
1592,18272,US,108156,37.3713888889,-122.1375,,Census,Town,CA,"Los Altos Hills, California",0,0,0,0,0,0,0,0,0,0,0,0,0,0,0.0,0,0,3412.0,6871.0,7421.0,7514.0,7902.0,7922.0
1716,109395,US,99302,37.9755555556,-121.300833333,,Census,City and county seat,CA,"Stockton, California",0,0,0,0,0,0,0,3679,10066,10282,14424,17506,23253,40296,47963.0,54714,70853,86321.0,109963.0,148283.0,210943.0,243771.0,291707.0
1723,10589,US,107439,36.7105555556,-119.758611111,,Census,Census-designated place,CA,"Calwa, California",0,0,0,0,0,0,0,0,0,0,0,0,0,0,0.0,0,0,0.0,0.0,0.0,0.0,0.0,0.0
1724,9791,US,107869,39.8686111111,-120.706944444,,Census,Census-designated place,CA,"Cromberg, California",0,0,0,0,0,0,0,0,0,0,0,0,0,0,0.0,0,0,0.0,0.0,0.0,0.0,0.0,0.0
1769,32085,US,107903,33.9294444444,-116.977222222,,Census,City,CA,"Beaumont, California",0,0,0,0,0,0,0,0,0,0,0,0,0,857,1332.0,2208,3152,4288.0,5484.0,6818.0,9685.0,11384.0,36877.0
1772,7786,US,32153733,33.7705555556,-117.277222222,,Census,Census-designated place,CA,"Good Hope, California",0,0,0,0,0,0,0,0,0,0,0,0,0,0,0.0,0,0,0.0,0.0,0.0,0.0,0.0,0.0
1816,21254,US,107719,37.9255555556,-122.5275,,Census,Town,CA,"Corte Madera, California",0,0,0,0,0,0,0,0,0,0,0,0,0,607,1027.0,1098,1933,5962.0,8464.0,8074.0,8272.0,9100.0,9253.0
1839,91849,US,82068,34.54,-120.03,,Census,County,CA,"Santa Barbara County, California",0,0,0,0,0,0,1185,3543,7784,9513,15754,18934,27738,41097,65167.0,70555,98220,168962.0,264324.0,298694.0,369608.0,399347.0,423895.0
1850,13997,US,107399,37.9086111111,-121.600277778,,Census,Census-designated place,CA,"Discovery Bay, California",0,0,0,0,0,0,0,0,0,0,0,0,0,0,0.0,0,0,0.0,0.0,0.0,0.0,0.0,0.0
1853,33116,US,107420,37.78,-121.978055556,,Census,City,CA,"San Ramon, California",0,0,0,0,0,0,0,0,0,75,0,0,0,0,0.0,0,0,0.0,4084.0,22356.0,35303.0,44722.0,72148.0
1881,52391,US,107659,33.9877777778,-118.186666667,,Census,City,CA,"Maywood, California",0,0,0,0,0,0,0,0,0,0,0,0,0,0,6794.0,10731,13292,14588.0,16996.0,21810.0,27850.0,28083.0,27395.0
1899,9094,US,4814567,39.2336111111,-123.203888889,,Census,Census-designated place,CA,"Calpella, California",0,0,0,0,0,0,0,0,0,0,0,0,0,0,0.0,0,0,0.0,0.0,0.0,0.0,0.0,0.0
1914,14112,US,107522,35.1583333333,-118.628333333,,Census,Census-designated place,CA,"Bear Valley Springs, California",0,0,0,0,0,0,0,0,0,0,0,0,0,0,0.0,0,0,0.0,0.0,0.0,0.0,0.0,0.0
1923,11189,US,107885,40.2352777778,-121.204166667,,Census,Census-designated place,CA,"Lake Almanor West, California",0,0,0,0,0,0,0,0,0,0,0,0,0,0,0.0,0,0,0.0,0.0,0.0,0.0,0.0,0.0
1933,41491,US,43896,37.3,-120.483333333,,Census,Charter city and county seat,CA,"Merced, California",0,0,0,0,0,0,0,0,0,1446,2009,1969,3102,3974,7066.0,10135,15278,20068.0,22670.0,36423.0,56216.0,63893.0,78958.0
1953,22153,US,108022,34.1141666667,-116.432222222,,Census,Town,CA,"Yucca Valley, California",0,0,0,0,0,0,0,0,0,0,0,0,0,0,0.0,0,0,0.0,3893.0,8294.0,13701.0,16865.0,20700.0
1990,14977,US,108198,40.6780555556,-122.37,,Census,City,CA,"Shasta Lake, California",0,0,0,0,0,0,0,0,0,0,0,0,0,0,0.0,0,0,0.0,0.0,0.0,0.0,9008.0,10164.0
2009,5397,US,107857,40.2169444444,-121.177222222,,Census,Census-designated place,CA,"Almanor, California",0,0,0,0,0,0,0,0,0,0,0,0,0,0,0.0,0,0,0.0,0.0,0.0,0.0,0.0,0.0
2027,34453,US,107594,34.1533333333,-118.761666667,,Census,General law city,CA,"Agoura Hills, California",0,0,0,0,0,0,0,0,0,0,0,0,0,0,0.0,0,0,0.0,0.0,0.0,20390.0,20537.0,20330.0
2029,83920,US,82020,39.43,-123.43,,Census,County,CA,"Mendocino County, California",0,0,0,0,0,0,55,3967,7545,12800,17612,20465,23929,24116,23505.0,27864,40854,51059.0,51101.0,66738.0,80345.0,86265.0,87841.0
2031,16628,US,107392,37.8672222222,-121.638055556,,Census,Census designated place,CA,"Byron, California",0,0,0,0,0,0,0,0,0,0,0,0,0,0,0.0,0,0,0.0,0.0,0.0,0.0,0.0,0.0
2033,6631,US,22412632,39.3291666667,-121.533888889,,Census,Census-designated place,CA,"Honcut, California",0,0,0,0,0,0,0,0,0,0,0,0,0,0,0.0,0,0,0.0,0.0,0.0,0.0,0.0,0.0
2082,100096,US,25200461,37.36,-121.97,,Census,County,CA,"Santa Clara County, California",0,0,0,0,0,0,0,11912,26246,35039,48005,60216,83539,100676,145118.0,174949,290547,642315.0,1064714.0,1295071.0,1497577.0,1682585.0,1781642.0
2085,9769,US,107477,40.5475,-124.097222222,,Census,Census-designated place,CA,"Hydesville, California",0,0,0,0,0,0,0,0,0,0,0,0,0,0,0.0,0,0,0.0,0.0,0.0,0.0,0.0,0.0
2112,22158,US,108323,37.9844444444,-120.381666667,,Census,City,CA,"Sonora, California",0,0,0,0,0,0,0,1960,1322,1492,1441,1922,2029,1684,2278.0,2257,2448,2725.0,3100.0,3247.0,4153.0,4423.0,4903.0
2163,18842,US,108262,37.4730555556,-121.132777778,,Census,City,CA,"Patterson, California",0,0,0,0,0,0,0,0,0,0,0,0,0,694,905.0,1109,1343,2246.0,3147.0,3908.0,8626.0,11606.0,20413.0
2209,54238,US,79753,38.58,-119.8,,Census,County,CA,"Alpine County, California",0,0,0,0,0,0,0,0,685,539,667,509,309,243,241.0,323,241,397.0,484.0,1097.0,1113.0,1208.0,1175.0
2265,14933,US,108283,40.5713888889,-123.146666667,,Census,Census-designated place,CA,"Hayfork, California",0,0,0,0,0,0,0,0,0,0,0,0,0,0,0.0,0,0,0.0,0.0,0.0,0.0,0.0,0.0
2269,6534,US,7208305,38.8291666667,-122.193888889,,Census,Census-designated place,CA,"Guinda, California",0,0,0,0,0,0,0,0,0,0,0,0,0,0,0.0,0,0,0.0,0.0,0.0,0.0,0.0,0.0
2284,18347,US,108292,36.2941666667,-119.142777778,,Census,City,CA,"Exeter, California",0,0,0,0,0,0,0,0,0,0,0,0,0,1852,2685.0,3883,4078,4264.0,4475.0,5606.0,7276.0,9168.0,10334.0
2331,29203,US,107597,34.1886111111,-118.134722222,,Census,Census-designated place,CA,"Altadena, California",0,0,0,0,0,0,0,0,0,0,0,0,0,0,0.0,0,0,40568.0,42415.0,40983.0,42658.0,42610.0,42777.0
2335,20110,US,108217,41.9541666667,-121.475833333,,Census,City,CA,"Tulelake, California",0,0,0,0,0,0,0,0,0,0,0,0,0,0,0.0,785,1028,950.0,857.0,783.0,1010.0,1020.0,1010.0
2350,11796,US,107436,37.0661111111,-119.401944444,,Census,Census-designated place,CA,"Auberry, California",0,0,0,0,0,0,0,0,0,0,0,0,0,0,0.0,0,0,0.0,0.0,0.0,0.0,0.0,0.0
2448,35810,US,107746,39.4458333333,-123.805277778,,Census,City,CA,"Fort Bragg, California",0,0,0,0,0,0,0,0,0,0,945,1590,2408,2616,3022.0,3235,3826,4433.0,4455.0,5019.0,6078.0,7026.0,7273.0
2450,31714,US,108164,37.2725,-122.019444444,,Census,City,CA,"Saratoga, California",0,0,0,0,0,0,0,0,0,297,0,0,0,0,0.0,0,0,14861.0,26810.0,29261.0,28061.0,29843.0,29926.0
2480,48527,US,107340,37.6625,-121.874722222,,Census,City,CA,"Pleasanton, California",0,0,0,0,0,0,0,0,350,600,984,1100,1254,991,1237.0,1278,2244,4203.0,18328.0,35160.0,50533.0,63654.0,70285.0
2490,13228,US,107368,38.25,-120.35,,Census,Census-designated place,CA,"Arnold, California",0,0,0,0,0,0,0,0,0,0,0,0,0,0,0.0,0,0,0.0,0.0,0.0,0.0,0.0,0.0
2582,14588,US,107596,33.8908333333,-118.334166667,,Census,Census designated place,CA,"Alondra Park, California",0,0,0,0,0,0,0,0,0,0,0,0,0,0,0.0,0,0,0.0,12193.0,12096.0,12215.0,8622.0,8592.0
2616,9637,US,107919,34.0158333333,-117.333333333,,Census,Census-designated place,CA,"Highgrove, California",0,0,0,0,0,0,0,0,0,0,0,0,0,0,0.0,0,0,0.0,0.0,0.0,0.0,0.0,0.0
2619,103466,US,79772,36.75,-119.65,,Census,County,CA,"Fresno County, California",0,0,0,0,0,0,0,4605,6336,9478,32026,37862,75657,128779,144379.0,178565,276515,365945.0,413053.0,514621.0,667490.0,799407.0,930450.0
2634,9978,US,107793,38.5372222222,-122.4725,,Census,Census-designated place,CA,"Deer Park, California",0,0,0,0,0,0,0,0,0,0,0,0,0,0,0.0,0,0,0.0,0.0,0.0,0.0,0.0,0.0
2637,20935,US,107843,39.0972222222,-120.953888889,,Census,City,CA,"Colfax, California",0,0,0,0,0,0,0,0,0,591,670,0,621,573,912.0,794,820,915.0,798.0,981.0,1306.0,1496.0,1963.0
2665,12847,US,107466,39.7427777778,-122.013611111,,Census,Census-designated place,CA,"Hamilton City, California",0,0,0,0,0,0,0,0,0,0,0,0,0,0,0.0,0,0,0.0,0.0,0.0,0.0,0.0,0.0
2670,10296,US,16986007,39.3716666667,-121.206111111,,Census,Census-designated place,CA,"Dobbins, California",0,0,0,0,0,0,0,0,0,0,0,0,0,0,0.0,0,0,0.0,0.0,0.0,0.0,0.0,0.0
2730,31346,US,107623,34.1402777778,-117.961666667,,Census,City,CA,"Duarte, California",0,0,0,0,0,0,0,0,0,0,0,0,0,0,0.0,0,0,13962.0,14981.0,16766.0,20688.0,21486.0,21321.0
2783,41013,US,107604,33.9833333333,-118.183333333,,Census,City,CA,"Bell, California",0,0,0,0,0,0,0,0,0,0,0,0,0,0,7884.0,11264,15430,19450.0,21836.0,25450.0,34365.0,36664.0,35477.0
2784,27177,US,107666,33.7869444444,-118.396666667,,Census,City,CA,"Palos Verdes Estates, California",0,0,0,0,0,0,0,0,0,0,0,0,0,0,0.0,987,1963,9564.0,13631.0,14376.0,13512.0,13340.0,13438.0
2804,8285,US,5684730,38.7077777778,-122.9025,,Census,Unknown,CA,"Geyserville, California",0,0,0,0,0,0,0,0,0,0,0,0,0,0,0.0,0,0,0.0,0.0,0.0,0.0,0.0,0.0
2839,11184,US,1979285,38.5663888889,-119.507222222,,Census,Census-designated place,CA,"Coleville, California",0,0,0,0,0,0,0,0,0,0,0,0,0,0,0.0,0,0,0.0,0.0,0.0,0.0,0.0,0.0
2850,16073,US,1330448,33.5466666667,-117.640277778,,Census,Census-designated place,CA,"Ladera Ranch, California",0,0,0,0,0,0,0,0,0,0,0,0,0,0,0.0,0,0,0.0,0.0,0.0,0.0,0.0,0.0
2857,21210,US,107607,34.1494444444,-117.974444444,,Census,City,CA,"Bradbury, California",0,0,0,0,0,0,0,0,0,0,0,0,0,0,0.0,0,0,618.0,838.0,846.0,829.0,855.0,1048.0
2904,23521,US,107945,33.7872222222,-116.966666667,,Census,City,CA,"San Jacinto, California",0,0,0,0,0,0,0,0,0,0,661,583,898,945,1346.0,1356,1778,2553.0,4385.0,7098.0,16210.0,23779.0,44199.0
2907,32252,US,107803,39.3422222222,-120.203611111,,Census,Town,CA,"Truckee, California",0,0,0,0,0,0,0,0,0,1147,1350,0,0,0,0.0,0,0,0.0,1392.0,2389.0,3484.0,13864.0,16180.0
2946,6851,US,22698979,38.9144444444,-120.9525,,Census,Census-designated place,CA,"Auburn Lake Trails, California",0,0,0,0,0,0,0,0,0,0,0,0,0,0,0.0,0,0,0.0,0.0,0.0,0.0,0.0,0.0
2949,15327,US,107737,37.8969444444,-122.508888889,,Census,Cdp,CA,"Strawberry, Marin County, California",0,0,0,0,0,0,0,0,0,0,0,0,0,0,0.0,0,0,0.0,0.0,0.0,4377.0,5302.0,5393.0
3014,11588,US,107717,38.1097222222,-122.503611111,,Census,Census-designated place,CA,"Black Point-Green Point, California",0,0,0,0,0,0,0,0,0,0,0,0,0,0,0.0,0,0,0.0,0.0,0.0,0.0,0.0,0.0
3028,107296,US,82127,36.23,-118.8,,Census,County,CA,"Tulare County, California",0,0,0,0,0,0,0,4638,4533,11281,24574,18375,35440,59031,77442.0,107152,149264,168403.0,188322.0,245738.0,311921.0,368021.0,442179.0
3035,61541,US,26661212,35.6408333333,-120.653888889,,Census,City,CA,"Paso Robles, California",0,0,0,0,0,0,0,0,0,0,827,1224,1441,1919,2573.0,3045,4835,6677.0,7168.0,9163.0,18583.0,24297.0,29793.0
3058,19171,US,108079,37.8027777778,-121.220833333,,Census,City,CA,"Manteca, California",0,0,0,0,0,0,0,0,0,0,0,0,0,1286,1614.0,1981,3804,8242.0,13845.0,24925.0,40773.0,49258.0,67096.0
3068,33287,US,117162,34.225,-118.236944444,,Census,Census-designated place &amp; unincorporated community,CA,"La Crescenta-Montrose, California",0,0,0,0,0,0,0,0,0,0,0,0,0,0,0.0,0,0,0.0,19594.0,16531.0,16968.0,18532.0,19653.0
3080,37961,US,107491,32.8,-115.566666667,,Census,City,CA,"El Centro, California",0,0,0,0,0,0,0,0,0,0,0,0,1618,5790,8437.0,10174,12548,16830.0,19973.0,24829.0,32192.0,37294.0,42598.0
3140,27539,US,107621,34.0016666667,-117.820833333,,Census,City,CA,"Diamond Bar, California",0,0,0,0,0,0,0,0,0,0,0,0,0,0,0.0,0,0,0.0,10576.0,28045.0,53672.0,56287.0,55544.0
3156,33673,US,107905,33.6102777778,-114.596388889,,Census,City,CA,"Blythe, California",0,0,0,0,0,0,0,0,0,0,0,0,0,1622,1020.0,2355,4089,6023.0,7047.0,6805.0,8428.0,12155.0,20817.0
3207,10018,US,107506,37.3833333333,-118.416944444,,Census,Census-designated place,CA,"Dixon Lane-Meadow Creek, California",0,0,0,0,0,0,0,0,0,0,0,0,0,0,0.0,0,0,0.0,0.0,0.0,0.0,0.0,0.0
3208,89979,US,79752,,,,Census,County,CA,"Alameda County, California",0,0,0,0,0,0,0,8927,24237,62976,93864,130197,246131,344177,474883.0,513011,740315,908209.0,1073184.0,1105379.0,1279182.0,1443741.0,1510271.0
3218,56858,US,107841,33.888551,-117.813231,,Census,City,CA,"Yorba Linda, California",0,0,0,0,0,0,0,0,0,0,0,0,0,0,0.0,0,0,1198.0,11856.0,28254.0,52422.0,58918.0,64234.0
3227,18270,US,117150,34.0005555556,-117.969444444,,Census,Census-designated place,CA,"Hacienda Heights, California",0,0,0,0,0,0,0,0,0,0,0,0,0,0,0.0,0,0,0.0,35969.0,49422.0,52354.0,53122.0,54038.0
3231,25517,US,107614,34.0005555556,-118.154722222,,Census,City,CA,"Commerce, California",0,0,0,0,0,0,0,0,0,0,0,0,0,0,0.0,0,0,9555.0,10635.0,10509.0,12135.0,12568.0,12823.0
3241,15959,US,108315,37.8702777778,-120.433611111,,Census,Census-designated place,CA,"Chinese Camp, California",0,0,0,0,0,0,0,0,0,0,0,0,0,0,0.0,0,0,0.0,0.0,0.0,0.0,0.0,0.0
3247,23976,US,108114,37.6008333333,-122.401388889,,Census,General law city,CA,"Millbrae, California",0,0,0,0,0,0,0,0,0,195,243,0,0,0,0.0,0,8972,15873.0,20920.0,20058.0,20412.0,20718.0,21532.0
3297,6670,US,23086064,36.8805555556,-120.110555556,,Census,Census-designated place,CA,"La Vina, California",0,0,0,0,0,0,0,0,0,0,0,0,0,0,0.0,0,0,0.0,0.0,0.0,0.0,0.0,0.0
3303,12007,US,2660153,38.9730555556,-123.116388889,,Census,Census-designated place,CA,"Hopland, California",0,0,0,0,0,0,0,0,0,0,0,0,0,0,0.0,0,0,0.0,0.0,0.0,0.0,0.0,0.0
3331,60204,US,107615,33.8966666667,-118.225,,Census,Charter city,CA,"Compton, California",0,0,0,0,0,0,0,0,160,0,636,0,922,1478,12516.0,16198,47991,71812.0,78547.0,81350.0,90454.0,93493.0,96455.0
3353,7858,US,16473626,38.3138888889,-122.851111111,,Census,Census-designated place,CA,"Bloomfield, California",0,0,0,0,0,0,0,0,0,0,0,0,0,0,0.0,0,0,0.0,0.0,0.0,0.0,0.0,0.0
3508,5915,US,22600689,39.6588888889,-121.631111111,,Census,Census-designated place,CA,"Butte Valley, California",0,0,0,0,0,0,0,0,0,0,0,0,0,0,0.0,0,0,0.0,0.0,0.0,0.0,0.0,0.0
3518,119892,US,29631,38.5555555556,-121.468888889,,Census,State capital and charter city,CA,"Sacramento, California",0,0,0,0,0,0,6820,13785,16283,21420,26386,29282,44696,65908,93750.0,105958,137572,191667.0,257105.0,275741.0,369365.0,407018.0,466488.0
3536,12703,US,108347,39.1277777778,-121.550833333,,Census,Census-designated place,CA,"Linda, California",0,0,0,0,0,0,0,0,0,0,0,0,0,0,0.0,0,0,0.0,0.0,0.0,0.0,0.0,0.0
3561,11040,US,107705,33.9413888889,-118.302222222,,Census,Census designated place,CA,"Westmont, California",0,0,0,0,0,0,0,0,0,0,0,0,0,0,0.0,0,0,0.0,29310.0,27916.0,31044.0,31623.0,31853.0
3619,23841,US,108227,38.7991666667,-123.017222222,,Census,General law city,CA,"Cloverdale, California",0,0,0,0,0,0,0,0,0,430,763,750,823,718,759.0,809,1292,2848.0,3251.0,3989.0,4924.0,6831.0,8618.0
3656,7741,US,16123309,39.0744444444,-121.893888889,,Census,Census-designated place,CA,"Grimes, California",0,0,0,0,0,0,0,0,0,0,0,0,0,0,0.0,0,0,0.0,0.0,0.0,0.0,0.0,0.0
3692,23077,US,108113,37.5602777778,-122.356388889,,Census,Town,CA,"Hillsborough, California",0,0,0,0,0,0,0,0,0,0,0,0,0,931,1891.0,2747,3552,7554.0,8753.0,10372.0,10667.0,10825.0,10825.0
3693,7572,US,1978864,39.6663888889,-120.439722222,,Census,Census-designated place,CA,"Calpine, California",0,0,0,0,0,0,0,0,0,0,0,0,0,0,0.0,0,0,0.0,0.0,0.0,0.0,0.0,0.0
3703,10066,US,107409,38.0088888889,-122.1175,,Census,Census designated place,CA,"Mountain View, Contra Costa County, California",0,0,0,0,0,0,0,0,0,0,0,0,0,0,0.0,0,0,0.0,0.0,0.0,0.0,0.0,0.0
3775,6661,US,32233133,35.2108333333,-120.605833333,,Census,Census-designated place,CA,"Edna, California",0,0,0,0,0,0,0,0,0,0,0,0,0,0,0.0,0,0,0.0,0.0,0.0,0.0,0.0,0.0
3849,39186,US,90591,37.2361111111,-121.961666667,,Census,Town,CA,"Los Gatos, California",0,0,0,0,0,0,0,0,0,555,1652,1915,2232,2317,3168.0,3597,4907,9036.0,22613.0,26906.0,27357.0,28592.0,29413.0
3855,14361,US,108149,37.2555555556,-121.928888889,,Census,Neighborhood of san jose,CA,"Cambrian Park, California",0,0,0,0,0,0,0,0,0,0,0,0,0,0,0.0,0,0,0.0,0.0,0.0,0.0,0.0,0.0
3874,17104,US,108226,38.3111111111,-122.483888889,,Census,Census designated place,CA,"Boyes Hot Springs, California",0,0,0,0,0,0,0,0,0,0,0,0,0,0,0.0,0,0,0.0,0.0,0.0,0.0,0.0,0.0
3893,68820,US,107783,36.6777777778,-121.655555556,,Census,Charter city and county seat,CA,"Salinas, California",0,0,0,0,0,0,0,0,599,1854,2339,3304,3736,4308,10263.0,11586,13917,28957.0,58896.0,80479.0,108777.0,151060.0,150441.0
3924,6966,US,32315869,40.6130555556,-122.460833333,,Census,Census-designated place,CA,"Keswick, California",0,0,0,0,0,0,0,0,0,0,0,0,0,0,0.0,0,0,0.0,0.0,0.0,0.0,0.0,0.0
3997,10848,US,107720,38.2508333333,-122.965277778,,Census,Census-designated place,CA,"Dillon Beach, California",0,0,0,0,0,0,0,0,0,0,0,0,0,0,0.0,0,0,0.0,0.0,0.0,0.0,0.0,0.0
4037,12360,US,118251,38.5086111111,-122.753055556,,Census,Census-designated place,CA,"Larkfield-Wikiup, California",0,0,0,0,0,0,0,0,0,0,0,0,0,0,0.0,0,0,0.0,0.0,0.0,0.0,0.0,0.0
4050,13662,US,107625,33.9244444444,-117.988888889,,Census,Census-designated place,CA,"East Whittier, California",0,0,0,0,0,0,0,0,0,0,0,0,0,0,0.0,0,0,0.0,12339.0,9688.0,9367.0,9538.0,9757.0
4069,70005,US,82023,,,,Census,County,CA,"Modoc County, California",0,0,0,0,0,0,0,0,0,4399,4986,5076,6191,5425,8038.0,8713,9678,8308.0,7469.0,8610.0,9678.0,9449.0,9686.0
4072,14635,US,107624,33.8977777778,-118.194166667,,Census,Census designated place,CA,"East Rancho Dominguez, California",0,0,0,0,0,0,0,0,0,0,0,0,0,0,0.0,0,0,0.0,5853.0,6435.0,7967.0,9286.0,15135.0
4087,14047,US,108258,37.5616666667,-120.917222222,,Census,Census-designated place,CA,"Keyes, California",0,0,0,0,0,0,0,0,0,0,0,0,0,0,0.0,0,0,0.0,0.0,0.0,0.0,0.0,0.0
4141,6435,US,23047769,38.9541666667,-122.720833333,,Census,Census-designated place,CA,"Clearlake Riviera, California",0,0,0,0,0,0,0,0,0,0,0,0,0,0,0.0,0,0,0.0,0.0,0.0,0.0,0.0,0.0
4162,52059,US,80540,39.59,-122.39,,Census,County,CA,"Glenn County, California",0,0,0,0,0,0,0,0,0,0,0,5150,7172,11853,10935.0,12195,15448,17245.0,17521.0,21350.0,24798.0,26453.0,28122.0
4171,16730,US,108050,32.8494444444,-116.905555556,,Census,Census designated place,CA,"Lakeside, California",0,0,0,0,0,0,0,0,0,0,0,0,0,0,0.0,0,0,0.0,11991.0,23921.0,19412.0,19560.0,20648.0
4194,11913,US,8198391,40.9655555556,-124.035555556,,Census,Census-designated place,CA,"Fieldbrook, California",0,0,0,0,0,0,0,0,0,0,0,0,0,0,0.0,0,0,0.0,0.0,0.0,0.0,0.0,0.0
4218,10070,US,107394,38.0255555556,-122.029444444,,Census,Census-designated place,CA,"Clyde, California",0,0,0,0,0,0,0,0,0,0,0,0,0,0,0.0,0,0,0.0,0.0,0.0,0.0,0.0,0.0
4242,21918,US,107840,33.7513888889,-117.993888889,,Census,City,CA,"Westminster, California",0,0,0,0,0,0,0,0,0,0,585,1590,4550,7997,14822.0,16115,23433,33663.0,60076.0,71133.0,78118.0,88207.0,89701.0
4255,9646,US,3718566,40.6247222222,-123.456944444,,Census,Census-designated place,CA,"Hyampom, California",0,0,0,0,0,0,0,0,0,0,0,0,0,0,0.0,0,0,0.0,0.0,0.0,0.0,0.0,0.0
4300,30387,US,60861,38.3538888889,-121.972777778,,Census,City,CA,"Vacaville, California",0,0,0,0,0,0,0,0,343,361,725,1220,1177,1254,1556.0,1614,3169,10898.0,21690.0,43367.0,71479.0,88625.0,92428.0
4338,27331,US,107939,33.7966666667,-117.224444444,,Census,City,CA,"Perris, California",0,0,0,0,0,0,0,0,0,0,0,0,0,499,763.0,1011,1807,2950.0,4228.0,6827.0,21460.0,36189.0,68386.0
4341,72604,US,107942,33.9480555556,-117.396111111,,Census,Charter city,CA,"Riverside, California",0,0,0,0,0,0,0,0,0,0,4683,7973,15212,19341,29696.0,34696,46764,84332.0,140089.0,170591.0,226505.0,255166.0,303871.0
4364,14457,US,108210,41.9097222222,-122.5575,,Census,Census-designated place,CA,"Hornbrook, California",0,0,0,0,0,0,0,0,0,0,0,0,0,0,0.0,0,0,0.0,0.0,0.0,0.0,0.0,0.0
4382,10435,US,6398052,39.9255555556,-121.731111111,,Census,Census-designated place,CA,"Cohasset, California",0,0,0,0,0,0,0,0,0,0,0,0,0,0,0.0,0,0,0.0,0.0,0.0,0.0,0.0,0.0
4405,18939,US,107383,39.2144444444,-122.009444444,,Census,City,CA,"Colusa, California",0,0,0,0,0,0,0,0,1051,1779,1336,1441,1582,1846,2116.0,2285,3031,3518.0,3842.0,4075.0,4934.0,5402.0,5971.0
4406,19202,US,2688350,40.1,-123.8,,Census,Census-designated place,CA,"Garberville, California",0,0,0,0,0,0,0,0,0,0,0,0,0,0,0.0,0,0,0.0,0.0,0.0,0.0,0.0,0.0
4446,8466,US,16772012,39.4666666667,-120.841111111,,Census,Census-designated place,CA,"Alleghany, California",0,0,0,0,0,0,0,0,0,0,0,0,0,0,0.0,0,0,0.0,0.0,0.0,0.0,0.0,0.0
4478,13779,US,108298,36.2,-119.083333333,,Census,City,CA,"Lindsay, California",0,0,0,0,0,0,0,0,0,0,0,0,1814,2576,3878.0,4397,5060,5397.0,5206.0,6936.0,8338.0,10297.0,11768.0
4480,41832,US,107426,41.7558333333,-124.201666667,,Census,City,CA,"Crescent City, California",0,0,0,0,0,0,0,638,458,0,907,699,1114,955,1720.0,1363,1706,2958.0,2586.0,3075.0,4380.0,4006.0,7643.0
4505,18031,US,108074,37.8169444444,-121.288611111,,Census,City,CA,"Lathrop, California",0,0,0,0,0,0,0,0,0,0,577,0,0,0,0.0,0,0,1123.0,2137.0,3717.0,6841.0,10445.0,18023.0
4517,76595,US,79759,39.66,-121.6,,Census,County,CA,"Butte County, California",0,0,0,0,0,0,3574,12106,11403,18721,17939,17117,27301,30030,34093.0,42840,64930,82030.0,101969.0,143851.0,182120.0,203171.0,220000.0
4527,28681,US,107804,33.575,-117.725555556,,Census,City,CA,"Aliso Viejo, California",0,0,0,0,0,0,0,0,0,0,0,0,0,0,0.0,0,0,0.0,0.0,0.0,7612.0,40166.0,47823.0
4555,27250,US,108083,37.7380555556,-121.433888889,,Census,General law city,CA,"Tracy, California",0,0,0,0,0,0,0,0,0,0,0,0,0,0,3829.0,4056,8410,11289.0,14724.0,18428.0,33558.0,56929.0,82922.0
4591,19786,US,108084,35.1208333333,-120.586666667,,Census,City,CA,"Arroyo Grande, California",0,0,0,0,0,0,0,0,0,0,466,0,0,760,892.0,1090,1723,3291.0,7454.0,11290.0,14378.0,15851.0,17252.0
4595,11503,US,1165731,37.9575,-119.121944444,,Census,Census-designated place,CA,"Lee Vining, California",0,0,0,0,0,0,0,0,0,0,0,0,0,0,0.0,0,0,0.0,0.0,0.0,0.0,0.0,0.0
4598,25103,US,107617,33.9641666667,-118.1825,,Census,City,CA,"Cudahy, California",0,0,0,0,0,0,0,0,0,0,0,0,0,0,0.0,0,0,0.0,16998.0,18275.0,22817.0,24208.0,23805.0
4632,55889,US,70957,33.7408333333,-117.881388889,,Census,City,CA,"Santa Ana, California",0,0,0,0,0,0,0,0,0,711,3628,4933,8429,15485,30322.0,31921,45533,100350.0,155710.0,204023.0,293742.0,337977.0,324528.0
4647,25141,US,107582,38.8080555556,-122.558333333,,Census,Census-designated place,CA,"Hidden Valley Lake, California",0,0,0,0,0,0,0,0,0,0,0,0,0,0,0.0,0,0,0.0,0.0,0.0,0.0,0.0,0.0
4659,23279,US,108119,37.375,-122.218611111,,Census,Town,CA,"Portola Valley, California",0,0,0,0,0,0,0,0,0,0,0,0,0,0,0.0,0,0,0.0,4996.0,3939.0,4194.0,4462.0,4353.0
4682,17622,US,108328,34.1861111111,-118.944722222,,Census,Census-designated place,CA,"Casa Conejo, California",0,0,0,0,0,0,0,0,0,0,0,0,0,0,0.0,0,0,0.0,0.0,0.0,0.0,0.0,0.0
4689,15980,US,2736091,34.6769294,-118.4453598,,Census,Unincorporated community,CA,"Lake Hughes, California",0,0,0,0,0,0,0,0,0,0,0,0,0,0,0.0,0,0,0.0,0.0,0.0,0.0,0.0,0.0
4699,25038,US,107682,33.79935,-118.16558,,Census,City,CA,"Signal Hill, California",0,0,0,0,0,0,0,0,0,0,0,0,0,0,2932.0,3184,4040,4627.0,5588.0,5734.0,8371.0,9333.0,11016.0
4705,24182,US,107606,33.8880555556,-118.1275,,Census,City,CA,"Bellflower, California",0,0,0,0,0,0,0,0,0,0,0,0,0,0,0.0,0,0,45909.0,52334.0,53441.0,61815.0,72878.0,76616.0
4726,29953,US,107987,34.2438888889,-116.911388889,,Census,City,CA,"Big Bear Lake, California",0,0,0,0,0,0,0,0,0,0,0,0,0,0,0.0,0,0,0.0,0.0,0.0,5351.0,5438.0,5019.0
4736,25870,US,108061,32.8697222222,-116.971111111,,Census,City,CA,"Santee, California",0,0,0,0,0,0,0,0,0,0,0,0,0,0,0.0,0,0,0.0,21107.0,47080.0,52902.0,52975.0,53413.0
4749,11510,US,107771,36.5705555556,-121.518611111,,Census,Census-designated place,CA,"Chualar, California",0,0,0,0,0,0,0,0,0,0,0,0,0,0,0.0,0,0,0.0,0.0,0.0,0.0,0.0,0.0
4765,42817,US,107424,37.9063888889,-122.065,,Census,City,CA,"Walnut Creek, California",0,0,0,0,0,0,0,0,0,94,0,0,0,538,1014.0,1578,2420,9903.0,39844.0,54033.0,60569.0,64296.0,64173.0
4784,26624,US,108215,41.3144444444,-122.311388889,,Census,City,CA,"Mount Shasta, California",0,0,0,0,0,0,0,0,0,0,556,0,636,542,1009.0,1618,1909,1936.0,2256.0,2837.0,3460.0,3621.0,3394.0
4809,5959,US,32165072,38.3141666667,-121.159722222,,Census,Census-designated place,CA,"Clay, California",0,0,0,0,0,0,0,0,0,0,0,0,0,0,0.0,0,0,0.0,0.0,0.0,0.0,0.0,0.0
4835,29108,US,107729,38.1075,-122.569722222,,Census,City,CA,"Novato, California",0,0,0,0,0,0,0,0,0,0,0,0,0,0,0.0,0,0,17881.0,31006.0,43916.0,47585.0,47630.0,51904.0
4845,16826,US,108271,39.2758333333,-121.66,,Census,City,CA,"Live Oak, Sutter County, California",0,0,0,0,0,0,0,0,0,0,0,0,0,0,0.0,0,1770,2276.0,2645.0,3103.0,4320.0,6229.0,8392.0
4891,11090,US,12715749,40.8105555556,-123.479444444,,Census,Census-designated place,CA,"Burnt Ranch, California",0,0,0,0,0,0,0,0,0,0,0,0,0,0,0.0,0,0,0.0,0.0,0.0,0.0,0.0,0.0
4906,8034,US,3269036,37.5294444444,-118.363333333,,Census,Census-designated place,CA,"Chalfant, California",0,0,0,0,0,0,0,0,0,0,0,0,0,0,0.0,0,0,0.0,0.0,0.0,0.0,0.0,0.0
4942,9368,US,107915,33.7361111111,-116.940277778,,Census,Census-designated place,CA,"East Hemet, California",0,0,0,0,0,0,0,0,0,0,0,0,0,0,0.0,0,0,0.0,0.0,0.0,0.0,0.0,0.0
4965,38237,US,108228,38.3277777778,-122.709166667,,Census,City,CA,"Cotati, California",0,0,0,0,0,0,0,0,0,0,0,0,0,0,0.0,0,0,1852.0,1368.0,3346.0,5714.0,6471.0,7265.0
4969,11664,US,107456,36.6116666667,-119.526944444,,Census,City,CA,"Parlier, California",0,0,0,0,0,0,0,0,0,0,0,0,0,0,564.0,776,1419,1366.0,1993.0,2902.0,7938.0,11145.0,14494.0
5010,13781,US,107384,39.1547222222,-122.149444444,,Census,Town,CA,"Williams, California",0,0,0,0,0,0,0,0,0,279,461,0,0,0,851.0,814,1134,1370.0,1571.0,1655.0,2297.0,3670.0,5123.0
5023,82337,US,82055,,,,Census,County,CA,"San Joaquin County, California",0,0,0,0,0,0,3647,9435,21050,24349,28629,35452,50731,79905,102940.0,134207,200750,249989.0,290208.0,347342.0,480628.0,563598.0,685306.0
5049,13186,US,108260,37.315,-121.0225,,Census,City,CA,"Newman, California",0,0,0,0,0,0,0,0,0,0,621,0,892,1251,1269.0,1214,1815,2148.0,2505.0,2785.0,4151.0,7093.0,10224.0
5072,21847,US,21985451,33.9247222222,-118.201944444,,Census,City,CA,"Lynwood, California",0,0,0,0,0,0,0,0,0,0,0,0,0,0,7323.0,10982,25823,31614.0,43354.0,48289.0,61945.0,69845.0,69772.0
5098,40519,US,108336,34.4491666667,-119.246666667,,Census,City,CA,"Ojai, California",0,0,0,0,0,0,0,0,0,0,0,0,0,0,1468.0,1622,2519,4495.0,5591.0,6816.0,7613.0,7862.0,7461.0
5112,29339,US,94298,38.3991666667,-122.826944444,,Census,City,CA,"Sebastopol, California",0,0,0,0,0,0,0,0,0,197,0,0,1233,1493,1762.0,1856,2601,2694.0,3993.0,5595.0,7004.0,7774.0,7379.0
5122,18094,US,107865,40.3025,-121.234722222,,Census,Census-designated place,CA,"Chester, California",0,0,0,0,0,0,0,0,0,0,0,0,0,0,0.0,0,0,0.0,0.0,0.0,0.0,0.0,0.0
5132,84440,US,107655,34.03,-118.75,,Census,City,CA,"Malibu, California",0,0,0,0,0,0,0,0,0,0,0,0,0,0,0.0,0,0,0.0,0.0,0.0,0.0,12575.0,12645.0
5162,19316,US,107542,,,,Census,Unincorporated community,CA,"Lebec, California",0,0,0,0,0,0,0,0,0,0,0,0,0,0,0.0,0,0,0.0,0.0,0.0,0.0,0.0,0.0
5178,11666,US,916888,34.4963888889,-118.325555556,,Census,Census-designated place,CA,"Agua Dulce, California",0,0,0,0,0,0,0,0,0,0,0,0,0,0,0.0,0,0,0.0,0.0,0.0,0.0,0.0,0.0
5227,55977,US,107706,33.9655555556,-118.024444444,,Census,Charter city,CA,"Whittier, California",0,0,0,0,0,0,0,0,0,0,585,1590,4550,7997,14822.0,16115,23433,33663.0,72863.0,68558.0,77671.0,83680.0,85331.0
5236,10448,US,107472,40.7697222222,-124.142777778,,Census,Census-designated place,CA,"Cutten, California",0,0,0,0,0,0,0,0,0,0,0,0,0,0,0.0,0,0,0.0,0.0,0.0,0.0,0.0,0.0
5289,15335,US,107999,34.1347222222,-116.313055556,,Census,Census-designated place,CA,"Joshua Tree, California",0,0,0,0,0,0,0,0,0,0,0,0,0,0,0.0,0,0,0.0,0.0,0.0,0.0,0.0,0.0
5304,9244,US,1979152,39.2327777778,-120.081666667,,Census,Census-designated place,CA,"Carnelian Bay, California",0,0,0,0,0,0,0,0,0,0,0,0,0,0,0.0,0,0,0.0,0.0,0.0,0.0,0.0,0.0
5306,11580,US,107883,40.2480555556,-121.1475,,Census,Census-designated place,CA,"Lake Almanor Country Club, California",0,0,0,0,0,0,0,0,0,0,0,0,0,0,0.0,0,0,0.0,0.0,0.0,0.0,0.0,0.0
5308,13321,US,108250,37.7463888889,-121.011666667,,Census,Census-designated place,CA,"Del Rio, California",0,0,0,0,0,0,0,0,0,0,0,0,0,0,0.0,0,0,0.0,0.0,0.0,0.0,0.0,0.0
5355,10739,US,107724,38.015,-122.693888889,,Census,Census-designated place,CA,"Lagunitas-Forest Knolls, California",0,0,0,0,0,0,0,0,0,0,0,0,0,0,0.0,0,0,0.0,0.0,0.0,0.0,0.0,0.0
5440,19944,US,107667,33.9,-118.166666667,,Census,City,CA,"Paramount, California",0,0,0,0,0,0,0,0,0,0,0,0,0,0,0.0,0,0,27249.0,34734.0,36407.0,47669.0,55266.0,54098.0
5475,9107,US,107470,40.7725,-124.183888889,,Census,Census-designated place,CA,"Bayview, Humboldt County, California",0,0,0,0,0,0,0,0,0,0,0,0,0,0,0.0,0,0,0.0,0.0,0.0,0.0,0.0,0.0
5476,13728,US,107745,39.7930555556,-123.248055556,,Census,Census-designated place,CA,"Covelo, California",0,0,0,0,0,0,0,0,0,0,0,0,0,0,0.0,0,0,0.0,0.0,0.0,0.0,0.0,0.0
5540,163460,US,45330,33.67,-117.78,,Census,County,CA,"Orange County, California",0,0,0,0,0,0,0,0,0,0,13589,19696,34436,61375,118674.0,130760,216224,703925.0,1420386.0,1932709.0,2410556.0,2846289.0,3010232.0
5558,50489,US,107600,33.3408333333,-118.327777778,,Census,Unknown,CA,"Avalon, California",0,0,0,0,0,0,0,0,0,0,0,0,0,586,1897.0,1637,1506,1536.0,1520.0,2022.0,2918.0,3127.0,3728.0
5598,53446,US,108303,36.0686111111,-119.0275,,Census,City,CA,"Porterville, California",0,0,0,0,0,0,0,0,0,202,606,0,2696,4097,5303.0,6270,6904,7991.0,12602.0,19707.0,29563.0,39615.0,54165.0
5631,21810,US,107808,33.5958333333,-117.587777778,,Census,Census-designated place,CA,"Coto de Caza, California",0,0,0,0,0,0,0,0,0,0,0,0,0,0,0.0,0,0,0.0,0.0,0.0,2853.0,13057.0,14866.0
5637,31811,US,108267,37.5058333333,-120.848888889,,Census,General law city,CA,"Turlock, California",0,0,0,0,0,0,0,0,0,175,203,0,1573,3394,4276.0,4839,6235,9116.0,13992.0,26287.0,42198.0,55810.0,68549.0
5656,25472,US,108095,35.1483333333,-120.648055556,,Census,General law city,CA,"Pismo Beach, California",0,0,0,0,0,0,0,0,0,0,0,0,0,0,0.0,0,1425,1762.0,4043.0,5364.0,7669.0,8551.0,7655.0
5665,26985,US,107807,33.665,-117.912222222,,Census,City,CA,"Costa Mesa, California",0,0,0,0,0,0,0,0,0,0,0,0,0,0,0.0,0,0,37550.0,72660.0,82562.0,96357.0,108724.0,109960.0
5732,61489,US,107985,34.9,-117.016666667,,Census,General law city,CA,"Barstow, California",0,0,0,0,0,0,0,0,0,0,0,0,0,0,0.0,0,6135,11644.0,17442.0,17690.0,21472.0,21119.0,22639.0
5784,12117,US,107994,34.2419444444,-117.285555556,,Census,Census-designated place,CA,"Crestline, California",0,0,0,0,0,0,0,0,0,0,0,0,0,0,0.0,0,0,0.0,0.0,0.0,0.0,0.0,0.0
5827,134289,US,60341,37.9358333333,-122.347777778,,Census,City,CA,"Richmond, California",0,0,0,0,0,0,0,0,0,0,0,0,6802,16843,20093.0,23642,99545,71854.0,79043.0,74676.0,87425.0,99216.0,103701.0
5861,9968,US,107492,32.7308333333,-115.529722222,,Census,Census-designated place,CA,"Heber, California",0,0,0,0,0,0,0,0,0,0,0,0,0,0,0.0,0,0,0.0,0.0,0.0,0.0,0.0,0.0
5935,12964,US,107353,38.4819444444,-120.844722222,,Census,City,CA,"Plymouth, California",0,0,0,0,0,0,0,0,0,740,768,0,0,657,343.0,460,382,489.0,501.0,699.0,811.0,980.0,1005.0
6022,11581,US,108075,38.0041666667,-121.334444444,,Census,Census-designated place,CA,"Lincoln Village, California",0,0,0,0,0,0,0,0,0,0,0,0,0,0,0.0,0,0,0.0,0.0,0.0,0.0,0.0,0.0
6043,13423,US,107960,38.4902777778,-121.410833333,,Census,Census-designated place,CA,"Florin, California",0,0,0,0,0,0,0,0,0,0,0,0,0,0,0.0,0,0,0.0,0.0,0.0,0.0,0.0,0.0
6048,29068,US,108344,38.5805555556,-121.530277778,,Census,City,CA,"West Sacramento, California",0,0,0,0,0,0,0,0,0,0,0,0,0,0,0.0,0,0,0.0,12002.0,10875.0,28898.0,31615.0,48744.0
6097,14633,US,108042,32.8211111111,-116.84,,Census,Census-designated place,CA,"Harbison Canyon, California",0,0,0,0,0,0,0,0,0,0,0,0,0,0,0.0,0,0,0.0,0.0,0.0,0.0,0.0,0.0
6100,9703,US,107452,36.4305555556,-119.931111111,,Census,Town,CA,"Lanare, California",0,0,0,0,0,0,0,0,0,0,0,0,0,0,0.0,0,0,0.0,0.0,0.0,0.0,0.0,0.0
6186,19985,US,107993,34.0738888889,-117.313611111,,Census,City,CA,"Colton, California",0,0,0,0,0,0,0,0,0,0,1315,1285,3980,4282,8014.0,9686,14465,18666.0,20016.0,21310.0,40213.0,47662.0,52154.0
6240,12966,US,108313,36.4163888889,-119.099444444,,Census,City,CA,"Woodlake, California",0,0,0,0,0,0,0,0,0,0,0,0,0,0,0.0,1146,2525,2623.0,3371.0,4343.0,5678.0,6651.0,7279.0
6276,25461,US,108236,38.6175,-122.866388889,,Census,City,CA,"Healdsburg, California",0,0,0,0,0,0,0,334,959,1133,1485,1869,2011,2412,2296.0,2507,3258,4816.0,5438.0,7217.0,9469.0,10722.0,11254.0
6279,11933,US,107577,36.2605555556,-119.891944444,,Census,Census-designated place,CA,"Lemoore Station, California",0,0,0,0,0,0,0,0,0,0,0,0,0,0,0.0,0,0,0.0,0.0,0.0,0.0,0.0,0.0
6281,11488,US,107704,33.9761111111,-118.068888889,,Census,Census-designated place,CA,"West Whittier-Los Nietos, California",0,0,0,0,0,0,0,0,0,0,0,0,0,0,0.0,0,0,0.0,20845.0,21001.0,24164.0,25129.0,25540.0
6294,6176,US,22993358,33.735,-117.078333333,,Census,Census-designated place,CA,"Green Acres, California",0,0,0,0,0,0,0,0,0,0,0,0,0,0,0.0,0,0,0.0,0.0,0.0,0.0,0.0,0.0
6326,42789,US,108106,37.6863888889,-122.468333333,,Census,City,CA,"Daly City, California",0,0,0,0,0,0,0,0,0,0,0,0,0,3779,7838.0,9625,15191,44791.0,66922.0,78519.0,92311.0,103621.0,101123.0
6347,46280,US,108167,37.3711111111,-122.0375,,Census,Charter city,CA,"Sunnyvale, California",0,0,0,0,0,0,0,0,0,0,0,0,0,0,3094.0,4373,9829,59898.0,95976.0,106618.0,117229.0,131760.0,140081.0
6419,8295,US,23053068,40.3844444444,-120.5875,,Census,Census-designated place,CA,"Johnstonville, California",0,0,0,0,0,0,0,0,0,0,0,0,0,0,0.0,0,0,0.0,0.0,0.0,0.0,0.0,0.0
6429,11358,US,108153,37.3127777778,-121.935833333,,Census,Census-designated place,CA,"Fruitdale, California",0,0,0,0,0,0,0,0,0,0,0,0,0,0,0.0,0,0,0.0,0.0,0.0,0.0,0.0,0.0
6456,10005,US,107663,34.1030555556,-118.023333333,,Census,Census-designated place,CA,"North El Monte, California",0,0,0,0,0,0,0,0,0,0,0,0,0,0,0.0,0,0,0.0,0.0,0.0,3384.0,3703.0,3723.0
6645,49873,US,107618,34.0077777778,-118.400833333,,Census,City,CA,"Culver City, California",0,0,0,0,0,0,0,0,0,0,0,0,0,503,5669.0,8976,19720,32163.0,34451.0,38139.0,38793.0,38816.0,38883.0
6694,16463,US,108268,37.645,-120.7675,,Census,City,CA,"Waterford, California",0,0,0,0,0,0,0,0,0,63,0,0,0,0,0.0,0,1777,1780.0,2243.0,2683.0,4771.0,6924.0,8456.0
6707,89509,US,92413,36.75,-119.766666667,,Census,"Charter city, county seat",CA,"Fresno, California",0,0,0,0,0,0,0,0,0,1112,10818,12470,24892,45086,52513.0,60685,91669,133929.0,165655.0,217491.0,354202.0,427652.0,494665.0
6709,16296,US,107721,37.9872222222,-122.588888889,,Census,Town,CA,"Fairfax, California",0,0,0,0,0,0,0,0,0,0,0,0,0,0,0.0,2198,4078,5813.0,7661.0,7391.0,6931.0,7319.0,7441.0
6729,49373,US,108240,38.2458333333,-122.631388889,,Census,City,CA,"Petaluma, California",0,0,0,0,0,0,0,0,0,3326,3692,3871,5880,6226,8245.0,8034,10315,14035.0,24870.0,33834.0,43184.0,54548.0,57941.0
6759,27225,US,107411,37.8827777778,-122.179722222,,Census,City,CA,"Orinda, California",0,0,0,0,0,0,0,0,0,0,0,0,0,0,0.0,0,0,5568.0,6790.0,16825.0,16642.0,17599.0,17643.0
6764,21353,US,107645,34.0325,-117.955277778,,Census,City,CA,"La Puente, California",0,0,0,0,0,0,0,0,0,0,0,0,0,0,0.0,0,0,24723.0,31092.0,30882.0,36955.0,41063.0,39816.0
6774,10927,US,107767,36.6988888889,-121.675,,Census,Census-designated place,CA,"Boronda, California",0,0,0,0,0,0,0,0,0,0,0,0,0,0,0.0,0,0,0.0,0.0,0.0,0.0,0.0,0.0
6832,11949,US,689441,37.3191666667,-122.274166667,,Census,Census-designated place,CA,"La Honda, California",0,0,0,0,0,0,0,0,0,0,0,0,0,0,0.0,0,0,0.0,0.0,0.0,0.0,0.0,0.0
6836,33386,US,107689,34.1027777778,-118.058055556,,Census,City,CA,"Temple City, California",0,0,0,0,0,0,0,0,0,0,0,0,0,0,0.0,0,0,31838.0,31034.0,28972.0,31100.0,33377.0,35558.0
6841,11941,US,108207,41.5216666667,-122.520833333,,Census,Census-designated place,CA,"Gazelle, California",0,0,0,0,0,0,0,0,0,0,0,0,0,0,0.0,0,0,0.0,0.0,0.0,0.0,0.0,0.0
6868,25003,US,107338,37.5333333333,-122.033333333,,Census,City,CA,"Newark, California",0,0,0,0,0,0,0,0,0,179,0,0,0,0,0.0,0,1532,9884.0,27153.0,32126.0,37861.0,42471.0,42573.0
6898,13895,US,107791,38.5744444444,-122.448055556,,Census,Census-designated place,CA,"Angwin, California",0,0,0,0,0,0,0,0,0,0,0,0,0,0,0.0,0,0,0.0,0.0,0.0,0.0,0.0,0.0
6912,43481,US,108052,32.6780555556,-117.099166667,,Census,City,CA,"National City, California",0,0,0,0,0,0,0,0,0,248,1353,1086,1733,3116,7301.0,10344,21199,32771.0,43184.0,48772.0,54249.0,54260.0,58582.0
6967,9382,US,107871,39.9352777778,-120.907777778,,Census,Census-designated place,CA,"East Quincy, California",0,0,0,0,0,0,0,0,0,0,0,0,0,0,0.0,0,0,0.0,0.0,0.0,0.0,0.0,0.0
7005,24482,US,108339,34.1602777778,-119.194444444,,Census,Charter city,CA,"Port Hueneme, California",0,0,0,0,0,0,0,0,0,166,0,0,0,0,0.0,0,3024,11067.0,14295.0,17803.0,20319.0,21845.0,21723.0
7060,14299,US,107400,37.945,-122.313611111,,Census,Census-designated place,CA,"East Richmond Heights, California",0,0,0,0,0,0,0,0,0,0,0,0,0,0,0.0,0,0,0.0,0.0,0.0,3266.0,3357.0,3280.0
7077,11292,US,107884,40.2752777778,-121.126666667,,Census,Census-designated place,CA,"Lake Almanor Peninsula, California",0,0,0,0,0,0,0,0,0,0,0,0,0,0,0.0,0,0,0.0,0.0,0.0,0.0,0.0,0.0
7118,28305,US,107339,37.8166666667,-122.233333333,,Census,City,CA,"Piedmont, California",0,0,0,0,0,0,0,0,0,0,634,0,1719,4282,9333.0,9866,10132,11117.0,10917.0,10498.0,10602.0,10952.0,10667.0
7129,9481,US,107345,38.7730555556,-119.818055556,,Census,Census-designated place,CA,"Alpine Village, California",0,0,0,0,0,0,0,0,0,0,0,0,0,0,0.0,0,0,0.0,0.0,0.0,0.0,0.0,0.0
7183,28036,US,107842,38.8986111111,-121.074444444,,Census,City,CA,"Auburn, California",0,0,0,0,0,0,0,814,800,1229,1595,2050,2376,2289,2661.0,5013,4653,5586.0,6570.0,7540.0,10592.0,12462.0,13330.0
7237,10249,US,108034,32.8058333333,-116.8675,,Census,Census-designated place,CA,"Crest, California",0,0,0,0,0,0,0,0,0,0,0,0,0,0,0.0,0,0,0.0,0.0,0.0,0.0,0.0,0.0
7245,6297,US,31817145,37.9686111111,-122.136388889,,Census,Census-designated place,CA,"Alhambra Valley, California",0,0,0,0,0,0,0,0,0,0,0,0,0,0,0.0,0,0,0.0,0.0,0.0,0.0,0.0,0.0
7257,36863,US,108311,36.2066666667,-119.3425,,Census,City,CA,"Tulare, California",0,0,0,0,0,0,0,0,0,447,2697,2216,2758,3539,6207.0,8259,12445,13824.0,16235.0,22530.0,33249.0,43994.0,59278.0
7265,40855,US,107733,37.9736111111,-122.531111111,,Census,City,CA,"San Rafael, California",0,0,0,0,0,0,0,0,841,2276,3290,3879,5934,5512,8022.0,8573,13848,20460.0,38977.0,44700.0,48404.0,56063.0,57713.0
7293,22857,US,107364,39.7597222222,-121.621388889,,Census,Town,CA,"Paradise, California",0,0,0,0,0,0,0,0,0,0,0,0,0,0,0.0,0,0,8268.0,14539.0,22571.0,25408.0,26408.0,26218.0
7297,11659,US,107875,40.14,-120.951388889,,Census,Census-designated place,CA,"Greenville, California",0,0,0,0,0,0,0,0,0,0,0,0,0,0,0.0,0,0,0.0,0.0,0.0,0.0,0.0,0.0
7315,10533,US,107620,34.5897222222,-118.153611111,,Census,Census designated place,CA,"Desert View Highlands, California",0,0,0,0,0,0,0,0,0,0,0,0,0,0,0.0,0,0,0.0,0.0,2175.0,2154.0,2337.0,2360.0
7377,33583,US,107696,34.0333333333,-117.866666667,,Census,General law city,CA,"Walnut, California",0,0,0,0,0,0,0,0,0,0,0,0,0,0,0.0,0,0,934.0,5992.0,12478.0,29105.0,30004.0,29172.0
7393,11851,US,3308586,37.3994444444,-122.197222222,,Census,Census-designated place,CA,"Ladera, California",0,0,0,0,0,0,0,0,0,0,0,0,0,0,0.0,0,0,0.0,0.0,0.0,0.0,0.0,0.0
7401,34311,US,108154,37.0119444444,-121.58,,Census,City,CA,"Gilroy, California",0,0,0,0,0,0,0,0,1625,1621,1694,1820,2437,2862,3502.0,3615,4951,7348.0,12684.0,21641.0,31487.0,41464.0,48821.0
7519,8324,US,17475568,39.8658333333,-123.714166667,,Census,Census-designated place,CA,"Leggett, California",0,0,0,0,0,0,0,0,0,0,0,0,0,0,0.0,0,0,0.0,0.0,0.0,0.0,0.0,0.0
7562,17855,US,5220142,34.2080555556,-118.6875,,Census,Census-designated place,CA,"Bell Canyon, California",0,0,0,0,0,0,0,0,0,0,0,0,0,0,0.0,0,0,0.0,0.0,0.0,0.0,0.0,0.0
7587,23929,US,107408,37.835,-122.129722222,,Census,Town,CA,"Moraga, California",0,0,0,0,0,0,0,0,0,0,0,0,0,0,0.0,0,0,0.0,14205.0,15014.0,15852.0,16290.0,16016.0
7596,18028,US,108284,40.6991666667,-122.810555556,,Census,Census-designated place,CA,"Lewiston, California",0,0,0,0,0,0,0,0,0,0,0,0,0,0,0.0,0,0,0.0,0.0,0.0,0.0,0.0,0.0
7608,18862,US,107526,35.1258333333,-117.985833333,,Census,City,CA,"California City, California",0,0,0,0,0,0,0,0,0,0,0,0,0,0,0.0,0,0,0.0,1309.0,2743.0,5955.0,8385.0,14120.0
7639,5935,US,32003402,37.7402777778,-120.123611111,,Census,Census-designated place,CA,"Greeley Hill, California",0,0,0,0,0,0,0,0,0,0,0,0,0,0,0.0,0,0,0.0,0.0,0.0,0.0,0.0,0.0
7640,12760,US,117412,36.5863888889,-121.9475,,Census,Census-designated place,CA,"Del Monte Forest, California",0,0,0,0,0,0,0,0,0,0,0,0,0,0,0.0,0,0,0.0,0.0,0.0,0.0,0.0,0.0
7682,9480,US,2165930,34.9311111111,-119.615,,Census,Census-designated place,CA,"Cuyama, California",0,0,0,0,0,0,0,0,0,0,0,0,0,0,0.0,0,0,0.0,0.0,0.0,0.0,0.0,0.0
7755,13689,US,107845,39.0194444444,-120.836111111,,Census,Census-designated place,CA,"Foresthill, California",0,0,0,0,0,0,0,0,0,0,0,0,0,0,0.0,0,0,0.0,0.0,0.0,0.0,0.0,0.0
7785,20138,US,107487,32.9786111111,-115.530277778,,Census,City,CA,"Brawley, California",0,0,0,0,0,0,0,0,0,0,0,0,881,5389,10439.0,11718,11922,12703.0,13746.0,14946.0,18923.0,22052.0,24953.0
7789,9825,US,7782763,32.8527777778,-116.615833333,,Census,Census-designated place,CA,"Descanso, California",0,0,0,0,0,0,0,0,0,0,0,0,0,0,0.0,0,0,0.0,0.0,0.0,0.0,0.0,0.0
7799,26578,US,108174,36.9763888889,-121.954722222,,Census,City,CA,"Capitola, California",0,0,0,0,0,0,0,0,0,0,0,0,0,0,0.0,0,1848,2021.0,5080.0,9095.0,10171.0,10033.0,9918.0
7800,23284,US,107788,36.4247222222,-121.326388889,,Census,City,CA,"Soledad, California",0,0,0,0,0,0,0,0,0,136,217,0,0,0,594.0,861,2441,2837.0,4222.0,5928.0,7146.0,11263.0,25738.0
7843,14964,US,4243125,34.1261111111,-118.888055556,,Census,Census-designated place,CA,"Lake Sherwood, California",0,0,0,0,0,0,0,0,0,0,0,0,0,0,0.0,0,0,0.0,0.0,0.0,0.0,0.0,0.0
7871,8062,US,16285349,35.9441666667,-121.083333333,,Census,Census-designated place,CA,"Lockwood, California",0,0,0,0,0,0,0,0,0,0,0,0,0,0,0.0,0,0,0.0,0.0,0.0,0.0,0.0,0.0
7883,21106,US,107716,37.8727777778,-122.464444444,,Census,General law city,CA,"Belvedere, California",0,0,0,0,0,0,0,0,0,0,0,434,481,616,500.0,457,800,2148.0,2599.0,2401.0,2147.0,2125.0,2068.0
7906,10791,US,107962,38.6816666667,-121.348333333,,Census,Census-designated place,CA,"Foothill Farms, California",0,0,0,0,0,0,0,0,0,0,0,0,0,0,0.0,0,0,0.0,0.0,0.0,0.0,0.0,0.0
7912,54758,US,82103,39.59,-120.5,,Census,County,CA,"Sierra County, California",0,0,0,0,0,0,0,11387,5619,6623,5051,4017,4098,1783,2422.0,3025,2410,2247.0,2365.0,3073.0,3318.0,3555.0,3240.0
7916,21596,US,107458,36.5963888889,-119.450277778,,Census,City,CA,"Reedley, California",0,0,0,0,0,0,0,0,0,0,0,0,0,2447,2589.0,3170,4135,5850.0,8131.0,11071.0,15791.0,20756.0,24194.0
7921,7977,US,11611811,39.6052777778,-122.539166667,,Census,Census-designated place,CA,"Elk Creek, California",0,0,0,0,0,0,0,0,0,0,0,0,0,0,0.0,0,0,0.0,0.0,0.0,0.0,0.0,0.0
7930,9386,US,108043,33.2294444444,-117.124722222,,Census,Census designated place,CA,"Hidden Meadows, California",0,0,0,0,0,0,0,0,0,0,0,0,0,0,0.0,0,0,0.0,0.0,0.0,0.0,0.0,0.0
7948,76417,US,80551,36.5833333333,-117.416666667,,Census,County,CA,"Inyo County, California",0,0,0,0,0,0,0,0,1956,2928,3544,4377,6974,7031,6555.0,7625,11658,11684.0,15571.0,17895.0,18281.0,17945.0,18546.0
7961,13851,US,118273,36.0561111111,-118.983888889,,Census,Census-designated place,CA,"East Porterville, California",0,0,0,0,0,0,0,0,0,0,0,0,0,0,0.0,0,0,0.0,0.0,0.0,0.0,0.0,0.0
7994,25062,US,108060,33.1419444444,-117.170277778,,Census,Charter city,CA,"San Marcos, California",0,0,0,0,0,0,0,0,0,0,0,0,0,0,0.0,0,0,0.0,3896.0,17479.0,38974.0,54977.0,83781.0
8013,13817,US,108213,41.7272222222,-122.526388889,,Census,City,CA,"Montague, California",0,0,0,0,0,0,0,0,0,0,250,0,274,453,507.0,463,579,782.0,890.0,1285.0,1415.0,1456.0,1443.0
8029,20260,US,107774,36.5066666667,-121.444444444,,Census,City,CA,"Gonzales, California",0,0,0,0,0,0,0,0,0,233,359,0,0,0,0.0,0,1821,2138.0,2575.0,2891.0,4660.0,7525.0,8187.0
8044,6377,US,23234428,37.5547222222,-118.713055556,,Census,Census-designated place,CA,"Aspen Springs, California",0,0,0,0,0,0,0,0,0,0,0,0,0,0,0.0,0,0,0.0,0.0,0.0,0.0,0.0,0.0
8052,118541,US,80674,,,,Census,County,CA,"San Bernardino County, California",0,0,0,0,0,0,0,5551,3988,7786,25497,27929,56706,73401,133900.0,161108,281642,503591.0,684072.0,895016.0,1418380.0,1709434.0,2035210.0
8073,153372,US,79766,,,,Census,County,CA,"Contra Costa County, California",0,0,0,0,0,0,0,5328,8461,12525,13515,18046,31674,53889,78608.0,100450,298984,409030.0,558389.0,656380.0,803732.0,948816.0,1049025.0
8084,37263,US,107341,37.725,-122.156111111,,Census,City,CA,"San Leandro, California",0,0,0,0,0,0,0,0,426,1369,0,2253,3471,5703,11455.0,14601,27542,65962.0,68698.0,63952.0,68223.0,79452.0,84950.0
8150,68617,US,80561,36.07,-119.81,,Census,County,CA,"Kings County, California",0,0,0,0,0,0,0,0,0,0,0,9871,16230,22031,25385.0,35168,46768,49954.0,64610.0,73738.0,101469.0,129461.0,152982.0
8165,88259,US,81726,36.9719444444,-122.026388889,,Census,"Charter city,",CA,"Santa Cruz, California",0,0,0,0,0,0,0,950,2561,3898,5596,5659,11146,10917,14395.0,16896,21970,25596.0,32076.0,41483.0,49040.0,54593.0,59946.0
8192,26875,US,107823,33.8022222222,-118.064444444,,Census,City,CA,"Los Alamitos, California",0,0,0,0,0,0,0,0,0,0,0,0,0,0,0.0,0,0,4312.0,11346.0,11529.0,11676.0,11536.0,11449.0
8242,53586,US,84148,34.1,-117.65,,Census,City,CA,"Upland, California",0,0,0,0,0,0,0,0,0,0,0,0,2384,2912,4713.0,6316,9203,15918.0,32551.0,47647.0,63374.0,68393.0,73732.0
8266,11903,US,107505,36.2680555556,-117.591666667,,Census,Census-designated place,CA,"Darwin, California",0,0,0,0,0,0,0,0,0,0,0,0,0,0,0.0,0,0,0.0,0.0,0.0,0.0,0.0,0.0
8281,112562,US,79734,34.05,-118.25,,Census,County,CA,"Los Angeles County, California",0,0,0,0,0,0,3530,11333,15309,33381,101454,170298,504131,936455,2208492.0,2785643,4151687,6038771.0,7041980.0,7477421.0,8863164.0,9519338.0,9818605.0
8349,146466,US,18110,34.05,-118.25,,Census,City,CA,Los Angeles,0,0,0,0,0,0,1610,4385,5728,11183,50395,102479,319198,576673,1238048.0,1504277,1970358,2479015.0,2811801.0,2968528.0,3485398.0,3694820.0,3792621.0
8352,42332,US,108160,37.1305555556,-121.654444444,,Census,City,CA,"Morgan Hill, California",0,0,0,0,0,0,0,0,0,0,0,0,607,646,908.0,1014,1627,3151.0,5579.0,17060.0,23928.0,33556.0,37882.0
8354,24248,US,107524,34.9994444444,-117.649722222,,Census,Census-designated place,CA,"Boron, California",0,0,0,0,0,0,0,0,0,0,0,0,0,0,0.0,0,0,0.0,0.0,0.0,0.0,0.0,0.0
8373,11769,US,108025,33.2797222222,-117.193611111,,Census,Census-designated place,CA,"Bonsall, California",0,0,0,0,0,0,0,0,0,0,0,0,0,0,0.0,0,0,0.0,0.0,0.0,0.0,0.0,0.0
8395,22504,US,107443,36.1397222222,-120.360277778,,Census,City,CA,"Coalinga, California",0,0,0,0,0,0,0,0,0,0,0,0,4199,2934,2851.0,5026,5539,5965.0,6161.0,6593.0,8212.0,11668.0,13380.0
8440,6393,US,22894026,35.2288888889,-118.823055556,,Census,Census-designated place,CA,"Edmundson Acres, California",0,0,0,0,0,0,0,0,0,0,0,0,0,0,0.0,0,0,0.0,0.0,0.0,0.0,0.0,0.0
8442,7481,US,7008900,37.8316666667,-120.239722222,,Census,Census-designated place,CA,"Groveland, California",0,0,0,0,0,0,0,0,0,0,0,0,0,0,0.0,0,0,0.0,0.0,0.0,0.0,0.0,0.0
8464,10246,US,107346,38.4647222222,-120.04,,Census,Census-designated place,CA,"Bear Valley, Alpine County, California",0,0,0,0,0,0,0,0,0,0,0,0,0,0,0.0,0,0,0.0,0.0,0.0,0.0,0.0,0.0
8510,20186,US,107653,33.7933333333,-118.316111111,,Census,City,CA,"Lomita, California",0,0,0,0,0,0,0,0,0,0,0,0,0,0,0.0,0,0,14983.0,19784.0,18807.0,19382.0,20046.0,20256.0
8559,36686,US,107503,37.3635,-118.3951,,Census,City,CA,"Bishop, California",0,0,0,0,0,0,0,0,0,152,340,0,1199,1304,1159.0,1490,2891,2875.0,3498.0,3333.0,3475.0,3575.0,3879.0
8588,13242,US,12804411,41.8452777778,-123.969444444,,Census,Census-designated place,CA,"Gasquet, California",0,0,0,0,0,0,0,0,0,0,0,0,0,0,0.0,0,0,0.0,0.0,0.0,0.0,0.0,0.0
8642,18312,US,107818,33.5997222222,-117.699444444,,Census,City,CA,"Laguna Hills, California",0,0,0,0,0,0,0,0,0,0,0,0,0,0,0.0,0,0,0.0,0.0,0.0,0.0,31178.0,30344.0
8644,14596,US,107866,39.8005555556,-120.144444444,,Census,Census-designated place,CA,"Chilcoot-Vinton, California",0,0,0,0,0,0,0,0,0,0,0,0,0,0,0.0,0,0,0.0,0.0,0.0,0.0,0.0,0.0
8692,17459,US,107849,38.8163888889,-121.192777778,,Census,Town,CA,"Loomis, California",0,0,0,0,0,0,0,0,0,0,0,0,0,0,0.0,0,0,0.0,1108.0,1284.0,5705.0,6260.0,6430.0
8830,15238,US,108090,35.1208333333,-120.619444444,,Census,City,CA,"Grover Beach, California",0,0,0,0,0,0,0,0,0,0,0,0,0,0,0.0,0,0,5210.0,5939.0,8827.0,11656.0,13067.0,13156.0
8836,5810,US,31817358,37.8730555556,-122.057222222,,Census,Census-designated place,CA,"Castle Hill, California",0,0,0,0,0,0,0,0,0,0,0,0,0,0,0.0,0,0,0.0,0.0,0.0,0.0,0.0,0.0
8848,10114,US,7977632,40.7897222222,-121.474444444,,Census,Census designated place,CA,"Hat Creek, California",0,0,0,0,0,0,0,0,0,0,0,0,0,0,0.0,0,0,0.0,0.0,0.0,0.0,0.0,0.0
8871,20086,US,108051,32.7413888889,-117.031666667,,Census,City,CA,"Lemon Grove, California",0,0,0,0,0,0,0,0,0,0,0,0,0,0,0.0,0,0,19348.0,19690.0,20780.0,23984.0,24918.0,25320.0
8878,10832,US,107612,34.115,-117.891666667,,Census,Census-designated place,CA,"Citrus, California",0,0,0,0,0,0,0,0,0,0,0,0,0,0,0.0,0,0,0.0,0.0,12450.0,9481.0,10581.0,10866.0
8880,14350,US,107468,39.5244444444,-122.193611111,,Census,City,CA,"Willows, California",0,0,0,0,0,0,0,0,0,728,1176,893,1139,2190,2024.0,2215,3019,4139.0,4085.0,4777.0,5988.0,6220.0,6166.0
8886,67875,US,82028,,,,Census,County,CA,"Nevada County, California",0,0,0,0,0,0,0,16446,19134,20823,17369,17789,14955,10850,10596.0,19283,19888,20911.0,26346.0,51645.0,78510.0,92033.0,98764.0
8927,11987,US,916838,34.6183333333,-118.287222222,,Census,Census-designated place,CA,"Leona Valley, California",0,0,0,0,0,0,0,0,0,0,0,0,0,0,0.0,0,0,0.0,0.0,0.0,0.0,0.0,0.0
8990,35953,US,108163,37.3544444444,-121.969166667,,Census,City,CA,"Santa Clara, California",0,0,0,0,0,0,0,0,0,2416,2891,3650,4348,5220,6302.0,6650,11702,58880.0,86118.0,87700.0,93613.0,102361.0,116468.0
8998,33080,US,108111,37.4588888889,-122.436944444,,Census,City,CA,"Half Moon Bay, California",0,0,0,0,0,0,0,0,0,0,0,0,0,0,0.0,0,0,1957.0,4023.0,7282.0,8886.0,11842.0,11324.0
9003,97819,US,82026,38.5,-122.32,,Census,County,CA,"Napa County, California",0,0,0,0,0,0,405,5521,7163,13235,16411,16451,19800,20678,22897.0,28503,46603,65890.0,79140.0,99199.0,110765.0,124279.0,136484.0
9006,7058,US,24235053,38.3311111111,-121.568611111,,Census,Census-designated place,CA,"Courtland, California",0,0,0,0,0,0,0,0,0,0,0,0,0,0,0.0,0,0,0.0,0.0,0.0,0.0,0.0,0.0
9007,37093,US,332055,38.2122222222,-119.012222222,,Census,Ghost town,CA,"Bodie, California",0,0,0,0,0,0,0,0,0,2712,1595,965,698,110,228.0,90,0,0.0,0.0,0.0,0.0,0.0,0.0
9009,21179,US,107680,33.9375,-118.067222222,,Census,City,CA,"Santa Fe Springs, California",0,0,0,0,0,0,0,0,0,0,0,0,0,0,0.0,0,0,16342.0,14750.0,14520.0,15520.0,17438.0,16223.0
9048,10523,US,108001,34.8833333333,-117.1,,Census,Census-designated place,CA,"Lenwood, California",0,0,0,0,0,0,0,0,0,0,0,0,0,0,0.0,0,0,0.0,0.0,0.0,0.0,0.0,0.0
9088,13411,US,108091,35.7375,-120.881388889,,Census,Census-designated place,CA,"Lake Nacimiento, California",0,0,0,0,0,0,0,0,0,0,0,0,0,0,0.0,0,0,0.0,0.0,0.0,0.0,0.0,0.0
9102,14975,US,118291,34.1577777778,-119.222777778,,Census,Census-designated place,CA,"Channel Islands Beach, California",0,0,0,0,0,0,0,0,0,0,0,0,0,0,0.0,0,0,0.0,0.0,0.0,0.0,0.0,0.0
9159,14931,US,840997,33.4427777778,-116.865,,Census,Census-designated place,CA,"Aguanga, California",0,0,0,0,0,0,0,0,0,0,0,0,0,0,0.0,0,0,0.0,0.0,0.0,0.0,0.0,0.0
9180,12055,US,108222,38.2594444444,-122.164444444,,Census,Census-designated place,CA,"Green Valley, Solano County, California",0,0,0,0,0,0,0,0,0,0,0,0,0,0,0.0,0,0,0.0,0.0,0.0,0.0,0.0,0.0
9246,65432,US,108032,32.6277777778,-117.048055556,,Census,City,CA,"Chula Vista, California",0,0,0,0,0,0,0,0,0,0,0,0,0,1718,3869.0,5138,15927,42034.0,67901.0,83927.0,135163.0,173556.0,243916.0
9254,39341,US,107656,33.8888888889,-118.405277778,,Census,City,CA,"Manhattan Beach, California",0,0,0,0,0,0,0,0,0,0,0,0,0,859,1891.0,6398,17330,33934.0,35352.0,31542.0,32063.0,33852.0,35135.0
9309,11740,US,108175,36.9913888889,-121.801944444,,Census,Census-designated place,CA,"Corralitos, California",0,0,0,0,0,0,0,0,0,0,0,0,0,0,0.0,0,0,0.0,0.0,0.0,0.0,0.0,0.0
9314,24658,US,107961,38.6722222222,-121.157777778,,Census,City,CA,"Folsom, California",0,0,0,0,0,0,0,0,0,0,609,0,0,0,0.0,0,1690,3925.0,5810.0,11003.0,29802.0,51884.0,72203.0
9359,53309,US,107610,33.8683333333,-118.0675,,Census,Charter city,CA,"Cerritos, California",0,0,0,0,0,0,0,0,0,166,0,0,0,0,0.0,0,0,3508.0,15856.0,53020.0,53240.0,51488.0,49041.0
9363,9809,US,108296,36.3877777778,-119.219166667,,Census,Census designated place,CA,"Ivanhoe, California",0,0,0,0,0,0,0,0,0,0,0,0,0,0,0.0,0,0,0.0,0.0,0.0,0.0,0.0,0.0
9377,73032,US,5201333,33.6694444444,-117.823055556,,Census,Charter city,CA,"Irvine, California",0,0,0,0,0,0,0,0,0,0,0,0,0,0,0.0,0,0,0.0,10081.0,62127.0,110330.0,143072.0,212375.0
9383,33736,US,105222,37.4527777778,-122.183333333,,Census,City,CA,"Menlo Park, California",0,0,0,0,0,0,0,0,0,0,0,0,0,0,2254.0,3258,13587,26957.0,26826.0,26438.0,28040.0,30785.0,32026.0
9415,8368,US,6360213,39.3886111111,-121.405277778,,Census,Census-designated place,CA,"Bangor, California",0,0,0,0,0,0,0,0,0,0,0,0,0,0,0.0,0,0,0.0,0.0,0.0,0.0,0.0,0.0
9421,69737,US,82107,41.5833333333,-122.5,,Census,County,CA,"Siskiyou County, California",0,0,0,0,0,0,0,7629,6848,8610,12163,16962,18801,18545,25480.0,28598,30733,32885.0,33225.0,39732.0,43531.0,44301.0,44900.0
9593,12416,US,1899173,38.8852777778,-121.969722222,,Census,Census-designated place,CA,"Dunnigan, California",0,0,0,0,0,0,0,0,0,0,0,0,0,0,0.0,0,0,0.0,0.0,0.0,0.0,0.0,0.0
9612,18008,US,107904,33.7444444444,-116.285277778,,Census,Census-designated place,CA,"Bermuda Dunes, California",0,0,0,0,0,0,0,0,0,0,0,0,0,0,0.0,0,0,0.0,0.0,0.0,0.0,0.0,0.0
9614,18715,US,107986,34.2611111111,-116.845,,Census,[[unincorporated town,CA,"Big Bear City, California",0,0,0,0,0,0,0,0,0,0,0,0,0,0,0.0,0,0,0.0,0.0,0.0,4920.0,5779.0,12304.0
9615,70920,US,107336,37.66882,-122.080796,,Census,City,CA,"Hayward, California",0,0,0,0,0,0,0,0,504,1231,1419,1965,2746,3487,5530.0,6736,14272,72700.0,93058.0,93585.0,111498.0,140030.0,144186.0
9620,18862,US,107509,36.8027777778,-118.2,,Census,Census-designated place,CA,"Independence, California",0,0,0,0,0,0,0,0,0,0,0,0,0,0,0.0,0,0,0.0,0.0,0.0,0.0,0.0,0.0
9630,14607,US,107579,38.9583333333,-122.626388889,,Census,City,CA,"Clearlake, California",0,0,0,0,0,0,0,0,0,0,0,0,0,0,0.0,0,0,0.0,0.0,0.0,11804.0,13142.0,15250.0
9639,13042,US,108108,37.5038888889,-122.473333333,,Census,Census-designated place,CA,"El Granada, California",0,0,0,0,0,0,0,0,0,0,0,0,0,0,0.0,0,0,0.0,0.0,0.0,0.0,0.0,0.0
9659,8043,US,5235706,40.2966666667,-120.524166667,,Census,Census-designated place,CA,"Janesville, California",0,0,0,0,0,0,0,0,0,0,0,0,0,0,0.0,0,0,0.0,0.0,0.0,0.0,0.0,0.0
9676,33425,US,60867,38.0633333333,-122.156111111,,Census,City,CA,"Benicia, California",0,0,0,0,0,0,0,0,0,1794,2361,2751,2360,2693,2913.0,2419,7284,6070.0,7349.0,15376.0,24437.0,26865.0,26997.0
9690,11075,US,108068,37.9708333333,-121.335,,Census,Census-designated place,CA,"Country Club, California",0,0,0,0,0,0,0,0,0,0,0,0,0,0,0.0,0,0,0.0,0.0,0.0,0.0,0.0,0.0
9700,12372,US,108077,38.1575,-121.151388889,,Census,Census-designated place,CA,"Lockeford, California",0,0,0,0,0,0,0,0,0,0,0,0,0,0,0.0,0,0,0.0,0.0,0.0,0.0,0.0,0.0
9710,92909,US,82034,40.01,-120.83,,Census,County,CA,"Plumas County, California",0,0,0,0,0,0,0,4363,4489,6180,4933,4657,5259,5681,7913.0,11548,13519,11620.0,11707.0,17340.0,19739.0,20824.0,20007.0
9732,81505,US,107640,33.9575,-118.346111111,,Census,Charter city,CA,"Inglewood, California",0,0,0,0,0,0,0,0,0,0,0,0,1536,3286,19480.0,30114,46185,63390.0,89985.0,94162.0,109602.0,112580.0,109673.0
9772,10630,US,107742,37.465,-119.886666667,,Census,Census-designated place,CA,"Bootjack, California",0,0,0,0,0,0,0,0,0,0,0,0,0,0,0.0,0,0,0.0,0.0,0.0,0.0,0.0,0.0
9774,7641,US,1964052,37.3655555556,-119.726388889,,Census,Census-designated place,CA,"Ahwahnee, California",0,0,0,0,0,0,0,0,0,0,0,0,0,0,0.0,0,0,0.0,0.0,0.0,0.0,0.0,0.0
9803,10007,US,108072,37.9613888889,-121.231388889,,Census,Census-designated place,CA,"Garden Acres, California",0,0,0,0,0,0,0,0,0,0,0,0,0,0,0.0,0,0,0.0,0.0,0.0,0.0,0.0,0.0
9816,19711,US,5766807,41.7966666667,-123.375277778,,Census,Census-designated place,CA,"Happy Camp, California",0,0,0,0,0,0,0,0,0,0,0,0,0,0,0.0,0,0,0.0,0.0,0.0,0.0,0.0,0.0
9823,11972,US,108208,41.5494444444,-122.920555556,,Census,Census-designated place,CA,"Greenview, California",0,0,0,0,0,0,0,0,0,0,0,0,0,0,0.0,0,0,0.0,0.0,0.0,0.0,0.0,0.0
9830,9196,US,107872,40.2425,-121.077222222,,Census,Census-designated place,CA,"East Shore, California",0,0,0,0,0,0,0,0,0,0,0,0,0,0,0.0,0,0,0.0,0.0,0.0,0.0,0.0,0.0
9834,30051,US,108330,34.4013888889,-118.917777778,,Census,City,CA,"Fillmore, California",0,0,0,0,0,0,0,0,0,0,0,0,0,1597,2893.0,3252,3884,4808.0,6285.0,9602.0,11992.0,13643.0,15002.0
9905,9592,US,107574,36.3033333333,-119.636111111,,Census,Census-designated place,CA,"Home Garden, California",0,0,0,0,0,0,0,0,0,0,0,0,0,0,0.0,0,0,0.0,0.0,0.0,0.0,0.0,0.0
9917,10531,US,107861,39.8725,-121.178055556,,Census,Census-designated place,CA,"Bucks Lake, California",0,0,0,0,0,0,0,0,0,0,0,0,0,0,0.0,0,0,0.0,0.0,0.0,0.0,0.0,0.0
9920,6589,US,22597979,38.0069444444,-122.318888889,,Census,Census-designated place,CA,"Bayview, Contra Costa County, California",0,0,0,0,0,0,0,0,0,0,0,0,0,0,0.0,0,0,0.0,0.0,0.0,0.0,0.0,0.0
9928,14073,US,107428,41.5263888889,-124.038333333,,Census,Census-designated place,CA,"Klamath, California",0,0,0,0,0,0,0,0,0,0,0,0,0,0,0.0,0,0,0.0,0.0,0.0,0.0,0.0,0.0
9938,6188,US,32341126,38.91,-121.544444444,,Census,Census-designated place,CA,"East Nicolaus, California",0,0,0,0,0,0,0,0,0,0,0,0,0,0,0.0,0,0,0.0,0.0,0.0,0.0,0.0,0.0
9981,8798,US,1979295,37.7105555556,-120.198055556,,Census,Census-designated place,CA,"Coulterville, California",0,0,0,0,0,0,0,0,0,0,0,0,0,0,0.0,0,0,0.0,0.0,0.0,0.0,0.0,0.0
10023,9673,US,2044253,37.205,-119.245833333,,Census,Census-designated place,CA,"Big Creek, California",0,0,0,0,0,0,0,0,0,0,0,0,0,0,0.0,0,0,0.0,0.0,0.0,0.0,0.0,0.0
10084,12758,US,107772,36.5933333333,-121.835,,Census,City,CA,"Del Rey Oaks, California",0,0,0,0,0,0,0,0,0,0,0,0,0,0,0.0,0,0,1831.0,1823.0,1557.0,1661.0,1650.0,1624.0
10100,23513,US,107488,32.6788888889,-115.498888889,,Census,City,CA,"Calexico, California",0,0,0,0,0,0,0,0,0,0,0,0,797,6223,6299.0,5415,6433,7992.0,10625.0,14412.0,18633.0,27109.0,38572.0
10101,54868,US,108341,34.3558333333,-119.068333333,,Census,General law city,CA,"Santa Paula, California",0,0,0,0,0,0,0,0,0,188,1047,0,2216,3967,7452.0,8986,11049,13279.0,18001.0,20658.0,25062.0,28598.0,29321.0
10142,22475,US,108024,32.6583333333,-117.035277778,,Census,Census-designated place,CA,"Bonita, California",0,0,0,0,0,0,0,0,0,0,0,0,0,0,0.0,0,0,0.0,0.0,6257.0,12542.0,12401.0,12538.0
10144,81332,US,28208,34.0219444444,-118.481388889,,Census,Charter city,CA,"Santa Monica, California",0,0,0,0,0,0,0,0,0,417,1580,3057,7847,15252,37146.0,53500,71595,83249.0,88289.0,88314.0,86905.0,84084.0,89736.0
10184,21585,US,107776,36.2127777778,-121.126111111,,Census,City,CA,"King City, California",0,0,0,0,0,0,0,0,0,0,253,0,0,1048,1483.0,1768,2347,2937.0,3717.0,5495.0,7634.0,11094.0,12874.0
10194,15537,US,108039,32.9958333333,-117.183055556,,Census,Census-designated place,CA,"Fairbanks Ranch, California",0,0,0,0,0,0,0,0,0,0,0,0,0,0,0.0,0,0,0.0,0.0,0.0,0.0,0.0,0.0
10215,33469,US,108100,37.4586111111,-122.2,,Census,Town,CA,"Atherton, California",0,0,0,0,0,0,0,0,0,0,0,0,0,0,1324.0,1908,3630,7717.0,8085.0,7797.0,7163.0,7194.0,6914.0
10280,50177,US,107672,33.8580555556,-118.378888889,,Census,City,CA,"Redondo Beach, California",0,0,0,0,0,0,0,0,0,0,603,855,2935,4913,9347.0,13092,25226,46986.0,57451.0,57102.0,60167.0,63261.0,66748.0
10344,37133,US,108013,34.1113888889,-117.3825,,Census,City,CA,"Rialto, California",0,0,0,0,0,0,0,0,0,0,0,0,0,961,1642.0,1770,3156,18567.0,28370.0,37862.0,72388.0,91873.0,99171.0
10394,10627,US,107990,34.1802777778,-114.250555556,,Census,Census-designated place,CA,"Bluewater, California",0,0,0,0,0,0,0,0,0,0,0,0,0,0,0.0,0,0,0.0,0.0,0.0,0.0,0.0,0.0
10454,13150,US,107611,34.1013888889,-117.857777778,,Census,Census designated place,CA,"Charter Oak, California",0,0,0,0,0,0,0,0,0,0,0,0,0,0,0.0,0,0,0.0,0.0,6840.0,8858.0,9027.0,9310.0
10463,28184,US,107828,33.8825,-117.855,,Census,City,CA,"Placentia, California",0,0,0,0,0,0,0,0,0,0,0,0,0,0,1606.0,1472,1682,5861.0,21948.0,35041.0,41259.0,46488.0,50533.0
10477,24046,US,107852,38.8,-121.246666667,,Census,City,CA,"Rocklin, California",0,0,0,0,0,0,0,0,542,624,1056,1050,1026,643,724.0,795,1155,1495.0,3039.0,7344.0,19033.0,36330.0,56974.0
10536,14787,US,108172,37.0827777778,-122.083611111,,Census,Census-designated place,CA,"Ben Lomond, California",0,0,0,0,0,0,0,0,0,0,0,0,0,0,0.0,0,0,0.0,0.0,0.0,0.0,0.0,0.0
10552,10512,US,107687,34.0113888889,-117.904722222,,Census,Census-designated place,CA,"South San Jose Hills, California",0,0,0,0,0,0,0,0,0,0,0,0,0,0,0.0,0,0,0.0,12386.0,16049.0,17814.0,20218.0,20551.0
10573,56959,US,82041,36.61,-121.08,,Census,County,CA,"San Benito County, California",0,0,0,0,0,0,0,0,0,5584,6412,6633,8041,8995,11311.0,11392,14370,15396.0,18226.0,25005.0,36697.0,53234.0,55269.0
10602,11676,US,107387,38.0291666667,-121.961666667,,Census,Cdp,CA,"Bay Point, California",0,0,0,0,0,0,0,0,0,0,0,0,0,0,0.0,0,0,0.0,0.0,0.0,0.0,0.0,0.0
10611,39141,US,107932,33.5694444444,-117.2025,,Census,City,CA,"Murrieta, California",0,0,0,0,0,0,0,0,0,0,0,0,0,0,0.0,0,0,0.0,0.0,0.0,1628.0,44282.0,103466.0
10632,26487,US,108105,37.6788888889,-122.455555556,,Census,Town,CA,"Colma, California",0,0,0,0,0,0,0,0,0,188,0,0,0,0,369.0,354,297,500.0,537.0,395.0,1103.0,1191.0,1792.0
10652,20606,US,108046,33.0708333333,-116.585555556,,Census,Census-designated place,CA,"Julian, California",0,0,0,0,0,0,0,0,0,0,0,0,0,0,0.0,0,0,0.0,0.0,0.0,0.0,0.0,0.0
10682,6721,US,32233098,35.0497222222,-120.538611111,,Census,Census-designated place,CA,"Blacklake, California",0,0,0,0,0,0,0,0,0,0,0,0,0,0,0.0,0,0,0.0,0.0,0.0,0.0,0.0,0.0
10686,15298,US,107756,37.2577777778,-120.998888889,,Census,City,CA,"Gustine, California",0,0,0,0,0,0,0,0,0,0,0,0,0,716,1016.0,1355,1984,2300.0,2793.0,3142.0,3931.0,4698.0,5520.0
10702,15760,US,107683,34.0488888889,-118.048333333,,Census,City,CA,"South El Monte, California",0,0,0,0,0,0,0,0,0,0,0,0,0,0,0.0,0,0,4850.0,13443.0,16623.0,20850.0,21144.0,20116.0
10759,13538,US,107773,36.8244444444,-121.740555556,,Census,Census-designated place,CA,"Elkhorn, California",0,0,0,0,0,0,0,0,0,0,0,0,0,0,0.0,0,0,0.0,0.0,0.0,1458.0,1591.0,1565.0
10768,19855,US,107533,34.8227777778,-118.944722222,,Census,Unincorporated community,CA,"Frazier Park, California",0,0,0,0,0,0,0,0,0,0,0,0,0,0,0.0,0,0,0.0,0.0,0.0,0.0,0.0,0.0
10831,12154,US,108070,37.9297222222,-120.999444444,,Census,Census-designated place,CA,"Farmington, California",0,0,0,0,0,0,0,0,0,0,0,0,0,0,0.0,0,0,0.0,0.0,0.0,0.0,0.0,0.0
10835,11813,US,108317,37.9805555556,-120.348055556,,Census,Census-designated place,CA,"East Sonora, California",0,0,0,0,0,0,0,0,0,0,0,0,0,0,0.0,0,0,0.0,0.0,0.0,0.0,0.0,0.0
10837,139825,US,50548,37.8044444444,-122.270833333,,Census,Charter city,CA,"Oakland, California",0,0,0,0,0,0,0,1543,10500,34555,48682,66960,150174,216261,284063.0,302163,384575,367548.0,361561.0,339337.0,372242.0,399484.0,390724.0
10839,40270,US,107794,38.3047222222,-122.298888889,,Census,"City, county seat",CA,"Napa, California",0,0,0,0,0,0,159,0,1879,3731,4395,4036,5791,6757,6437.0,7740,13579,22170.0,36103.0,50879.0,61842.0,72585.0,76915.0
10849,6131,US,32165107,38.5327777778,-121.455833333,,Census,Census-designated place,CA,"Fruitridge Pocket, California",0,0,0,0,0,0,0,0,0,0,0,0,0,0,0.0,0,0,0.0,0.0,0.0,0.0,0.0,0.0
10858,43234,US,107912,33.8666666667,-117.566666667,,Census,General law city,CA,"Corona, California",0,0,0,0,0,0,0,0,0,0,0,1434,3540,4129,7018.0,8764,10223,13336.0,27519.0,37791.0,76095.0,124966.0,152374.0
10886,91602,US,108016,34.1,-117.3,,Census,Charter city,CA,"San Bernardino, California",0,0,0,0,0,0,0,0,0,1673,4012,6150,12779,18721,37481.0,43646,63058,91922.0,106869.0,118794.0,164164.0,185401.0,209924.0
10890,122183,US,108342,34.1894444444,-118.875,,Census,General law city,CA,"Thousand Oaks, California",0,0,0,0,0,0,0,0,0,0,0,0,0,0,0.0,0,1243,2934.0,35873.0,77072.0,104352.0,117005.0,126683.0
10893,5996,US,32348551,36.5119444444,-119.446388889,,Census,Census-designated place,CA,"Delft Colony, California",0,0,0,0,0,0,0,0,0,0,0,0,0,0,0.0,0,0,0.0,0.0,0.0,0.0,0.0,0.0
10995,37967,US,108333,34.2811111111,-118.873611111,,Census,General law city,CA,"Moorpark, California",0,0,0,0,0,0,0,0,0,0,0,0,0,0,0.0,0,0,2902.0,3380.0,4030.0,25494.0,31415.0,34421.0
11006,23287,US,108021,34.0336111111,-117.043055556,,Census,City,CA,"Yucaipa, California",0,0,0,0,0,0,0,0,0,0,0,0,0,0,0.0,0,0,0.0,19284.0,23345.0,32824.0,41207.0,51367.0
11075,6213,US,32348668,36.0077777778,-118.11,,Census,Census-designated place,CA,Kennedy Meadows (CDP),0,0,0,0,0,0,0,0,0,0,0,0,0,0,0.0,0,0,0.0,0.0,0.0,0.0,0.0,0.0
11112,31491,US,107911,33.6794444444,-116.174444444,,Census,City,CA,"Coachella, California",0,0,0,0,0,0,0,0,0,0,0,0,0,0,0.0,0,2755,4854.0,8353.0,9129.0,16896.0,22724.0,40704.0
11161,6173,US,107864,40.08,-121.1575,,Census,Census-designated place,CA,"Caribou, California",0,0,0,0,0,0,0,0,0,0,0,0,0,0,0.0,0,0,0.0,0.0,0.0,0.0,0.0,0.0
11162,10666,US,107887,39.7163888889,-120.976388889,,Census,Census-designated place,CA,"Little Grass Valley, California",0,0,0,0,0,0,0,0,0,0,0,0,0,0,0.0,0,0,0.0,0.0,0.0,0.0,0.0,0.0
11172,5499,US,22495928,38.27,-120.973333333,,Census,Census-designated place,CA,"Camanche Village, California",0,0,0,0,0,0,0,0,0,0,0,0,0,0,0.0,0,0,0.0,0.0,0.0,0.0,0.0,0.0
11183,18622,US,1032687,35.2758333333,-116.065833333,,Census,Census designated place,CA,"Baker, California",0,0,0,0,0,0,0,0,0,0,0,0,0,0,0.0,0,0,0.0,0.0,0.0,0.0,0.0,0.0
11185,52382,US,108142,34.5938888889,-120.139722222,,Census,City,CA,"Solvang, California",0,0,0,0,0,0,0,0,0,0,0,0,0,0,0.0,0,0,1325.0,2004.0,3091.0,4741.0,5332.0,5245.0
11241,105584,US,92408,34.1561111111,-118.131944444,,Census,City,CA,"Pasadena, California",0,0,0,0,0,0,0,0,0,391,4882,9117,30291,45354,76086.0,81864,104577,116407.0,112951.0,118072.0,131591.0,133936.0,137122.0
11253,50073,US,9123,38.5538888889,-121.738055556,,Census,City,CA,"Davis, California",0,0,0,0,0,0,0,0,0,441,547,0,0,939,1243.0,1672,3554,8910.0,23488.0,36640.0,46209.0,60308.0,65622.0
11264,11774,US,108027,32.8188888889,-116.960277778,,Census,Census designated place,CA,"Bostonia, California",0,0,0,0,0,0,0,0,0,0,0,0,0,0,0.0,0,0,0.0,0.0,0.0,13670.0,15169.0,15379.0
11272,24645,US,107959,38.6513888889,-121.259166667,,Census,Census designated place,CA,"Fair Oaks, California",0,0,0,0,0,0,0,0,0,0,0,0,0,0,0.0,0,0,0.0,0.0,23294.0,26867.0,28008.0,30912.0
11325,32487,US,107984,34.5008333333,-117.185833333,,Census,Municipality,CA,"Apple Valley, California",0,0,0,0,0,0,0,0,0,0,0,0,0,0,0.0,0,0,0.0,6702.0,14305.0,46079.0,54239.0,69135.0
11353,12251,US,108252,37.7936111111,-120.806666667,,Census,Census-designated place,CA,"East Oakdale, California",0,0,0,0,0,0,0,0,0,0,0,0,0,0,0.0,0,0,0.0,0.0,0.0,0.0,0.0,0.0
11398,99472,US,4860,37.8716666667,-122.272777778,,Census,Charter city,CA,"Berkeley, California",0,0,0,0,0,0,0,0,0,0,5101,13214,40434,56036,82109.0,85547,113805,111268.0,114091.0,103328.0,102724.0,102743.0,112580.0
11484,24315,US,107834,33.4994444444,-117.661666667,,Census,City,CA,"San Juan Capistrano, California",0,0,0,0,0,0,0,0,0,376,0,0,0,0,0.0,0,0,1120.0,3781.0,18959.0,26183.0,33826.0,34593.0
11521,18487,US,108225,38.3244444444,-123.038611111,,Census,Census-designated place,CA,"Bodega Bay, California",0,0,0,0,0,0,0,0,0,0,0,0,0,0,0.0,0,0,0.0,0.0,0.0,0.0,0.0,0.0
11529,51806,US,108124,37.5541666667,-122.313055556,,Census,City,CA,"San Mateo, California",0,0,0,0,0,0,0,0,0,932,0,1832,4384,5979,13444.0,19403,41782,69870.0,78991.0,77640.0,85486.0,92482.0,97207.0
11540,12189,US,108201,41.4461111111,-122.363333333,,Census,Census-designated place,CA,"Carrick, California",0,0,0,0,0,0,0,0,0,0,0,0,0,0,0.0,0,0,0.0,0.0,0.0,0.0,0.0,0.0
11651,38535,US,108078,38.1288888889,-121.280833333,,Census,City,CA,"Lodi, California",0,0,0,0,0,0,0,0,0,606,1013,0,2697,4850,6788.0,11079,13798,22229.0,28691.0,35221.0,51874.0,56999.0,62134.0
11691,11921,US,108029,33.2166666667,-117.391111111,,Census,Census-designated place,CA,"Camp Pendleton South, California",0,0,0,0,0,0,0,0,0,0,0,0,0,0,0.0,0,0,0.0,0.0,0.0,0.0,0.0,0.0
11705,5949,US,32348609,36.2205555556,-119.068888889,,Census,Census-designated place,CA,"El Rancho, California",0,0,0,0,0,0,0,0,0,0,0,0,0,0,0.0,0,0,0.0,0.0,0.0,0.0,0.0,0.0
11711,27788,US,108129,34.3991666667,-119.516388889,,Census,City,CA,"Carpinteria, California",0,0,0,0,0,0,0,0,0,0,0,0,0,0,0.0,0,2864,4998.0,6982.0,10835.0,13747.0,14194.0,13040.0
11750,28257,US,102391,37.9747222222,-122.561666667,,Census,Town,CA,"San Anselmo, California",0,0,0,0,0,0,0,0,0,0,0,0,1531,2475,4650.0,5790,9188,11584.0,13031.0,12067.0,11743.0,12378.0,12336.0
11753,19186,US,107404,37.9105555556,-122.280277778,,Census,Census designated place (cdp) &amp; unincorporated community,CA,"Kensington, California",0,0,0,0,0,0,0,0,0,0,0,0,0,0,0.0,0,0,0.0,0.0,0.0,0.0,0.0,0.0
11873,6338,US,22892507,35.4672222222,-119.260555556,,Census,Census-designated place,CA,"Cherokee Strip, California",0,0,0,0,0,0,0,0,0,0,0,0,0,0,0.0,0,0,0.0,0.0,0.0,0.0,0.0,0.0
11929,15118,US,26009112,38.7138888889,-121.462777778,,Census,Census-designated place,CA,"Elverta, California",0,0,0,0,0,0,0,0,0,0,0,0,0,0,0.0,0,0,0.0,0.0,0.0,0.0,0.0,0.0
12005,13326,US,108071,37.8827777778,-121.279722222,,Census,Census-designated place,CA,"French Camp, California",0,0,0,0,0,0,0,0,0,0,0,0,0,0,0.0,0,0,0.0,0.0,0.0,0.0,0.0,0.0
12031,28043,US,107676,34.1027777778,-117.816111111,,Census,City,CA,"San Dimas, California",0,0,0,0,0,0,0,0,0,0,0,0,0,0,0.0,0,0,0.0,15692.0,24014.0,32397.0,34980.0,33371.0
12033,72783,US,80563,39.09,-122.76,,Census,County,CA,"Lake County, California",0,0,0,0,0,0,0,0,2969,6596,7101,6017,5526,5402,7166.0,8069,11481,13786.0,19548.0,36366.0,50631.0,58309.0,64665.0
12063,6379,US,32153700,33.7788888889,-116.293055556,,Census,Census-designated place,CA,"Desert Palms, California",0,0,0,0,0,0,0,0,0,0,0,0,0,0,0.0,0,0,0.0,0.0,0.0,0.0,0.0,0.0
12088,22559,US,107749,38.9088888889,-123.693055556,,Census,City,CA,"Point Arena, California",0,0,0,0,0,0,0,0,0,198,709,0,497,394,385.0,374,372,596.0,424.0,425.0,407.0,474.0,449.0
12124,55922,US,107598,34.1327777778,-118.036388889,,Census,Charter city,CA,"Arcadia, California",0,0,0,0,0,0,0,0,0,0,0,0,696,2239,5216.0,9122,23066,41005.0,45138.0,45993.0,48290.0,53054.0,56364.0
12183,6948,US,13625725,40.8780555556,-122.395555556,,Census,Census-designated place,CA,"Lakehead, California",0,0,0,0,0,0,0,0,0,0,0,0,0,0,0.0,0,0,0.0,0.0,0.0,0.0,0.0,0.0
12227,14497,US,108233,38.3644444444,-122.531111111,,Census,Census designated place,CA,"Glen Ellen, California",0,0,0,0,0,0,0,0,0,0,0,0,0,0,0.0,0,0,0.0,0.0,0.0,0.0,0.0,0.0
12236,5999,US,15100701,37.5727777778,-118.791111111,,Census,Census-designated place,CA,"Crowley Lake, California",0,0,0,0,0,0,0,0,0,0,0,0,0,0,0.0,0,0,0.0,0.0,0.0,0.0,0.0,0.0
12245,33565,US,108036,32.7983333333,-116.96,,Census,City,CA,"El Cajon, California",0,0,0,0,0,0,0,0,0,0,0,0,0,469,1050.0,1471,5600,37618.0,52273.0,73892.0,88693.0,94869.0,99478.0
12249,30098,US,108183,37.0513888889,-122.013333333,,Census,City,CA,"Scotts Valley, California",0,0,0,0,0,0,0,0,0,0,0,0,0,0,0.0,0,0,0.0,3621.0,6891.0,8615.0,11385.0,11580.0
12268,8737,US,22722206,38.6363888889,-120.5275,,Census,Census-designated place,CA,"Grizzly Flats, California",0,0,0,0,0,0,0,0,0,0,0,0,0,0,0.0,0,0,0.0,0.0,0.0,0.0,0.0,0.0
12306,7427,US,1979185,40.9205555556,-121.551388889,,Census,Census-designated place,CA,"Cassel, California",0,0,0,0,0,0,0,0,0,0,0,0,0,0,0.0,0,0,0.0,0.0,0.0,0.0,0.0,0.0
12328,12562,US,107539,35.6180555556,-118.473055556,,Census,Census-designated place,CA,"Lake Isabella, California",0,0,0,0,0,0,0,0,0,0,0,0,0,0,0.0,0,0,0.0,0.0,0.0,0.0,0.0,0.0
12329,6263,US,31817465,37.9261111111,-122.053888889,,Census,Census-designated place,CA,"Contra Costa Centre, California",0,0,0,0,0,0,0,0,0,0,0,0,0,0,0.0,0,0,0.0,0.0,0.0,0.0,0.0,0.0
12375,39710,US,107626,34.0333333333,-118.166666667,,Census,Unincorporated area,CA,"East Los Angeles, California",0,0,0,0,0,0,0,0,0,0,0,0,0,0,0.0,0,0,104270.0,104881.0,110017.0,126379.0,124283.0,126496.0
12444,39061,US,107751,39.1502777778,-123.207777778,,Census,City,CA,"Ukiah, California",0,0,0,0,0,0,0,0,0,933,1627,1850,2136,2305,3124.0,3731,6120,9900.0,10095.0,12035.0,14599.0,15497.0,16075.0
12479,6978,US,23232187,41.5091666667,-120.545,,Census,Census-designated place,CA,"Daphnedale Park, California",0,0,0,0,0,0,0,0,0,0,0,0,0,0,0.0,0,0,0.0,0.0,0.0,0.0,0.0,0.0
12484,25010,US,107814,33.7788888889,-117.960277778,,Census,City,CA,"Garden Grove, California",0,0,0,0,0,0,0,0,0,0,0,0,0,0,0.0,0,0,84238.0,121155.0,123307.0,143050.0,165196.0,170883.0
12526,18242,US,22803665,40.7244444444,-124.215,,Census,Census-designated place,CA,"Fields Landing, California",0,0,0,0,0,0,0,0,0,0,0,0,0,0,0.0,0,0,0.0,0.0,0.0,0.0,0.0,0.0
12541,33375,US,107595,34.0819444444,-118.135,,Census,City,CA,"Alhambra, California",0,0,0,0,0,0,0,0,0,0,808,0,5021,9096,29472.0,38935,51359,54807.0,62125.0,64767.0,82106.0,85804.0,83089.0
12558,12502,US,301857,39.0091666667,-123.366111111,,Census,Cdp,CA,"Boonville, California",0,0,0,0,0,0,0,0,0,0,0,0,0,0,0.0,0,0,0.0,0.0,0.0,0.0,0.0,0.0
12575,6657,US,23097076,37.9044444444,-122.525555556,,Census,Census-designated place,CA,"Alto, California",0,0,0,0,0,0,0,0,0,0,0,0,0,0,0.0,0,0,0.0,0.0,0.0,0.0,0.0,0.0
12617,13147,US,108205,41.4572222222,-122.896944444,,Census,City,CA,"Etna, California",0,0,0,0,0,0,0,0,0,361,271,500,518,425,379.0,456,649,596.0,667.0,754.0,835.0,781.0,737.0
12632,20651,US,107475,40.5980555556,-124.157222222,,Census,City,CA,"Fortuna, California",0,0,0,0,0,0,0,0,0,0,0,0,383,986,1239.0,1413,1762,3523.0,4203.0,7591.0,8788.0,10497.0,11926.0
12654,12472,US,107699,33.8263888889,-118.2925,,Census,Census-designated place,CA,"West Carson, California",0,0,0,0,0,0,0,0,0,0,0,0,0,0,0.0,0,0,0.0,15918.0,17997.0,20143.0,21138.0,21699.0
12677,16762,US,107429,38.6688888889,-120.987222222,,Census,Cdp,CA,"Cameron Park, California",0,0,0,0,0,0,0,0,0,0,0,0,0,0,0.0,0,0,0.0,0.0,0.0,0.0,0.0,0.0
12687,75139,US,108243,38.4486111111,-122.704722222,,Census,"Charter city, county seat",CA,"Santa Rosa, California",0,0,0,0,0,0,0,1623,2898,3616,5220,6673,7817,8758,10636.0,12605,17902,31027.0,50006.0,82658.0,113313.0,147595.0,167815.0
12692,15612,US,108232,38.4816666667,-122.896111111,,Census,Census-designated place,CA,"Forestville, California",0,0,0,0,0,0,0,0,0,0,0,0,0,0,0.0,0,0,0.0,0.0,0.0,0.0,0.0,0.0
12720,12201,US,108031,32.7633333333,-116.9775,,Census,Census designated place,CA,"Casa de Oro-Mount Helix, California",0,0,0,0,0,0,0,0,0,0,0,0,0,0,0.0,0,0,0.0,0.0,0.0,0.0,0.0,0.0
12765,6316,US,11636122,40.06,-122.15,,Census,Census-designated place,CA,"Gerber, California",0,0,0,0,0,0,0,0,0,0,0,0,0,0,0.0,0,0,0.0,0.0,0.0,0.0,0.0,0.0
12778,6431,US,27635018,38.3683333333,-121.5175,,Census,Census-designated place,CA,"Hood, California",0,0,0,0,0,0,0,0,0,0,0,0,0,0,0.0,0,0,0.0,0.0,0.0,0.0,0.0,0.0
12793,39629,US,107333,37.7022222222,-121.935833333,,Census,City,CA,"Dublin, California",0,0,0,0,0,0,0,0,0,0,0,0,0,0,0.0,0,0,0.0,13641.0,13496.0,23229.0,29973.0,46036.0
12847,8789,US,22984112,39.3930555556,-120.015277778,,Census,Census-designated place,CA,"Floriston, California",0,0,0,0,0,0,0,0,0,0,0,0,0,0,0.0,0,0,0.0,0.0,0.0,0.0,0.0,0.0
12866,16872,US,107965,38.1619444444,-121.609166667,,Census,City,CA,"Isleton, California",0,0,0,0,0,0,0,0,0,0,0,0,0,0,2090.0,1837,1597,1039.0,909.0,914.0,833.0,828.0,804.0
12951,11203,US,108112,37.525,-122.343333333,,Census,Census-designated place,CA,"Highlands-Baywood Park, California",0,0,0,0,0,0,0,0,0,0,0,0,0,0,0.0,0,0,0.0,0.0,0.0,0.0,0.0,0.0
12964,10853,US,107536,35.3727777778,-117.634722222,,Census,Census-designated place,CA,"Johannesburg, California",0,0,0,0,0,0,0,0,0,0,0,0,0,0,0.0,0,0,0.0,0.0,0.0,0.0,0.0,0.0
13036,22470,US,107809,33.8183333333,-118.039166667,,Census,Charter city,CA,"Cypress, California",0,0,0,0,0,0,0,0,0,0,0,0,0,0,0.0,0,0,1753.0,31569.0,40738.0,42655.0,46229.0,47802.0
13041,15630,US,107489,33.1255555556,-115.514166667,,Census,City,CA,"Calipatria, California",0,0,0,0,0,0,0,0,0,0,0,0,0,785,1554.0,1799,1428,2548.0,1824.0,2636.0,2690.0,7289.0,7705.0
13080,10251,US,107920,33.8794444444,-117.511944444,,Census,Census-designated place,CA,"Home Gardens, California",0,0,0,0,0,0,0,0,0,0,0,0,0,0,0.0,0,0,0.0,0.0,0.0,0.0,0.0,0.0
13115,10852,US,107768,35.8633333333,-120.800833333,,Census,Census-designated place,CA,"Bradley, California",0,0,0,0,0,0,0,0,0,0,0,0,0,0,0.0,0,0,0.0,0.0,0.0,0.0,0.0,0.0
13210,11441,US,107688,33.9347222222,-118.030833333,,Census,Census designated place,CA,"South Whittier, California",0,0,0,0,0,0,0,0,0,0,0,0,0,0,0.0,0,0,0.0,46461.0,43815.0,49514.0,55193.0,57156.0
13212,58273,US,82019,37.58,-119.91,,Census,County,CA,"Mariposa County, California",0,0,0,0,0,0,4379,6243,4572,4339,3787,4720,3956,2775,3233.0,5605,5145,5064.0,6015.0,11108.0,14302.0,17130.0,18251.0
13243,31991,US,107576,36.3008333333,-119.782777778,,Census,Charter city,CA,"Lemoore, California",0,0,0,0,0,0,0,0,0,463,651,0,1000,1355,1399.0,1711,2153,2561.0,4219.0,8832.0,13622.0,19712.0,24531.0
13256,18371,US,107572,36.0980555556,-119.560277778,,Census,City,CA,"Corcoran, California",0,0,0,0,0,0,0,0,0,0,0,0,0,1101,1768.0,2092,3150,4976.0,5249.0,6454.0,13364.0,14458.0,24813.0
13269,8968,US,117481,33.6386111111,-117.343888889,,Census,Census-designated place,CA,"Lakeland Village, California",0,0,0,0,0,0,0,0,0,0,0,0,0,0,0.0,0,0,0.0,0.0,0.0,0.0,0.0,0.0
13277,9706,US,5887200,37.8127777778,-120.064444444,,Census,Census designated place,CA,"Buck Meadows, California",0,0,0,0,0,0,0,0,0,0,0,0,0,0,0.0,0,0,0.0,0.0,0.0,0.0,0.0,0.0
13292,79674,US,52826,37.5483333333,-121.988611111,,Census,City,CA,"Fremont, California",0,0,0,0,0,0,0,0,0,0,0,0,0,0,0.0,0,0,43790.0,100869.0,131945.0,173339.0,203413.0,214089.0
13326,33261,US,108053,33.2116666667,-117.325833333,,Census,City,CA,"Oceanside, California",0,0,0,0,0,0,0,0,0,0,0,330,673,1161,3508.0,4651,12881,24971.0,40494.0,76698.0,128398.0,161029.0,167086.0
13342,46086,US,107636,33.8663888889,-118.399722222,,Census,City,CA,"Hermosa Beach, California",0,0,0,0,0,0,0,0,0,0,0,0,679,2327,4796.0,7197,11826,16115.0,17412.0,18070.0,18219.0,18566.0,19506.0
13363,134739,US,94240,33.7683333333,-118.195555556,,Census,Charter city,CA,"Long Beach, California",0,0,0,0,0,0,0,0,0,0,564,2252,17809,55593,142032.0,164271,250767,334168.0,358879.0,361498.0,429433.0,461522.0,462257.0
13490,15980,US,27003059,33.7888888889,-118.079722222,,Census,Census-designated place,CA,"Rossmoor, California",0,0,0,0,0,0,0,0,0,0,0,0,0,0,0.0,0,0,0.0,12922.0,10457.0,9893.0,10298.0,10244.0
13642,26451,US,107941,33.7691666667,-116.421111111,,Census,City,CA,"Rancho Mirage, California",0,0,0,0,0,0,0,0,0,0,0,0,0,0,0.0,0,0,0.0,1298.0,6281.0,9778.0,13249.0,17218.0
13662,74904,US,107337,37.6819444444,-121.768055556,,Census,City,CA,"Livermore, California",0,0,0,0,0,0,0,0,0,855,1391,1493,2030,1916,3119.0,2885,4364,16058.0,37703.0,48349.0,56741.0,73345.0,80968.0
13690,164203,US,107608,34.1802777778,-118.328333333,,Census,Charter city,CA,"Burbank, California",0,0,0,0,0,0,0,0,0,0,0,0,0,2913,16662.0,34337,78577,90155.0,88871.0,84625.0,93643.0,100316.0,103340.0
13699,42029,US,107395,37.9780555556,-122.031111111,,Census,General law city,CA,"Concord, California",0,0,0,0,0,0,0,0,400,399,373,586,703,912,1125.0,1373,6953,36208.0,85164.0,103251.0,111348.0,121780.0,122067.0
13761,63118,US,79768,41.74,-123.96,,Census,County,CA,"Del Norte County, California",0,0,0,0,0,0,0,1993,2022,2584,2592,2408,2417,2759,4739.0,4745,8078,17771.0,14580.0,18217.0,23460.0,27507.0,28610.0
13777,31553,US,107561,35.1425,-119.456388889,,Census,City,CA,"Taft, California",0,0,0,0,0,0,0,0,0,0,0,0,0,3317,3442.0,3205,3707,3822.0,4285.0,5316.0,5902.0,6400.0,9327.0
13799,19735,US,107389,38.015,-121.640555556,,Census,Census-designated place,CA,"Bethel Island, California",0,0,0,0,0,0,0,0,0,0,0,0,0,0,0.0,0,0,0.0,0.0,0.0,0.0,0.0,0.0
13864,20320,US,107956,38.6394444444,-121.321388889,,Census,Census designated place,CA,"Carmichael, California",0,0,0,0,0,0,0,0,0,0,0,0,0,0,0.0,0,0,0.0,0.0,0.0,0.0,0.0,0.0
13891,68323,US,147675,,,,Census,Unknown,CA,Northern California,0,0,0,0,0,0,86105,346714,516089,772778,961628,1147725,1569141,2003075,2632273.0,3066654,4654248,6318482.0,7849575.0,9359160.0,11490926.0,13234136.0,14573946.0
13895,6270,US,32325956,38.4202777778,-121.950833333,,Census,Census-designated place,CA,"Hartley, California",0,0,0,0,0,0,0,0,0,0,0,0,0,0,0.0,0,0,0.0,0.0,0.0,0.0,0.0,0.0
13905,58913,US,107949,33.5033333333,-117.123611111,,Census,City,CA,"Temecula, California",0,0,0,0,0,0,0,0,0,0,0,0,0,0,0.0,0,0,0.0,0.0,1783.0,27099.0,57716.0,100097.0
13968,22100,US,107836,33.8025,-117.994444444,,Census,City,CA,"Stanton, California",0,0,0,0,0,0,0,0,0,0,0,0,0,0,0.0,0,0,11163.0,18186.0,23723.0,30491.0,37403.0,38186.0
13973,44662,US,107819,33.5319444444,-117.7025,,Census,City,CA,"Laguna Niguel, California",0,0,0,0,0,0,0,0,0,0,0,0,0,0,0.0,0,0,0.0,4644.0,12237.0,44400.0,61891.0,62979.0
14039,9809,US,107425,41.7525,-124.158888889,,Census,Census-designated place,CA,"Bertsch-Oceanview, California",0,0,0,0,0,0,0,0,0,0,0,0,0,0,0.0,0,0,0.0,0.0,0.0,0.0,0.0,0.0
14045,7285,US,23158557,37.5022222222,-120.238333333,,Census,Census-designated place,CA,"Hornitos, California",0,0,0,0,0,0,0,0,0,0,0,0,0,0,0.0,0,0,0.0,0.0,0.0,0.0,0.0,0.0
14102,12296,US,107437,36.8022222222,-120.016388889,,Census,Census-designated place,CA,"Biola, California",0,0,0,0,0,0,0,0,0,0,0,0,0,0,0.0,0,0,0.0,0.0,0.0,0.0,0.0,0.0
14120,14582,US,107502,37.165,-118.289444444,,Census,Census-designated place,CA,"Big Pine, California",0,0,0,0,0,0,0,0,0,0,0,0,0,0,0.0,0,0,0.0,0.0,0.0,0.0,0.0,0.0
14124,31983,US,60863,38.2577777778,-122.054166667,,Census,General law city,CA,"Fairfield, California",0,0,0,0,0,0,0,0,329,424,0,0,834,1008,1131.0,1312,3118,14968.0,44146.0,58099.0,77211.0,96178.0,105321.0
14160,50728,US,107812,33.88,-117.928611111,,Census,City,CA,"Fullerton, California",0,0,0,0,0,0,0,0,0,0,0,0,1725,4415,10860.0,10442,13958,56180.0,85987.0,102246.0,114144.0,126003.0,135161.0
14184,9427,US,8751569,37.3247222222,-119.566388889,,Census,Census-designated place,CA,"Bass Lake, California",0,0,0,0,0,0,0,0,0,0,0,0,0,0,0.0,0,0,0.0,0.0,0.0,0.0,0.0,0.0
14190,45574,US,107679,34.1227777778,-118.113055556,,Census,City,CA,"San Marino, California",0,0,0,0,0,0,0,0,0,0,0,0,0,584,3730.0,8175,11230,13658.0,14177.0,13307.0,12959.0,12945.0,13147.0
14254,18530,US,108276,39.9261111111,-122.180555556,,Census,City,CA,"Corning, California",0,0,0,0,0,0,0,0,0,0,210,0,972,1449,1377.0,1472,2537,3006.0,3573.0,4745.0,5870.0,6741.0,7663.0
14293,37362,US,107678,34.1028166667,-118.099691667,,Census,City,CA,"San Gabriel, California",0,0,0,0,0,0,0,0,0,0,0,737,0,2640,7224.0,11867,20343,22561.0,29336.0,30072.0,37120.0,39804.0,39718.0
14315,13791,US,107471,40.8827777778,-123.983888889,,Census,City,CA,"Blue Lake, California",0,0,0,0,0,0,0,0,0,0,0,0,507,441,555.0,503,824,1234.0,1112.0,1201.0,1235.0,1135.0,1253.0
14340,15353,US,107350,38.4194444444,-120.824166667,,Census,City,CA,"Amador City, California",0,0,0,0,0,0,0,0,0,824,984,0,0,377,171.0,249,151,202.0,156.0,136.0,196.0,196.0,185.0
14372,6381,US,22894385,35.3,-118.911666667,,Census,Census-designated place,CA,"Fuller Acres, California",0,0,0,0,0,0,0,0,0,0,0,0,0,0,0.0,0,0,0.0,0.0,0.0,0.0,0.0,0.0
14452,6358,US,31397229,33.5994444444,-117.106388889,,Census,Census-designated place,CA,"French Valley, California",0,0,0,0,0,0,0,0,0,0,0,0,0,0,0.0,0,0,0.0,0.0,0.0,0.0,0.0,0.0
14453,102075,US,47523622,34.121611,-116.93,,Census,Metropolitan area,CA,Inland Empire,0,0,0,0,0,0,0,0,0,0,0,45826,91402,123698,214924.0,266632,451688,809782.0,1143146.0,1558182.0,2588793.0,3254821.0,4224851.0
14480,7213,US,6741320,39.8822222222,-121.672777778,,Census,Census-designated place,CA,"Forest Ranch, California",0,0,0,0,0,0,0,0,0,0,0,0,0,0,0.0,0,0,0.0,0.0,0.0,0.0,0.0,0.0
14484,18077,US,107778,36.6844444444,-121.802222222,,Census,City,CA,"Marina, California",0,0,0,0,0,0,0,0,0,0,0,0,0,0,0.0,0,0,3310.0,8343.0,20647.0,26436.0,25101.0,19718.0
14527,20276,US,107934,33.9311111111,-117.548611111,,Census,City,CA,"Norco, California",0,0,0,0,0,0,0,0,0,0,0,0,0,0,0.0,0,1584,4964.0,14511.0,19732.0,23302.0,24157.0,27063.0
14552,33366,US,107835,33.7591666667,-118.0825,,Census,Charter city,CA,"Seal Beach, California",0,0,0,0,0,0,0,0,0,0,0,0,0,669,1156.0,1553,3553,6994.0,24441.0,25975.0,25098.0,24157.0,24168.0
14577,90053,US,18593507,34.2711111111,-118.739444444,,Census,General law city,CA,"Simi Valley, California",0,0,0,0,0,0,0,0,0,0,0,0,0,0,0.0,0,0,0.0,59832.0,77500.0,100217.0,111351.0,124237.0
14616,74033,US,107665,34.5811111111,-118.100555556,,Census,Charter city,CA,"Palmdale, California",0,0,0,0,0,0,0,0,0,0,0,0,0,0,0.0,0,0,11522.0,8511.0,12277.0,68842.0,116670.0,152750.0
14632,77012,US,107769,36.5552777778,-121.923333333,,Census,General law city,CA,"Carmel-by-the-Sea, California",0,0,0,0,0,0,0,0,0,0,0,0,0,638,2260.0,2837,4351,4580.0,4525.0,4707.0,4239.0,4081.0,3722.0
14635,11967,US,107460,36.6066666667,-120.189166667,,Census,City,CA,"San Joaquin, California",0,0,0,0,0,0,0,0,0,0,0,0,0,0,163.0,240,632,879.0,1506.0,1930.0,2311.0,3270.0,4001.0
14672,13207,US,107670,34.6522222222,-118.220555556,,Census,Census-designated place,CA,"Quartz Hill, California",0,0,0,0,0,0,0,0,0,0,0,0,0,0,0.0,0,0,3325.0,4935.0,7421.0,9626.0,9890.0,10912.0
14724,9525,US,107504,36.3208333333,-118.026388889,,Census,Census-designated place,CA,"Cartago, California",0,0,0,0,0,0,0,0,0,0,0,0,0,0,0.0,0,0,0.0,0.0,0.0,0.0,0.0,0.0
14744,47726,US,108345,38.6786111111,-121.773333333,,Census,City,CA,"Woodland, California",0,0,0,0,0,0,0,0,0,2257,3069,2886,3187,4147,5542.0,6637,9386,13524.0,20677.0,30235.0,39802.0,49151.0,55468.0
14770,11271,US,107868,40.0963888889,-120.912777778,,Census,Census-designated place,CA,"Crescent Mills, California",0,0,0,0,0,0,0,0,0,0,0,0,0,0,0.0,0,0,0.0,0.0,0.0,0.0,0.0,0.0
14778,6103,US,32153912,33.5172222222,-116.810555556,,Census,Census-designated place,CA,"Lake Riverside, California",0,0,0,0,0,0,0,0,0,0,0,0,0,0,0.0,0,0,0.0,0.0,0.0,0.0,0.0,0.0
14800,31347,US,108118,37.6227777778,-122.485555556,,Census,City,CA,"Pacifica, California",0,0,0,0,0,0,0,0,0,0,0,0,0,0,0.0,0,0,20995.0,36020.0,36866.0,37670.0,38390.0,37234.0
14875,51381,US,107825,33.6166666667,-117.8975,,Census,Charter city,CA,"Newport Beach, California",0,0,0,0,0,0,0,0,0,0,0,0,445,894,2203.0,4438,12120,26564.0,49582.0,62556.0,66643.0,70032.0,85186.0
14878,21260,US,60864,38.4491666667,-121.826944444,,Census,City,CA,"Dixon, California",0,0,0,0,0,0,0,0,317,0,1082,788,827,926,1000.0,1108,1714,2970.0,4432.0,7541.0,10401.0,16103.0,18351.0
14920,16228,US,107593,34.4727777778,-118.183611111,,Census,Census designated place,CA,"Acton, California",0,0,0,0,0,0,0,0,0,0,0,0,0,0,0.0,0,0,0.0,0.0,0.0,1471.0,2390.0,7596.0
14930,8963,US,107879,39.7794444444,-120.693888889,,Census,Census-designated place,CA,"Johnsville, California",0,0,0,0,0,0,0,0,0,0,0,0,0,0,0.0,0,0,0.0,0.0,0.0,0.0,0.0,0.0
14950,67392,US,108037,33.1247222222,-117.080833333,,Census,City,CA,"Escondido, California",0,0,0,0,0,0,0,0,0,0,541,755,0,0,3421.0,4560,6544,16377.0,36792.0,64355.0,108635.0,133559.0,143911.0
14959,16363,US,108288,36.545,-119.389166667,,Census,City,CA,"Dinuba, California",0,0,0,0,0,0,0,0,0,0,0,0,970,3400,2968.0,3790,4971,6103.0,7917.0,9907.0,12743.0,16844.0,21453.0
14962,21997,US,107575,36.0083333333,-119.961666667,,Census,Census-designated place,CA,"Kettleman City, California",0,0,0,0,0,0,0,0,0,0,0,0,0,0,0.0,0,0,0.0,0.0,0.0,0.0,0.0,0.0
15037,63032,US,82114,,,,Census,County,CA,"Solano County, California",0,0,0,0,0,0,580,7169,16871,18475,20946,24143,27559,40602,40834.0,49118,104833,134597.0,169941.0,235203.0,340421.0,394542.0,413344.0
15075,34982,US,108107,37.4669444444,-122.139722222,,Census,City,CA,"East Palo Alto, California",0,0,0,0,0,0,0,0,0,0,0,0,0,0,0.0,0,0,0.0,18727.0,18191.0,23451.0,29506.0,28155.0
15116,78487,US,108337,34.1913888889,-119.1825,,Census,General law city,CA,"Oxnard, California",0,0,0,0,0,0,0,0,0,0,0,0,2555,4417,6285.0,8519,21567,40265.0,71225.0,108195.0,142216.0,170358.0,197899.0
15123,33851,US,108275,39.1347222222,-121.626111111,,Census,City,CA,"Yuba City, California",0,0,0,0,0,0,0,0,0,0,562,0,1160,1708,3605.0,4968,7861,11507.0,13986.0,18736.0,27437.0,36758.0,64925.0
15131,19459,US,6790772,33.6908333333,-117.185,,Census,City,CA,"Menifee, California",0,0,0,0,0,0,0,0,0,0,0,0,0,0,0.0,0,0,0.0,0.0,0.0,0.0,0.0,77519.0
15141,11735,US,1964031,41.1938888889,-120.945277778,,Census,Census-designated place,CA,"Adin, California",0,0,0,0,0,0,0,0,0,0,0,0,0,0,0.0,0,0,0.0,0.0,0.0,0.0,0.0,0.0
15219,9287,US,107534,35.1425,-118.490277778,,Census,Census-designated place,CA,"Golden Hills, California",0,0,0,0,0,0,0,0,0,0,0,0,0,0,0.0,0,0,0.0,0.0,0.0,0.0,0.0,0.0
15227,18827,US,107759,37.3869444444,-120.723611111,,Census,City,CA,"Livingston, California",0,0,0,0,0,0,0,0,0,0,0,0,0,0,803.0,895,1502,2188.0,2588.0,5326.0,7317.0,10473.0,13058.0
15269,214239,US,5407,,,,Census,US State,CA,California,0,0,0,0,0,0,92597,379994,560247,864694,1213398,1485053,2377549,3426861,5677251.0,6907387,10586223,15717204.0,19953134.0,23667902.0,29760021.0,33871648.0,37253956.0
15286,65303,US,81602,34.1461111111,-118.255,,Census,Charter city,CA,"Glendale, California",0,0,0,0,0,0,0,0,0,0,0,0,2746,13536,62736.0,82582,95702,119442.0,132664.0,139060.0,180038.0,194973.0,191719.0
15301,28734,US,107415,37.9480555556,-122.0525,,Census,City,CA,"Pleasant Hill, California",0,0,0,0,0,0,0,0,0,0,0,0,0,0,0.0,0,5686,23844.0,24610.0,25547.0,31585.0,32837.0,33152.0
15393,94087,US,107473,40.8019444444,-124.163611111,,Census,Charter city,CA,"Eureka, California",0,0,0,0,0,0,0,0,0,2639,4858,7327,11845,12923,15752.0,17055,23058,28137.0,24337.0,24153.0,27025.0,26128.0,27191.0
15418,6167,US,32342880,40.3633333333,-122.215,,Census,Census-designated place,CA,"Lake California, California",0,0,0,0,0,0,0,0,0,0,0,0,0,0,0.0,0,0,0.0,0.0,0.0,0.0,0.0,0.0
15435,146224,US,27003186,,,,Census,County,CA,"Riverside County, California",0,0,0,0,0,0,0,0,0,0,0,17897,34696,50297,81024.0,105524,170046,306191.0,459074.0,663166.0,1170413.0,1545387.0,2189641.0
15436,17392,US,108045,32.7266666667,-116.882222222,,Census,Census designated place,CA,"Jamul, California",0,0,0,0,0,0,0,0,0,0,0,0,0,0,0.0,0,0,0.0,0.0,0.0,0.0,0.0,0.0
15465,11304,US,107882,39.6819444444,-120.984722222,,Census,Census-designated place,CA,"La Porte, California",0,0,0,0,0,0,0,0,0,0,0,0,0,0,0.0,0,0,0.0,0.0,0.0,0.0,0.0,0.0
15481,25690,US,107806,33.8561111111,-118.004166667,,Census,City,CA,"Buena Park, California",0,0,0,0,0,0,0,0,0,0,0,0,0,0,0.0,0,0,46401.0,63646.0,64165.0,68784.0,78282.0,80530.0
15485,6221,US,31671289,32.8794444444,-116.943333333,,Census,Census-designated place,CA,"Eucalyptus Hills, California",0,0,0,0,0,0,0,0,0,0,0,0,0,0,0.0,0,0,0.0,0.0,0.0,0.0,0.0,0.0
15494,70721,US,20949251,37.4347222222,-121.895,,Census,City,CA,"Milpitas, California",0,0,0,0,0,0,0,0,0,0,0,0,0,0,0.0,0,0,6572.0,26561.0,37820.0,50686.0,62698.0,66790.0
15509,164553,US,28504,32.715,-117.1625,,Census,City,CA,San Diego,0,0,0,0,0,0,500,731,2300,2637,16159,17700,39578,74361,147995.0,203341,334387,573224.0,696769.0,875538.0,1110549.0,1223400.0,1307402.0
15513,19264,US,107419,37.9622222222,-122.345555556,,Census,City,CA,"San Pablo, California",0,0,0,0,0,0,0,0,1075,0,367,0,0,0,0.0,0,14476,19687.0,21461.0,19750.0,25158.0,30215.0,29139.0
15525,60843,US,82016,,,,Census,County,CA,"Madera County, California",0,0,0,0,0,0,0,0,0,0,0,6364,8368,12203,17164.0,23314,36964,40468.0,41519.0,63116.0,88090.0,123109.0,150865.0
15530,27783,US,108246,38.5472222222,-122.816388889,,Census,Town,CA,"Windsor, California",0,0,0,0,0,0,0,0,0,0,0,0,0,0,0.0,0,0,0.0,0.0,0.0,0.0,22744.0,26801.0
15581,17665,US,5538246,40.6408333333,-124.225277778,,Census,Census-designated place,CA,"Loleta, California",0,0,0,0,0,0,0,0,0,0,0,0,0,0,0.0,0,0,0.0,0.0,0.0,0.0,0.0,0.0
15587,16304,US,107753,37.3477777778,-120.609166667,,Census,City,CA,"Atwater, California",0,0,0,0,0,0,0,0,0,0,0,0,0,0,917.0,1235,2856,7318.0,11640.0,17530.0,22282.0,23113.0,28168.0
15602,12717,US,107858,39.8275,-120.403611111,,Census,Census-designated place,CA,"Beckwourth, California",0,0,0,0,0,0,0,0,0,0,0,0,0,0,0.0,0,0,0.0,0.0,0.0,0.0,0.0,0.0
15623,57917,US,82133,39.27,-121.35,,Census,County,CA,"Yuba County, California",0,0,0,0,0,0,9673,13668,10851,11284,9636,8620,10042,10375,11331.0,17034,24420,33859.0,44736.0,49733.0,58228.0,60219.0,72155.0
15648,20461,US,107396,38.0525,-122.213055556,,Census,Census-designated place,CA,"Crockett, California",0,0,0,0,0,0,0,0,0,0,0,0,0,0,0.0,0,0,0.0,0.0,0.0,0.0,0.0,0.0
15672,21180,US,60865,38.525,-121.970833333,,Census,City,CA,"Winters, California",0,0,0,0,0,0,0,0,0,523,0,785,910,903,896.0,1133,1265,1700.0,2419.0,2652.0,4639.0,6125.0,6624.0
15755,12647,US,107370,37.9811111111,-120.641944444,,Census,Census-designated place,CA,"Copperopolis, California",0,0,0,0,0,0,0,0,0,0,0,0,0,0,0.0,0,0,0.0,0.0,0.0,0.0,0.0,0.0
15785,32765,US,107331,37.6941666667,-122.086388889,,Census,Cdp,CA,"Castro Valley, California",0,0,0,0,0,0,0,0,0,0,0,0,0,0,0.0,0,0,0.0,0.0,0.0,0.0,0.0,0.0
15805,11851,US,108221,38.35,-121.908055556,,Census,Census-designated place,CA,"Elmira, California",0,0,0,0,0,0,0,0,0,0,0,0,0,0,0.0,0,0,0.0,0.0,0.0,0.0,0.0,0.0
15860,9659,US,108287,36.5247222222,-119.288888889,,Census,Census-designated place,CA,"Cutler, California",0,0,0,0,0,0,0,0,0,0,0,0,0,0,0.0,0,0,0.0,0.0,0.0,0.0,0.0,0.0
15900,20502,US,9991084,39.2061111111,-120.837777778,,Census,Census-designated place,CA,"Dutch Flat, California",0,0,0,0,0,0,0,0,0,0,0,0,0,0,0.0,0,0,0.0,0.0,0.0,0.0,0.0,0.0
15912,61668,US,74406,38.5538888889,-121.738055556,,Census,County,CA,"Yolo County, California",0,0,0,0,0,0,1086,4716,9899,11772,12684,13618,13926,17105,23644.0,27243,40640,65727.0,91788.0,113374.0,141092.0,168660.0,200849.0
15935,9098,US,107372,38.1680555556,-120.405555556,,Census,Census-designated place,CA,"Forest Meadows, California",0,0,0,0,0,0,0,0,0,0,0,0,0,0,0.0,0,0,0.0,0.0,0.0,0.0,0.0,0.0
15957,66387,US,108327,34.2333333333,-119.033333333,,Census,City,CA,"Camarillo, California",0,0,0,0,0,0,0,0,0,0,0,0,0,0,0.0,0,0,2359.0,19219.0,37797.0,52303.0,57077.0,65201.0
15964,7180,US,25142017,37.3947222222,-121.084444444,,Census,Census-designated place,CA,"Crows Landing, California",0,0,0,0,0,0,0,0,0,0,0,0,0,0,0.0,0,0,0.0,0.0,0.0,0.0,0.0,0.0
16032,10584,US,107531,35.1786111111,-119.541111111,,Census,Census-designated place,CA,"Fellows, California",0,0,0,0,0,0,0,0,0,0,0,0,0,0,0.0,0,0,0.0,0.0,0.0,0.0,0.0,0.0
16052,34810,US,107936,33.7222222222,-116.374444444,,Census,City,CA,"Palm Desert, California",0,0,0,0,0,0,0,0,0,0,0,0,0,0,0.0,0,0,0.0,0.0,11801.0,23252.0,41155.0,48445.0
16090,10715,US,108295,36.3475,-119.42,,Census,Census-designated place,CA,"Goshen, California",0,0,0,0,0,0,0,0,0,0,0,0,0,0,0.0,0,0,0.0,0.0,0.0,0.0,0.0,0.0
16105,21266,US,107989,34.0702777778,-117.395833333,,Census,Census-designated place,CA,"Bloomington, California",0,0,0,0,0,0,0,0,0,0,0,0,0,0,0.0,0,0,0.0,0.0,0.0,0.0,19318.0,23851.0
16108,52290,US,108125,37.6561111111,-122.425555556,,Census,General law city,CA,"South San Francisco, California",0,0,0,0,0,0,0,0,0,0,0,0,1989,4411,6193.0,6629,19351,39418.0,46646.0,49393.0,54312.0,60552.0,63632.0
16118,19199,US,107402,37.9772222222,-122.295277778,,Census,Census-designated place,CA,"El Sobrante, California",0,0,0,0,0,0,0,0,0,0,0,0,0,0,0.0,0,0,0.0,0.0,0.0,0.0,0.0,0.0
16143,25765,US,27003119,33.8475,-118.12,,Census,General law city,CA,"Lakewood, California",0,0,0,0,0,0,0,0,0,0,0,0,0,0,0.0,0,0,67126.0,83025.0,74511.0,73557.0,79345.0,80048.0
16145,24386,US,107792,38.5813888889,-122.582777778,,Census,City,CA,"Calistoga, California",0,0,0,0,0,0,0,0,0,407,0,690,751,850,1000.0,1124,1418,1514.0,1882.0,3879.0,4468.0,5190.0,5155.0
16167,4520,US,22803544,40.785,-124.202777778,,Census,Census-designated place,CA,"Fairhaven, California",0,0,0,0,0,0,0,0,0,0,0,0,0,0,0.0,0,0,0.0,0.0,0.0,0.0,0.0,0.0
16233,30624,US,107997,34.4127777778,-117.306111111,,Census,City,CA,"Hesperia, California",0,0,0,0,0,0,0,0,0,0,0,0,0,0,0.0,0,0,0.0,4592.0,13540.0,50418.0,62582.0,90173.0
16243,26846,US,107558,35.5005555556,-119.271666667,,Census,City,CA,"Shafter, California",0,0,0,0,0,0,0,0,0,0,0,0,0,0,0.0,1258,2207,4576.0,5327.0,7010.0,8409.0,12736.0,16988.0
16255,11811,US,107964,38.6233333333,-121.247777778,,Census,Census-designated place,CA,"Gold River, California",0,0,0,0,0,0,0,0,0,0,0,0,0,0,0.0,0,0,0.0,0.0,0.0,0.0,0.0,0.0
16303,57374,US,80566,40.65,-120.58,,Census,County,CA,"Lassen County, California",0,0,0,0,0,0,0,0,1327,3340,4239,4511,4802,8507,12589.0,14479,18474,13597.0,14960.0,21661.0,27598.0,33828.0,34895.0
16389,31323,US,107571,36.0041666667,-120.128888889,,Census,City,CA,"Avenal, California",0,0,0,0,0,0,0,0,0,0,0,0,0,0,0.0,0,0,3147.0,3035.0,4137.0,9770.0,14674.0,15505.0
16453,33815,US,107397,37.8216666667,-122.0,,Unknown,Town,CA,"Danville, California",0,0,0,0,0,0,0,0,0,0,0,0,0,0,0.0,0,0,0.0,0.0,0.0,0.0,0.0,0.0
16460,12064,US,107448,36.9877777778,-119.711944444,,Census,Census-designated place,CA,"Friant, California",0,0,0,0,0,0,0,0,0,0,0,0,0,0,0.0,0,0,0.0,0.0,0.0,0.0,0.0,0.0
16463,14439,US,1972988,32.6638888889,-116.289722222,,Census,Census-designated place,CA,"Boulevard, California",0,0,0,0,0,0,0,0,0,0,0,0,0,0,0.0,0,0,0.0,0.0,0.0,0.0,0.0,0.0
16471,33146,US,107344,37.5963888889,-122.048333333,,Census,City,CA,"Union City, California",0,0,0,0,0,0,0,0,0,0,0,0,0,0,0.0,0,0,6618.0,14724.0,39406.0,53762.0,66869.0,69516.0
16560,20315,US,108062,32.9952777778,-117.260277778,,Census,City,CA,"Solana Beach, California",0,0,0,0,0,0,0,0,0,0,0,0,0,0,0.0,0,0,0.0,5023.0,13047.0,12962.0,12979.0,12867.0
16563,15232,US,107482,40.4991666667,-124.106388889,,Census,City,CA,"Rio Dell, California",0,0,0,0,0,0,0,0,0,0,213,0,0,0,0.0,0,1862,3222.0,2817.0,2687.0,3012.0,3174.0,3368.0
16579,18170,US,107708,36.9363888889,-119.886666667,,Census,Census-designated place,CA,"Bonadelle Ranchos-Madera Ranchos, California",0,0,0,0,0,0,0,0,0,0,0,0,0,0,0.0,0,0,0.0,0.0,0.0,0.0,0.0,0.0
16600,6533,US,32193904,38.2130555556,-121.265,,Census,Census-designated place,CA,"Collierville, California",0,0,0,0,0,0,0,0,0,0,0,0,0,0,0.0,0,0,0.0,0.0,0.0,0.0,0.0,0.0
16615,28125,US,107442,36.8252777778,-119.703055556,,Census,City,CA,"Clovis, California",0,0,0,0,0,0,0,0,0,0,0,0,0,1157,1316.0,1626,2766,5546.0,13856.0,33021.0,50323.0,68468.0,95631.0
16616,29953,US,107414,38.0280555556,-121.884722222,,Census,City,CA,"Pittsburg, California",0,0,0,0,0,0,0,0,0,0,300,603,2372,4715,9610.0,9520,12763,19062.0,21423.0,33034.0,47564.0,56769.0,63264.0
16628,6276,US,32153849,33.825,-117.368333333,,Census,Census-designated place,CA,"Lake Mathews, California",0,0,0,0,0,0,0,0,0,0,0,0,0,0,0.0,0,0,0.0,0.0,0.0,0.0,0.0,0.0
16640,8515,US,29534187,36.3577777778,-119.064444444,,Census,Census-designated place,CA,"Lindcove, California",0,0,0,0,0,0,0,0,0,0,0,0,0,0,0.0,0,0,0.0,0.0,0.0,0.0,0.0,0.0
16656,6609,US,28741588,40.2552777778,-122.208611111,,Census,Census-designated place,CA,"Bend, California",0,0,0,0,0,0,0,0,0,0,0,0,0,0,0.0,0,0,0.0,0.0,0.0,0.0,0.0,0.0
16737,11084,US,107332,37.6794444444,-122.103333333,,Census,Census designated place,CA,"Cherryland, California",0,0,0,0,0,0,0,0,0,0,0,0,0,0,0.0,0,0,0.0,0.0,0.0,0.0,0.0,0.0
16753,58118,US,107926,33.6813888889,-117.345277778,,Census,City,CA,"Lake Elsinore, California",0,0,0,0,0,0,0,0,0,0,0,279,488,633,1350.0,1552,2068,2432.0,3530.0,5982.0,18285.0,28928.0,51821.0
16763,31430,US,107991,34.0177777778,-117.69,,Census,City,CA,"Chino, California",0,0,0,0,0,0,0,0,0,0,0,0,0,0,3118.0,4204,5784,10305.0,20411.0,40165.0,59682.0,67168.0,77983.0
16783,49547,US,107573,36.3275,-119.645555556,,Census,City,CA,"Hanford, California",0,0,0,0,0,0,0,0,0,269,942,2929,4829,5888,7028.0,8234,10028,10133.0,15179.0,20958.0,30897.0,41686.0,53967.0
16823,15187,US,108256,37.6030555556,-120.866944444,,Census,City,CA,"Hughson, California",0,0,0,0,0,0,0,0,0,0,0,0,0,0,0.0,0,0,1898.0,2144.0,2943.0,3259.0,3980.0,6640.0
16870,15850,US,107449,36.2027777778,-120.103055556,,Census,City,CA,"Huron, California",0,0,0,0,0,0,0,0,0,0,0,0,0,0,0.0,0,0,1269.0,1525.0,2768.0,4766.0,6306.0,6754.0
16876,14420,US,108190,40.3888888889,-122.281944444,,Census,Census-designated place,CA,"Cottonwood, California",0,0,0,0,0,0,0,0,0,0,0,0,0,0,0.0,0,0,0.0,0.0,0.0,0.0,0.0,0.0
16895,10103,US,1578840,39.6463888889,-121.538333333,,Census,Census-designated place,CA,"Cherokee, California",0,0,0,0,0,0,0,0,0,0,0,0,0,0,0.0,0,0,0.0,0.0,0.0,0.0,0.0,0.0
16951,14983,US,107755,36.9833333333,-120.633333333,,Census,City,CA,"Dos Palos, California",0,0,0,0,0,0,0,0,0,0,0,0,0,0,0.0,978,1394,2028.0,2496.0,3121.0,4196.0,4581.0,4950.0
16963,11256,US,25142046,37.3975,-121.279444444,,Census,Census-designated place,CA,"Diablo Grande, California",0,0,0,0,0,0,0,0,0,0,0,0,0,0,0.0,0,0,0.0,0.0,0.0,0.0,0.0,0.0
16977,20171,US,107725,37.9341666667,-122.535277778,,Census,City,CA,"Larkspur, California",0,0,0,0,0,0,0,0,0,0,0,0,594,612,1241.0,1558,2905,5710.0,10487.0,11064.0,11070.0,12014.0,11926.0
16990,7548,US,22610157,41.7925,-124.071944444,,Census,Census-designated place,CA,"Hiouchi, California",0,0,0,0,0,0,0,0,0,0,0,0,0,0,0.0,0,0,0.0,0.0,0.0,0.0,0.0,0.0
17004,32159,US,107642,34.207721,-118.206979,,Census,City,CA,"La Caada Flintridge, California",0,0,0,0,0,0,0,0,0,0,0,0,0,0,0.0,0,0,18338.0,20652.0,20153.0,19378.0,20318.0,20246.0
17038,11448,US,107580,39.0263888889,-122.671944444,,Census,Census-designated place,CA,"Clearlake Oaks, California",0,0,0,0,0,0,0,0,0,0,0,0,0,0,0.0,0,0,0.0,0.0,0.0,0.0,0.0,0.0
17044,20304,US,107354,38.3930555556,-120.8025,,Census,City,CA,"Sutter Creek, California",0,0,0,0,0,0,0,0,0,1324,1351,0,0,920,1013.0,1134,1151,1161.0,1508.0,1705.0,1835.0,2303.0,2501.0
17073,10122,US,108178,36.9405555556,-121.789444444,,Census,Census-designated place,CA,"Freedom, California",0,0,0,0,0,0,0,0,0,0,0,0,0,0,0.0,0,0,0.0,0.0,0.0,0.0,0.0,0.0
17092,10177,US,108179,36.9563888889,-121.745555556,,Census,Census-designated place,CA,"Interlaken, California",0,0,0,0,0,0,0,0,0,0,0,0,0,0,0.0,0,0,0.0,0.0,0.0,0.0,0.0,0.0
17130,9522,US,108048,32.7119444444,-117.003888889,,Census,Census-designated place,CA,"La Presa, California",0,0,0,0,0,0,0,0,0,0,0,0,0,0,0.0,0,0,0.0,0.0,0.0,0.0,0.0,0.0
17233,6690,US,17227846,35.3833333333,-119.109722222,,Census,Census-designated place,CA,"Greenacres, California",0,0,0,0,0,0,0,0,0,0,0,0,0,0,0.0,0,0,0.0,0.0,0.0,0.0,0.0,0.0
17244,17688,US,22535185,41.8677777778,-124.148888889,,Census,Unincorporated community,CA,"Fort Dick, California",0,0,0,0,0,0,0,0,0,0,0,0,0,0,0.0,0,0,0.0,0.0,0.0,0.0,0.0,0.0
17246,42801,US,107931,33.9430555556,-117.228333333,,Census,General law city,CA,"Moreno Valley, California",0,0,0,0,0,0,0,0,0,0,0,0,0,0,0.0,0,0,0.0,0.0,0.0,118779.0,142381.0,193365.0
17248,12061,US,108171,36.9608333333,-121.831388889,,Census,Census-designated place,CA,"Aptos Hills-Larkin Valley, California",0,0,0,0,0,0,0,0,0,0,0,0,0,0,0.0,0,0,0.0,0.0,0.0,0.0,0.0,0.0
17295,12259,US,108076,38.02,-121.091388889,,Census,Census-designated place,CA,"Linden, California",0,0,0,0,0,0,0,0,0,0,0,0,0,0,0.0,0,0,0.0,0.0,0.0,0.0,0.0,0.0
17320,13082,US,107347,38.7027777778,-120.072777778,,Census,Census-designated place,CA,"Kirkwood, California",0,0,0,0,0,0,0,0,0,0,0,0,0,0,0.0,0,0,0.0,0.0,0.0,0.0,0.0,0.0
17359,20624,US,107498,33.2986111111,-115.956111111,,Unknown,Census designated place,CA,"Salton City, California",0,0,0,0,0,0,0,0,0,0,0,0,0,0,0.0,0,0,0.0,0.0,0.0,0.0,0.0,0.0
17374,10216,US,107444,36.6591666667,-119.593611111,,Census,Census-designated place,CA,"Del Rey, California",0,0,0,0,0,0,0,0,0,0,0,0,0,0,0.0,0,0,0.0,0.0,0.0,0.0,0.0,0.0
17402,144756,US,82117,38.51,-122.93,,Census,County,CA,"Sonoma County, California",0,0,0,0,0,0,560,11867,19819,25926,32721,38480,48394,52090,62222.0,69052,103405,147375.0,204885.0,299681.0,388222.0,458614.0,483878.0
17408,16033,US,1984001,40.645,-122.9275,,Census,Census-designated place,CA,"Douglas City, California",0,0,0,0,0,0,0,0,0,0,0,0,0,0,0.0,0,0,0.0,0.0,0.0,0.0,0.0,0.0
17471,9703,US,108209,41.6444444444,-122.522777778,,Census,Census-designated place,CA,"Grenada, California",0,0,0,0,0,0,0,0,0,0,0,0,0,0,0.0,0,0,0.0,0.0,0.0,0.0,0.0,0.0
17508,9302,US,107870,39.8113888889,-120.497777778,,Census,Census-designated place,CA,"Delleker, California",0,0,0,0,0,0,0,0,0,0,0,0,0,0,0.0,0,0,0.0,0.0,0.0,0.0,0.0,0.0
17518,10782,US,107358,39.64,-121.797777778,,Census,Census-designated place,CA,"Durham, California",0,0,0,0,0,0,0,0,0,0,0,0,0,0,0.0,0,0,0.0,0.0,0.0,0.0,0.0,0.0
17575,16280,US,107847,39.2411111111,-120.023333333,,Census,Census-designated place,CA,"Kings Beach, California",0,0,0,0,0,0,0,0,0,0,0,0,0,0,0.0,0,0,0.0,0.0,0.0,0.0,0.0,0.0
17620,21434,US,148089,39.5675,-120.812222222,,Census,Census-designated place,CA,"Downieville, California",0,0,0,0,0,0,0,0,0,0,0,0,0,0,0.0,0,0,0.0,0.0,0.0,0.0,0.0,0.0
17623,49477,US,107357,39.7372222222,-121.514444444,,Census,Census designated place,CA,"Concow, California",0,0,0,0,0,0,0,0,0,0,0,0,0,0,0.0,0,0,0.0,0.0,0.0,0.0,0.0,0.0
17632,8945,US,107876,40.2738888889,-121.095833333,,Census,Census-designated place,CA,"Hamilton Branch, California",0,0,0,0,0,0,0,0,0,0,0,0,0,0,0.0,0,0,0.0,0.0,0.0,0.0,0.0,0.0
17644,6779,US,32233158,35.4158333333,-120.614166667,,Census,Census-designated place,CA,"Garden Farms, California",0,0,0,0,0,0,0,0,0,0,0,0,0,0,0.0,0,0,0.0,0.0,0.0,0.0,0.0,0.0
17675,7606,US,16299004,39.5172222222,-121.267222222,,Census,Census-designated place,CA,"Forbestown, California",0,0,0,0,0,0,0,0,0,0,0,0,0,0,0.0,0,0,0.0,0.0,0.0,0.0,0.0,0.0
17760,10272,US,1964069,39.2236111111,-123.768611111,,Census,Census-designated place,CA,"Albion, California",0,0,0,0,0,0,0,0,0,0,0,0,0,0,0.0,0,0,0.0,0.0,0.0,0.0,0.0,0.0
17782,14567,US,108282,40.0244444444,-122.123888889,,Census,City,CA,"Tehama, California",0,0,0,0,0,0,0,0,0,328,0,0,221,196,190.0,175,314,261.0,317.0,365.0,401.0,432.0,418.0
17869,7276,US,8819449,37.6747222222,-119.784166667,,Census,Census-designated place,CA,"El Portal, California",0,0,0,0,0,0,0,0,0,0,0,0,0,0,0.0,0,0,0.0,0.0,0.0,0.0,0.0,0.0
17923,6928,US,22411604,39.5327777778,-121.1575,,Census,Census-designated place,CA,"Clipper Mills, California",0,0,0,0,0,0,0,0,0,0,0,0,0,0,0.0,0,0,0.0,0.0,0.0,0.0,0.0,0.0
17934,14946,US,108184,36.9869444444,-121.945555556,,Census,Census-designated place,CA,"Soquel, California",0,0,0,0,0,0,0,0,0,328,2982,2987,0,0,0.0,0,0,0.0,5795.0,6212.0,9188.0,5081.0,9644.0
17968,21480,US,107952,33.5988888889,-117.28,,Census,City,CA,"Wildomar, California",0,0,0,0,0,0,0,0,0,0,0,0,0,0,0.0,0,0,0.0,0.0,0.0,10411.0,14064.0,32176.0
18018,13678,US,108253,37.6441666667,-120.9075,,Census,Census-designated place,CA,"Empire, California",0,0,0,0,0,0,0,0,0,0,0,0,0,0,0.0,0,0,0.0,0.0,0.0,0.0,0.0,0.0
18025,24115,US,107401,37.9158333333,-122.311666667,,Census,City,CA,"El Cerrito, California",0,0,0,0,0,0,0,0,0,0,0,0,0,1505,3870.0,6137,18011,25437.0,25190.0,22731.0,22869.0,23171.0,23549.0
18063,12494,US,107500,33.0372222222,-115.621388889,,Census,City,CA,"Westmorland, California",0,0,0,0,0,0,0,0,0,0,0,0,0,0,0.0,1010,1213,1404.0,1175.0,1590.0,1380.0,2131.0,2225.0
18082,32524,US,107992,33.9938888889,-117.758888889,,Census,City,CA,"Chino Hills, California",0,0,0,0,0,0,0,0,0,0,0,0,0,0,0.0,0,0,0.0,0.0,0.0,27608.0,66787.0,74799.0
18129,15789,US,107998,34.1283333333,-117.208611111,,Census,City,CA,"Highland, California",0,0,0,0,0,0,0,0,0,0,0,0,0,0,0.0,0,0,0.0,12669.0,10908.0,34439.0,44605.0,53104.0
18182,17268,US,108263,37.7313888889,-120.943611111,,Census,City,CA,"Riverbank, California",0,0,0,0,0,0,0,0,0,0,0,0,0,0,803.0,1130,2662,2786.0,3949.0,5695.0,8547.0,15826.0,22678.0
18242,12561,US,108343,38.6930555556,-122.018888889,,Census,Census-designated place,CA,"Esparto, California",0,0,0,0,0,0,0,0,0,0,0,0,0,0,0.0,0,0,0.0,0.0,0.0,0.0,0.0,0.0
18257,61538,US,82128,38.02,-119.94,,Census,County,CA,"Tuolumne County, California",0,0,0,0,0,0,8351,16229,8150,7848,6082,11166,9979,7768,9271.0,10887,12584,14404.0,22169.0,33928.0,48456.0,54501.0,55365.0
18260,15781,US,1972830,38.3452777778,-122.973888889,,Census,Census-designated place,CA,"Bodega, California",0,0,0,0,0,0,0,0,0,0,0,0,0,0,0.0,0,0,0.0,0.0,0.0,0.0,0.0,0.0
18278,6446,US,23231958,41.41,-120.679166667,,Census,Census-designated place,CA,"California Pines, California",0,0,0,0,0,0,0,0,0,0,0,0,0,0,0.0,0,0,0.0,0.0,0.0,0.0,0.0,0.0
18284,15053,US,4515461,41.8605555556,-120.151388889,,Census,Census-designated place,CA,"Fort Bidwell, California",0,0,0,0,0,0,0,0,0,0,0,0,0,0,0.0,0,0,0.0,0.0,0.0,0.0,0.0,0.0
18318,18779,US,107507,36.4580555556,-116.870833333,,Census,Census-designated place,CA,"Furnace Creek, California",0,0,0,0,0,0,0,0,0,0,0,0,0,0,0.0,0,0,0.0,0.0,0.0,0.0,0.0,0.0
18328,17973,US,108188,41.0197222222,-121.907777778,,Census,Census-designated place,CA,"Big Bend, California",0,0,0,0,0,0,0,0,0,0,0,0,0,0,0.0,0,0,0.0,0.0,0.0,0.0,0.0,0.0
18330,7750,US,1596662,40.0813888889,-121.551111111,,Census,Census-designated place,CA,"Butte Meadows, California",0,0,0,0,0,0,0,0,0,0,0,0,0,0,0.0,0,0,0.0,0.0,0.0,0.0,0.0,0.0
18380,10632,US,107686,34.0491666667,-118.095277778,,Census,Census-designated place,CA,"South San Gabriel, California",0,0,0,0,0,0,0,0,0,0,0,0,0,0,0.0,0,0,0.0,5051.0,5421.0,7700.0,7595.0,0.0
18405,5957,US,32340555,37.56,-120.989166667,,Census,Census-designated place,CA,"Cowan, California",0,0,0,0,0,0,0,0,0,0,0,0,0,0,0.0,0,0,0.0,0.0,0.0,0.0,0.0,0.0
18408,25417,US,107922,33.7444444444,-116.725833333,,Census,Census-designated place,CA,"Idyllwild-Pine Cove, California",0,0,0,0,0,0,0,0,0,0,0,0,0,0,0.0,0,0,0.0,0.0,0.0,0.0,0.0,0.0
18467,8775,US,17959034,39.265,-123.591111111,,Census,Census-designated place,CA,"Comptche, California",0,0,0,0,0,0,0,0,0,0,0,0,0,0,0.0,0,0,0.0,0.0,0.0,0.0,0.0,0.0
18490,52690,US,108186,36.92,-121.763611111,,Census,Charter city,CA,"Watsonville, California",0,0,0,0,0,0,0,398,1151,1799,2149,3528,4446,5013,8344.0,8937,11572,13293.0,14719.0,23662.0,31099.0,44265.0,51199.0
18507,26857,US,107613,34.11,-117.719722222,,Census,City,CA,"Claremont, California",0,0,0,0,0,0,0,0,0,0,0,0,0,0,2719.0,3057,6327,12633.0,24776.0,31028.0,32503.0,33998.0,34926.0
18518,59426,US,108132,34.4133333333,-119.860833333,,Census,Census-designated place,CA,"Isla Vista, California",0,0,0,0,0,0,0,0,0,0,0,0,0,0,0.0,0,0,0.0,13441.0,0.0,20395.0,18344.0,23096.0
18539,29282,US,107563,35.1322222222,-118.448888889,,Census,General law city,CA,"Tehachapi, California",0,0,0,0,0,0,0,0,0,0,255,0,385,458,736.0,1264,1685,3161.0,4211.0,4126.0,5791.0,10957.0,14414.0
18616,9023,US,107877,40.0508333333,-120.98,,Census,Census-designated place,CA,"Indian Falls, California",0,0,0,0,0,0,0,0,0,0,0,0,0,0,0.0,0,0,0.0,0.0,0.0,0.0,0.0,0.0
18628,24827,US,107770,36.7658333333,-121.758055556,,Census,Census-designated place,CA,"Castroville, California",0,0,0,0,0,0,0,0,0,0,0,0,0,0,0.0,0,0,0.0,0.0,0.0,0.0,0.0,0.0
18680,55355,US,107386,38.005,-121.805833333,,Census,City,CA,"Antioch, California",0,0,0,0,0,0,0,0,700,626,635,674,1124,1936,3563.0,5106,11051,17035.0,28060.0,43559.0,62195.0,90532.0,102372.0
18684,51712,US,108244,38.2888888889,-122.458888889,,Census,City,CA,"Sonoma, California",0,0,0,0,0,0,0,0,0,0,757,652,957,801,980.0,1158,2015,3023.0,4259.0,6054.0,8121.0,9128.0,10648.0
18690,9934,US,107398,37.835,-121.958055556,,Census,Census-designated place,CA,"Diablo, California",0,0,0,0,0,0,0,0,0,0,0,0,0,0,0.0,0,0,0.0,0.0,0.0,0.0,0.0,0.0
18706,27584,US,52825,33.7086111111,-117.956388889,,Census,City,CA,"Fountain Valley, California",0,0,0,0,0,0,0,0,0,0,0,0,0,0,0.0,0,0,2068.0,31886.0,55080.0,53691.0,54978.0,55313.0
18717,47786,US,107469,40.8663888889,-124.082777778,,Census,General law city,CA,"Arcata, California",0,0,0,0,0,0,0,0,0,702,962,952,1121,1486,1709.0,1855,3729,5235.0,8985.0,12850.0,15197.0,16651.0,17231.0
18765,12713,US,108254,37.5647222222,-121.180833333,,Census,Census-designated place,CA,"Grayson, California",0,0,0,0,0,0,0,0,0,0,0,0,0,0,0.0,0,0,0.0,0.0,0.0,0.0,0.0,0.0
18796,28551,US,108127,37.4208333333,-122.259722222,,Census,Town,CA,"Woodside, California",0,0,0,0,0,0,0,0,0,0,0,0,0,0,0.0,0,0,3592.0,4734.0,5291.0,5035.0,5352.0,5287.0
18813,38649,US,107972,38.5891666667,-121.302777778,,Census,City,CA,"Rancho Cordova, California",0,0,0,0,0,0,0,0,0,0,0,0,0,0,0.0,0,0,7429.0,30451.0,42881.0,48731.0,55060.0,64776.0
19009,11169,US,107754,37.4322222222,-120.778611111,,Census,Census designated place,CA,"Delhi, California",0,0,0,0,0,0,0,0,0,0,0,0,0,0,0.0,0,0,0.0,0.0,0.0,0.0,0.0,0.0
19015,27965,US,107752,39.4097222222,-123.355555556,,Census,City,CA,"Willits, California",0,0,0,0,0,0,0,0,0,153,815,791,1153,1468,1424.0,1625,2691,3410.0,3091.0,4008.0,5027.0,5073.0,4888.0
19032,10814,US,23161184,39.4438888889,-123.385277778,,Census,Census-designated place,CA,"Brooktrails, California",0,0,0,0,0,0,0,0,0,0,0,0,0,0,0.0,0,0,0.0,0.0,0.0,0.0,0.0,0.0
19067,30444,US,1904766,39.19631,-120.23356,,Census,Unincorporated community,CA,"Squaw Valley, Placer County, California",0,0,0,0,0,0,0,0,0,0,0,0,0,0,0.0,0,0,0.0,0.0,0.0,2501.0,926.0,1366.0
19096,44941,US,107632,33.8936111111,-118.307777778,,Census,City,CA,"Gardena, California",0,0,0,0,0,0,0,0,0,0,0,0,0,0,0.0,5909,14405,35943.0,41021.0,45165.0,49847.0,57746.0,58829.0
19107,9634,US,108289,35.8922222222,-119.048055556,,Census,Census-designated place,CA,"Ducor, California",0,0,0,0,0,0,0,0,0,0,0,0,0,0,0.0,0,0,0.0,0.0,0.0,0.0,504.0,612.0
19109,7122,US,12605047,35.3830555556,-118.985,,Census,Region in bakersfield,CA,East Bakersfield,0,0,0,0,0,0,0,0,0,242,622,1291,0,0,0.0,0,0,0.0,0.0,0.0,0.0,0.0,0.0
19123,12402,US,107797,39.1288888889,-121.0525,,Census,Census-designated place,CA,"Alta Sierra, California",0,0,0,0,0,0,0,0,0,0,0,0,0,0,0.0,0,0,0.0,0.0,0.0,0.0,0.0,0.0
19140,64094,US,108259,37.6613888889,-120.994444444,,Census,City,CA,"Modesto, California",0,0,0,0,0,0,0,0,0,1693,2402,2024,4034,9241,13842.0,16379,17389,36585.0,61712.0,106963.0,164730.0,188856.0,201165.0
19148,19211,US,513331,38.7152777778,-121.360833333,,Census,Census-designated place,CA,"Antelope, California",0,0,0,0,0,0,0,0,0,0,0,0,0,0,0.0,0,0,0.0,0.0,0.0,0.0,0.0,0.0
19209,64915,US,40444,36.6,-121.9,,Census,City,CA,"Monterey, California",0,0,0,0,0,0,1092,0,1112,1396,1662,1748,4923,5479,9141.0,10084,16205,22618.0,26302.0,27558.0,31954.0,29674.0,27810.0
19211,26418,US,107605,33.9680555556,-118.156111111,,Census,City,CA,"Bell Gardens, California",0,0,0,0,0,0,0,0,0,0,0,0,0,0,0.0,0,0,26467.0,29308.0,34117.0,42355.0,44054.0,42072.0
19217,65210,US,107356,39.74,-121.835555556,,Census,Charter city,CA,"Chico, California",0,0,0,0,0,0,0,0,0,3300,2894,2640,3750,9339,7961.0,9287,12272,14757.0,19580.0,26716.0,40079.0,59954.0,86187.0
19238,14452,US,107601,34.0386111111,-118.004444444,,Census,Census-designated place,CA,"Avocado Heights, California",0,0,0,0,0,0,0,0,0,0,0,0,0,0,0.0,0,0,0.0,9810.0,11721.0,14232.0,15148.0,15411.0
19314,13842,US,107766,36.8869444444,-121.641388889,,Census,Census-designated place,CA,"Aromas, California",0,0,0,0,0,0,0,0,0,0,0,0,0,0,0.0,0,0,0.0,0.0,0.0,0.0,0.0,0.0
19315,10552,US,107628,34.1191666667,-118.081944444,,Census,Census-designated place,CA,"East San Gabriel, California",0,0,0,0,0,0,0,0,0,0,0,0,0,0,0.0,0,0,0.0,0.0,0.0,12736.0,14512.0,14874.0
19369,9771,US,108247,37.6030555556,-121.005833333,,Census,Census-designated place,CA,"Bret Harte, California",0,0,0,0,0,0,0,0,0,0,0,0,0,0,0.0,0,0,0.0,0.0,0.0,0.0,0.0,0.0
19427,17775,US,108088,35.4383333333,-120.893611111,,Census,Census-designated place,CA,"Cayucos, California",0,0,0,0,0,0,0,0,0,0,0,0,0,0,0.0,0,0,0.0,0.0,0.0,0.0,0.0,0.0
19436,38486,US,107609,33.8397222222,-118.259722222,,Census,City,CA,"Carson, California",0,0,0,0,0,0,0,0,0,0,0,0,0,0,0.0,0,0,38059.0,71150.0,81221.0,83995.0,89730.0,91714.0
19446,6454,US,32340517,37.6330555556,-120.976111111,,Census,Census-designated place,CA,"Airport, California",0,0,0,0,0,0,0,0,0,0,0,0,0,0,0.0,0,0,0.0,0.0,0.0,0.0,0.0,0.0
19456,35128,US,107633,34.1361111111,-117.865277778,,Census,City,CA,"Glendora, California",0,0,0,0,0,0,0,0,0,0,0,0,0,0,2761.0,2822,3988,20752.0,31380.0,38500.0,47828.0,49415.0,50073.0
19463,6850,US,31817073,37.9047222222,-122.078611111,,Census,Census-designated place,CA,"Acalanes Ridge, California",0,0,0,0,0,0,0,0,0,0,0,0,0,0,0.0,0,0,0.0,0.0,0.0,0.0,0.0,0.0
19488,47341,US,107669,34.0608333333,-117.755833333,,Census,Charter city,CA,"Pomona, California",0,0,0,0,0,0,0,0,0,0,3634,5526,10207,13505,20804.0,23539,35405,67157.0,87384.0,92742.0,131723.0,149473.0,149058.0
19495,8170,US,24415404,39.54,-120.884444444,,Census,Census-designated place,CA,"Goodyears Bar, California",0,0,0,0,0,0,0,0,0,0,0,0,0,0,0.0,0,0,0.0,0.0,0.0,0.0,0.0,0.0
19507,6669,US,32153535,33.9225,-116.439444444,,Census,Census-designated place,CA,"Desert Edge, California",0,0,0,0,0,0,0,0,0,0,0,0,0,0,0.0,0,0,0.0,0.0,0.0,0.0,0.0,0.0
19602,9076,US,107878,39.7897222222,-120.495555556,,Census,Census-designated place,CA,"Iron Horse, California",0,0,0,0,0,0,0,0,0,0,0,0,0,0,0.0,0,0,0.0,0.0,0.0,0.0,0.0,0.0
19603,18856,US,107647,33.9888888889,-118.374166667,,Census,Census-designated place,CA,"Ladera Heights, California",0,0,0,0,0,0,0,0,0,0,0,0,0,0,0.0,0,0,0.0,6079.0,6647.0,6316.0,6568.0,6498.0
19619,26007,US,107527,35.7688888889,-119.246944444,,Census,City,CA,"Delano, California",0,0,0,0,0,0,0,0,0,0,0,0,0,805,2632.0,4573,8717,11913.0,14559.0,16491.0,22762.0,38824.0,53041.0
19708,8109,US,10262305,37.4544444444,-120.706111111,,Census,Census-designated place,CA,"Ballico, California",0,0,0,0,0,0,0,0,0,0,0,0,0,0,0.0,0,0,0.0,0.0,0.0,0.0,0.0,0.0
19709,21865,US,107923,33.7186111111,-116.308333333,,Census,City,CA,"Indian Wells, California",0,0,0,0,0,0,0,0,0,0,0,0,0,0,0.0,0,0,0.0,760.0,1394.0,2647.0,3816.0,4958.0
19761,69430,US,79760,38.21,-120.55,,Census,County,CA,"Calaveras County, California",0,0,0,0,0,0,16884,16299,8895,9094,8882,11200,9171,6183,6008.0,8221,9902,10289.0,13585.0,20710.0,31998.0,40554.0,45578.0
19774,97702,US,82025,36.24,-121.31,,Census,County,CA,"Monterey County, California",0,0,0,0,0,0,1872,4739,9876,11302,18637,19380,24146,27980,53705.0,73032,130498,198351.0,250071.0,290444.0,355660.0,401762.0,415057.0
19782,13889,US,108351,39.01,-121.423055556,,Census,City,CA,"Wheatland, California",0,0,0,0,0,0,0,0,0,635,630,492,481,435,479.0,496,581,813.0,1280.0,1474.0,1631.0,2275.0,3456.0
19811,16326,US,107467,39.7475,-122.196388889,,Census,City,CA,"Orland, California",0,0,0,0,0,0,0,0,0,292,440,0,836,1582,1195.0,1366,2067,2534.0,2884.0,4031.0,5052.0,6281.0,7291.0
19971,39612,US,107925,33.6752777778,-116.2975,,Census,City,CA,"La Quinta, California",0,0,0,0,0,0,0,0,0,0,0,0,0,0,0.0,0,0,0.0,0.0,3328.0,11215.0,23694.0,37467.0
19986,8814,US,23309628,35.5187,-120.5238,,Census,Census-designated place,CA,"Creston, California",0,0,0,0,0,0,0,0,0,0,0,0,0,0,0.0,0,0,0.0,0.0,0.0,0.0,0.0,0.0
19992,9860,US,107369,38.2044444444,-120.37,,Census,Census-designated place,CA,"Avery, California",0,0,0,0,0,0,0,0,0,0,0,0,0,0,0.0,0,0,0.0,0.0,0.0,0.0,0.0,0.0
20038,9818,US,107695,34.0986111111,-117.924444444,,Census,Census-designated place,CA,"Vincent, California",0,0,0,0,0,0,0,0,0,0,0,0,0,0,0.0,0,0,0.0,0.0,0.0,13713.0,15097.0,15922.0
20087,11935,US,108229,38.2991666667,-122.488055556,,Census,Census-designated place,CA,"El Verano, California",0,0,0,0,0,0,0,0,0,0,0,0,0,0,0.0,0,0,0.0,0.0,0.0,0.0,0.0,0.0
20141,14801,US,108081,37.7405555556,-121.128333333,,Census,City,CA,"Ripon, California",0,0,0,0,0,0,0,0,0,0,0,0,0,0,0.0,0,1550,1894.0,2679.0,3509.0,7455.0,10146.0,14297.0
20208,37898,US,107913,33.9611111111,-116.508055556,,Census,City,CA,"Desert Hot Springs, California",0,0,0,0,0,0,0,0,0,0,0,0,0,0,0.0,0,0,1472.0,2738.0,5941.0,11668.0,16582.0,25938.0
20229,24585,US,108159,37.2380555556,-121.989444444,,Census,City,CA,"Monte Sereno, California",0,0,0,0,0,0,0,0,0,0,0,0,0,0,0.0,0,0,1506.0,2847.0,3434.0,3287.0,3483.0,3341.0
20242,22116,US,108044,32.5783333333,-117.117222222,,Census,City,CA,"Imperial Beach, California",0,0,0,0,0,0,0,0,0,0,0,0,0,0,0.0,0,0,17773.0,20244.0,22689.0,26512.0,26992.0,26324.0
20316,16960,US,107790,38.1680555556,-122.2525,,Census,City,CA,"American Canyon, California",0,0,0,0,0,0,0,0,0,0,0,0,0,0,0.0,0,0,0.0,0.0,5712.0,7706.0,9774.0,19454.0
20415,34424,US,107810,33.4672222222,-117.698055556,,Census,General law city,CA,"Dana Point, California",0,0,0,0,0,0,0,0,0,0,0,0,0,0,0.0,0,0,1186.0,4745.0,10602.0,31896.0,35110.0,33351.0
20416,15549,US,1964119,35.1991666667,-120.720833333,,Census,Census-designated place,CA,"Avila Beach, California",0,0,0,0,0,0,0,0,0,0,0,0,0,0,0.0,0,0,0.0,0.0,0.0,0.0,0.0,0.0
20441,11026,US,108073,37.9316666667,-121.251666667,,Census,Census-designated place,CA,"Kennedy, California",0,0,0,0,0,0,0,0,0,0,0,0,0,0,0.0,0,0,0.0,0.0,0.0,0.0,0.0,0.0
20493,36864,US,108123,37.4955,-122.2668,,Census,City,CA,"San Carlos, California",0,0,0,0,0,0,0,0,0,0,0,0,0,0,1132.0,3520,14371,21370.0,26053.0,24710.0,26167.0,27718.0,28406.0
20519,14082,US,108251,37.5275,-120.799722222,,Census,Census-designated place,CA,"Denair, California",0,0,0,0,0,0,0,0,0,0,0,0,0,0,0.0,0,0,0.0,0.0,0.0,0.0,0.0,0.0
20549,15646,US,107446,36.8588888889,-120.456111111,,Census,City,CA,"Firebaugh, California",0,0,0,0,0,0,0,0,0,0,0,0,0,0,506.0,704,821,2070.0,2517.0,3740.0,4429.0,5743.0,7549.0
20562,46128,US,108151,37.3175,-122.041944444,,Census,General law city,CA,"Cupertino, California",0,0,0,0,0,0,0,0,0,0,0,0,0,0,0.0,0,0,3664.0,17895.0,34297.0,40263.0,50546.0,58302.0
20597,9626,US,1978886,38.7383333333,-120.675,,Census,Census-designated place,CA,"Camino, California",0,0,0,0,0,0,0,0,0,0,0,0,0,0,0.0,0,0,0.0,0.0,0.0,0.0,0.0,0.0
20689,17501,US,107413,38.0044444444,-122.291111111,,Census,City,CA,"Pinole, California",0,0,0,0,0,0,0,0,0,0,340,0,798,967,781.0,934,1147,6064.0,13266.0,14253.0,17460.0,19039.0,18390.0
20702,11367,US,107757,37.4083333333,-120.850833333,,Census,Census-designated place,CA,"Hilmar-Irwin, California",0,0,0,0,0,0,0,0,0,0,0,0,0,0,0.0,0,0,0.0,0.0,0.0,0.0,0.0,0.0
20725,9862,US,107335,37.6786111111,-122.045833333,,Census,Cdp,CA,"Fairview, California",0,0,0,0,0,0,0,0,0,0,0,0,0,0,0.0,0,0,0.0,0.0,0.0,0.0,0.0,0.0
20737,9091,US,107921,33.7419444444,-117.113333333,,Census,Census-designated place,CA,"Homeland, California",0,0,0,0,0,0,0,0,0,0,0,0,0,0,0.0,0,0,0.0,0.0,0.0,0.0,0.0,0.0
20787,11221,US,107822,33.5869444444,-117.6275,,Census,Census designated place,CA,"Las Flores, California",0,0,0,0,0,0,0,0,0,0,0,0,0,0,0.0,0,0,0.0,0.0,0.0,0.0,0.0,0.0
20830,66622,US,82097,40.76,-122.04,,Census,County,CA,"Shasta County, California",0,0,0,0,0,0,378,4360,4173,9492,12133,17318,18920,13361,13927.0,28800,36413,59468.0,77640.0,115715.0,147036.0,163256.0,177223.0
20835,11401,US,107862,39.7594444444,-120.583611111,,Census,Census-designated place,CA,"C-Road, California",0,0,0,0,0,0,0,0,0,0,0,0,0,0,0.0,0,0,0.0,0.0,0.0,0.0,0.0,0.0
20894,10734,US,117550,35.3166666667,-120.835555556,,Census,Unincorporated community,CA,"Baywood-Los Osos, California",0,0,0,0,0,0,0,0,0,0,0,0,0,0,0.0,0,0,0.0,3487.0,10933.0,14377.0,14351.0,0.0
20917,48113,US,107684,33.9441666667,-118.195,,Census,City,CA,"South Gate, California",0,0,0,0,0,0,0,0,0,0,0,0,0,0,19632.0,26945,51116,53831.0,56909.0,66784.0,86284.0,96375.0,94396.0
20921,7807,US,23053269,40.3827777778,-120.387222222,,Census,Census-designated place,CA,"Litchfield, California",0,0,0,0,0,0,0,0,0,0,0,0,0,0,0.0,0,0,0.0,0.0,0.0,0.0,0.0,0.0
20938,49298,US,107662,34.0491666667,-118.135555556,,Census,General law city,CA,"Monterey Park, California",0,0,0,0,0,0,0,0,0,0,0,0,0,4108,6406.0,8531,20395,37821.0,49166.0,54338.0,60738.0,60051.0,60269.0
20969,14492,US,108004,34.0775,-117.689722222,,Census,City,CA,"Montclair, California",0,0,0,0,0,0,0,0,0,0,0,0,0,0,0.0,0,0,13546.0,22546.0,22628.0,28434.0,33049.0,36664.0
20986,45552,US,107629,34.0733333333,-118.0275,,Census,City,CA,"El Monte, California",0,0,0,0,0,0,0,0,0,0,0,0,0,1283,3479.0,4746,8101,13163.0,69892.0,79494.0,106209.0,115965.0,113475.0
21023,15166,US,107367,38.0683333333,-120.539722222,,Census,City,CA,"Angels Camp, California",0,0,0,0,0,0,0,0,0,330,917,0,0,941,915.0,1163,1147,1121.0,1710.0,2302.0,2409.0,3004.0,3836.0
21035,18004,US,3304634,33.555,-116.673611111,,Census,Census-designated place,CA,"Anza, California",0,0,0,0,0,0,0,0,0,0,0,0,0,0,0.0,0,0,0.0,0.0,0.0,0.0,0.0,0.0
21065,6067,US,23193945,37.0488888889,-120.635555556,,Census,Census-designated place,CA,"Dos Palos Y, California",0,0,0,0,0,0,0,0,0,0,0,0,0,0,0.0,0,0,0.0,0.0,0.0,0.0,0.0,0.0
21069,37384,US,107685,34.1161111111,-118.150277778,,Census,General law city,CA,"South Pasadena, California",0,0,0,0,0,0,0,0,0,0,623,1001,4649,7652,13730.0,14356,16935,19706.0,22979.0,22681.0,23936.0,24292.0,25619.0
21073,9538,US,107528,35.2472222222,-119.595277778,,Census,Census-designated place,CA,"Derby Acres, California",0,0,0,0,0,0,0,0,0,0,0,0,0,0,0.0,0,0,0.0,0.0,0.0,0.0,0.0,0.0
21096,22955,US,107525,35.4005555556,-119.469444444,,Census,Census-designated place,CA,"Buttonwillow, California",0,0,0,0,0,0,0,0,0,0,0,0,0,0,0.0,0,0,0.0,0.0,0.0,0.0,0.0,0.0
21135,12417,US,107541,35.2597222222,-118.914166667,,Census,Census-designated place,CA,"Lamont, California",0,0,0,0,0,0,0,0,0,0,0,0,0,0,0.0,0,0,0.0,0.0,0.0,0.0,0.0,0.0
21192,39761,US,107674,34.0666666667,-118.083333333,,Census,City,CA,"Rosemead, California",0,0,0,0,0,0,0,0,0,0,0,0,0,0,0.0,0,0,15476.0,40972.0,42604.0,51638.0,53505.0,53764.0
21196,42172,US,107407,38.0194444444,-122.134166667,,Census,City,CA,"Martinez, California",0,0,0,0,0,0,0,0,560,0,1609,1380,2115,3858,6569.0,7381,8268,9604.0,16506.0,22582.0,31808.0,35866.0,35824.0
21218,6986,US,27431811,35.8802777778,-118.673611111,,Census,Census-designated place,CA,"California Hot Springs, California",0,0,0,0,0,0,0,0,0,0,0,0,0,0,0.0,0,0,0.0,0.0,0.0,0.0,0.0,0.0
21221,30577,US,108085,35.4841666667,-120.6725,,Census,City,CA,"Atascadero, California",0,0,0,0,0,0,0,0,0,0,0,0,0,0,0.0,0,3443,5983.0,10293.0,16232.0,23138.0,26411.0,28310.0
21269,6526,US,7385783,33.9188888889,-116.489722222,,Census,Census-designated place,CA,"Garnet, California",0,0,0,0,0,0,0,0,0,0,0,0,0,0,0.0,0,0,0.0,0.0,0.0,0.0,0.0,0.0
21276,10385,US,107430,38.6947222222,-120.815,,Census,Census-designated place,CA,"Diamond Springs, California",0,0,0,0,0,0,0,0,0,0,0,0,0,0,0.0,0,0,0.0,0.0,0.0,0.0,0.0,0.0
21308,33728,US,108019,34.5361111111,-117.291111111,,Census,City,CA,"Victorville, California",0,0,0,0,0,0,0,0,0,0,0,0,0,0,0.0,0,0,0.0,10845.0,14220.0,40674.0,64029.0,115903.0
21320,6548,US,22553813,39.3019444444,-122.489166667,,Census,Census-designated place,CA,"Lodoga, California",0,0,0,0,0,0,0,0,0,0,0,0,0,0,0.0,0,0,0.0,0.0,0.0,0.0,0.0,0.0
21421,6355,US,31954857,34.4816666667,-118.666666667,,Census,Census-designated place,CA,"Hasley Canyon, California",0,0,0,0,0,0,0,0,0,0,0,0,0,0,0.0,0,0,0.0,0.0,0.0,0.0,0.0,0.0
21466,7016,US,22995499,36.3436111111,-119.708611111,,Census,Census-designated place,CA,"Grangeville, California",0,0,0,0,0,0,0,0,0,0,0,0,0,0,0.0,0,0,0.0,0.0,0.0,0.0,0.0,0.0
21492,23823,US,60356,37.8869444444,-122.297777778,,Census,City,CA,"Albany, California",0,0,0,0,0,0,0,0,0,0,0,0,808,2462,8569.0,11493,17590,14804.0,15561.0,15130.0,16327.0,16444.0,18539.0
21569,58188,US,60866,38.1130555556,-122.235833333,,Census,City,CA,"Vallejo, California",0,0,0,0,0,0,0,0,0,5987,6343,7965,11340,21107,16072.0,20072,26038,60877.0,71710.0,80303.0,109199.0,116760.0,115942.0
21575,13736,US,107838,33.765,-117.799166667,,Census,Census-designated place,CA,"North Tustin, California",0,0,0,0,0,0,0,0,0,0,0,0,0,0,0.0,0,0,0.0,26598.0,26174.0,24358.0,24044.0,24917.0
21652,17396,US,107451,36.5138888889,-119.553888889,,Census,City,CA,"Kingsburg, California",0,0,0,0,0,0,0,0,0,88,291,0,634,1316,1322.0,1504,2310,3093.0,3843.0,5115.0,7205.0,9199.0,11382.0
21687,15266,US,107461,36.7080555556,-119.555833333,,Census,City,CA,"Sanger, California",0,0,0,0,0,0,0,0,0,0,0,0,0,2578,2967.0,4017,6400,8072.0,10088.0,12542.0,16839.0,18931.0,24270.0
21747,9182,US,107867,39.745,-120.571388889,,Census,Census-designated place,CA,"Clio, California",0,0,0,0,0,0,0,0,0,0,0,0,0,0,0.0,0,0,0.0,0.0,0.0,0.0,0.0,0.0
21753,12410,US,107799,39.0386111111,-121.061388889,,Census,Census-designated place,CA,"Lake of the Pines, California",0,0,0,0,0,0,0,0,0,0,0,0,0,0,0.0,0,0,0.0,0.0,0.0,0.0,0.0,0.0
21756,25054,US,118230,41.0058333333,-121.440833333,,Census,Census-designated place,CA,"Fall River Mills, California",0,0,0,0,0,0,0,0,0,0,0,0,0,0,0.0,0,0,0.0,0.0,0.0,0.0,0.0,0.0
21919,44589,US,108133,34.6461111111,-120.460277778,,Census,City,CA,"Lompoc, California",0,0,0,0,0,0,0,0,0,226,1015,972,1482,1876,2845.0,3379,5520,14415.0,25284.0,26267.0,37649.0,41103.0,42434.0
21920,77092,US,107474,40.5766666667,-124.263333333,,Census,City,CA,"Ferndale, California",0,0,0,0,0,0,0,0,0,178,763,846,905,919,889.0,901,1032,1371.0,1352.0,1367.0,1331.0,1382.0,1371.0
21943,6041,US,32348574,36.2036111111,-119.282222222,,Census,Census-designated place,CA,"East Tulare Villa, California",0,0,0,0,0,0,0,0,0,0,0,0,0,0,0.0,0,0,0.0,0.0,0.0,0.0,0.0,0.0
21983,110550,US,82017,38.04,-122.74,,Census,County,CA,"Marin County, California",0,0,0,0,0,0,323,3334,6903,11324,13072,15702,25114,27342,41648.0,52907,85619,146820.0,206038.0,222568.0,230096.0,247289.0,252409.0
21985,15453,US,108200,39.6766666667,-120.243055556,,Census,City,CA,"Loyalton, California",0,0,0,0,0,0,0,0,0,84,0,0,983,442,837.0,925,911,936.0,945.0,1030.0,931.0,862.0,769.0
22000,26975,US,107902,33.9316666667,-116.8975,,Census,City,CA,"Banning, California",0,0,0,0,0,0,0,0,0,0,0,0,0,0,2752.0,3874,7034,10250.0,12034.0,14020.0,20570.0,23562.0,29603.0
22027,35623,US,107635,33.9172222222,-118.348611111,,Census,City,CA,"Hawthorne, California",0,0,0,0,0,0,0,0,0,0,0,0,0,0,6596.0,8263,16316,33035.0,53304.0,56437.0,71349.0,84112.0,84293.0
22103,10657,US,107988,34.1338888889,-114.369722222,,Census,Census-designated place,CA,"Big River, California",0,0,0,0,0,0,0,0,0,0,0,0,0,0,0.0,0,0,0.0,0.0,0.0,0.0,0.0,0.0
22125,40117,US,117337,34.1419444444,-118.819444444,,Census,City,CA,"Westlake Village, California",0,0,0,0,0,0,0,0,0,0,0,0,0,0,0.0,0,0,0.0,0.0,0.0,7455.0,8368.0,8270.0
22139,44486,US,108220,41.7266666667,-122.6375,,Census,City,CA,"Yreka, California",0,0,0,0,0,0,0,1327,1063,1059,1100,1254,1134,1277,2126.0,2485,3227,4759.0,5394.0,5916.0,6948.0,7290.0,7765.0
22176,6429,US,32152964,33.8758333333,-117.611388889,,Census,Census-designated place,CA,"Coronita, California",0,0,0,0,0,0,0,0,0,0,0,0,0,0,0.0,0,0,0.0,0.0,0.0,0.0,0.0,0.0
22208,98249,US,107521,35.3666666667,-119.016666667,,Census,Charter city and county seat,CA,"Bakersfield, California",0,0,0,0,0,0,0,0,0,801,2626,4836,12727,18638,26015.0,29252,34784,56848.0,69515.0,105611.0,174820.0,247057.0,347483.0
22214,64742,US,108340,34.275,-119.227777778,,Census,Charter city and county seat,CA,"Ventura, California",0,0,0,0,0,0,0,0,0,1370,2320,2470,2901,4156,11603.0,13264,16534,29114.0,57964.0,73774.0,92575.0,100916.0,106433.0
22280,21017,US,107584,39.0430555556,-122.915833333,,Census,City,CA,"Lakeport, California",0,0,0,0,0,0,0,0,0,562,991,726,870,1024,1318.0,1490,1983,2303.0,3005.0,3675.0,4390.0,4820.0,4753.0
22328,37964,US,107824,33.6127777778,-117.656111111,,Census,City,CA,"Mission Viejo, California",0,0,0,0,0,0,0,0,0,0,0,0,0,0,0.0,0,0,0.0,11933.0,50666.0,72820.0,93102.0,93305.0
22339,28081,US,107639,34.0166666667,-117.95,,Census,City,CA,"City of Industry, California",0,0,0,0,0,0,0,0,0,0,0,0,0,0,0.0,0,0,778.0,712.0,412.0,631.0,777.0,219.0
22345,77390,US,107702,34.0877777778,-118.372222222,,Census,General law city,CA,"West Hollywood, California",0,0,0,0,0,0,0,0,0,0,0,0,0,0,0.0,0,0,28870.0,34622.0,35703.0,36118.0,35716.0,34399.0
22352,9619,US,8751587,34.6563888889,-118.379444444,,Census,Census-designated place,CA,"Elizabeth Lake, California",0,0,0,0,0,0,0,0,0,0,0,0,0,0,0.0,0,0,0.0,0.0,0.0,0.0,0.0,0.0
22369,67233,US,79770,38.78,-120.53,,Census,County,CA,"El Dorado County, California",0,0,0,0,0,0,20057,20562,10309,10683,9232,8986,7492,6426,8325.0,13229,16207,29390.0,43833.0,85812.0,125955.0,156299.0,181058.0
22376,15445,US,108023,32.8344444444,-116.770555556,,Census,Census-designated place,CA,"Alpine, California",0,0,0,0,0,0,0,0,0,0,0,0,0,0,0.0,0,0,0.0,0.0,0.0,0.0,0.0,0.0
22392,28273,US,107979,36.8525,-121.401666667,,Census,City,CA,"Hollister, California",0,0,0,0,0,0,0,0,0,1034,1234,1315,2308,2781,3757.0,3881,4903,6071.0,7663.0,11488.0,19212.0,34413.0,34928.0
22449,12581,US,107432,38.9069444444,-120.838611111,,Census,Census-designated place,CA,"Georgetown, California",0,0,0,0,0,0,0,0,0,0,0,0,0,0,0.0,0,0,0.0,0.0,0.0,0.0,0.0,0.0
22463,5757,US,32348645,36.6519444444,-118.955277778,,Census,Census-designated place,CA,"Hartland, California",0,0,0,0,0,0,0,0,0,0,0,0,0,0,0.0,0,0,0.0,0.0,0.0,0.0,0.0,0.0
22520,42453,US,108030,33.1219444444,-117.296944444,,Census,Charter city,CA,"Carlsbad, California",0,0,0,0,0,0,0,0,0,0,0,0,0,0,0.0,0,0,9253.0,14944.0,35490.0,63126.0,78247.0,105328.0
22525,14364,US,107731,37.9625,-122.555,,Census,Town,CA,"Ross, California",0,0,0,0,0,0,0,0,0,252,0,0,556,727,1355.0,1751,2179,2551.0,2742.0,2801.0,2123.0,2329.0,2415.0
22552,7073,US,23160889,38.8027777778,-123.577777778,,Census,Census-designated place,CA,"Anchor Bay, California",0,0,0,0,0,0,0,0,0,0,0,0,0,0,0.0,0,0,0.0,0.0,0.0,0.0,0.0,0.0
22563,5981,US,32003449,36.7691666667,-119.761388889,,Census,Census-designated place,CA,"Lake Don Pedro, California",0,0,0,0,0,0,0,0,0,0,0,0,0,0,0.0,0,0,0.0,0.0,0.0,0.0,0.0,0.0
22567,26926,US,107780,36.6177777778,-121.916666667,,Census,Charter city,CA,"Pacific Grove, California",0,0,0,0,0,0,0,0,0,0,1336,1411,2384,2974,5558.0,6249,9623,12121.0,13505.0,15755.0,16117.0,15522.0,15041.0
22625,20967,US,107486,33.3508333333,-115.729722222,,Unknown,Census-designated place,CA,"Bombay Beach, California",0,0,0,0,0,0,0,0,0,0,0,0,0,0,0.0,0,0,0.0,0.0,0.0,929.0,366.0,0.0
22666,12225,US,2697971,38.4411111111,-120.854444444,,Census,Census-designated place,CA,"Drytown, California",0,0,0,0,0,0,0,0,0,0,0,0,0,0,0.0,0,0,0.0,0.0,0.0,0.0,0.0,0.0
22674,13854,US,108231,38.3219444444,-122.486111111,,Census,Census-designated place,CA,"Fetters Hot Springs-Agua Caliente, California",0,0,0,0,0,0,0,0,0,0,0,0,0,0,0.0,0,0,0.0,0.0,0.0,0.0,0.0,0.0
22694,57388,US,82121,40.13,-122.23,,Census,County,CA,"Tehama County, California",0,0,0,0,0,0,0,4044,3587,9301,9916,10996,11401,12882,13866.0,14316,19276,25305.0,29517.0,38888.0,49625.0,56039.0,63463.0
22704,19089,US,108293,36.3011111111,-119.2075,,Census,City,CA,"Farmersville, California",0,0,0,0,0,0,0,0,0,0,0,0,0,0,0.0,0,0,3101.0,3456.0,5544.0,6235.0,8737.0,10588.0
22753,14289,US,108255,37.6241666667,-120.757777778,,Census,Census-designated place,CA,"Hickman, California",0,0,0,0,0,0,0,0,0,0,0,0,0,0,0.0,0,0,0.0,0.0,0.0,0.0,0.0,0.0
22789,10135,US,107445,36.6502777778,-119.790833333,,Census,Census-designated place,CA,"Easton, California",0,0,0,0,0,0,0,0,0,0,0,0,0,0,0.0,0,0,0.0,0.0,0.0,0.0,0.0,0.0
22862,23465,US,107906,33.9091666667,-116.766388889,,Census,Census-designated place,CA,"Cabazon, California",0,0,0,0,0,0,0,0,0,0,0,0,0,0,0.0,0,0,0.0,0.0,0.0,0.0,0.0,0.0
22864,12587,US,107619,33.9161111111,-118.369166667,,Census,Census-designated place,CA,"Del Aire, California",0,0,0,0,0,0,0,0,0,0,0,0,0,0,0.0,0,0,0.0,11930.0,8487.0,8040.0,9012.0,10001.0
22904,38445,US,107664,33.9069444444,-118.083333333,,Census,General law city,CA,"Norwalk, California",0,0,0,0,0,0,0,0,0,0,0,0,0,0,0.0,0,0,88739.0,90164.0,84901.0,94279.0,103298.0,105549.0
22959,11357,US,107453,36.4333333333,-119.686666667,,Census,Census-designated place,CA,"Laton, California",0,0,0,0,0,0,0,0,0,0,0,0,0,0,0.0,0,0,0.0,0.0,0.0,0.0,0.0,0.0
22977,6682,US,7370115,38.2883333333,-121.231111111,,Census,Census-designated place,CA,"Herald, California",0,0,0,0,0,0,0,0,0,0,0,0,0,0,0.0,0,0,0.0,0.0,0.0,0.0,0.0,0.0
22996,155770,US,53446,37.3333333333,-121.9,,Census,Metropolitan city and county seat,CA,"San Jose, California",0,0,0,0,0,0,0,0,9089,12567,18060,21500,28946,39642,57651.0,68457,95280,204196.0,459913.0,629400.0,782248.0,894943.0,945942.0
23009,20966,US,107634,33.8286111111,-118.073611111,"[[y1927,53]]",Census,City,CA,"Hawaiian Gardens, California",0,0,0,0,0,0,0,0,0,0,0,0,0,0,88.0,432,1200,2100.0,9052.0,10548.0,13639.0,14779.0,14254.0
23014,10436,US,107441,36.5427777778,-119.833333333,,Census,Census-designated place,CA,"Caruthers, California",0,0,0,0,0,0,0,0,0,0,0,0,0,0,0.0,0,0,0.0,0.0,0.0,0.0,0.0,0.0
23036,37425,US,108150,37.2838888889,-121.955,,Census,City,CA,"Campbell, California",0,0,0,0,0,0,0,0,0,0,0,0,0,0,0.0,0,0,11863.0,23797.0,26843.0,36048.0,38138.0,39349.0
23037,20032,US,107673,33.7594444444,-118.341666667,,Census,General law city,CA,"Rolling Hills, California",0,0,0,0,0,0,0,0,0,0,0,0,0,0,0.0,0,0,1664.0,2050.0,2049.0,1871.0,1871.0,1860.0
23073,16531,US,117600,37.3205555556,-121.931666667,,Census,Census-designated place,CA,"Burbank, Santa Clara County, California",0,0,0,0,0,0,0,0,0,0,0,0,0,0,0.0,0,0,0.0,0.0,0.0,0.0,0.0,0.0
23100,9362,US,13476918,36.9275,-121.844444444,,Census,Census-designated place,CA,"La Selva Beach, California",0,0,0,0,0,0,0,0,0,0,0,0,0,0,0.0,0,0,0.0,0.0,0.0,0.0,0.0,0.0
23101,7513,US,1979219,37.4325,-120.098055556,,Census,Census-designated place,CA,"Catheys Valley, California",0,0,0,0,0,0,0,0,0,0,0,0,0,0,0.0,0,0,0.0,0.0,0.0,0.0,0.0,0.0
23131,5688,US,31800157,39.5261111111,-121.466944444,,Census,Census-designated place,CA,"Kelly Ridge, California",0,0,0,0,0,0,0,0,0,0,0,0,0,0,0.0,0,0,0.0,0.0,0.0,0.0,0.0,0.0
23135,24846,US,107650,33.8866666667,-118.353611111,,Census,City,CA,"Lawndale, California",0,0,0,0,0,0,0,0,0,0,0,0,0,0,3119.0,2885,4364,16058.0,24825.0,23460.0,27331.0,31711.0,32769.0
23161,36206,US,107638,33.9833333333,-118.216666667,,Census,General law city,CA,"Huntington Park, California",0,0,0,0,0,0,0,0,0,0,0,0,1299,4513,24591.0,28648,29450,29920.0,33744.0,45932.0,56065.0,61348.0,58114.0
23163,11473,US,107510,36.4872222222,-117.873888889,,Census,Census-designated place,CA,"Keeler, California",0,0,0,0,0,0,0,0,0,0,0,0,0,0,0.0,0,0,0.0,0.0,0.0,0.0,0.0,0.0
23176,19650,US,117403,36.4861111111,-121.723888889,,Census,Census-designated place,CA,"Carmel Valley Village, California",0,0,0,0,0,0,0,0,0,0,0,0,0,0,0.0,0,0,0.0,0.0,0.0,0.0,0.0,0.0
23190,22058,US,107907,33.0038888889,-117.061944444,,Census,General law city,CA,"Calimesa, California",0,0,0,0,0,0,0,0,0,0,0,0,0,0,0.0,0,0,0.0,0.0,0.0,4647.0,7139.0,7879.0
23219,30214,US,107832,33.4377777778,-117.620277778,,Census,City,CA,"San Clemente, California",0,0,0,0,0,0,0,0,0,0,0,0,0,0,667.0,479,2008,8527.0,17063.0,27325.0,41100.0,49936.0,63522.0
23227,139668,US,10311463,33.8302777778,-116.545277778,,Census,Charter city,CA,"Palm Springs, California",0,0,0,0,0,0,0,0,0,0,0,0,0,0,0.0,3434,7660,13468.0,20936.0,32359.0,40181.0,42807.0,44552.0
23282,27300,US,107410,37.9975,-121.7125,,Census,City,CA,"Oakley, California",0,0,0,0,0,0,0,0,0,0,0,0,0,0,0.0,0,0,0.0,1306.0,2816.0,18374.0,25619.0,35432.0
23315,9298,US,107476,40.7258333333,-124.189722222,,Census,Census-designated place,CA,"Humboldt Hill, California",0,0,0,0,0,0,0,0,0,0,0,0,0,0,0.0,0,0,0.0,0.0,0.0,0.0,0.0,0.0
23369,102024,US,80557,35.34,-118.72,,Census,County,CA,"Kern County, California",0,0,0,0,0,0,0,0,2925,5601,9808,16480,37715,54843,82570.0,135124,228309,291984.0,329162.0,403089.0,543477.0,661645.0,839631.0
23389,36834,US,108033,32.6780555556,-117.1725,,Census,City,CA,"Coronado, California",0,0,0,0,0,0,0,276,229,0,0,935,1477,3289,5425.0,6932,12700,18039.0,20020.0,18790.0,26540.0,24100.0,24697.0
23401,20480,US,108316,38.0338888889,-120.401111111,,Census,Census-designated place,CA,"Columbia, California",0,0,0,0,0,0,0,0,0,0,0,0,0,0,0.0,0,0,0.0,0.0,0.0,0.0,0.0,0.0
23437,9157,US,1978934,41.4438888889,-120.870277778,,Census,Census-designated place,CA,"Canby, California",0,0,0,0,0,0,0,0,0,0,0,0,0,0,0.0,0,0,0.0,0.0,0.0,0.0,0.0,0.0
23456,11690,US,108176,37.0088888889,-121.856666667,,Census,Census-designated place,CA,"Day Valley, California",0,0,0,0,0,0,0,0,0,0,0,0,0,0,0.0,0,0,0.0,0.0,0.0,0.0,0.0,0.0
23494,18577,US,107631,33.9694444444,-118.243888889,,Census,Census-designated place,CA,"Florence-Graham, California",0,0,0,0,0,0,0,0,0,0,0,0,0,0,0.0,0,0,38164.0,42895.0,48662.0,57147.0,60197.0,63387.0
23575,5447,US,31894182,35.89,-117.386388889,,Census,Census-designated place,CA,"Homewood Canyon, California",0,0,0,0,0,0,0,0,0,0,0,0,0,0,0.0,0,0,0.0,0.0,0.0,0.0,0.0,0.0
23621,21199,US,107775,36.3208333333,-121.243888889,,Census,City,CA,"Greenfield, California",0,0,0,0,0,0,0,0,0,0,0,0,0,0,0.0,0,1309,1680.0,2608.0,4181.0,7464.0,12583.0,16330.0
23637,26190,US,108104,37.5833333333,-122.363611111,,Census,City,CA,"Burlingame, California",0,0,0,0,0,0,0,0,0,0,0,0,1565,4107,13270.0,15940,19886,24036.0,27320.0,26173.0,26801.0,28158.0,28806.0
23715,9862,US,3271234,39.2708333333,-123.788333333,,Census,Census-designated place,CA,"Little River, California",0,0,0,0,0,0,0,0,0,0,0,0,0,0,0.0,0,0,0.0,0.0,0.0,0.0,0.0,0.0
23722,13995,US,107544,35.0588888889,-119.400833333,,Census,City,CA,"Maricopa, California",0,0,0,0,0,0,0,0,0,0,0,0,0,1121,1071.0,670,800,648.0,740.0,946.0,1193.0,1111.0,1154.0
23731,31308,US,52989811,34.05,-118.25,,Census,County,CA,Wikipedia:WikiProject U.S. counties/Guideline,0,0,0,0,0,0,0,0,0,0,0,0,0,0,0.0,0,35830,36023.0,37329.0,38582.0,40325.0,41683.0,42184.0
23741,28367,US,108087,35.5541666667,-121.0875,,Census,Census designated place,CA,"Cambria, California",0,0,0,0,0,0,0,0,0,0,0,0,0,0,0.0,0,0,0.0,0.0,0.0,0.0,0.0,0.0
23744,19944,US,108026,33.2472222222,-116.371944444,,Census,Census-designated place,CA,"Borrego Springs, California",0,0,0,0,0,0,0,0,0,0,0,0,0,0,0.0,0,0,0.0,0.0,0.0,2244.0,2535.0,3429.0
23749,10427,US,107330,37.6947222222,-122.113888889,,Census,Census-designated place,CA,"Ashland, California",0,0,0,0,0,0,0,0,0,0,0,0,0,0,0.0,0,0,0.0,0.0,0.0,0.0,0.0,0.0
23813,19420,US,107643,33.9638888889,-117.952777778,,Census,City,CA,"La Habra Heights, California",0,0,0,0,0,0,0,0,0,0,0,0,0,0,0.0,0,0,0.0,0.0,4786.0,6226.0,5712.0,5325.0
23841,28099,US,107641,34.1166666667,-117.966666667,,Census,Charter city,CA,"Irwindale, California",0,0,0,0,0,0,0,0,0,0,0,0,0,0,0.0,0,0,1518.0,784.0,1030.0,1050.0,1446.0,1422.0
23914,13651,US,107405,37.9688888889,-121.668055556,,Census,Census-designated place,CA,"Knightsen, California",0,0,0,0,0,0,0,0,0,0,0,0,0,0,0.0,0,0,0.0,0.0,0.0,0.0,0.0,0.0
23924,6797,US,24497967,39.9272222222,-122.443611111,,Census,Census-designated place,CA,"Flournoy, California",0,0,0,0,0,0,0,0,0,0,0,0,0,0,0.0,0,0,0.0,0.0,0.0,0.0,0.0,0.0
23925,17964,US,107494,32.8475,-115.569444444,,Census,City,CA,"Imperial, California",0,0,0,0,0,0,0,0,0,0,0,0,1257,1885,1943.0,1493,1759,2658.0,3094.0,3451.0,4113.0,7560.0,14758.0
23982,37018,US,108219,41.4241666667,-122.384444444,,Census,City,CA,"Weed, California",0,0,0,0,0,0,0,0,0,0,0,0,0,0,0.0,0,2739,3223.0,2983.0,2879.0,3062.0,2978.0,2967.0
24018,217118,US,49728,37.7833333333,-122.416666667,"[[y1848,1000],[y1849,25000],[y1852,34776],[y2016,870887]]", USA,Consolidated city-county,CA,San Francisco,0,0,0,0,0,0,0,56802,149473,233959,298997,342782,416912,506676,634394.0,634536,775357,740316.0,715674.0,678974.0,723959.0,776733.0,805235.0
24035,14812,US,107566,35.5941666667,-119.340833333,,Census,City,CA,"Wasco, California",0,0,0,0,0,0,0,0,0,0,0,0,0,0,0.0,0,5592,6841.0,8269.0,9613.0,12412.0,21263.0,25545.0
24043,82200,US,82075,37.03,-122.01,,Census,County,CA,"Santa Cruz County, California",0,0,0,0,0,0,643,4944,8743,12802,19270,21512,26140,26269,37433.0,45057,66534,84219.0,123790.0,188141.0,229734.0,255602.0,262382.0
24243,16030,US,107839,33.8161111111,-117.811111111,,Census,General law city,CA,"Villa Park, California",0,0,0,0,0,0,0,0,0,0,0,0,0,0,0.0,0,0,0.0,2723.0,7137.0,6299.0,5999.0,5812.0
24250,90392,US,63816,33.6927777778,-118.000277778,,Census,Charter city,CA,"Huntington Beach, California",0,0,0,0,0,0,0,0,0,0,0,0,0,0,3690.0,3738,5237,11492.0,115960.0,170505.0,181519.0,189594.0,189992.0
24297,14855,US,108187,40.4522222222,-122.296666667,,Census,General law city,CA,"Anderson, California",0,0,0,0,0,0,0,0,0,0,508,0,0,0,0.0,0,0,4492.0,5492.0,7381.0,8299.0,9022.0,9932.0
24303,45585,US,107739,37.8736111111,-122.456666667,,Census,Town,CA,"Tiburon, California",0,0,0,0,0,0,0,0,0,0,0,0,0,0,0.0,0,0,0.0,6209.0,6685.0,7532.0,8666.0,8962.0
24355,25887,US,107908,33.6841666667,-117.255555556,,Census,City,CA,"Canyon Lake, California",0,0,0,0,0,0,0,0,0,0,0,0,0,0,0.0,0,0,0.0,0.0,2039.0,7938.0,9952.0,10561.0
24432,6443,US,23085034,37.0763888889,-120.193055556,,Census,Census-designated place,CA,"Fairmead, California",0,0,0,0,0,0,0,0,0,0,0,0,0,0,0.0,0,0,0.0,0.0,0.0,0.0,0.0,0.0
24449,16157,US,3313909,38.4030555556,-122.362222222,,Census,Town,CA,"Yountville, California",0,0,0,0,0,0,0,0,0,256,231,0,0,0,0.0,0,0,0.0,2332.0,2893.0,3259.0,2916.0,2933.0
24450,6333,US,32073641,39.7613888889,-120.519166667,,Census,Census-designated place,CA,"Gold Mountain, California",0,0,0,0,0,0,0,0,0,0,0,0,0,0,0.0,0,0,0.0,0.0,0.0,0.0,0.0,0.0
24508,30839,US,107406,37.8858333333,-122.118055556,,Census,City,CA,"Lafayette, California",0,0,0,0,0,0,0,0,0,0,0,0,0,0,0.0,0,0,7114.0,20484.0,20837.0,23501.0,23908.0,23893.0
24520,7948,US,22790229,41.1602777778,-124.133611111,,Census,Census-designated place,CA,"Big Lagoon, California",0,0,0,0,0,0,0,0,0,0,0,0,0,0,0.0,0,0,0.0,0.0,0.0,0.0,0.0,0.0
24543,52619,US,82123,40.66,-123.12,,Census,County,CA,"Trinity County, California",0,0,0,0,0,0,1635,5125,3213,4999,3719,4383,3301,2551,2809.0,3970,5087,9706.0,7615.0,11858.0,13063.0,13022.0,13786.0
24557,18914,US,117264,33.7736111111,-118.360833333,,Census,City,CA,"Rolling Hills Estates, California",0,0,0,0,0,0,0,0,0,0,0,0,0,0,0.0,0,0,3941.0,6735.0,7701.0,7789.0,7676.0,8067.0
24625,81232,US,82118,37.56,-120.99,,Census,County,CA,"Stanislaus County, California",0,0,0,0,0,0,0,2245,6499,8751,10040,9550,22522,43557,56641.0,74866,127231,157294.0,194506.0,265900.0,370522.0,446997.0,514453.0
24645,15196,US,108224,38.245,-122.016944444,,Census,General law city,CA,"Suisun City, California",0,0,0,0,0,0,0,0,462,554,499,625,641,769,905.0,706,946,2470.0,2917.0,11087.0,22686.0,26118.0,28111.0
24647,23692,US,107718,37.9094444444,-122.686388889,,Census,Census designated place,CA,"Bolinas, California",0,0,0,0,0,0,0,0,0,0,0,0,0,0,0.0,0,0,0.0,0.0,0.0,0.0,0.0,0.0
24712,11538,US,107537,35.2236111111,-118.562222222,,Census,Census-designated place,CA,"Keene, California",0,0,0,0,0,0,0,0,0,0,0,0,0,0,0.0,0,0,0.0,0.0,0.0,0.0,0.0,0.0
24776,18241,US,107462,36.5708333333,-119.611944444,,Census,City,CA,"Selma, California",0,0,0,0,0,0,0,0,0,0,1150,1083,1750,3158,3047.0,3667,5964,6934.0,7459.0,10942.0,14757.0,19444.0,23219.0
24777,49560,US,107693,34.0011111111,-118.211111111,,Census,City,CA,"Vernon, California",0,0,0,0,0,0,0,0,0,0,0,0,772,1005,1269.0,850,432,229.0,261.0,90.0,152.0,91.0,112.0
24778,16330,US,108249,37.6013888889,-120.957222222,,Census,City,CA,"Ceres, California",0,0,0,0,0,0,0,0,0,0,0,0,0,637,981.0,1332,2351,4406.0,6029.0,13281.0,26314.0,34609.0,45417.0
24843,9012,US,22790202,40.0686111111,-123.784444444,,Census,Census designated place,CA,"Benbow, California",0,0,0,0,0,0,0,0,0,0,0,0,0,0,0.0,0,0,0.0,0.0,0.0,0.0,0.0,0.0
24846,40610,US,107391,37.9319444444,-121.695833333,,Census,City,CA,"Brentwood, California",0,0,0,0,0,0,0,0,0,0,0,0,0,0,0.0,0,1729,2186.0,2649.0,4434.0,7563.0,23302.0,51481.0
24947,8889,US,107927,33.8386111111,-117.118055556,,Census,Census-designated place,CA,"Lakeview, California",0,0,0,0,0,0,0,0,0,0,0,0,0,0,0.0,0,0,0.0,0.0,0.0,0.0,0.0,0.0
24949,18116,US,107723,37.9522222222,-122.557222222,,Census,Census-designated place,CA,"Kentfield, California",0,0,0,0,0,0,0,0,0,0,0,0,0,0,0.0,0,0,0.0,0.0,0.0,0.0,0.0,0.0
24961,25972,US,107837,33.7397222222,-117.813611111,,Census,City,CA,"Tustin, California",0,0,0,0,0,0,0,0,0,227,0,0,0,0,926.0,953,1143,2006.0,22190.0,32248.0,50689.0,67504.0,75540.0
24965,10808,US,107700,33.8941666667,-118.266388889,,Census,Census designated place,CA,"West Rancho Dominguez, California",0,0,0,0,0,0,0,0,0,0,0,0,0,0,0.0,0,0,0.0,5748.0,5907.0,5451.0,5435.0,5669.0
25056,19357,US,107892,39.8102777778,-120.469722222,,Census,City,CA,"Portola, California",0,0,0,0,0,0,0,0,0,0,0,0,0,0,0.0,0,2261,1874.0,1625.0,1885.0,2193.0,2227.0,2104.0
25058,29287,US,107765,37.6486111111,-118.971944444,,Census,Town,CA,"Mammoth Lakes, California",0,0,0,0,0,0,0,0,0,473,0,0,0,0,0.0,0,0,0.0,0.0,3929.0,4785.0,7093.0,8234.0
25067,9709,US,107532,35.1544444444,-119.456111111,,Census,Census-designated place,CA,"Ford City, California",0,0,0,0,0,0,0,0,0,0,0,0,0,0,0.0,0,0,0.0,0.0,0.0,0.0,0.0,0.0
25091,8677,US,12715849,40.7436111111,-123.058611111,,Census,Census-designated place,CA,"Junction City, California",0,0,0,0,0,0,0,0,0,0,0,0,0,0,0.0,0,0,0.0,0.0,0.0,0.0,0.0,0.0
25124,9679,US,107371,38.3013888889,-120.277222222,,Census,Census-designated place,CA,"Dorrington, California",0,0,0,0,0,0,0,0,0,0,0,0,0,0,0.0,0,0,0.0,0.0,0.0,0.0,0.0,0.0
25143,12939,US,652714,37.8208333333,-121.907777778,,Census,Census-designated place,CA,"Blackhawk, California",0,0,0,0,0,0,0,0,0,0,0,0,0,0,0.0,0,0,0.0,0.0,0.0,0.0,0.0,0.0
25178,7924,US,18519644,36.4013888889,-119.718611111,,Census,Census-designated place,CA,"Hardwick, California",0,0,0,0,0,0,0,0,0,0,0,0,0,0,0.0,0,0,0.0,0.0,0.0,0.0,0.0,0.0
25195,9806,US,10262428,37.4197222222,-120.6675,,Census,Census designated place,CA,"Cressey, California",0,0,0,0,0,0,0,0,0,0,0,0,0,0,0.0,0,0,0.0,0.0,0.0,0.0,0.0,0.0
25205,17301,US,108180,36.9861111111,-121.980555556,,Census,Census-designated place,CA,"Live Oak, Santa Cruz County, California",0,0,0,0,0,0,0,0,0,0,0,0,0,0,0.0,0,0,0.0,0.0,0.0,0.0,0.0,0.0
25261,5595,US,32337647,38.3744444444,-123.071944444,,Census,Census-designated place,CA,"Carmet, California",0,0,0,0,0,0,0,0,0,0,0,0,0,0,0.0,0,0,0.0,0.0,0.0,0.0,0.0,0.0
25273,38068,US,108203,41.2216666667,-122.273055556,,Census,City,CA,"Dunsmuir, California",0,0,0,0,0,0,0,0,0,0,0,0,1719,2528,2610.0,2359,2256,2873.0,2214.0,2253.0,2129.0,1923.0,1650.0
25280,10321,US,1527466,38.4497222222,-123.115555556,,Census,Census-designated place,CA,"Jenner, California",0,0,0,0,0,0,0,0,0,0,0,0,0,0,0.0,0,0,0.0,0.0,0.0,0.0,0.0,0.0
25282,23593,US,107830,33.6413888889,-117.594444444,,Census,City,CA,"Rancho Santa Margarita, California",0,0,0,0,0,0,0,0,0,0,0,0,0,0,0.0,0,0,0.0,0.0,0.0,11390.0,47214.0,47853.0
25291,37603,US,107801,39.2613888889,-121.018611111,,Census,City,CA,"Nevada City, California",0,0,0,0,0,0,0,0,0,4022,2524,3250,2689,1782,1701.0,2445,2505,2353.0,2314.0,2431.0,2855.0,3001.0,3068.0
25308,5695,US,31817222,37.79,-121.885555556,,Census,Census-designated place,CA,"Camino Tassajara, California",0,0,0,0,0,0,0,0,0,0,0,0,0,0,0.0,0,0,0.0,0.0,0.0,0.0,0.0,0.0
25325,21171,US,107795,38.5052777778,-122.470277778,,Census,General law city,CA,"St. Helena, California",0,0,0,0,0,0,0,0,0,1339,1705,1582,1603,1346,1582.0,1758,2297,2722.0,3173.0,4898.0,4990.0,5950.0,5814.0
25385,7220,US,28289706,38.4619444444,-121.501666667,,Census,Census-designated place,CA,"Freeport, California",0,0,0,0,0,0,0,0,0,0,0,0,0,0,0.0,0,0,0.0,0.0,0.0,0.0,0.0,0.0
25412,20928,US,108000,34.2483333333,-117.189166667,,Census,Census-designated place,CA,"Lake Arrowhead, California",0,0,0,0,0,0,0,0,0,0,0,0,0,0,0.0,0,0,0.0,0.0,0.0,0.0,0.0,0.0
25447,9330,US,6398119,39.6452777778,-121.403333333,,Census,Census-designated place,CA,"Berry Creek, California",0,0,0,0,0,0,0,0,0,0,0,0,0,0,0.0,0,0,0.0,0.0,0.0,0.0,0.0,0.0
25485,40256,US,107555,35.6225,-117.670833333,,Census,City,CA,"Ridgecrest, California",0,0,0,0,0,0,0,0,0,0,0,0,0,0,0.0,0,2028,5099.0,7629.0,15929.0,27725.0,24927.0,27616.0
25497,7878,US,1972801,41.1213888889,-121.144166667,,Census,Census-designated place,CA,"Bieber, California",0,0,0,0,0,0,0,0,0,0,0,0,0,0,0.0,0,0,0.0,0.0,0.0,0.0,0.0,0.0
25527,21652,US,108235,38.5063888889,-122.990833333,,Census,Census-designated place,CA,"Guerneville, California",0,0,0,0,0,0,0,0,0,0,0,0,0,0,0.0,0,0,0.0,0.0,0.0,0.0,0.0,0.0
25550,16900,US,108040,33.3716666667,-117.236111111,,Census,Cdp,CA,"Fallbrook, California",0,0,0,0,0,0,0,0,0,0,0,0,0,0,9446.0,10768,15889,20987.0,25678.0,25988.0,26987.0,27988.0,29100.0
25581,118046,US,8488842,,,,Census,Metropolitan area of the californias,CA,San DiegoTijuana,0,0,0,0,0,0,0,0,0,0,0,0,0,0,0.0,0,0,0.0,0.0,0.0,3245397.0,4129433.0,5105769.0
25600,33734,US,15088038,37.7797222222,-119.075555556,,Census,Census designated place,CA,"June Lake, California",0,0,0,0,0,0,0,0,0,0,0,0,0,0,0.0,0,0,0.0,0.0,0.0,0.0,0.0,0.0
25624,10475,US,3587831,39.4519444444,-121.048611111,,Census,Census-designated place,CA,"Camptonville, California",0,0,0,0,0,0,0,0,0,0,0,0,0,0,0.0,0,0,0.0,0.0,0.0,0.0,0.0,0.0
25635,21134,US,108035,32.955,-117.263888889,,Census,City,CA,"Del Mar, California",0,0,0,0,0,0,0,0,0,0,0,0,0,0,0.0,0,0,3124.0,3956.0,5017.0,4860.0,4389.0,4161.0
25748,11007,US,107966,38.5666666667,-121.356666667,,Census,Census-designated place,CA,"La Riviera, California",0,0,0,0,0,0,0,0,0,0,0,0,0,0,0.0,0,0,0.0,0.0,0.0,0.0,0.0,0.0
25750,26073,US,107431,38.6858333333,-121.082222222,,Census,Census designated place,CA,"El Dorado Hills, California",0,0,0,0,0,0,0,0,0,0,0,0,0,0,0.0,0,0,0.0,0.0,0.0,0.0,0.0,0.0
25756,9264,US,107422,38.0086111111,-122.096111111,,Census,Census-designated place,CA,"Vine Hill, California",0,0,0,0,0,0,0,0,0,0,0,0,0,0,0.0,0,0,0.0,0.0,0.0,3214.0,3260.0,3761.0
25805,75330,US,82059,35.38,-120.45,,Census,County,CA,"San Luis Obispo County, California",0,0,0,0,0,0,336,1782,4772,9142,16072,16637,19383,21893,29613.0,33246,51417,81044.0,105690.0,155435.0,217162.0,246681.0,269637.0
25872,14740,US,1978920,32.6063888889,-116.468055556,,Census,Census-designated place,CA,"Campo, California",0,0,0,0,0,0,0,0,0,0,0,0,0,0,0.0,0,0,0.0,0.0,0.0,0.0,0.0,0.0
25909,13313,US,107697,33.9688888889,-118.223888889,,Census,Census-designated place,CA,"Walnut Park, California",0,0,0,0,0,0,0,0,0,0,0,0,0,0,0.0,0,0,0.0,8925.0,11811.0,14722.0,16180.0,15966.0
25920,52390,US,107681,34.1647222222,-118.050833333,,Census,City,CA,"Sierra Madre, California",0,0,0,0,0,0,0,0,0,0,0,0,1303,2026,3550.0,4581,7273,9732.0,12140.0,10837.0,10762.0,10578.0,10917.0
25937,26369,US,7882568,33.9636111111,-117.564166667,,Census,City,CA,"Eastvale, California",0,0,0,0,0,0,0,0,0,0,0,0,0,0,0.0,0,0,0.0,0.0,0.0,0.0,0.0,0.0
26033,13511,US,745079,38.8025,-120.894722222,,Census,Census-designated place,CA,"Coloma, California",0,0,0,0,0,0,0,0,0,0,0,0,0,0,0.0,0,0,0.0,0.0,0.0,0.0,0.0,0.0
26045,21732,US,107764,41.4872222222,-120.5425,,Census,General law city,CA,"Alturas, California",0,0,0,0,0,0,0,0,0,148,0,0,916,979,2338.0,2090,2819,2819.0,2799.0,3025.0,3231.0,2892.0,2827.0
26052,118826,US,82130,,,,Census,County,CA,"Ventura County, California",0,0,0,0,0,0,0,0,0,5073,10071,14367,18347,28724,54976.0,69685,114647,199138.0,376430.0,529174.0,669016.0,753197.0,823318.0
26056,21392,US,107535,35.6469444444,-117.8125,,Census,Census designated place,CA,"Inyokern, California",0,0,0,0,0,0,0,0,0,0,0,0,0,0,0.0,0,0,0.0,0.0,0.0,0.0,0.0,0.0
26123,15759,US,107538,35.7547222222,-118.425277778,,Census,Census-designated place,CA,"Kernville, California",0,0,0,0,0,0,0,0,0,0,0,0,0,0,0.0,0,0,0.0,0.0,0.0,0.0,0.0,0.0
26141,19104,US,107352,38.3488888889,-120.774166667,,Census,City,CA,"Jackson, California",0,0,0,0,0,0,0,0,0,1040,0,0,2035,1601,2005.0,2024,1879,1852.0,1924.0,2331.0,3545.0,3989.0,4651.0
26160,11721,US,108248,37.62,-120.979722222,,Census,Census-designated place,CA,"Bystrom, California",0,0,0,0,0,0,0,0,0,0,0,0,0,0,0.0,0,0,0.0,0.0,0.0,0.0,0.0,0.0
26173,71355,US,82030,39.06,-120.73,,Census,County,CA,"Placer County, California",0,0,0,0,0,0,0,13270,11357,14232,15101,15786,18237,18584,24468.0,28108,41649,56998.0,77306.0,117247.0,172796.0,248399.0,348432.0
26289,12044,US,108204,41.4616666667,-122.427222222,,Census,Census-designated place,CA,"Edgewood, California",0,0,0,0,0,0,0,0,0,0,0,0,0,0,0.0,0,0,0.0,0.0,0.0,0.0,0.0,0.0
26293,21952,US,107815,33.9319444444,-117.946111111,,Census,City,CA,"La Habra, California",0,0,0,0,0,0,0,0,0,0,0,0,0,0,2273.0,2499,4961,25136.0,41350.0,45232.0,51266.0,58974.0,60239.0
26294,13044,US,107863,40.17,-121.075555556,,Census,Census-designated place,CA,"Canyondam, California",0,0,0,0,0,0,0,0,0,0,0,0,0,0,0.0,0,0,0.0,0.0,0.0,0.0,0.0,0.0
26296,17052,US,1608583,41.5291666667,-120.173333333,,Census,Census-designated place,CA,"Cedarville, California",0,0,0,0,0,0,0,0,0,0,0,0,0,0,0.0,0,0,0.0,0.0,0.0,0.0,0.0,0.0
26298,22564,US,107760,37.0583333333,-120.85,,Census,City,CA,"Los Banos, California",0,0,0,0,0,0,0,0,0,0,0,0,745,1276,1875.0,2214,3868,5272.0,9188.0,10341.0,14519.0,25869.0,35972.0
26304,18528,US,107848,38.8872222222,-121.296111111,,Census,General law city,CA,"Lincoln, California",0,0,0,0,0,0,0,0,0,275,961,1061,1402,1325,2094.0,2044,2410,3197.0,3176.0,4132.0,7248.0,11205.0,42819.0
26350,24023,US,108261,37.7691666667,-120.856944444,,Census,City,CA,"Oakdale, California",0,0,0,0,0,0,0,0,0,376,1012,0,1035,1745,2112.0,2592,4064,4980.0,6594.0,8474.0,11961.0,15503.0,20675.0
26374,23492,US,108109,37.4644444444,-122.266388889,,Census,Census-designated place,CA,"Emerald Lake Hills, California",0,0,0,0,0,0,0,0,0,0,0,0,0,0,0.0,0,0,0.0,0.0,0.0,0.0,0.0,0.0
26389,16393,US,3203060,40.1763888889,-123.611666667,,Census,Census-designated place,CA,"Alderpoint, California",0,0,0,0,0,0,0,0,0,0,0,0,0,0,0.0,0,0,0.0,0.0,0.0,0.0,0.0,0.0
26400,9799,US,2184171,37.4786111111,-119.640555556,,Census,Census-designated place,CA,"Fish Camp, California",0,0,0,0,0,0,0,0,0,0,0,0,0,0,0.0,0,0,0.0,0.0,0.0,0.0,0.0,0.0
26404,12012,US,108063,32.7344444444,-116.981388889,,Census,Census-designated place,CA,"Spring Valley, San Diego County, California",0,0,0,0,0,0,0,0,0,0,0,0,0,0,0.0,0,0,0.0,29742.0,40191.0,55331.0,26663.0,28205.0
26417,51133,US,107817,33.5313888889,-117.769166667,,Census,City,CA,"Laguna Beach, California",0,0,0,0,0,0,0,0,0,0,0,0,0,0,1981.0,4460,6661,9288.0,14550.0,17858.0,23170.0,23727.0,22723.0
26480,20396,US,107787,36.6111111111,-121.844722222,,Census,City,CA,"Seaside, California",0,0,0,0,0,0,0,0,0,0,0,0,0,0,0.0,0,0,19353.0,36883.0,36567.0,38901.0,31696.0,33025.0
26538,12094,US,107820,33.6091666667,-117.732777778,,Census,General law city,CA,"Laguna Woods, California",0,0,0,0,0,0,0,0,0,0,0,0,0,0,0.0,0,0,0.0,0.0,0.0,0.0,16507.0,16192.0
26606,13141,US,108155,37.1577777778,-121.983888889,,Census,Census-designated place,CA,"Lexington Hills, California",0,0,0,0,0,0,0,0,0,0,0,0,0,0,0.0,0,0,0.0,0.0,0.0,2064.0,2454.0,2421.0
26655,10126,US,108290,35.8825,-119.27,,Census,Census-designated place,CA,"Earlimart, California",0,0,0,0,0,0,0,0,0,0,0,0,0,0,0.0,0,0,0.0,0.0,0.0,0.0,0.0,0.0
26663,18513,US,108101,37.5180555556,-122.291666667,,Census,City,CA,"Belmont, California",0,0,0,0,0,0,0,0,0,202,0,0,0,0,984.0,1229,5567,15996.0,23538.0,24505.0,24127.0,25123.0,25835.0
26679,38688,US,108196,40.5833333333,-122.366666667,,Census,General law city,CA,"Redding, California",0,0,0,0,0,0,0,0,0,600,1821,2946,3572,2962,4188.0,8109,10256,12773.0,16659.0,42103.0,66462.0,80865.0,89861.0
26702,11987,US,303457,37.0436111111,-122.136944444,,Census,Census-designated place,CA,"Bonny Doon, California",0,0,0,0,0,0,0,0,0,0,0,0,0,0,0.0,0,0,0.0,0.0,0.0,0.0,0.0,0.0
26717,27238,US,116844,38.94,-119.976944444,,Census,City,CA,"South Lake Tahoe, California",0,0,0,0,0,0,0,0,0,0,0,0,0,0,0.0,0,0,0.0,12921.0,20681.0,21586.0,23609.0,21403.0
26731,13751,US,108319,37.955,-120.405277778,,Census,Census-designated place,CA,"Jamestown, California",0,0,0,0,0,0,0,0,0,0,0,0,0,0,0.0,0,0,0.0,0.0,0.0,0.0,0.0,0.0
26746,18253,US,108223,38.1638888889,-121.695833333,,Census,City,CA,"Rio Vista, California",0,0,0,0,0,0,0,0,319,666,648,682,884,1104,1309.0,1666,1831,2616.0,3135.0,3142.0,3316.0,4571.0,7360.0
26751,73033,US,79758,,,,Census,County,CA,"Amador County, California",0,0,0,0,0,0,0,10930,9582,11384,10320,11116,9086,7793,8494.0,8973,9151,9990.0,11821.0,19314.0,30039.0,35100.0,38091.0
26767,12260,US,107355,39.4138888889,-121.710277778,,Census,City,CA,"Biggs, California",0,0,0,0,0,0,0,0,0,95,571,0,403,683,463.0,547,784,831.0,1115.0,1413.0,1581.0,1793.0,1707.0
26801,11481,US,5325403,39.6197222222,-122.193888889,,Census,Census-designated place,CA,"Artois, California",0,0,0,0,0,0,0,0,0,0,0,0,0,0,0.0,0,0,0.0,0.0,0.0,0.0,0.0,0.0
26817,43783,US,108140,34.9513888889,-120.433333333,,Census,Charter city,CA,"Santa Maria, California",0,0,0,0,0,0,0,0,0,0,0,0,2260,3943,7057.0,8522,10440,20027.0,32749.0,39685.0,61284.0,77423.0,99553.0
26819,17245,US,108234,38.4375,-122.866388889,,Census,Census-designated place,CA,"Graton, California",0,0,0,0,0,0,0,0,0,0,0,0,0,0,0.0,0,0,0.0,0.0,0.0,0.0,0.0,0.0
26871,46599,US,107918,33.7475,-116.971944444,,Census,City,CA,"Hemet, California",0,0,0,0,0,0,0,0,0,0,0,0,992,1480,2235.0,2595,3386,5416.0,12252.0,22531.0,36094.0,58812.0,78657.0
26883,19469,US,107646,34.1144444444,-117.771388889,,Census,City,CA,"La Verne, California",0,0,0,0,0,0,0,0,0,0,0,0,954,1698,2860.0,3092,4198,6516.0,12965.0,23508.0,30897.0,31638.0,31063.0
26910,33335,US,108065,33.1936111111,-117.241111111,,Census,Charter city,CA,"Vista, California",0,0,0,0,0,0,0,0,0,0,0,0,0,0,0.0,0,1705,14795.0,24688.0,35834.0,71872.0,89857.0,93834.0
26934,2559,US,23053289,40.8944444444,-121.1775,,Census,Unincorporated community,CA,"Little Valley, California",0,0,0,0,0,0,0,0,0,0,0,0,0,0,0.0,0,0,0.0,0.0,0.0,0.0,0.0,0.0
26940,15236,US,4492668,38.4138888889,-122.546111111,,Census,Census-designated place &amp; unincorporated community,CA,"Kenwood, California",0,0,0,0,0,0,0,0,0,0,0,0,0,0,0.0,0,0,0.0,0.0,0.0,0.0,0.0,0.0
27049,6389,US,12664391,34.8858333333,-120.313888889,,Census,Census-designated place,CA,"Garey, California",0,0,0,0,0,0,0,0,0,0,0,0,0,0,0.0,0,0,0.0,0.0,0.0,0.0,0.0,0.0
27062,19262,US,107709,37.1166666667,-120.266666667,,Census,City,CA,"Chowchilla, California",0,0,0,0,0,0,0,0,0,0,0,0,0,0,847.0,1957,3893,4525.0,4349.0,5122.0,5930.0,11127.0,18720.0
27064,21309,US,108329,34.2391666667,-119.158888889,,Census,Census designated place,CA,"El Rio, California",0,0,0,0,0,0,0,0,0,0,0,0,0,0,0.0,0,0,0.0,0.0,0.0,0.0,0.0,0.0
27074,7287,US,9085193,40.6516666667,-122.256388889,,Census,Census-designated place,CA,"Bella Vista, California",0,0,0,0,0,0,0,0,0,0,0,0,0,0,0.0,0,0,0.0,0.0,0.0,0.0,0.0,0.0
27078,10990,US,108191,40.7052777778,-122.635277778,,Census,Census-designated place,CA,"French Gulch, California",0,0,0,0,0,0,0,0,0,0,0,0,0,0,0.0,0,0,0.0,0.0,0.0,0.0,0.0,0.0
27092,37640,US,18627,37.3680555556,-122.0975,,Census,City,CA,"Los Altos, California",0,0,0,0,0,0,0,0,0,0,0,0,0,0,0.0,0,0,19696.0,25062.0,25769.0,26303.0,27693.0,28976.0
27100,5991,US,32348700,36.3088888889,-119.2225,,Census,Census-designated place,CA,"Linnell Camp, California",0,0,0,0,0,0,0,0,0,0,0,0,0,0,0.0,0,0,0.0,0.0,0.0,0.0,0.0,0.0
27105,23374,US,107359,39.3638888889,-121.693611111,,Census,General law city,CA,"Gridley, California",0,0,0,0,0,0,0,0,0,352,686,0,987,1636,1941.0,2338,3054,3343.0,3534.0,3982.0,4631.0,5382.0,6584.0
27112,10035,US,107758,37.2286111111,-120.248333333,,Census,Census-designated place,CA,"Le Grand, California",0,0,0,0,0,0,0,0,0,0,0,0,0,0,0.0,0,0,0.0,0.0,0.0,0.0,0.0,0.0
27131,49775,US,107622,33.9380555556,-118.130833333,,Census,City,CA,"Downey, California",0,0,0,0,0,0,0,0,0,0,0,0,0,0,0.0,0,0,82505.0,88573.0,82602.0,91444.0,107323.0,111772.0
27161,48498,US,108011,34.1233333333,-117.579444444,,Census,City,CA,"Rancho Cucamonga, California",0,0,0,0,0,0,0,0,0,0,0,0,0,0,0.0,0,0,0.0,0.0,55250.0,101409.0,127743.0,165269.0
27202,12331,US,107583,38.9780555556,-122.839444444,,Census,Cdp,CA,"Kelseyville, California",0,0,0,0,0,0,0,0,0,0,0,0,0,0,0.0,0,0,0.0,0.0,0.0,0.0,0.0,0.0
27234,14485,US,108189,40.8805555556,-121.666666667,,Census,Census-designated place,CA,"Burney, California",0,0,0,0,0,0,0,0,0,0,0,0,0,0,0.0,0,0,0.0,0.0,0.0,0.0,0.0,0.0
27250,24690,US,117495,34.1355555556,-116.054166667,,Census,City,CA,"Twentynine Palms, California",0,0,0,0,0,0,0,0,0,0,0,0,0,0,0.0,0,0,0.0,5667.0,7465.0,11821.0,14764.0,25048.0
27259,63505,US,108096,35.2741666667,-120.663055556,,Census,Charter city,CA,"San Luis Obispo, California",0,0,0,0,0,0,0,0,0,2243,2995,3021,5157,5895,8276.0,8881,14180,20437.0,28036.0,34252.0,41958.0,44174.0,45119.0
27282,10599,US,108041,32.8041666667,-116.910555556,,Census,Census-designated place,CA,"Granite Hills, California",0,0,0,0,0,0,0,0,0,0,0,0,0,0,0.0,0,0,0.0,0.0,0.0,0.0,0.0,0.0
27342,14755,US,107570,36.3158333333,-119.708333333,,Census,Census-designated place,CA,"Armona, California",0,0,0,0,0,0,0,0,0,0,0,0,0,0,0.0,0,0,0.0,0.0,0.0,0.0,0.0,0.0
27451,11205,US,1973024,37.1058333333,-122.110555556,,Census,Census-designated place,CA,"Brookdale, California",0,0,0,0,0,0,0,0,0,0,0,0,0,0,0.0,0,0,0.0,0.0,0.0,0.0,0.0,0.0
27452,36013,US,107854,38.7525,-121.289444444,,Census,City,CA,"Roseville, California",0,0,0,0,0,0,0,0,115,258,345,0,2608,4477,6425.0,6653,8723,13421.0,18221.0,24347.0,44685.0,79921.0,118788.0
27518,10734,US,107703,34.0508333333,-117.969722222,,Census,Census-designated place,CA,"West Puente Valley, California",0,0,0,0,0,0,0,0,0,0,0,0,0,0,0.0,0,0,0.0,20733.0,20445.0,20254.0,22589.0,22636.0
27532,9885,US,108049,33.1225,-117.209444444,,Census,Census-designated place,CA,"Lake San Marcos, California",0,0,0,0,0,0,0,0,0,0,0,0,0,0,0.0,0,0,0.0,0.0,0.0,0.0,0.0,0.0
27582,6110,US,23914988,35.0530555556,-120.596388889,,Census,Census-designated place,CA,"Callender, California",0,0,0,0,0,0,0,0,0,0,0,0,0,0,0.0,0,0,0.0,0.0,0.0,0.0,0.0,0.0
27607,59650,US,107995,34.1,-117.466666667,,Census,General law city,CA,"Fontana, California",0,0,0,0,0,0,0,0,0,0,0,0,0,0,0.0,0,0,14659.0,20673.0,36804.0,87535.0,128929.0,196069.0
27638,37431,US,79007,34.1383333333,-118.660833333,,Census,City,CA,"Calabasas, California",0,0,0,0,0,0,0,0,0,0,0,0,0,0,0.0,0,0,0.0,0.0,0.0,0.0,20033.0,23058.0
27653,27926,US,107591,40.4163888889,-120.653055556,,Census,City,CA,"Susanville, California",0,0,0,0,0,0,0,0,0,0,882,0,688,918,1358.0,1575,5338,5598.0,6608.0,6520.0,7279.0,13541.0,17947.0
27704,95456,US,82063,37.44,-122.36,,Census,County,CA,"San Mateo County, California",0,0,0,0,0,0,0,3214,6635,8669,10087,12094,26585,36781,77405.0,111782,235659,444387.0,556234.0,587329.0,649623.0,707161.0,718451.0
27718,25574,US,108047,32.7713888889,-117.022777778,,Census,General law city,CA,"La Mesa, California",0,0,0,0,0,0,0,0,0,0,0,0,0,1004,2513.0,3925,10946,30441.0,39178.0,50308.0,52931.0,54749.0,57065.0
27727,12322,US,108152,37.3838888889,-121.8225,,Census,Census designated place,CA,"East Foothills, San Jose",0,0,0,0,0,0,0,0,0,0,0,0,0,0,0.0,0,0,0.0,0.0,0.0,0.0,0.0,0.0
27783,40995,US,108130,34.4405555556,-119.813611111,,Census,General law city,CA,"Goleta, California",0,0,0,0,0,0,0,0,0,0,0,0,0,0,0.0,0,0,0.0,0.0,0.0,0.0,55204.0,29888.0
27799,26980,US,107657,33.9794444444,-118.452777778,,Census,Census-designated place,CA,"Marina del Rey, California",0,0,0,0,0,0,0,0,0,0,0,0,0,0,0.0,0,0,0.0,0.0,8065.0,7431.0,8176.0,8866.0
27840,16413,US,107493,32.8111111111,-115.380277778,,Census,City,CA,"Holtville, California",0,0,0,0,0,0,0,0,0,0,0,0,729,1347,1758.0,1772,2472,3080.0,3496.0,4399.0,4820.0,5612.0,5939.0
27856,6149,US,32165141,38.5172222222,-121.457222222,,Census,Census-designated place,CA,"Lemon Hill, California",0,0,0,0,0,0,0,0,0,0,0,0,0,0,0.0,0,0,0.0,0.0,0.0,0.0,0.0,0.0
27877,61176,US,82024,37.9166666667,-118.866666667,,Census,County,CA,"Mono County, California",0,0,0,0,0,0,0,0,430,7499,2002,2167,2042,960,1360.0,2299,2115,2213.0,4016.0,8577.0,9956.0,12853.0,14202.0
27923,19700,US,107710,36.9613888889,-120.060833333,,Census,City,CA,"Madera, California",0,0,0,0,0,0,0,0,0,217,950,0,2404,3444,4665.0,6457,10497,14430.0,16044.0,21732.0,29281.0,43207.0,61416.0
27926,40337,US,107403,38.0172222222,-122.288611111,,Census,City,CA,"Hercules, California",0,0,0,0,0,0,0,0,0,0,0,0,279,373,392.0,343,343,310.0,252.0,5963.0,16829.0,19488.0,24060.0
27937,51282,US,107661,34.0144444444,-118.114444444,,Census,City,CA,"Montebello, California",0,0,0,0,0,0,0,0,0,0,0,0,0,0,5498.0,8016,21735,32097.0,42807.0,52929.0,59564.0,62150.0,62500.0
28089,10854,US,107747,39.6883333333,-123.482777778,,Census,Census-designated place,CA,"Laytonville, California",0,0,0,0,0,0,0,0,0,0,0,0,0,0,0.0,0,0,0.0,0.0,0.0,0.0,0.0,0.0
28131,27740,US,107599,33.8672222222,-118.080555556,,Census,City,CA,"Artesia, California",0,0,0,0,0,0,0,0,0,0,0,0,0,0,0.0,0,3223,9993.0,14757.0,14301.0,15464.0,16380.0,16522.0
28136,11481,US,108230,38.3419444444,-122.511944444,,Census,Census-designated place,CA,"Eldridge, California",0,0,0,0,0,0,0,0,0,0,0,0,0,0,0.0,0,0,0.0,0.0,0.0,0.0,0.0,0.0
28205,30104,US,108170,36.9813888889,-121.9075,,Census,Census designated place,CA,"Aptos, California",0,0,0,0,0,0,0,0,0,0,0,0,0,0,0.0,0,0,0.0,0.0,0.0,0.0,0.0,0.0
28216,48642,US,6024874,34.4166666667,-118.506388889,,Census,City,CA,"Santa Clarita, California",0,0,0,0,0,0,0,0,0,0,0,0,0,0,0.0,0,0,0.0,0.0,0.0,110642.0,151088.0,176320.0
28245,10313,US,12663906,34.8375,-120.531111111,,Census,Census-designated place,CA,"Casmalia, California",0,0,0,0,0,0,0,0,0,0,0,0,0,0,0.0,0,0,0.0,0.0,0.0,0.0,0.0,0.0
28282,33762,US,103667,33.0444444444,-117.271666667,,Census,City,CA,"Encinitas, California",0,0,0,0,0,0,0,0,0,0,0,0,0,0,0.0,0,0,2786.0,5375.0,10796.0,55386.0,58014.0,59518.0
28337,37381,US,108092,35.3658333333,-120.85,,Census,City,CA,"Morro Bay, California",0,0,0,0,0,0,0,0,0,0,0,0,0,0,0.0,0,1659,3692.0,7109.0,9064.0,9664.0,10350.0,10234.0
28338,27934,US,108110,37.5513888889,-122.266388889,,Census,City,CA,"Foster City, California",0,0,0,0,0,0,0,0,0,0,0,0,0,0,0.0,0,0,0.0,9327.0,23287.0,28176.0,28803.0,30567.0
28345,7839,US,10443365,38.1719444444,-121.280277778,,Census,Census-designated place,CA,"Acampo, California",0,0,0,0,0,0,0,0,0,0,0,0,0,0,0.0,0,0,0.0,0.0,0.0,0.0,0.0,0.0
28385,28510,US,107660,34.1459111111,-118.00095,,Census,City,CA,"Monrovia, California",0,0,0,0,0,0,0,0,0,0,907,1205,3576,5480,10890.0,12807,20186,27079.0,30562.0,30531.0,35761.0,36929.0,36590.0
28419,5925,US,107914,33.6105555556,-114.573888889,,Census,Former census-designated place (cdp),CA,"East Blythe, California",0,0,0,0,0,0,0,0,0,0,0,0,0,0,0.0,0,0,0.0,0.0,1660.0,1511.0,3.0,0.0
28437,9447,US,7208566,38.7997222222,-121.718333333,,Census,Census-designated place,CA,"Knights Landing, California",0,0,0,0,0,0,0,0,0,0,0,0,0,0,0.0,0,0,0.0,0.0,0.0,0.0,0.0,0.0
28473,16512,US,17631664,39.4408333333,-120.739722222,,Census,Census-designated place &amp; unincorporated community,CA,"Graniteville, California",0,0,0,0,0,0,0,0,0,0,0,0,0,0,0.0,0,0,0.0,0.0,0.0,0.0,0.0,0.0
28513,33238,US,107385,37.8502777778,-122.032222222,,Census,Census-designated place,CA,"Alamo, California",0,0,0,0,0,0,0,0,0,0,0,0,0,0,0.0,0,0,1791.0,0.0,8505.0,12277.0,15626.0,14570.0
28541,23035,US,108131,34.9655555556,-120.573055556,,Census,City,CA,"Guadalupe, California",0,0,0,0,0,0,0,0,0,174,0,0,0,0,0.0,0,2429,2614.0,3145.0,3629.0,5479.0,5659.0,7080.0
28556,5573,US,31830480,36.8791666667,-119.761388889,,Census,Census-designated place,CA,"Fort Washington, California",0,0,0,0,0,0,0,0,0,0,0,0,0,0,0.0,0,0,0.0,0.0,0.0,0.0,0.0,0.0
28575,13607,US,107581,38.8222222222,-122.723055556,,Census,Census designated place,CA,"Cobb, California",0,0,0,0,0,0,0,0,0,0,0,0,0,0,0.0,0,0,0.0,0.0,0.0,0.0,0.0,0.0
28610,23184,US,107707,33.9175,-118.252777778,,Census,Census-designated place,CA,"Willowbrook, California",0,0,0,0,0,0,0,0,0,0,0,0,0,0,0.0,0,0,0.0,28705.0,30845.0,32772.0,34138.0,35983.0
28637,15203,US,108177,37.0513888889,-122.055833333,,Census,Census-designated place,CA,"Felton, California",0,0,0,0,0,0,0,0,0,271,259,0,0,0,0.0,0,0,1380.0,2062.0,4564.0,5350.0,1051.0,4057.0
28672,36984,US,108349,39.15,-121.583333333,,Census,City and county seat,CA,"Marysville, California",0,0,0,0,0,0,0,0,4738,4321,3991,3497,5430,5461,5763.0,6646,7826,9553.0,9353.0,9898.0,12324.0,12268.0,12072.0
28687,9141,US,107529,35.2194444444,-119.390555556,,Census,Census-designated place,CA,"Dustin Acres, California",0,0,0,0,0,0,0,0,0,0,0,0,0,0,0.0,0,0,0.0,0.0,0.0,0.0,0.0,0.0
28715,83071,US,53445,37.4291666667,-122.138055556,,Census,Charter city,CA,"Palo Alto, California",0,0,0,0,0,0,0,0,0,0,0,1658,4486,5900,13652.0,16774,25475,52287.0,56040.0,55225.0,55900.0,58598.0,64403.0
28720,10448,US,107523,35.5880555556,-118.491944444,,Census,Census-designated place,CA,"Bodfish, California",0,0,0,0,0,0,0,0,0,0,0,0,0,0,0.0,0,0,0.0,0.0,0.0,0.0,0.0,0.0
28789,22705,US,107483,41.0591666667,-124.143055556,,Census,City,CA,"Trinidad, California",0,0,0,0,0,0,0,0,0,104,0,0,0,0,107.0,94,188,289.0,300.0,379.0,362.0,311.0,367.0
28796,10510,US,107440,36.5013888889,-120.316388889,,Census,Census-designated place,CA,"Cantua Creek, California",0,0,0,0,0,0,0,0,0,0,0,0,0,0,0.0,0,0,0.0,0.0,0.0,0.0,0.0,0.0
28859,14670,US,107844,39.1886111111,-120.108888889,,Census,Census-designated place,CA,"Dollar Point, California",0,0,0,0,0,0,0,0,0,0,0,0,0,0,0.0,0,0,0.0,0.0,0.0,0.0,0.0,0.0
28900,9993,US,107438,36.6041666667,-119.751111111,,Census,Census-designated place,CA,"Bowles, California",0,0,0,0,0,0,0,0,0,0,0,0,0,0,0.0,0,0,0.0,0.0,0.0,0.0,0.0,0.0
28926,6254,US,31800071,39.7441666667,-121.707222222,,Census,Census-designated place,CA,"Butte Creek Canyon, California",0,0,0,0,0,0,0,0,0,0,0,0,0,0,0.0,0,0,0.0,0.0,0.0,0.0,0.0,0.0
29018,16737,US,107454,36.7536111111,-120.381666667,,Census,City,CA,"Mendota, California",0,0,0,0,0,0,0,0,0,0,0,0,0,0,0.0,0,1516,2099.0,2705.0,5038.0,6821.0,7890.0,11014.0
29034,38146,US,108009,34.8480555556,-114.614166667,,Census,Charter city,CA,"Needles, California",0,0,0,0,0,0,0,0,0,0,0,0,0,2807,3144.0,3624,4051,4590.0,4051.0,4120.0,5191.0,4830.0,4844.0
29074,29033,US,107668,33.9888888889,-118.089166667,,Census,City,CA,"Pico Rivera, California",0,0,0,0,0,0,0,0,0,0,0,0,0,0,0.0,0,0,49150.0,54170.0,53387.0,59177.0,63428.0,62942.0
29077,21413,US,107958,38.4383333333,-121.381944444,,Census,General law city,CA,"Elk Grove, California",0,0,0,0,0,0,0,0,0,0,0,0,0,0,0.0,0,0,2205.0,3721.0,10959.0,17483.0,59984.0,153015.0
29088,9737,US,107859,40.0063888889,-121.2525,,Census,Census-designated place,CA,"Belden, California",0,0,0,0,0,0,0,0,0,0,0,0,0,0,0.0,0,0,0.0,0.0,0.0,0.0,0.0,0.0
29156,3370,US,32348515,36.1436111111,-118.577222222,,Census,Census-designated place,CA,"Cedar Slope, California",0,0,0,0,0,0,0,0,0,0,0,0,0,0,0.0,0,0,0.0,0.0,0.0,0.0,0.0,0.0
29196,8006,US,23161574,39.49,-123.785555556,,Census,Census-designated place,CA,"Cleone, California",0,0,0,0,0,0,0,0,0,0,0,0,0,0,0.0,0,0,0.0,0.0,0.0,0.0,0.0,0.0
29271,40090,US,108055,32.97,-117.038611111,,Census,General law city,CA,"Poway, California",0,0,0,0,0,0,0,0,0,0,0,0,0,0,0.0,0,0,1921.0,9422.0,32263.0,43516.0,48044.0,47811.0
29284,14863,US,107873,39.7644444444,-120.623333333,,Census,Census-designated place,CA,"Graeagle, California",0,0,0,0,0,0,0,0,0,0,0,0,0,0,0.0,0,0,0.0,0.0,0.0,0.0,0.0,0.0
29307,52574,US,108161,37.3894444444,-122.081944444,,Census,Charter city,CA,"Mountain View, California",0,0,0,0,0,0,0,0,0,250,0,0,0,0,3308.0,3946,6563,30889.0,54132.0,58655.0,67460.0,70708.0,74066.0
29337,10444,US,107800,39.235,-121.203055556,,Census,Census-designated place,CA,"Lake Wildwood, California",0,0,0,0,0,0,0,0,0,0,0,0,0,0,0.0,0,0,0.0,0.0,0.0,0.0,0.0,0.0
29344,69521,US,75346,34.0730555556,-118.399444444,,Census,General law city,CA,"Beverly Hills, California",0,0,0,0,0,0,0,0,0,0,0,0,0,674,17429.0,26823,29032,30817.0,33416.0,32646.0,31971.0,33784.0,34109.0
29373,16526,US,107816,33.8494444444,-118.043888889,,Census,City,CA,"La Palma, California",0,0,0,0,0,0,0,0,0,0,0,0,0,0,0.0,0,0,622.0,9687.0,15399.0,15392.0,15408.0,15568.0
29404,10727,US,31134451,34.0,-117.483333333,,Census,City,CA,"Jurupa Valley, California",0,0,0,0,0,0,0,0,0,0,0,0,0,0,0.0,0,0,0.0,0.0,0.0,0.0,0.0,95005.0
29417,64878,US,108012,34.0547222222,-117.1825,,Census,General law city,CA,"Redlands, California",0,0,0,0,0,0,0,0,0,0,1904,4797,10449,9571,14177.0,14324,18429,26829.0,36355.0,43619.0,60394.0,63591.0,68747.0
29422,10846,US,2707700,38.5038888889,-120.755555556,,Census,Census designated place,CA,"Fiddletown, California",0,0,0,0,0,0,0,0,0,0,0,0,0,0,0.0,0,0,0.0,0.0,0.0,0.0,0.0,0.0
29448,6003,US,32153781,33.8416666667,-116.248055556,,Census,Census-designated place,CA,"Indio Hills, California",0,0,0,0,0,0,0,0,0,0,0,0,0,0,0.0,0,0,0.0,0.0,0.0,0.0,0.0,0.0
29465,57665,US,107649,34.6833333333,-118.15,,Census,Charter city,CA,"Lancaster, California",0,0,0,0,0,0,0,0,0,0,0,0,0,0,0.0,0,0,26012.0,30948.0,48027.0,97291.0,118718.0,156633.0
29471,24501,US,107983,34.5761111111,-117.432777778,,Census,City,CA,"Adelanto, California",0,0,0,0,0,0,0,0,0,0,0,0,0,0,0.0,0,0,0.0,2115.0,2164.0,8517.0,18130.0,31765.0
29499,10189,US,107447,36.6333333333,-119.683333333,,Census,City,CA,"Fowler, California",0,0,0,0,0,0,0,0,0,0,0,0,675,1528,1171.0,1531,1857,1892.0,2239.0,2496.0,3208.0,3979.0,5570.0
29554,13596,US,107722,38.1011111111,-122.856944444,,Census,Census-designated place,CA,"Inverness, California",0,0,0,0,0,0,0,0,0,0,0,0,0,0,0.0,0,0,0.0,0.0,0.0,0.0,0.0,0.0
29609,18674,US,107963,38.2608333333,-121.303055556,,Census,City,CA,"Galt, California",0,0,0,0,0,0,0,0,0,0,0,0,0,0,0.0,0,1333,1868.0,3200.0,5514.0,8889.0,19472.0,23647.0
29610,32965,US,107701,34.0566666667,-117.918611111,,Census,General law city,CA,"West Covina, California",0,0,0,0,0,0,0,0,0,0,0,0,0,0,769.0,1072,4499,50645.0,68034.0,80292.0,96086.0,105080.0,106098.0
29612,11661,US,107786,36.6172222222,-121.848333333,,Census,City,CA,"Sand City, California",0,0,0,0,0,0,0,0,0,0,0,0,0,0,0.0,0,0,0.0,212.0,182.0,192.0,261.0,334.0
29686,25479,US,107677,34.2872222222,-118.438888889,,Census,City,CA,"San Fernando, California",0,0,0,0,0,0,0,0,0,0,0,0,0,3204,7567.0,9094,12992,16093.0,16571.0,17731.0,22580.0,23564.0,23645.0
29690,12118,US,1979240,38.5333333333,-123.085277778,,Census,Census-designated place &amp; unincorporated community,CA,"Cazadero, California",0,0,0,0,0,0,0,0,0,0,0,0,0,0,0.0,0,0,0.0,0.0,0.0,0.0,0.0,0.0
29726,67617,US,3052,37.7561111111,-122.274444444,,Census,Charter city,CA,"Alameda, California",0,0,0,0,0,0,0,460,1557,5708,11165,16464,23383,28806,35033.0,36256,64430,63855.0,70968.0,63852.0,76459.0,72259.0,73812.0
29737,9757,US,116887,35.6405555556,-117.763888889,,Census,Census-designated place,CA,"China Lake Acres, California",0,0,0,0,0,0,0,0,0,0,0,0,0,0,0.0,0,0,0.0,0.0,0.0,0.0,0.0,0.0
29772,119654,US,80544,40.8,-123.8,,Census,County,CA,"Humboldt County, California",0,0,0,0,0,0,0,2694,6140,15512,23469,27104,33857,37413,43233.0,45812,69241,104892.0,99692.0,108514.0,119118.0,126518.0,134623.0
29809,10480,US,107692,34.0377777778,-117.928888889,,Census,Census-designated place,CA,"Valinda, California",0,0,0,0,0,0,0,0,0,0,0,0,0,0,0.0,0,0,0.0,18837.0,18700.0,18735.0,21776.0,22822.0
29816,53394,US,108121,37.6252777778,-122.425277778,,Census,City,CA,"San Bruno, California",0,0,0,0,0,0,0,0,0,0,0,0,0,1562,3610.0,6519,12478,29063.0,36254.0,35417.0,38961.0,40165.0,41114.0
29826,53206,US,79762,39.18,-122.24,,Census,County,CA,"Colusa County, California",0,0,0,0,0,0,115,2274,6165,13118,14640,7364,7732,9290,10258.0,9788,11651,12075.0,12430.0,12791.0,16275.0,18804.0,21419.0
29842,5644,US,31796044,38.2444444444,-120.953888889,,Census,Census-designated place,CA,"Camanche North Shore, California",0,0,0,0,0,0,0,0,0,0,0,0,0,0,0.0,0,0,0.0,0.0,0.0,0.0,0.0,0.0
29856,26897,US,107821,33.6416666667,-117.690833333,,Census,City,CA,"Lake Forest, California",0,0,0,0,0,0,0,0,0,0,0,0,0,0,0.0,0,0,0.0,0.0,0.0,0.0,58707.0,77264.0
29925,27538,US,108241,38.3472222222,-122.695277778,,Census,General law city,CA,"Rohnert Park, California",0,0,0,0,0,0,0,0,0,0,0,0,0,0,0.0,0,0,0.0,6133.0,22965.0,36326.0,42236.0,40971.0
29965,75394,US,107690,33.8347222222,-118.341388889,,Census,Charter city,CA,"Torrance, California",0,0,0,0,0,0,0,0,0,0,0,0,0,0,7271.0,9950,22241,100991.0,134968.0,129881.0,133107.0,137946.0,145438.0
30036,11731,US,108067,37.98,-121.263888889,,Census,Census-designated place,CA,"August, California",0,0,0,0,0,0,0,0,0,0,0,0,0,0,0.0,0,0,0.0,0.0,0.0,0.0,0.0,0.0
30056,20310,US,107909,33.7797222222,-116.465277778,,Census,City,CA,"Cathedral City, California",0,0,0,0,0,0,0,0,0,0,0,0,0,0,0.0,0,0,1855.0,3640.0,4130.0,30085.0,42647.0,51200.0
30057,34355,US,107616,34.0916666667,-117.879166667,,Census,City,CA,"Covina, California",0,0,0,0,0,0,0,0,0,0,0,0,0,0,2774.0,3049,3956,20124.0,30395.0,32746.0,43207.0,46837.0,47796.0
30111,12562,US,5879425,32.6169444444,-116.188055556,,Census,Census-designated place,CA,"Jacumba Hot Springs, California",0,0,0,0,0,0,0,0,0,0,0,0,0,0,0.0,0,0,0.0,0.0,0.0,0.0,0.0,0.0
30117,11734,US,108028,33.305,-117.306111111,,Census,Census-designated place,CA,"Camp Pendleton North, California",0,0,0,0,0,0,0,0,0,0,0,0,0,0,0.0,0,0,0.0,0.0,0.0,0.0,0.0,0.0
30121,33523,US,107433,38.7297222222,-120.798611111,,Census,City,CA,"Placerville, California",0,0,0,0,0,0,0,2466,1562,1951,1690,1748,1914,1650,2322.0,3064,3749,4439.0,5416.0,6739.0,8355.0,9610.0,10389.0
30174,14598,US,107455,36.6244444444,-119.313611111,,Census,City,CA,"Orange Cove, California",0,0,0,0,0,0,0,0,0,0,0,0,0,0,0.0,0,2395,2885.0,3392.0,4026.0,5604.0,7722.0,9078.0
30293,11141,US,14529315,39.2066666667,-120.811388889,,Census,Census-designated place,CA,"Alta, California",0,0,0,0,0,0,0,0,0,0,0,0,0,0,0.0,0,0,0.0,0.0,0.0,0.0,0.0,0.0
30302,44684,US,108120,37.4827777778,-122.236111111,,Census,Charter city,CA,"Redwood City, California",0,0,0,0,0,0,0,0,727,1383,1572,1653,2442,4020,8962.0,12453,25544,46290.0,55686.0,54951.0,66072.0,75402.0,76815.0
30341,58466,US,107924,33.7205555556,-116.215555556,,Census,City,CA,"Indio, California",0,0,0,0,0,0,0,0,0,0,0,0,0,0,0.0,2296,5300,9745.0,14459.0,21611.0,36793.0,49116.0,76036.0
30345,12959,US,1886335,37.2622222222,-119.701111111,,Census,Census-designated place,CA,"Coarsegold, California",0,0,0,0,0,0,0,0,0,0,0,0,0,0,0.0,0,0,0.0,0.0,0.0,0.0,0.0,0.0
30350,9449,US,108291,36.5475,-119.261111111,,Census,Census-designated place,CA,"East Orosi, California",0,0,0,0,0,0,0,0,0,0,0,0,0,0,0.0,0,0,0.0,0.0,0.0,0.0,0.0,0.0
30356,59751,US,108312,36.3166666667,-119.3,,Census,City,CA,"Visalia, California",0,0,0,0,0,0,0,548,913,1412,2885,3085,4550,5753,7263.0,8904,11749,15791.0,27130.0,49729.0,75636.0,91565.0,124442.0
30361,28441,US,107798,39.2191666667,-121.058333333,,Census,City,CA,"Grass Valley, California",0,0,0,0,0,0,0,0,0,0,0,4719,4520,4006,3817.0,5701,5283,4876.0,5149.0,6697.0,9048.0,10922.0,12860.0
30364,84039,US,43537,38.45,-121.35,,Census,County,CA,"Sacramento County, California",0,0,0,0,0,0,9087,24142,26830,34390,40339,45915,67806,91029,141999.0,170333,277140,502778.0,631498.0,783381.0,1041219.0,1223499.0,1418788.0
30561,13414,US,107652,34.525,-117.99,,Census,Census-designated place,CA,"Littlerock, California",0,0,0,0,0,0,0,0,0,0,0,0,0,0,0.0,0,0,0.0,0.0,0.0,1320.0,1402.0,1377.0
30685,47808,US,108010,34.0527777778,-117.627777778,,Census,City,CA,"Ontario, California",0,0,0,0,0,0,0,0,0,0,683,722,4274,7280,13583.0,14197,22872,46617.0,64118.0,88820.0,133179.0,158007.0,163924.0
30752,11854,US,107627,34.14,-118.077777778,,Census,Census-designated place,CA,"East Pasadena, California",0,0,0,0,0,0,0,0,0,0,0,0,0,0,0.0,0,0,0.0,0.0,0.0,5910.0,6045.0,6144.0
30777,12008,US,108169,36.9591666667,-121.782222222,,Census,Census-designated place,CA,"Amesti, California",0,0,0,0,0,0,0,0,0,0,0,0,0,0,0.0,0,0,0.0,0.0,0.0,0.0,0.0,0.0
30790,13081,US,107651,33.9397222222,-118.3575,,Census,Census-designated place,CA,"Lennox, California",0,0,0,0,0,0,0,0,0,0,0,0,0,0,0.0,0,0,31224.0,16121.0,18445.0,22757.0,22950.0,22753.0
30837,17248,US,107846,38.7486111111,-121.179722222,,Census,Census-designated place,CA,"Granite Bay, California",0,0,0,0,0,0,0,0,0,0,0,0,0,0,0.0,0,0,0.0,0.0,0.0,0.0,0.0,0.0
30857,81490,US,108139,34.4166666667,-119.7,,Census,Charter city,CA,"Santa Barbara, California",0,0,0,0,0,0,0,0,0,3460,5864,6587,11659,19441,33613.0,34958,44854,58768.0,70215.0,74414.0,85571.0,92325.0,88410.0
30921,19809,US,107520,35.2091666667,-118.828333333,,Census,City,CA,"Arvin, California",0,0,0,0,0,0,0,0,0,0,0,0,0,0,0.0,4042,5007,0.0,5199.0,6863.0,9286.0,12956.0,19304.0
30922,51356,US,82120,39.04,-121.69,,Census,County,CA,"Sutter County, California",0,0,0,0,0,0,3444,3390,5030,5159,5469,5886,6328,10115,14618.0,18680,26239,33380.0,41935.0,52246.0,64415.0,78930.0,94737.0
30950,21987,US,108102,37.6808333333,-122.419166667,,Census,City,CA,"Brisbane, California",0,0,0,0,0,0,0,0,0,0,0,0,0,0,0.0,0,0,0.0,3003.0,2969.0,2952.0,3597.0,4282.0
30971,64531,US,82022,37.19,-120.71,,Census,County,CA,"Merced County, California",0,0,0,0,0,0,0,1141,2807,5656,8085,9215,15148,24579,36748.0,46988,69780,90446.0,104629.0,134560.0,178403.0,210554.0,255793.0
31016,82294,US,107727,37.9061111111,-122.545,,Census,City,CA,"Mill Valley, California",0,0,0,0,0,0,0,0,0,0,0,0,2551,2554,4164.0,4847,7331,10411.0,12942.0,12967.0,13038.0,13600.0,13903.0
31058,10133,US,1984302,40.1436111111,-120.134722222,,Census,Census-designated place,CA,"Herlong, California",0,0,0,0,0,0,0,0,0,0,0,0,0,0,0.0,0,0,0.0,0.0,0.0,0.0,0.0,0.0
31145,42839,US,107334,37.8313888889,-122.285277778,,Census,City,CA,"Emeryville, California",0,0,0,0,0,0,0,0,0,0,228,1016,2613,2390,2336.0,2521,2889,2686.0,2681.0,3714.0,5740.0,6882.0,10080.0
31164,16022,US,1569022,37.0180555556,-122.197222222,,Census,Census-designated place,CA,"Davenport, California",0,0,0,0,0,0,0,0,0,0,0,0,0,0,0.0,0,0,0.0,0.0,0.0,0.0,0.0,0.0
31170,56531,US,107735,37.8591666667,-122.485277778,,Census,City,CA,"Sausalito, California",0,0,0,0,0,0,0,0,0,476,1334,1628,2383,2790,3667.0,3540,4828,5331.0,6158.0,7338.0,7152.0,7330.0,7061.0
31224,7325,US,27635323,38.4963888889,-122.77,,Census,Census-designated place,CA,"Fulton, California",0,0,0,0,0,0,0,0,0,0,0,0,0,0,0.0,0,0,0.0,0.0,0.0,0.0,0.0,0.0
31229,28402,US,107805,33.9233333333,-117.888888889,,Census,City,CA,"Brea, California",0,0,0,0,0,0,0,0,0,0,0,0,0,1037,2435.0,2567,3208,8487.0,18447.0,27913.0,32873.0,35410.0,39282.0
31303,5466,US,9015837,41.0502777778,-123.674166667,,Census,Census-designated place,CA,"Hoopa, California",0,0,0,0,0,0,0,0,0,0,0,0,0,0,0.0,0,0,0.0,0.0,0.0,0.0,0.0,0.0
31307,7970,US,12715903,41.0836111111,-122.713333333,,Census,Census-designated place,CA,"Coffee Creek, California",0,0,0,0,0,0,0,0,0,0,0,0,0,0,0.0,0,0,0.0,0.0,0.0,0.0,0.0,0.0
31386,30875,US,107955,38.6052777778,-121.379722222,,Census,Census-designated place,CA,"Arden-Arcade, California",0,0,0,0,0,0,0,0,0,0,0,0,0,0,0.0,0,0,73352.0,82492.0,87570.0,92040.0,96025.0,92186.0
31442,90956,US,80545,,,,Census,County,CA,"Imperial County, California",0,0,0,0,0,0,0,0,0,0,0,0,12591,43453,60903.0,55740,61175,71105.0,74492.0,93110.0,109303.0,143361.0,174528.0
31532,11283,US,23087996,39.3211111111,-120.427777778,,Census,Census-designated place,CA,"Kingvale, California",0,0,0,0,0,0,0,0,0,0,0,0,0,0,0.0,0,0,0.0,0.0,0.0,0.0,0.0,0.0
31544,12768,US,2887593,35.85,-119.389166667,,Census,Census-designated place,CA,"Allensworth, California",0,0,0,0,0,0,0,0,0,0,0,0,0,0,0.0,0,0,0.0,0.0,0.0,0.0,0.0,0.0
