,article_length,country,id,lat,lon,poptype,settlement_type,state,title,y1790,y1800,y1810,y1820,y1830,y1840,y1850,y1860,y1870,y1880,y1890,y1900,y1910,y1920,y1930,y1940,y1950,y1960,y1970,y1980,y1990,y2000,y2010
185,12654,US,115625,29.9022222222,-90.0294444444,Census,Census-designated place,LA,"Terrytown, Louisiana",0,0,0,0,0,0,0,0,0,0,0,0,0,0,0.0,0,0,0.0,13832.0,23548,23787,25430.0,23319.0
307,8537,US,115692,30.5913888889,-91.6086111111,Census,Town,LA,"Fordoche, Louisiana",0,0,0,0,0,0,0,0,0,0,0,0,0,0,0.0,0,0,0.0,488.0,676,869,933.0,928.0
496,22985,US,115824,30.7805555556,-89.8638888889,Census,City,LA,"Bogalusa, Louisiana",0,0,0,0,0,0,0,0,0,0,0,0,0,8245,14029.0,14604,17798,21423.0,18412.0,16976,14280,13365.0,12232.0
533,18721,US,115632,31.8994444444,-92.2347222222,Census,Town,LA,"Olla, Louisiana",0,0,0,0,0,0,0,0,0,0,0,0,260,266,740.0,691,1115,1246.0,1387.0,1603,1410,1417.0,1385.0
646,18475,US,115637,30.1005555556,-91.9908333333,Census,City,LA,"Youngsville, Louisiana",0,0,0,0,0,0,0,0,0,0,0,200,328,361,536.0,647,769,946.0,1002.0,1053,1195,3992.0,8105.0
682,8812,US,115465,30.3286111111,-92.4930555556,Census,Town,LA,"Iota, Louisiana",0,0,0,0,0,0,0,0,0,0,0,0,769,802,827.0,1000,1162,1245.0,1271.0,1326,1256,1376.0,1500.0
730,29985,US,115586,30.0594444444,-91.7369444444,Census,Village,LA,"Loreauville, Louisiana",0,0,0,0,0,0,0,0,0,0,0,0,291,439,441.0,490,478,655.0,728.0,860,860,938.0,887.0
809,11214,US,115752,30.4188888889,-92.0480555556,Census,Town,LA,"Grand Coteau, Louisiana",0,0,0,0,0,0,0,0,470,302,333,521,392,470,580.0,662,1103,1165.0,1301.0,1165,1118,1040.0,947.0
839,9954,US,115535,31.8466666667,-91.6588888889,Census,Village,LA,"Sicily Island, Louisiana",0,0,0,0,0,0,0,0,0,0,0,0,0,0,0.0,0,0,761.0,630.0,691,421,453.0,526.0
848,10696,US,97699,,,Census,US County,LA,"Franklin Parish, Louisiana",0,0,0,0,0,0,3251,6162,5078,6495,6900,8890,11989,24100,30530.0,32382,29376,26088.0,23946.0,24141,22387,21263.0,20767.0
995,15704,US,115758,30.5561111111,-91.9583333333,Census,Town,LA,"Port Barre, Louisiana",0,0,0,0,0,0,0,0,0,0,0,0,0,588,674.0,850,1066,1876.0,2133.0,2625,2144,2287.0,2055.0
1089,9957,US,115595,30.1686111111,-91.1466666667,Census,Town,LA,"White Castle, Louisiana",0,0,0,0,0,0,0,0,0,0,603,1850,2289,1566,1499.0,1692,1839,2253.0,2206.0,2160,2102,1946.0,1883.0
1173,18312,US,115678,31.6908333333,-93.3041666667,Census,Village,LA,"Robeline, Louisiana",0,0,0,0,0,0,0,0,0,0,676,464,438,495,328.0,355,350,308.0,274.0,238,149,183.0,174.0
1194,8260,US,115701,31.0433333333,-92.5308333333,Census,Village,LA,"Forest Hill, Louisiana",0,0,0,0,0,0,0,0,0,0,0,0,0,0,304.0,302,365,302.0,370.0,494,408,456.0,818.0
1195,6990,US,115499,32.2336111111,-93.0155555556,Census,Village,LA,"Lucky, Louisiana",0,0,0,0,0,0,0,0,0,0,0,0,0,0,0.0,0,0,0.0,0.0,370,342,355.0,272.0
1206,22523,US,97706,,,Census,US County,LA,"Claiborne Parish, Louisiana",0,0,0,0,1764,6185,7471,16848,20240,18837,23312,23029,25050,27885,32285.0,29855,25063,19407.0,17024.0,17095,17405,16851.0,17195.0
1207,7548,US,115604,30.4808333333,-92.6963888889,Census,Town,LA,"Elton, Louisiana",0,0,0,0,0,0,0,0,0,0,0,0,0,995,742.0,901,1434,1595.0,1598.0,1450,1277,1261.0,1128.0
1270,36619,US,115614,29.2333333333,-90.0,Census,Town,LA,"Grand Isle, Louisiana",0,0,0,0,0,0,0,0,0,0,0,0,0,0,0.0,0,0,2074.0,2236.0,1982,1455,1541.0,1296.0
1297,9920,US,115527,30.2483333333,-93.2591666667,Census,City,LA,"Westlake, Louisiana",0,0,0,0,0,0,0,0,0,0,0,0,0,0,0.0,0,1871,3311.0,4082.0,5246,5007,4668.0,4568.0
1368,10149,US,115693,30.5602777778,-91.5502777778,Census,Town,LA,"Livonia, Louisiana",0,0,0,0,0,0,0,0,0,0,0,0,0,0,0.0,0,0,430.0,611.0,980,970,1339.0,1442.0
1411,7107,US,115792,30.7633333333,-90.5127777778,Census,Town,LA,"Roseland, Louisiana",0,0,0,0,0,0,0,0,0,0,281,0,586,603,1139.0,873,1038,1254.0,1273.0,1346,1093,1162.0,1123.0
1582,6663,US,115757,30.7166666667,-91.9077777778,Census,Village,LA,"Palmetto, Louisiana",0,0,0,0,0,0,0,0,0,0,0,0,0,168,408.0,444,457,430.0,312.0,327,229,188.0,164.0
1782,9026,US,115590,30.4908333333,-91.5188888889,Census,Town,LA,"Maringouin, Louisiana",0,0,0,0,0,0,0,0,0,0,0,0,447,399,518.0,708,898,1168.0,1365.0,1291,1149,1262.0,1098.0
1848,22495,US,97677,,,Census,US County,LA,"Red River Parish, Louisiana",0,0,0,0,0,0,0,0,0,8573,11318,11548,11402,15301,16078.0,15881,12113,9978.0,9226.0,10433,9387,9622.0,9091.0
1850,17399,US,2491090,,,Census,US County,LA,"Caddo Parish, Louisiana",0,0,0,0,0,5282,8884,12140,21714,26296,31555,44499,58200,83265,124670.0,150203,176547,223859.0,230184.0,252358,248253,252161.0,254969.0
2018,14155,US,97719,30.2666666667,-92.4,Census,US County,LA,"Acadia Parish, Louisiana",0,0,0,0,0,0,0,0,0,0,13231,23483,31847,34820,39326.0,46260,47050,49931.0,52109.0,56427,55882,58861.0,61773.0
2028,23306,US,97655,,,Census,US County,LA,"West Carroll Parish, Louisiana",0,0,0,0,0,0,0,0,0,2776,3748,3685,6249,8857,13895.0,19252,17248,14177.0,13028.0,12922,12093,12314.0,11604.0
2181,12500,US,115805,32.8216666667,-92.6580555556,Census,Town,LA,"Bernice, Louisiana",0,0,0,0,0,0,0,0,0,0,0,0,781,862,965.0,1071,1524,1641.0,1794.0,1956,1543,1809.0,1689.0
2204,9744,US,115619,29.9641666667,-90.1572222222,Census,census-designated place,LA,"Jefferson, Louisiana",0,0,0,0,0,0,0,0,0,0,0,0,0,0,0.0,0,0,19353.0,16489.0,15550,14521,11843.0,0.0
2504,7969,US,115823,30.9644444444,-89.8136111111,Census,Village,LA,"Angie, Louisiana",0,0,0,0,0,0,0,0,0,0,0,0,346,230,207.0,187,230,254.0,317.0,311,235,240.0,251.0
2533,15680,US,115520,30.4508333333,-93.4355555556,Census,City,LA,"DeQuincy, Louisiana",0,0,0,0,0,0,0,0,0,0,0,0,715,1823,3589.0,3252,3837,3928.0,3448.0,3966,3474,3398.0,3235.0
2583,7595,US,115763,30.3161111111,-91.7941666667,Census,Town,LA,"Henderson, Louisiana",0,0,0,0,0,0,0,0,0,0,0,0,0,0,0.0,0,0,0.0,0.0,1560,1543,1531.0,1674.0
2608,15554,US,115676,31.8738888889,-93.2,Census,Village,LA,"Powhatan, Louisiana",0,0,0,0,0,0,0,0,0,0,0,0,0,0,0.0,0,0,0.0,277.0,279,147,141.0,135.0
2647,7599,US,115573,30.7819444444,-92.4208333333,Census,Village,LA,"Pine Prairie, Louisiana",0,0,0,0,0,0,0,0,0,0,0,0,0,0,0.0,0,0,387.0,515.0,734,713,1087.0,1610.0
2804,13623,US,115529,32.1041666667,-92.0769444444,Census,Town,LA,"Columbia, Louisiana",0,0,0,0,0,0,0,0,235,210,352,382,500,434,760.0,840,920,1021.0,1000.0,687,386,477.0,390.0
2886,9355,US,115540,31.7188888889,-91.5388888889,Census,Town,LA,"Clayton, Louisiana",0,0,0,0,0,0,0,0,0,0,0,0,0,0,0.0,0,657,882.0,1103.0,1204,917,858.0,711.0
3021,31496,US,115682,32.5094444444,-92.1183333333,Census,City,LA,"Monroe, Louisiana",0,0,0,0,0,0,435,0,1949,2070,3256,5428,10209,12675,26028.0,28309,38572,52219.0,56374.0,57597,54909,53107.0,48815.0
3120,18027,US,97695,,,Census,US County,LA,"Jackson Parish, Louisiana",0,0,0,0,0,0,5566,9465,7646,5328,7453,9119,13818,14486,13808.0,17807,15434,15828.0,15963.0,17321,15705,15397.0,16274.0
3192,8500,US,115513,32.8866666667,-93.8813888889,Census,Village,LA,"Hosston, Louisiana",0,0,0,0,0,0,0,0,0,0,0,0,0,0,0.0,0,0,0.0,428.0,480,417,387.0,318.0
3206,12565,US,97716,,,Census,US County,LA,"Assumption Parish, Louisiana",0,0,2472,3576,5669,7141,10538,15379,13234,17010,19629,21620,24128,17912,15990.0,18541,17278,17991.0,19654.0,22084,22753,23388.0,23421.0
3243,27593,US,115578,32.1633333333,-91.7233333333,Census,City &amp; parish seat,LA,"Winnsboro, Louisiana",0,0,0,0,0,0,0,0,0,0,0,0,821,1176,1965.0,2834,3655,4437.0,5349.0,5921,5755,5344.0,4910.0
3258,11857,US,115618,29.7361111111,-90.1266666667,Census,Town,LA,"Jean Lafitte, Louisiana",0,0,0,0,0,0,0,0,0,0,0,0,0,0,0.0,0,0,0.0,0.0,936,1469,2137.0,1903.0
3259,39315,US,97663,,,Census,US County,LA,"Tensas Parish, Louisiana",0,0,0,0,0,0,9040,16078,12419,17815,16647,19070,17060,12085,15096.0,15940,13209,11796.0,9732.0,8525,7103,6618.0,5252.0
3442,12001,US,115835,32.9380555556,-93.2983333333,Census,City,LA,"Shongaloo, Louisiana",0,0,0,0,0,0,0,0,0,0,0,0,0,0,0.0,0,0,0.0,173.0,163,161,162.0,182.0
3575,14525,US,115564,30.655,-91.1566666667,Census,City,LA,"Zachary, Louisiana",0,0,0,0,0,0,0,0,0,0,0,465,419,524,626.0,730,1542,3268.0,4964.0,7297,9036,11275.0,14960.0
3594,10274,US,115719,31.8180555556,-93.5166666667,Census,Village,LA,"Pleasant Hill, Sabine Parish, Louisiana",0,0,0,0,0,0,0,0,0,0,0,300,442,554,807.0,737,856,907.0,826.0,776,824,786.0,723.0
3599,17030,US,115606,30.2222222222,-92.6569444444,Census,City,LA,"Jennings, Louisiana",0,0,0,0,0,0,0,0,0,0,412,1539,3925,3824,4036.0,7343,9663,11887.0,11783.0,12401,11305,10986.0,10383.0
3809,7965,US,115777,30.2241666667,-89.8002777778,Census,Census-designated place,LA,"Eden Isle, Louisiana",0,0,0,0,0,0,0,0,0,0,0,0,0,0,0.0,0,0,0.0,0.0,0,0,6261.0,7041.0
3838,14991,US,97701,,,Census,US County,LA,"East Feliciana Parish, Louisiana",0,0,0,0,8247,11893,13598,14697,13499,15132,17903,20443,20055,17487,17449.0,18039,19133,20198.0,17657.0,19015,19211,21360.0,20267.0
3955,19078,US,97669,,,Census,US County,LA,"St. Landry Parish, Louisiana",0,0,0,0,12591,15233,22253,23104,25553,40004,40250,52906,66661,51697,60074.0,71481,78476,81493.0,80364.0,84128,80331,87700.0,83384.0
4153,23577,US,97664,,,Census,US County,LA,"Tangipahoa Parish, Louisiana",0,0,0,0,0,0,0,0,7928,9638,12655,17625,29160,31440,46227.0,45519,53218,59434.0,65875.0,80698,85709,100588.0,121097.0
4338,6663,US,115683,32.4597222222,-92.0752777778,Census,Town,LA,"Richwood, Louisiana",0,0,0,0,0,0,0,0,0,0,0,0,0,0,0.0,0,0,0.0,0.0,1223,1253,2115.0,3392.0
4365,16711,US,115525,30.2802777778,-93.3608333333,Census,City,LA,"Sulphur, Louisiana",0,0,0,0,0,0,0,0,0,0,0,0,0,1714,1888.0,3504,5996,11429.0,14959.0,19709,20125,20512.0,20410.0
4372,7975,US,115472,30.6194444444,-92.7641666667,Census,Town,LA,"Oberlin, Louisiana",0,0,0,0,0,0,0,0,0,0,0,213,232,623,790.0,962,1544,1794.0,1857.0,1764,1808,1853.0,1770.0
4480,23028,US,97708,,,Census,US County,LA,"Cameron Parish, Louisiana",0,0,0,0,0,0,0,0,1591,2416,2828,3952,4288,3952,6054.0,7203,6244,6909.0,8194.0,9336,9260,9991.0,6839.0
4710,11122,US,115684,32.6933333333,-92.0594444444,Census,Town,LA,"Sterlington, Louisiana",0,0,0,0,0,0,0,0,0,0,0,0,0,0,0.0,0,0,0.0,1118.0,1400,1140,1276.0,1594.0
4736,11963,US,115567,30.8708333333,-91.2144444444,Census,Town,LA,"Jackson, Louisiana",0,0,0,0,0,932,0,0,934,880,1276,2012,2146,2320,3966.0,940,1144,1824.0,4697.0,3878,3891,4130.0,3842.0
4871,10722,US,115753,30.5375,-91.755,Census,Town,LA,"Krotz Springs, Louisiana",0,0,0,0,0,0,0,0,0,0,0,0,0,247,449.0,630,866,1057.0,1435.0,1374,1285,1219.0,1198.0
4925,26778,US,97675,,,Census,US County,LA,"Sabine Parish, Louisiana",0,0,0,0,0,0,4515,5828,6456,7344,9390,15421,19874,20713,24110.0,23586,20880,18564.0,18638.0,25280,22646,23459.0,24233.0
5021,31043,US,97665,30.4,-89.96,Census,US County,LA,"St. Tammany Parish, Louisiana",0,0,0,1723,2864,4598,6364,5406,5586,6887,10160,13335,18917,20645,20929.0,23624,26988,38643.0,68585.0,110869,144508,191268.0,233740.0
5026,8170,US,115668,32.7755555556,-91.7938888889,Census,Village,LA,"Mer Rouge, Louisiana",0,0,0,0,0,0,0,0,0,0,0,465,536,656,669.0,713,784,853.0,819.0,802,586,721.0,628.0
5081,8680,US,115778,30.63,-90.19,Census,Village,LA,"Folsom, Louisiana",0,0,0,0,0,0,0,0,0,0,0,0,0,0,0.0,0,166,225.0,249.0,319,469,525.0,716.0
5095,9309,US,115500,32.5116666667,-93.0413888889,Census,Town,LA,"Mount Lebanon, Louisiana",0,0,0,0,0,0,0,0,0,0,0,0,0,0,0.0,0,0,0.0,102.0,105,102,73.0,83.0
5115,8359,US,115847,31.8086111111,-92.7366666667,Census,Village,LA,"Atlanta, Louisiana",0,0,0,0,0,0,0,0,0,0,0,0,311,0,0.0,0,0,0.0,197.0,127,118,150.0,163.0
5128,10566,US,115785,30.7286111111,-90.5086111111,Census,Town,LA,"Amite City, Louisiana",0,0,0,0,0,0,0,0,910,1120,1510,1547,1677,1854,2536.0,2499,2804,3316.0,3593.0,4301,4236,4110.0,4141.0
5141,9007,US,115842,32.7916666667,-91.4119444444,Census,Village,LA,"Forest, Louisiana",0,0,0,0,0,0,0,0,0,0,0,0,0,0,0.0,0,0,0.0,221.0,299,263,275.0,355.0
5146,9115,US,115581,31.5788888889,-92.5294444444,Census,Village,LA,"Dry Prong, Louisiana",0,0,0,0,0,0,0,0,0,0,0,0,0,0,0.0,0,377,360.0,352.0,526,380,421.0,436.0
5247,8196,US,115674,31.6741666667,-93.0447222222,Census,Village,LA,"Natchez, Louisiana",0,0,0,0,0,0,0,0,0,0,0,0,0,0,0.0,0,0,0.0,0.0,527,434,583.0,597.0
5310,11286,US,115471,,,Census,City,LA,"Oakdale, Louisiana",0,0,0,0,0,0,0,0,0,0,0,0,0,4016,3188.0,3933,5598,6618.0,7301.0,7155,6832,8137.0,7780.0
5366,7802,US,115743,30.0488888889,-90.6997222222,Census,Town,LA,"Lutcher, Louisiana",0,0,0,0,0,0,0,0,0,0,0,0,0,1700,1481.0,2167,2198,3274.0,3911.0,4730,3907,3735.0,3559.0
5376,6565,US,115848,31.9633333333,-92.7797222222,Census,Village,LA,"Calvin, Louisiana",0,0,0,0,0,0,0,0,0,0,0,0,0,0,0.0,0,0,232.0,286.0,263,207,236.0,238.0
5507,14382,US,115831,32.5397222222,-93.2377777778,Census,Village,LA,"Dubberly, Louisiana",0,0,0,0,0,0,0,0,0,0,0,0,0,0,0.0,0,0,249.0,212.0,421,253,290.0,273.0
5516,11413,US,115572,30.6341666667,-92.4188888889,Census,Town,LA,"Mamou, Louisiana",0,0,0,0,0,0,0,0,0,0,0,0,0,649,800.0,1379,2254,2928.0,3275.0,3194,3483,3566.0,3242.0
5654,11433,US,97690,,,Census,US County,LA,"Lafourche Parish, Louisiana",0,0,1995,3755,5503,7303,9532,14044,14719,19113,22095,28882,33111,30344,32419.0,38615,42209,55381.0,68941.0,82483,85860,89974.0,96318.0
5722,16700,US,115709,32.1758333333,-93.3019444444,Census,Populated Place,LA,"Hall Summit, Louisiana",0,0,0,0,0,0,0,0,0,0,0,0,0,0,0.0,0,0,0.0,190.0,276,227,264.0,300.0
5803,8125,US,115514,33.0025,-93.8930555556,Census,Village,LA,"Ida, Louisiana",0,0,0,0,0,0,0,0,0,0,0,0,0,0,0.0,0,0,0.0,370.0,306,250,258.0,221.0
5912,153609,US,18130,31.0,-92.0,Census,US State,LA,Louisiana,0,0,76556,153407,215739,352411,517762,708002,726915,939946,1118588,1381625,1656388,1798509,2000000.0,2363516,2683516,3257022.0,3641306.0,4205900,4219973,4468976.0,4533372.0
6130,20541,US,97661,,,Census,US County,LA,"Union Parish, Louisiana",0,0,0,0,0,1838,8203,10389,11685,13526,17304,18520,20451,19621,20731.0,20943,19141,17624.0,18447.0,21167,20690,22803.0,22721.0
6173,9379,US,115653,30.5033333333,-90.5838888889,Census,Village,LA,"Albany, Louisiana",0,0,0,0,0,0,0,0,0,0,0,0,0,0,0.0,0,0,557.0,700.0,857,645,865.0,1088.0
6199,21529,US,115634,30.3141666667,-92.0436111111,Census,City,LA,"Carencro, Louisiana",0,0,0,0,0,0,0,0,0,0,289,445,609,630,684.0,914,1587,1519.0,2302.0,3712,5429,6120.0,7526.0
6207,7989,US,115599,32.2719444444,-92.7266666667,Census,Village,LA,"Hodge, Louisiana",0,0,0,0,0,0,0,0,0,0,0,0,0,0,1367.0,1445,1386,878.0,818.0,708,562,492.0,470.0
6223,10337,US,115533,31.7722222222,-91.8275,Census,Village,LA,"Harrisonburg, Louisiana",0,0,0,0,0,0,326,0,217,243,359,303,361,399,437.0,422,544,594.0,626.0,610,453,746.0,348.0
6300,5909,US,115662,32.3375,-91.0255555556,Census,Village,LA,"Mound, Louisiana",0,0,0,0,0,0,0,0,0,0,0,0,0,0,0.0,145,105,107.0,78.0,40,16,12.0,19.0
6312,9273,US,115714,,,Census,Village,LA,"Converse, Louisiana",0,0,0,0,0,0,0,0,0,0,0,0,0,0,291.0,314,311,291.0,375.0,449,436,400.0,440.0
6348,11900,US,115506,32.53,-93.5063888889,Census,Town,LA,"Haughton, Louisiana",0,0,0,0,0,0,0,0,0,0,305,194,249,0,0.0,409,501,611.0,885.0,1510,1664,2792.0,3454.0
6432,9648,US,115560,30.3813888889,-91.0102777778,Census,Census-designated place,LA,"Old Jefferson, Louisiana",0,0,0,0,0,0,0,0,0,0,0,0,0,0,0.0,0,0,0.0,0.0,0,4531,5631.0,6980.0
6465,8151,US,115569,30.7163888889,-91.1444444444,Census,Town,LA,"Slaughter, Louisiana",0,0,0,0,0,0,0,0,0,0,0,259,287,215,327.0,306,290,403.0,580.0,729,827,1011.0,997.0
6580,7521,US,115767,29.8361111111,-91.5488888889,Census,Town,LA,"Baldwin, Louisiana",0,0,0,0,0,0,0,0,0,0,0,0,0,964,822.0,984,1138,1548.0,2117.0,2644,2379,2497.0,2436.0
6590,6990,US,115596,32.3091666667,-92.4513888889,Census,Town,LA,"Chatham, Louisiana",0,0,0,0,0,0,0,0,0,0,0,0,181,186,391.0,605,833,758.0,827.0,714,617,623.0,557.0
6679,9843,US,115546,32.1819444444,-93.9066666667,Census,Town,LA,"Keachi, Louisiana",0,0,0,0,0,0,0,0,0,316,326,0,0,0,0.0,0,0,345.0,328.0,342,277,323.0,295.0
6764,18023,US,97678,,,Census,US County,LA,"Rapides Parish, Louisiana",0,0,0,6065,7575,14132,16561,25360,18015,23563,27642,39578,44545,59444,65455.0,73370,90648,111351.0,118078.0,135282,131556,126337.0,131613.0
6809,15371,US,115575,30.6891666667,-92.2775,Census,City,LA,"Ville Platte, Louisiana",0,0,0,0,0,0,0,0,135,149,0,163,603,1364,1722.0,3721,6633,7512.0,9692.0,9201,9037,8145.0,7430.0
6839,31155,US,115623,29.9977777778,-90.1775,Census,CDP,LA,"Metairie, Louisiana",0,0,0,0,0,0,0,0,0,0,0,0,0,0,0.0,0,0,0.0,136477.0,164160,149428,146136.0,138481.0
6848,12146,US,115566,30.8630555556,-91.0158333333,Census,Town,LA,"Clinton, Louisiana",0,0,0,0,0,554,1252,0,930,112,974,960,918,701,702.0,998,1383,1568.0,1884.0,1919,1904,1998.0,1653.0
7032,8665,US,115769,29.6980555556,-91.2269444444,Census,Town,LA,"Berwick, Louisiana",0,0,0,0,0,0,0,0,0,796,769,713,2183,1691,1679.0,1906,2619,3880.0,4168.0,4466,4375,4418.0,4946.0
7065,13818,US,115818,31.3258333333,-93.3958333333,Census,Town,LA,"Hornbeck, Louisiana",0,0,0,0,0,0,0,0,0,0,0,0,459,350,491.0,481,524,374.0,525.0,470,427,435.0,480.0
7101,17567,US,97714,,,Census,US County,LA,"Beauregard Parish, Louisiana",0,0,0,0,0,0,0,0,0,0,0,0,0,20767,14569.0,14847,17766,19191.0,22888.0,29692,30083,32986.0,35654.0
7176,24134,US,115705,31.3388888889,-92.4125,Census,City,LA,"Pineville, Louisiana",0,0,0,0,0,0,0,393,414,763,540,617,1212,2188,3612.0,4297,6423,8636.0,8951.0,12034,12251,13829.0,14555.0
7229,19110,US,97718,,,Census,US County,LA,"Allen Parish, Louisiana",0,0,0,0,0,0,0,0,0,0,0,0,0,18382,15261.0,17540,18835,19867.0,20794.0,21390,21226,25440.0,25764.0
7450,31058,US,115796,31.9186111111,-91.2383333333,Census,Town,LA,"St. Joseph, Louisiana",0,0,0,0,0,0,0,0,0,486,473,717,740,734,864.0,1096,1218,1653.0,1864.0,1687,1517,1340.0,1176.0
7492,10980,US,115468,30.2375,-92.2680555556,Census,City,LA,"Rayne, Louisiana",0,0,0,0,0,0,0,0,0,0,569,1007,2247,2720,3710.0,4974,6485,8634.0,9510.0,9066,8502,8552.0,7953.0
7748,16461,US,115507,32.9058333333,-93.7,Census,Town,LA,"Plain Dealing, Louisiana",0,0,0,0,0,0,0,0,0,0,0,258,474,655,1412.0,1085,1321,1357.0,1300.0,1213,1074,1071.0,1015.0
7935,8122,US,115702,30.9766666667,-92.5852777778,Census,Town,LA,"Glenmora, Louisiana",0,0,0,0,0,0,0,0,0,0,0,0,0,2298,1876.0,1452,1556,1447.0,1651.0,1479,1686,1558.0,1342.0
7979,14663,US,115711,32.4558333333,-91.4933333333,Census,City,LA,"Delhi, Louisiana",0,0,0,0,0,0,0,0,186,315,620,507,685,980,1043.0,1192,1861,2514.0,2887.0,3290,3169,3066.0,2919.0
8080,8698,US,115698,31.3866666667,-92.6705555556,Census,Town,LA,"Boyce, Louisiana",0,0,0,0,0,0,0,0,0,0,301,832,865,1060,820.0,732,981,1094.0,1240.0,1198,1361,1190.0,1004.0
8226,7351,US,150479,32.6272222222,-92.4144444444,Census,Village,LA,"Downsville, Louisiana",0,0,0,0,0,0,0,0,0,0,0,0,0,0,0.0,0,0,0.0,0.0,213,101,118.0,141.0
8254,8724,US,115764,30.2,-91.8166666667,Census,Village,LA,"Parks, Louisiana",0,0,0,0,0,0,0,0,0,0,0,0,466,766,409.0,460,460,413.0,491.0,545,400,533.0,653.0
8285,7808,US,115487,31.0591666667,-92.0486111111,Census,Town,LA,"Mansura, Louisiana",0,0,0,0,0,0,0,0,0,0,144,408,695,829,1057.0,1138,1439,1579.0,1699.0,2074,1601,1573.0,1419.0
8319,15580,US,115526,30.19,-93.5805555556,Census,Town,LA,"Vinton, Louisiana",0,0,0,0,0,0,0,0,0,0,0,0,0,1441,1989.0,1787,2597,2987.0,3454.0,3631,3154,3338.0,3212.0
8396,9372,US,115651,32.5341666667,-92.7863888889,Census,Village,LA,"Simsboro, Louisiana",0,0,0,0,0,0,0,0,0,0,248,0,282,290,0.0,0,0,363.0,412.0,553,634,684.0,841.0
8500,7630,US,115633,31.8627777778,-92.2913888889,Census,Town,LA,"Urania, Louisiana",0,0,0,0,0,0,0,0,0,0,0,0,0,0,0.0,0,1004,1063.0,874.0,849,782,700.0,1313.0
8517,18998,US,115496,32.2527777778,-93.165,Census,Village,LA,"Castor, Louisiana",0,0,0,0,0,0,0,0,0,0,0,0,0,0,256.0,244,171,142.0,183.0,195,196,209.0,258.0
8634,19453,US,115479,29.9377777778,-91.0266666667,Census,Village,LA,"Napoleonville, Louisiana",0,0,0,0,0,0,0,0,0,497,723,945,1201,1171,1180.0,1301,1260,1148.0,1008.0,829,802,686.0,660.0
8680,8377,US,19230093,31.4286111111,-92.4813888889,Census,Village,LA,"Creola, Louisiana",0,0,0,0,0,0,0,0,0,0,0,0,0,0,0.0,0,0,0.0,0.0,0,0,0.0,213.0
8708,10646,US,97686,,,Census,US County,LA,"Morehouse Parish, Louisiana",0,0,0,0,0,0,3913,10357,9387,14206,16786,16634,18786,19311,23689.0,27571,32038,33709.0,32463.0,34803,31938,31021.0,27979.0
8745,16404,US,115462,30.4047222222,-92.2169444444,Census,Town,LA,"Church Point, Louisiana",0,0,0,0,0,0,0,0,0,0,0,278,481,557,1037.0,1892,2897,3606.0,3865.0,4599,4677,4756.0,4560.0
8836,9527,US,97692,,,Census,US County,LA,"LaSalle Parish, Louisiana",0,0,0,0,0,0,0,0,0,0,0,0,9402,9856,11668.0,10959,12717,13011.0,13295.0,17004,13662,14282.0,14890.0
8841,16520,US,115537,32.9611111111,-93.1380555556,Census,Town,LA,"Haynesville, Louisiana",0,0,0,0,0,0,0,0,0,123,0,0,663,903,2541.0,2418,3040,3031.0,3055.0,3454,2854,2679.0,2327.0
8862,29600,US,97670,,,Census,US County,LA,"St. John the Baptist Parish, Louisiana",0,0,0,3854,5677,5776,7317,7930,6762,9686,11359,12330,14338,11896,14078.0,14766,14861,18439.0,23813.0,31924,39996,43044.0,45924.0
9179,11129,US,115630,31.69,-92.1247222222,Census,Town,LA,"Jena, Louisiana",0,0,0,0,0,0,0,0,0,0,0,0,689,620,1007.0,946,1438,2098.0,2431.0,4375,2626,2971.0,3398.0
9198,7751,US,115582,31.7641666667,-92.3822222222,Census,Village,LA,"Georgetown, Louisiana",0,0,0,0,0,0,0,0,0,0,0,0,0,0,0.0,0,355,321.0,306.0,381,273,301.0,327.0
9230,22468,US,115837,33.0011111111,-93.4613888889,Census,City,LA,"Springhill, Louisiana",0,0,0,0,0,0,0,0,0,0,0,0,0,748,1546.0,2822,3383,6437.0,6496.0,6516,5668,5439.0,5269.0
9372,39024,US,115650,32.5297222222,-92.6405555556,Census,City,LA,"Ruston, Louisiana",0,0,0,0,0,0,0,0,0,0,767,1324,3377,3389,4400.0,7107,10372,13991.0,17365.0,20585,20027,20546.0,21859.0
9490,6961,US,115821,30.9197222222,-93.2827777778,Census,Town,LA,"Rosepine, Louisiana",0,0,0,0,0,0,0,0,0,0,0,0,325,0,214.0,407,334,414.0,587.0,953,1135,1390.0,1692.0
9519,11618,US,115775,30.4761111111,-90.035,Census,Town,LA,"Abita Springs, Louisiana",0,0,0,0,0,0,0,0,0,0,0,0,365,388,471.0,528,559,655.0,839.0,1072,1296,1957.0,2365.0
9723,14165,US,115545,32.0836111111,-93.8091666667,Census,Village,LA,"Grand Cane, Louisiana",0,0,0,0,0,0,0,0,0,0,351,385,485,378,393.0,377,286,322.0,284.0,252,233,191.0,242.0
9741,6843,US,115490,30.9647222222,-91.9811111111,Census,Village,LA,"Plaucheville, Louisiana",0,0,0,0,0,0,0,0,0,0,0,0,380,335,356.0,367,277,228.0,224.0,196,187,281.0,248.0
9992,8965,US,115834,32.8975,-93.4494444444,Census,Town,LA,"Sarepta, Louisiana",0,0,0,0,0,0,0,0,0,0,0,0,0,0,0.0,0,0,737.0,882.0,831,886,925.0,891.0
10004,8146,US,115548,32.0969444444,-93.9502777778,Census,Village,LA,"Longstreet, Louisiana",0,0,0,0,0,0,0,0,0,0,0,0,0,146,308.0,263,224,283.0,182.0,281,189,163.0,157.0
10073,6932,US,150476,31.8194444444,-92.3275,Census,Town,LA,"Tullos, Louisiana",0,0,0,0,0,0,0,0,0,0,0,0,0,0,707.0,589,732,594.0,600.0,776,427,419.0,385.0
10230,35818,US,115783,30.2791666667,-89.7777777778,Census,City,LA,"Slidell, Louisiana",0,0,0,0,0,0,0,0,0,0,364,1129,2188,2958,2807.0,2822,3383,6356.0,16101.0,26718,24124,25695.0,27068.0
10277,10282,US,115603,32.3466666667,-92.7225,Census,Village,LA,"Quitman, Louisiana",0,0,0,0,0,0,0,0,0,0,0,0,215,177,207.0,212,204,185.0,169.0,231,162,168.0,181.0
10330,9146,US,115598,32.3925,-92.4227777778,Census,Town,LA,"Eros, Louisiana",0,0,0,0,0,0,0,0,0,0,0,0,898,1184,203.0,289,195,176.0,164.0,158,177,202.0,155.0
10452,9565,US,115530,32.0486111111,-92.1116666667,Census,Village,LA,"Grayson, Louisiana",0,0,0,0,0,0,0,0,0,0,0,0,0,337,435.0,407,455,428.0,516.0,564,529,531.0,532.0
10529,15940,US,115708,32.05,-93.3347222222,Census,Village,LA,"Edgefield, Louisiana",0,0,0,0,0,0,0,0,0,0,0,0,0,0,0.0,0,0,0.0,201.0,312,207,190.0,218.0
10547,15200,US,115819,31.1436111111,-93.2711111111,Census,City,LA,"Leesville, Louisiana",0,0,0,0,0,0,0,0,0,0,0,1148,2043,2518,3291.0,2829,4670,4689.0,8928.0,9054,7638,6753.0,6612.0
10601,24300,US,115538,32.79,-93.0586111111,Census,Town,LA,"Homer, Louisiana",0,0,0,0,0,0,418,1451,80,718,1132,1157,1855,3305,2909.0,3497,4749,4665.0,4483.0,4307,4152,3788.0,3237.0
10710,7612,US,115845,32.7366666667,-91.4344444444,Census,Village,LA,"Pioneer, Louisiana",0,0,0,0,0,0,0,0,0,0,0,0,0,0,0.0,0,0,154.0,188.0,221,116,171.0,156.0
10713,20946,US,115694,30.7355555556,-91.61,Census,Village,LA,"Morganza, Louisiana",0,0,0,0,0,0,0,0,0,0,0,0,296,332,608.0,744,817,937.0,836.0,846,759,659.0,610.0
10782,16260,US,97687,,,Census,US County,LA,"Madison Parish, Louisiana",0,0,0,0,0,5142,8773,14133,8600,13906,14135,12322,10676,10829,14829.0,18443,17451,16444.0,15065.0,15975,12463,13728.0,12093.0
10809,47918,US,115522,30.2147222222,-93.2086111111,Census,City,LA,"Lake Charles, Louisiana",0,0,0,0,0,0,0,0,0,838,3442,6680,11449,13088,15791.0,21207,41272,63392.0,77998.0,75226,70580,71757.0,71993.0
10835,6596,US,115809,32.9347222222,-92.6047222222,Census,Village,LA,"Spearsville, Louisiana",0,0,0,0,0,0,0,0,0,84,0,0,0,0,0.0,0,0,0.0,197.0,181,132,155.0,137.0
10857,21245,US,115765,30.125,-91.8305555556,Census,City,LA,"St. Martinville, Louisiana",0,0,0,0,0,0,652,0,1190,1606,1814,1926,2318,2465,2455.0,3501,4614,6468.0,7153.0,7965,7137,6989.0,6114.0
10919,6219,US,115826,30.895,-89.8316666667,Census,Village,LA,"Varnado, Louisiana",0,0,0,0,0,0,0,0,0,0,0,0,0,275,204.0,315,306,331.0,320.0,249,236,342.0,1461.0
10942,7234,US,115574,30.8794444444,-92.4094444444,Census,Village,LA,"Turkey Creek, Louisiana",0,0,0,0,0,0,0,0,0,0,0,0,0,0,0.0,0,0,279.0,280.0,366,283,356.0,441.0
11043,7964,US,115715,31.4911111111,-93.4605555556,Census,Village,LA,"Fisher, Louisiana",0,0,0,0,0,0,0,0,0,0,0,0,0,0,0.0,0,0,0.0,0.0,325,277,268.0,230.0
11164,9980,US,115789,30.9361111111,-90.5152777778,Census,Town,LA,"Kentwood, Louisiana",0,0,0,0,0,0,0,0,0,0,0,1313,3609,3059,1726.0,1854,2417,2607.0,2736.0,2667,2468,2205.0,2198.0
11244,8191,US,115515,32.6869444444,-93.9616666667,Census,Village,LA,"Mooringsport, Louisiana",0,0,0,0,0,0,0,0,0,0,0,0,0,992,802.0,748,709,864.0,830.0,911,873,833.0,793.0
11544,15634,US,115553,,,Census,City,LA,"Baker, Louisiana",0,0,0,0,0,0,0,0,0,0,0,0,0,0,0.0,0,762,4823.0,8281.0,12865,13233,13793.0,13895.0
11699,22630,US,115552,32.2672222222,-93.8236111111,Census,Town,LA,"Stonewall, Louisiana",0,0,0,0,0,0,0,0,0,0,0,0,0,0,0.0,0,0,0.0,0.0,1175,1266,1668.0,1814.0
11709,7559,US,115716,31.4430555556,-93.4580555556,Census,Village,LA,"Florien, Louisiana",0,0,0,0,0,0,0,0,0,0,0,0,0,0,0.0,0,0,496.0,639.0,964,626,692.0,633.0
11846,23639,US,97713,,,Census,US County,LA,"Bienville Parish, Louisiana",0,0,0,0,0,0,5539,11000,10636,10442,14108,17588,21776,20977,23789.0,23933,19105,16726.0,16024.0,16387,15979,15752.0,14353.0
11884,49731,US,115675,31.6930555556,-93.095,Census,City,LA,"Natchitoches, Louisiana",0,0,0,986,1405,0,1261,0,1401,2785,1820,2388,2532,3388,4547.0,6812,9914,13924.0,15974.0,16664,16609,17865.0,18323.0
11896,10112,US,115516,32.7422222222,-93.9744444444,Census,Town,LA,"Oil City, Louisiana",0,0,0,0,0,0,0,0,0,0,0,0,0,0,0.0,0,422,1430.0,907.0,1323,1282,1219.0,1008.0
11909,9160,US,115739,30.8280555556,-90.6691666667,Census,Town,LA,"Greensburg, Louisiana",0,0,0,0,0,0,0,0,160,297,280,315,268,286,262.0,389,423,512.0,652.0,662,583,631.0,718.0
11979,6533,US,115597,32.2769444444,-92.715,Census,Village,LA,"East Hodge, Louisiana",0,0,0,0,0,0,0,0,0,0,0,0,0,0,0.0,0,0,0.0,363.0,439,421,366.0,289.0
11984,8591,US,115608,30.2375,-92.8288888889,Census,Town,LA,"Welsh, Louisiana",0,0,0,0,0,0,0,0,0,0,200,320,1250,1456,1514.0,1822,2416,3332.0,3203.0,3515,3299,3380.0,3226.0
12002,9557,US,150470,30.2363888889,-92.185,Census,Town,LA,"Duson, Louisiana",0,0,0,0,0,0,0,0,0,0,0,0,120,192,396.0,463,707,1033.0,1199.0,1253,1465,1672.0,1716.0
12006,12803,US,115829,32.5944444444,-93.3366666667,Census,Village,LA,"Dixie Inn, Louisiana",0,0,0,0,0,0,0,0,0,0,0,0,0,0,0.0,0,0,399.0,456.0,453,347,352.0,273.0
12104,14691,US,115607,30.1166666667,-92.6769444444,Census,Town,LA,"Lake Arthur, Louisiana",0,0,0,0,0,0,0,0,0,0,0,0,1093,1882,1602.0,2131,2849,3541.0,3551.0,3615,3194,3007.0,2738.0
12206,8619,US,115510,32.5866666667,-93.8875,Census,Town,LA,"Blanchard, Louisiana",0,0,0,0,0,0,0,0,0,0,0,0,0,0,0.0,0,0,0.0,806.0,1128,1175,2050.0,2899.0
12320,16475,US,97688,,,Census,US County,LA,"Livingston Parish, Louisiana",0,0,0,0,0,2315,3385,4431,4026,5258,5769,8100,10627,11643,18206.0,17790,20054,26974.0,36511.0,58806,70526,91814.0,128026.0
12459,10740,US,97676,32.42,-91.76,Census,US County,LA,"Richland Parish, Louisiana",0,0,0,0,0,0,0,0,5110,8440,10230,11116,15769,20860,26374.0,28829,26672,23824.0,21774.0,22187,20629,20981.0,20725.0
12627,13444,US,115501,32.3263888889,-93.2836111111,Census,Town,LA,"Ringgold, Louisiana",0,0,0,0,0,0,0,0,0,133,0,0,0,335,618.0,1006,1007,953.0,1731.0,1655,1856,1660.0,1495.0
12696,27896,US,115670,32.1163888889,-93.1147222222,Census,Village,LA,"Ashland, Natchitoches Parish, Louisiana",0,0,0,0,0,0,0,0,0,0,0,0,0,0,0.0,0,0,0.0,211.0,289,289,291.0,269.0
12699,9253,US,115464,30.1841666667,-92.4633333333,Census,Village,LA,"Estherwood, Louisiana",0,0,0,0,0,0,0,0,0,0,0,0,544,571,572.0,539,547,639.0,661.0,691,745,807.0,889.0
12773,8527,US,115511,32.8275,-93.8444444444,Census,Village,LA,"Gilliam, Louisiana",0,0,0,0,0,0,0,0,0,0,0,0,0,0,0.0,0,0,0.0,211.0,244,202,178.0,164.0
13157,10979,US,115657,30.4986111111,-90.7483333333,Census,Town,LA,"Livingston, Louisiana",0,0,0,0,0,0,0,0,0,0,0,0,0,0,0.0,0,0,1183.0,1398.0,1260,999,1342.0,1769.0
13193,12458,US,115672,,,Census,Village,LA,"Clarence, Louisiana",0,0,0,0,0,0,0,0,0,0,0,0,0,0,0.0,0,0,286.0,448.0,612,577,516.0,499.0
13201,17282,US,115846,30.7847222222,-91.3805555556,Census,Town,LA,"St. Francisville, Louisiana",0,0,0,0,0,0,0,0,0,721,950,1059,966,673,830.0,821,936,1661.0,1603.0,1471,1700,1712.0,1765.0
13344,10919,US,115579,31.9811111111,-91.6558333333,Census,Town,LA,"Wisner, Louisiana",0,0,0,0,0,0,0,0,0,0,0,0,0,0,692.0,617,738,1254.0,1339.0,1424,1153,1140.0,964.0
13427,7609,US,115469,30.8675,-92.7944444444,Census,Village,LA,"Elizabeth, Louisiana",0,0,0,0,0,0,0,0,0,0,0,0,0,0,0.0,0,0,0.0,504.0,454,414,574.0,532.0
13442,21523,US,97703,,,Census,Parish,LA,"East Baton Rouge Parish, Louisiana",0,0,1468,5220,6698,8133,11977,16046,17816,19966,25922,31153,34580,44513,68208.0,88415,158236,230058.0,285167.0,366191,380105,412852.0,440171.0
13467,6995,US,115740,30.6797222222,-90.6547222222,Census,Village,LA,"Montpelier, Louisiana",0,0,0,0,0,0,0,0,0,0,0,0,0,0,0.0,0,0,197.0,211.0,219,247,214.0,266.0
13512,25193,US,115786,30.5044444444,-90.4655555556,Census,City,LA,"Hammond, Louisiana",0,0,0,0,0,0,0,0,0,277,692,1511,2942,3855,6072.0,6033,8010,10563.0,12487.0,15226,15871,17639.0,20019.0
13591,14873,US,97704,,,Census,US County,LA,"DeSoto Parish, Louisiana",0,0,0,0,0,0,8023,13298,14962,15603,19860,25063,27689,29376,31016.0,31803,24398,24248.0,22764.0,25727,25346,25494.0,26656.0
13719,38134,US,115504,32.5177777778,-93.6913888889,Census,Suburban city,LA,"Bossier City, Louisiana",0,0,0,0,0,0,0,0,0,0,202,0,775,1094,4003.0,5786,15470,32776.0,43769.0,50817,52721,56461.0,61315.0
13808,15157,US,115503,32.6947222222,-93.7405555556,Census,Town,LA,"Benton, Louisiana",0,0,0,0,0,0,0,0,0,0,0,0,0,0,402.0,519,741,1336.0,1493.0,1864,2047,2035.0,1948.0
13839,8371,US,115710,32.0991666667,-93.2186111111,Census,Village,LA,"Martin, Louisiana",0,0,0,0,0,0,0,0,0,0,0,0,0,0,0.0,0,0,0.0,0.0,584,545,625.0,594.0
13979,12016,US,115616,29.9411111111,-90.2019444444,Census,City,LA,"Harahan, Louisiana",0,0,0,0,0,0,0,0,0,0,0,0,0,0,892.0,1082,3394,9275.0,13037.0,11384,9927,9885.0,9277.0
14019,15583,US,115475,30.2272222222,-90.9197222222,Census,City,LA,"Gonzales, Louisiana",0,0,0,0,0,0,0,0,0,0,0,0,0,0,462.0,857,1642,3252.0,4512.0,7287,7003,8156.0,9781.0
14036,70246,US,150473,32.5147222222,-93.7472222222,Census,City,LA,"Shreveport, Louisiana",0,0,0,0,0,0,1728,2190,4607,8009,11979,16013,28015,43874,76655.0,98167,127206,164372.0,182064.0,206989,198525,200145.0,199311.0
14088,9314,US,115576,32.2575,-91.7463888889,Census,Village,LA,"Baskin, Louisiana",0,0,0,0,0,0,0,0,0,0,0,0,0,654,416.0,330,117,238.0,177.0,286,243,188.0,254.0
14138,20643,US,115707,32.0230555556,-93.3416666667,Census,Town,LA,"Coushatta, Louisiana",0,0,0,0,0,0,0,0,0,488,619,600,564,962,959.0,1289,1788,1663.0,1492.0,2084,1845,2299.0,1964.0
14229,7531,US,115666,32.9216666667,-91.6738888889,Census,Village,LA,"Bonita, Louisiana",0,0,0,0,0,0,0,0,0,0,0,0,273,310,507.0,422,504,574.0,533.0,503,265,335.0,284.0
14508,7469,US,115492,30.7538888889,-93.5369444444,Census,Town,LA,"Merryville, Louisiana",0,0,0,0,0,0,0,0,0,0,0,0,0,2963,2626.0,1216,1383,1232.0,1286.0,1286,1235,1126.0,1103.0
14509,17181,US,115588,30.0036111111,-91.8183333333,Census,City,LA,"New Iberia, Louisiana",0,0,0,0,0,0,306,0,1472,2709,3447,6815,7499,6278,8003.0,13747,16467,29062.0,30147.0,32766,31828,32623.0,30617.0
14519,11766,US,115660,30.4894444444,-90.8627777778,Census,City,LA,"Walker, Louisiana",0,0,0,0,0,0,0,0,0,0,0,0,592,371,524.0,424,500,912.0,1363.0,2957,3727,4801.0,6138.0
14554,20613,US,97662,,,Census,US County,LA,"Terrebonne Parish, Louisiana",0,0,0,0,2121,4410,7724,12091,12451,17957,20167,24464,28320,26974,29816.0,35880,43328,60771.0,76049.0,94393,96982,104503.0,111860.0
14584,16237,US,115617,29.8911111111,-90.0691666667,Census,Census-designated place,LA,"Harvey, Louisiana",0,0,0,0,0,0,0,0,0,0,0,0,0,0,0.0,0,0,0.0,6347.0,22709,21222,22226.0,0.0
14592,16785,US,97658,,,Census,US County,LA,"Washington Parish, Louisiana",0,0,0,2517,2286,2649,3408,4708,3330,5190,6700,9628,18886,24164,29904.0,34443,38371,44015.0,41987.0,44207,43185,43926.0,47168.0
14678,28118,US,97710,,,Census,US County,LA,"Calcasieu Parish, Louisiana",0,0,0,0,0,2057,3914,5928,6733,12484,20176,30428,62767,32807,41963.0,56506,89635,145475.0,145415.0,167223,168134,183577.0,192768.0
14686,16190,US,97705,,,Census,US County,LA,"Concordia Parish, Louisiana",0,0,0,2626,4662,9414,7758,13805,9977,14914,14871,13559,14278,12466,12778.0,14562,14398,20467.0,22578.0,22981,20828,20247.0,20822.0
14717,12882,US,115717,31.6177777778,-93.4777777778,Census,Town,LA,"Many, Louisiana",0,0,0,0,0,0,0,0,0,143,133,354,683,668,1239.0,1474,1681,3164.0,3112.0,3988,3112,2889.0,2853.0
14736,10811,US,115649,32.5275,-92.7138888889,Census,City,LA,"Grambling, Louisiana",0,0,0,0,0,0,0,0,0,0,0,0,0,0,0.0,0,0,3144.0,4407.0,4226,5484,4693.0,4949.0
15020,7277,US,115605,30.3641666667,-92.9175,Census,Village,LA,"Fenton, Louisiana",0,0,0,0,0,0,0,0,0,0,0,0,0,0,0.0,0,0,429.0,404.0,491,265,380.0,379.0
15079,15082,US,97696,,,Census,US County,LA,"Iberville Parish, Louisiana",0,0,0,4414,7049,8495,12278,14661,12347,17544,21848,27006,30954,26806,24638.0,27721,26750,29939.0,30746.0,32159,31049,33320.0,33387.0
15136,18155,US,4440911,30.5544444444,-91.0366666667,Census,City,LA,"Central, Louisiana",0,0,0,0,0,0,0,0,0,0,0,0,0,0,0.0,0,0,0.0,0.0,0,0,0.0,26864.0
15165,41527,US,115635,30.2166666667,-92.0333333333,Census,City,LA,"Lafayette, Louisiana",0,0,0,0,0,0,0,498,777,815,2106,3314,6392,7855,14635.0,19210,33541,40400.0,68908.0,80584,94440,110257.0,120623.0
15246,28348,US,115810,29.9725,-92.1291666667,Census,City,LA,"Abbeville, Louisiana",0,0,0,0,0,0,0,0,545,255,637,1536,2907,3461,4356.0,6672,9338,10414.0,10996.0,12391,11187,11887.0,12257.0
15299,10051,US,115706,31.1563888889,-92.4947222222,Census,Town,LA,"Woodworth, Louisiana",0,0,0,0,0,0,0,0,0,0,0,0,0,0,0.0,0,392,320.0,409.0,412,754,1080.0,1096.0
15369,12435,US,115788,30.6352777778,-90.5038888889,Census,Town,LA,"Independence, Louisiana",0,0,0,0,0,0,0,0,0,68,0,0,1004,1032,1700.0,1498,1606,1941.0,1770.0,1684,1632,1724.0,1665.0
15408,7651,US,115794,30.5763888889,-90.4872222222,Census,Village,LA,"Tickfaw, Louisiana",0,0,0,0,0,0,0,0,0,73,0,0,0,0,0.0,0,0,317.0,370.0,571,565,617.0,694.0
15444,8115,US,115539,32.7966666667,-92.875,Census,Village,LA,"Lisbon, Louisiana",0,0,0,0,0,0,0,0,0,0,0,0,0,0,0.0,0,0,229.0,151.0,138,160,162.0,185.0
15458,22185,US,115565,32.8052777778,-91.1794444444,Census,Town,LA,"Lake Providence, Louisiana",0,0,0,0,0,0,0,582,320,0,642,1256,1568,1917,2867.0,3711,4123,5781.0,6183.0,6361,5380,5104.0,3991.0
15594,9134,US,115755,30.6933333333,-91.7455555556,Census,Town,LA,"Melville, Louisiana",0,0,0,0,0,0,0,0,0,0,361,517,1093,958,1541.0,1828,1901,1939.0,1987.0,1764,1562,1376.0,1041.0
15610,10203,US,115828,32.9694444444,-93.4480555556,Census,Town,LA,"Cullen, Louisiana",0,0,0,0,0,0,0,0,0,0,0,0,0,0,0.0,0,0,2194.0,1956.0,1869,1642,1296.0,1163.0
15622,18857,US,115814,30.1072222222,-92.1238888889,Census,Village,LA,"Maurice, Louisiana",0,0,0,0,0,0,0,0,0,0,0,0,0,0,330.0,420,335,411.0,476.0,478,432,642.0,964.0
15724,7922,US,115655,30.3044444444,-90.8155555556,Census,Village,LA,"French Settlement, Louisiana",0,0,0,0,0,0,0,0,0,0,0,0,0,0,0.0,0,0,0.0,670.0,761,829,945.0,1116.0
15847,15718,US,115771,29.7916666667,-91.5083333333,Census,City,LA,"Franklin, Louisiana",0,0,0,0,0,0,891,0,1265,1702,2127,2692,3857,3504,3271.0,4274,6144,8673.0,9325.0,9584,9004,8354.0,7660.0
15865,25704,US,115474,30.1,-90.9941666667,Census,City,LA,"Donaldsonville, Louisiana",0,0,0,0,0,0,0,1475,1573,2600,3121,4105,4090,3745,3788.0,3889,4150,6082.0,7367.0,7901,7949,7605.0,7436.0
15874,18239,US,115591,30.2841666667,-91.2405555556,Census,City,LA,"Plaquemine, Louisiana",0,0,0,0,0,0,0,1663,1460,2061,3222,3590,4955,4632,5124.0,5049,5747,7689.0,7739.0,7521,7186,7064.0,7119.0
15908,7383,US,115467,30.1216666667,-92.4986111111,Census,Village,LA,"Morse, Louisiana",0,0,0,0,0,0,0,0,0,0,0,0,237,482,549.0,742,679,682.0,759.0,835,782,759.0,812.0
15910,15348,US,115466,30.1877777778,-92.5827777778,Census,Village,LA,"Mermentau, Louisiana",0,0,0,0,0,0,0,0,0,0,0,0,323,364,394.0,571,636,334.0,716.0,771,760,721.0,661.0
15939,14425,US,115643,29.6425,-90.54,Census,Town,LA,"Lockport, Louisiana",0,0,0,0,0,0,0,0,0,171,0,401,669,803,866.0,877,1388,2221.0,2398.0,2424,2503,2624.0,2578.0
16081,11308,US,115639,29.5152777778,-90.3338888889,Census,CDP,LA,"Cut Off, Louisiana",0,0,0,0,0,0,0,0,0,0,0,0,0,0,0.0,0,0,0.0,0.0,5049,5325,5635.0,0.0
16402,7617,US,115476,30.1802777778,-90.8661111111,Census,Town,LA,"Sorrento, Louisiana",0,0,0,0,0,0,0,0,0,0,0,0,0,0,0.0,0,0,1151.0,1182.0,1197,1119,1227.0,1401.0
16443,6772,US,115652,32.6066666667,-92.6508333333,Census,Town,LA,"Vienna, Louisiana",0,0,0,0,0,0,0,0,0,358,0,0,0,0,0.0,0,0,0.0,59.0,519,404,424.0,386.0
16444,16930,US,115851,31.9233333333,-92.6402777778,Census,City,LA,"Winnfield, Louisiana",0,0,0,0,0,0,0,0,0,133,0,0,2925,2975,3721.0,4512,5629,7022.0,7142.0,7311,6138,5749.0,4840.0
16601,10601,US,115494,32.3525,-92.9769444444,Census,Village,LA,"Bienville, Louisiana",0,0,0,0,0,0,0,0,0,0,0,263,606,478,381.0,357,445,305.0,287.0,249,316,262.0,218.0
16605,11500,US,115699,31.0133333333,-92.2894444444,Census,Town,LA,"Cheneyville, Louisiana",0,0,0,0,0,0,0,0,0,0,0,0,498,678,835.0,913,918,1037.0,1082.0,865,1005,901.0,625.0
16775,14281,US,115547,31.9747222222,-93.9975,Census,Town,LA,"Logansport, Louisiana",0,0,0,0,0,0,0,0,0,0,281,688,420,632,1040.0,1222,1270,1371.0,1330.0,1565,1390,1630.0,1555.0
16841,83144,US,115833,32.6166666667,-93.2833333333,Census,City,LA,"Minden, Louisiana",0,0,0,0,0,0,533,1144,1100,1113,1298,1561,3002,6105,5623.0,6677,9787,12785.0,13996.0,15084,13661,13027.0,13082.0
16851,14278,US,97691,,,Census,US County,LA,"Lafayette Parish, Louisiana",0,0,0,0,5653,7841,6720,9003,10388,13235,15966,22825,28733,30841,38827.0,43941,57743,84656.0,109716.0,150017,164762,190503.0,221578.0
16879,21914,US,115620,30.0097222222,-90.2505555556,Census,City,LA,"Kenner, Louisiana",0,0,0,0,0,0,0,0,0,970,953,1253,0,1882,2440.0,2375,5535,17037.0,29858.0,66382,72033,70517.0,66702.0
16889,12538,US,115624,29.9619444444,-90.2177777778,Census,Census-designated place,LA,"River Ridge, Louisiana",0,0,0,0,0,0,0,0,0,0,0,0,0,0,0.0,0,0,0.0,15713.0,17146,14800,14588.0,13494.0
16890,21104,US,115488,31.1266666667,-92.0661111111,Census,City,LA,"Marksville, Louisiana",0,0,0,0,0,0,0,0,437,553,540,837,1076,1185,1527.0,1811,3635,4257.0,4519.0,5113,5526,5537.0,5702.0
16941,7542,US,150474,33.0113888889,-92.7230555556,Census,Village,LA,"Junction City, Louisiana",0,0,0,0,0,0,0,0,0,0,0,389,396,322,388.0,355,514,639.0,733.0,727,749,652.0,582.0
16954,13635,US,115830,32.5313888889,-93.4102777778,Census,Village,LA,"Doyline, Louisiana",0,0,0,0,0,0,0,0,0,0,0,0,0,0,0.0,0,1170,1061.0,716.0,801,884,841.0,818.0
16960,5976,US,115704,30.9905555556,-92.575,Census,Village,LA,"McNary, Louisiana",0,0,0,0,0,0,0,0,0,0,0,0,0,1318,211.0,151,0,0.0,220.0,240,248,211.0,211.0
16993,15360,US,97707,,,Census,US County,LA,"Catahoula Parish, Louisiana",0,0,0,2287,2581,4955,7132,11651,8475,10277,12002,16351,10415,11074,12451.0,14618,11834,11421.0,11769.0,12287,11065,10920.0,10407.0
17020,7841,US,115528,32.0263888889,-92.1394444444,Census,Village,LA,"Clarks, Louisiana",0,0,0,0,0,0,0,0,0,0,0,0,0,0,0.0,0,0,940.0,889.0,931,650,1071.0,1017.0
17037,7132,US,115570,30.9208333333,-91.1158333333,Census,Village,LA,"Wilson, Louisiana",0,0,0,0,0,0,0,0,0,0,281,470,762,470,354.0,0,0,0.0,606.0,656,707,668.0,595.0
17118,36236,US,115665,32.7777777778,-91.915,Census,City,LA,"Bastrop, Louisiana",0,0,0,0,0,0,0,481,521,822,0,787,854,1216,5121.0,6626,12769,15193.0,14713.0,15527,13916,12988.0,11365.0
17630,13328,US,115534,31.625,-91.8263888889,Census,Town,LA,"Jonesville, Louisiana",0,0,0,0,0,0,0,0,0,90,172,0,287,1029,1123.0,2080,1954,2347.0,2761.0,2828,2720,2469.0,2265.0
17705,8845,US,115498,32.3411111111,-93.2083333333,Census,Village,LA,"Jamestown, Louisiana",0,0,0,0,0,0,0,0,0,0,0,0,0,0,0.0,0,0,0.0,153.0,131,148,149.0,139.0
17719,16752,US,115463,30.2136111111,-92.3736111111,Census,City,LA,"Crowley, Louisiana",0,0,0,0,0,0,0,0,0,0,420,4214,5099,6108,7656.0,9523,12784,15617.0,16104.0,16036,13983,14225.0,13265.0
17951,16047,US,115541,31.6305555556,-91.5566666667,Census,Town,LA,"Ferriday, Louisiana",0,0,0,0,0,0,0,0,0,0,0,0,577,1044,2502.0,2857,3847,4563.0,5239.0,4472,4111,3723.0,3511.0
17986,27779,US,97657,,,Census,US County,LA,"Webster Parish, Louisiana",0,0,0,0,0,0,0,0,0,10005,12466,15125,19186,24707,29458.0,33676,35704,39701.0,39939.0,43631,41989,41831.0,41207.0
18072,12049,US,115518,32.8711111111,-93.9866666667,Census,Town,LA,"Vivian, Louisiana",0,0,0,0,0,0,0,0,0,0,0,0,826,1864,1646.0,2460,2426,2624.0,4046.0,4225,4156,4031.0,3671.0
18117,13522,US,115584,31.5247222222,-92.4088888889,Census,Town,LA,"Pollock, Louisiana",0,0,0,0,0,0,0,0,0,0,0,637,675,353,376.0,317,421,366.0,341.0,399,330,376.0,469.0
18225,7272,US,115486,31.0547222222,-92.1211111111,Census,Village,LA,"Hessmer, Louisiana",0,0,0,0,0,0,0,0,0,0,0,0,0,0,0.0,0,0,433.0,454.0,743,578,642.0,802.0
18244,13348,US,115791,30.4391666667,-90.4425,Census,City,LA,"Ponchatoula, Louisiana",0,0,0,0,0,0,0,0,320,293,459,711,1055,955,2898.0,4001,4090,4727.0,4545.0,5469,5425,5180.0,6559.0
18280,11756,US,97660,,,Census,US County,LA,"Vermilion Parish, Louisiana",0,0,0,0,0,0,3409,4324,4528,8728,14234,20705,26390,26482,33684.0,37750,36929,38855.0,43071.0,48458,50055,53807.0,57999.0
18299,7878,US,115839,30.3905555556,-91.2416666667,Census,Town,LA,"Brusly, Louisiana",0,0,0,0,0,0,0,0,0,216,315,0,390,400,345.0,433,493,544.0,1282.0,1762,1824,2020.0,2589.0
18361,18402,US,150471,30.4936111111,-92.4169444444,Census,City,LA,"Eunice, Louisiana",0,0,0,0,0,0,0,0,0,0,0,316,1684,3272,3597.0,5242,8184,11326.0,11390.0,12479,11162,11499.0,10398.0
18417,16397,US,115761,30.2736388889,-91.8993333333,Census,City,LA,"Breaux Bridge, Louisiana",0,0,0,0,0,0,0,0,0,443,654,654,1339,1171,1399.0,1668,2492,3303.0,4942.0,5922,6515,7281.0,8139.0
18422,9806,US,115673,32.0205555556,-92.9122222222,Census,Village,LA,"Goldonna, Louisiana",0,0,0,0,0,0,0,0,0,0,0,0,0,0,260.0,256,364,292.0,337.0,526,417,457.0,430.0
18521,18544,US,115806,32.7736111111,-92.4041666667,Census,Town,LA,"Farmerville, Louisiana",0,0,0,0,0,0,0,0,272,712,472,458,598,632,1137.0,1428,2173,2727.0,3416.0,3768,3334,3808.0,3860.0
18578,8920,US,115661,32.3213888889,-90.9366666667,Census,Village,LA,"Delta, Louisiana",0,0,0,0,0,0,0,0,0,399,320,0,0,0,0.0,183,150,111.0,153.0,295,234,239.0,284.0
18660,7267,US,115592,30.44,-91.4616666667,Census,Village,LA,"Rosedale, Louisiana",0,0,0,0,0,0,0,0,0,0,0,0,0,0,0.0,0,0,674.0,621.0,658,807,753.0,793.0
18735,20656,US,115583,31.6661111111,-92.8866666667,Census,Town,LA,"Montgomery, Louisiana",0,0,0,0,0,0,0,0,160,0,144,158,174,224,383.0,495,695,866.0,923.0,843,645,787.0,730.0
18800,20034,US,115600,,,Census,Town &amp; Parish seat,LA,"Jonesboro, Louisiana",0,0,0,0,0,0,0,0,0,0,0,0,1134,837,1949.0,2639,3097,3848.0,5072.0,5061,4305,3914.0,4704.0
18824,18227,US,97682,,,Census,US County,LA,"Ouachita Parish, Louisiana",0,0,0,2896,5140,4640,5008,4727,11582,14685,17985,20947,25830,30319,54337.0,59168,74713,101663.0,115387.0,139241,142191,147250.0,153720.0
18863,9944,US,115703,31.0947222222,-92.4002777778,Census,Town,LA,"Lecompte, Louisiana",0,0,0,0,0,0,0,0,0,0,0,0,1058,1034,1247.0,1311,1443,1485.0,1518.0,1661,1592,1366.0,1227.0
19170,7559,US,115542,31.6027777778,-91.5280555556,Census,Town,LA,"Ridgecrest, Louisiana",0,0,0,0,0,0,0,0,0,0,0,0,0,0,0.0,0,0,0.0,1076.0,895,804,801.0,694.0
19199,11192,US,115844,32.8613888889,-91.3891666667,Census,Town,LA,"Oak Grove, West Carroll Parish, Louisiana",0,0,0,0,0,0,0,0,0,0,0,0,398,700,1241.0,1654,1796,1797.0,1980.0,2214,2126,2174.0,1727.0
19208,26955,US,115549,32.0327777778,-93.7025,Census,City,LA,"Mansfield, Louisiana",0,0,0,0,0,0,0,0,813,770,908,847,1799,2564,3837.0,4065,4440,5839.0,6432.0,6485,5389,5582.0,5001.0
19303,43248,US,97694,29.7333333333,-90.1,Census,US County,LA,"Jefferson Parish, Louisiana",0,0,0,0,6846,10470,25093,15372,17767,12166,13221,15321,18247,21563,40032.0,50427,103873,208769.0,337568.0,454592,448306,455466.0,432552.0
19330,10777,US,97697,,,Census,US County,LA,"Iberia Parish, Louisiana",0,0,0,0,0,0,0,0,9042,16676,20997,29015,31262,26855,28192.0,37183,40059,51657.0,57397.0,63752,68297,73266.0,73240.0
19399,12507,US,115536,32.6502777778,-93.0244444444,Census,Village,LA,"Athens, Louisiana",0,0,0,0,0,0,0,0,0,0,0,0,514,493,461.0,491,487,406.0,387.0,419,278,262.0,249.0
19470,15271,US,115664,32.4086111111,-91.1866666667,Census,Unincorporated community,LA,"Tallulah, Louisiana",0,0,0,0,0,0,0,0,0,0,0,0,847,1316,3332.0,5712,7758,9413.0,9643.0,11341,8526,9189.0,7335.0
19752,11613,US,150477,30.1422222222,-91.9636111111,Census,City,LA,"Broussard, Louisiana",0,0,0,0,0,0,0,0,0,0,0,290,499,602,806.0,791,1237,1600.0,1707.0,2923,3213,5874.0,8197.0
19805,15101,US,155251,,,Census,US County,LA,"St. Charles Parish, Louisiana",0,0,3291,3862,5147,4700,5120,5297,4867,7161,7737,9072,11207,8586,12111.0,12321,13363,21219.0,29550.0,37259,42437,48072.0,52780.0
19968,27087,US,115580,31.5197222222,-92.7083333333,Census,Town,LA,"Colfax, Louisiana",0,0,0,0,0,0,0,0,40,0,161,190,1049,1449,1141.0,1354,1651,1934.0,1892.0,1680,1696,1659.0,1558.0
20039,9481,US,115636,30.2380555556,-92.0919444444,Census,City,LA,"Scott, Louisiana",0,0,0,0,0,0,0,0,0,0,0,0,239,324,344.0,407,688,902.0,1334.0,2239,4912,7870.0,8614.0
20048,13934,US,115686,32.5108333333,-92.14,Census,City,LA,"West Monroe, Louisiana",0,0,0,0,0,0,0,0,0,0,447,775,1127,2240,6566.0,8560,10302,15215.0,14868.0,14993,14096,13250.0,13065.0
20132,19278,US,115781,30.3691666667,-90.0780555556,Census,City,LA,"Mandeville, Louisiana",0,0,0,0,0,0,0,0,541,753,1012,1029,1166,1130,1069.0,1326,1368,1740.0,2571.0,6076,7083,10489.0,11560.0
20195,6994,US,115822,31.2561111111,-93.0186111111,Census,Village,LA,"Simpson, Louisiana",0,0,0,0,0,0,0,0,0,0,0,0,0,0,0.0,0,0,0.0,491.0,534,536,583.0,638.0
20260,11403,US,97671,,,Census,US County,LA,"St. James Parish, Louisiana",0,0,0,5660,7146,8548,11098,11499,10152,14714,15715,20197,23009,21228,15338.0,16596,15334,18369.0,19733.0,21495,20879,21216.0,22102.0
20273,18041,US,115493,32.5519444444,-92.9241666667,Census,Town,LA,"Arcadia, Louisiana",0,0,0,0,0,0,0,0,0,0,862,924,1079,1240,1809.0,1601,2241,2547.0,2970.0,3403,3079,3041.0,2919.0
20307,9952,US,115659,30.4291666667,-90.5480555556,Census,Town,LA,"Springfield, Louisiana",0,0,0,0,0,0,0,0,0,99,0,0,0,0,0.0,0,0,268.0,423.0,424,439,395.0,487.0
20466,16826,US,115585,29.9163888889,-91.6725,Census,City,LA,"Jeanerette, Louisiana",0,0,0,0,0,0,0,0,0,698,1309,1905,2206,2512,2228.0,3362,4692,5568.0,6322.0,6511,6205,5997.0,5530.0
20475,7507,US,115841,32.6027777778,-91.4769444444,Census,Village,LA,"Epps, Louisiana",0,0,0,0,0,0,0,0,0,0,0,0,0,0,0.0,391,308,411.0,448.0,672,541,1153.0,854.0
20486,7139,US,115551,31.9636111111,-93.9036111111,Census,Village,LA,"Stanley, Louisiana",0,0,0,0,0,0,0,0,0,0,0,0,0,0,0.0,0,0,234.0,145.0,151,131,145.0,107.0
20545,17182,US,115773,29.6925,-91.3066666667,Census,City,LA,"Patterson, Louisiana",0,0,0,0,0,0,0,0,0,0,0,0,2998,2538,2206.0,1800,1938,2923.0,4409.0,4693,4736,5130.0,6112.0
20574,20211,US,97679,,,Unknown,US County,LA,"Pointe Coupee Parish, Louisiana",0,0,3187,4912,5942,7898,11339,17718,12981,17785,19613,25777,25289,24697,21007.0,24004,21841,22488.0,22002.0,24045,22540,22763.0,22802.0
20575,11627,US,115760,30.6144444444,-92.0583333333,Census,Town,LA,"Washington, Louisiana",0,0,0,0,0,0,0,536,907,1194,1064,1197,1528,1041,1004.0,1264,1291,1291.0,1473.0,1266,1253,1082.0,964.0
20673,13538,US,115811,29.96,-92.0352777778,Census,Town,LA,"Erath, Louisiana",0,0,0,0,0,0,0,0,0,0,0,215,575,713,895.0,1408,1514,2019.0,2024.0,2259,2428,2187.0,2114.0
20680,10785,US,150480,30.4016666667,-91.9325,Census,Town,LA,"Arnaudville, Louisiana",0,0,0,0,0,0,0,0,0,140,0,327,279,408,483.0,640,872,1184.0,1673.0,1679,1444,1398.0,1057.0
20727,12218,US,115647,32.5302777778,-92.5125,Census,Village,LA,"Choudrant, Louisiana",0,0,0,0,0,0,0,0,0,0,0,0,0,393,394.0,438,395,465.0,555.0,809,557,582.0,845.0
20750,22090,US,97674,,,Census,US County,LA,"St. Bernard Parish, Louisiana",0,0,1020,2635,3356,3237,3802,4076,3553,4405,4326,5031,5277,4968,6512.0,7280,11087,32186.0,51185.0,64097,66631,67229.0,35897.0
20833,32941,US,115795,32.0727777778,-91.2391666667,Census,Town,LA,"Newellton, Louisiana",0,0,0,0,0,0,0,0,0,0,0,0,424,541,627.0,789,1280,1453.0,1403.0,1726,1576,1482.0,1187.0
20909,18182,US,115654,30.4797222222,-90.9541666667,Census,City,LA,"Denham Springs, Louisiana",0,0,0,0,0,0,0,0,0,0,0,0,574,500,1002.0,1233,2053,5991.0,6752.0,8563,8381,8757.0,10215.0
20913,6485,US,115658,30.3372222222,-90.8419444444,Census,Village,LA,"Port Vincent, Louisiana",0,0,0,0,0,0,0,0,0,0,0,0,0,0,0.0,0,0,340.0,387.0,450,446,463.0,741.0
20932,20561,US,115615,29.9163888889,-90.0541666667,Census,City,LA,"Gretna, Louisiana",0,0,0,0,0,0,717,0,0,2396,3332,0,0,7197,9584.0,10879,13813,21967.0,24875.0,20615,17208,17423.0,17736.0
20990,181150,US,53842,29.95,-90.0666666667, USA,Consolidated city-parish,LA,New Orleans,0,0,17242,27176,46082,102193,116375,168675,191418,216090,242039,287104,339075,387219,458762.0,494537,570445,627525.0,593471.0,557515,496938,484674.0,343829.0
21020,7082,US,115473,30.5205555556,-93.0469444444,Census,Village,LA,"Reeves, Louisiana",0,0,0,0,0,0,0,0,0,0,0,0,0,243,139.0,120,106,151.0,214.0,199,188,209.0,232.0
21112,15172,US,97700,,,Census,US County,LA,"Evangeline Parish, Louisiana",0,0,0,0,0,0,0,0,0,0,0,0,0,23485,25483.0,30497,31629,31639.0,31932.0,33343,33274,35434.0,33984.0
21114,8634,US,115489,31.0388888889,-91.9761111111,Census,Village,LA,"Moreauville, Louisiana",0,0,0,0,0,0,0,0,0,0,0,0,728,867,600.0,815,835,815.0,807.0,853,919,922.0,929.0
21133,12191,US,115832,32.4580555556,-93.2675,Census,Village,LA,"Heflin, Louisiana",0,0,0,0,0,0,0,0,0,0,0,0,0,0,0.0,0,0,289.0,314.0,279,253,245.0,244.0
21138,8075,US,115509,32.7505555556,-93.8338888889,Census,Village,LA,"Belcher, Louisiana",0,0,0,0,0,0,0,0,0,0,0,0,0,0,0.0,0,0,0.0,482.0,436,249,272.0,263.0
21167,26262,US,97659,,,Census,US County,LA,"Vernon Parish, Louisiana",0,0,0,0,0,0,0,0,0,5160,5903,10327,17384,20493,20047.0,19142,18974,18301.0,53794.0,53475,61961,52531.0,52334.0
21178,13785,US,115720,,,Census,Town,LA,"Zwolle, Louisiana",0,0,0,0,0,0,0,0,0,0,0,276,973,909,1264.0,1500,1555,1326.0,2169.0,2602,1779,1783.0,1759.0
21687,9366,US,115813,30.0044444444,-92.2858333333,Census,City,LA,"Kaplan, Louisiana",0,0,0,0,0,0,0,0,0,0,0,0,315,876,1653.0,2838,4562,5267.0,5540.0,5016,4535,5177.0,4600.0
21758,9296,US,115815,31.2527777778,-93.3438888889,Census,Village,LA,"Anacoco, Louisiana",0,0,0,0,0,0,0,0,0,0,0,0,0,0,0.0,0,0,0.0,0.0,820,823,866.0,869.0
21759,9305,US,115484,30.9883333333,-92.0530555556,Census,Town,LA,"Cottonport, Louisiana",0,0,0,0,0,0,0,0,0,0,0,505,866,720,1015.0,1196,1534,1581.0,1862.0,1911,2600,2316.0,2006.0
21845,18006,US,97702,,,Census,US County,LA,"East Carroll Parish, Louisiana",0,0,0,0,0,0,0,0,0,12134,12362,11373,11637,11231,15815.0,19023,16302,14433.0,12884.0,11772,9709,9421.0,7759.0
22289,14072,US,97672,,,Census,US County,LA,"St. Helena Parish, Louisiana",0,0,0,3026,4028,3525,4561,7130,5423,7504,8062,8479,9172,8427,8492.0,9542,9013,9162.0,9937.0,9827,9874,10525.0,11203.0
22433,22480,US,97654,,,Census,US County,LA,"West Feliciana Parish, Louisiana",0,0,0,12732,8629,10910,13245,11671,10499,12809,15062,15994,13449,12303,10924.0,11720,10169,12395.0,11376.0,12186,12915,15111.0,15625.0
22713,7096,US,115663,32.3858333333,-91.1747222222,Census,Village,LA,"Richmond, Louisiana",0,0,0,0,0,0,0,0,0,0,0,0,0,0,0.0,0,0,0.0,0.0,505,447,499.0,577.0
23023,13928,US,115772,29.7008333333,-91.1972222222,Census,City,LA,"Morgan City, Louisiana",0,0,0,0,0,0,0,0,0,2015,2291,2332,5477,5429,5985.0,6969,9759,13540.0,16586.0,16114,14531,12703.0,12404.0
23054,14257,US,97709,,,Census,US County,LA,"Caldwell Parish, Louisiana",0,0,0,0,0,2017,2815,4833,4820,5767,5814,6917,8593,9514,10430.0,12046,10293,9004.0,9354.0,10761,9810,10560.0,10132.0
23064,9956,US,115808,32.9016666667,-92.2433333333,Census,Town,LA,"Marion, Louisiana",0,0,0,0,0,0,0,0,0,0,0,0,226,371,444.0,481,685,685.0,796.0,989,775,806.0,765.0
23084,13355,US,115713,32.4736111111,-91.7575,Census,Town,LA,"Rayville, Louisiana",0,0,0,0,0,0,0,0,106,316,366,0,1079,1499,2976.0,2412,3138,4052.0,3962.0,4610,4411,4234.0,3695.0
23168,99330,US,57835,30.4486111111,-91.1258333333,Census,"Consolidated city-parishThough the City of Baton Rouge and [[East Baton Rouge Parish have a consolidated government, this differs slightly from a traditional consolidated city-county government, as the cities of Zachary, Baker, and Central operate their own individual city governments within East Baton Rouge Parish. As a result of this system, Baton Rouge has the uncommon office of &quot;Mayor-President&quot;, which consolidates the executive offices of &quot;Mayor of Baton Rouge&quot; and &quot;President of East Baton Rouge Parish&quot;.}}",LA,"Baton Rouge, Louisiana",0,0,469,0,0,2269,3905,5428,6498,7197,10478,11269,14897,21782,30729.0,34719,125629,152419.0,165921.0,220394,219531,227818.0,229493.0
23183,8899,US,115741,30.0538888889,-90.6891666667,Census,Town,LA,"Gramercy, Louisiana",0,0,0,0,0,0,0,0,0,0,0,0,0,0,0.0,0,1184,2094.0,2567.0,3211,2412,3066.0,3613.0
23301,9309,US,115671,31.8955555556,-93.1138888889,Census,Town,LA,"Campti, Louisiana",0,0,0,0,0,0,0,0,0,101,310,0,664,670,999.0,1004,1014,1045.0,1078.0,1069,929,1057.0,1056.0
23338,26682,US,97656,,,Census,US County,LA,"West Baton Rouge Parish, Louisiana",0,0,1463,2335,3084,4638,6270,7312,5114,7667,8363,10285,12636,11092,9716.0,11263,11738,14796.0,16864.0,19086,19419,21601.0,23788.0
23363,6803,US,115495,32.4438888889,-92.9897222222,Census,Village,LA,"Bryceland, Louisiana",0,0,0,0,0,0,0,0,0,0,0,0,0,243,176.0,139,123,89.0,65.0,122,103,114.0,108.0
23368,28315,US,115802,29.5875,-90.7161111111,Census,City,LA,"Houma, Louisiana",0,0,0,0,0,0,0,429,593,1084,1280,3212,5024,5160,6531.0,9052,11505,22561.0,30922.0,32602,30495,32393.0,33727.0
23435,25234,US,97685,,,Census,US County,LA,"Natchitoches Parish, Louisiana",0,0,0,7486,7905,14350,14228,16699,18265,19707,25836,33216,36455,38602,38477.0,40997,38144,35653.0,35219.0,39863,36689,39080.0,39566.0
23501,26905,US,115646,29.7922222222,-90.82,Census,City,LA,"Thibodaux, Louisiana",0,0,0,0,0,0,1242,1380,1922,1515,2078,3253,3824,3526,4442.0,5851,7730,13403.0,15028.0,15810,14035,14431.0,14566.0
23567,20227,US,97717,,,Census,US County,LA,"Ascension Parish, Louisiana",0,0,2219,3728,5246,6951,10752,11484,11577,16895,19545,24142,23887,22155,18438.0,21215,22387,27927.0,37086.0,50068,58214,76627.0,107215.0
23792,7547,US,115568,30.9694444444,-91.1055555556,Census,Village,LA,"Norwood, Louisiana",0,0,0,0,0,0,0,0,0,0,0,0,0,0,0.0,0,414,427.0,348.0,421,317,337.0,322.0
23829,15549,US,97668,,,Census,US County,LA,"St. Martin Parish, Louisiana",0,0,0,0,7205,8674,11761,12674,9370,12663,14884,18940,23070,21990,21767.0,26394,26353,29063.0,32453.0,40214,43978,48583.0,52160.0
23842,13109,US,115812,30.0272222222,-92.5075,Census,Town,LA,"Gueydan, Louisiana",0,0,0,0,0,0,0,0,0,0,0,376,1081,1233,1313.0,1506,2041,2156.0,1984.0,1695,1611,1598.0,1398.0
23878,9776,US,115491,30.9836111111,-91.8125,Census,Town,LA,"Simmesport, Louisiana",0,0,0,0,0,0,0,0,0,0,0,0,0,0,638.0,1215,1510,2125.0,2027.0,2293,2092,2239.0,2161.0
23998,13542,US,115780,30.4072222222,-90.1616666667,Census,Town,LA,"Madisonville, Louisiana",0,0,0,0,0,0,0,0,398,441,574,779,1028,1103,837.0,915,861,860.0,801.0,799,659,677.0,748.0
24017,6964,US,115784,30.65,-89.9002777778,Census,Village,LA,"Sun, Louisiana",0,0,0,0,0,0,0,0,0,0,0,0,0,0,0.0,0,0,224.0,288.0,404,429,471.0,470.0
24043,18012,US,115827,32.8144444444,-93.4213888889,Census,Town,LA,"Cotton Valley, Louisiana",0,0,0,0,0,0,0,0,0,0,0,0,0,0,1133.0,0,1188,1145.0,1261.0,1445,1130,1189.0,1009.0
24174,7001,US,115807,32.9202777778,-92.6616666667,Census,Village,LA,"Lillie, Louisiana",0,0,0,0,0,0,0,0,0,0,0,0,0,0,0.0,0,0,0.0,160.0,172,145,139.0,118.0
24254,9702,US,150469,30.4852777778,-92.6005555556,Census,Town,LA,"Basile, Louisiana",0,0,0,0,0,0,0,0,0,0,0,0,0,552,403.0,1132,1572,1932.0,1779.0,2635,1808,1660.0,1821.0
24272,14341,US,115712,32.3083333333,-91.7761111111,Census,Village,LA,"Mangham, Louisiana",0,0,0,0,0,0,0,0,0,0,0,0,470,462,714.0,572,554,521.0,544.0,867,598,595.0,672.0
24335,22438,US,115543,31.5652777778,-91.4258333333,Census,City,LA,"Vidalia, Louisiana",0,0,0,0,0,0,0,0,0,449,821,1022,1345,1246,1141.0,1318,1641,4313.0,5538.0,5936,4953,4543.0,4299.0
24357,31624,US,115756,30.5280555556,-92.0844444444,Census,City,LA,"Opelousas, Louisiana",0,0,0,0,0,0,0,786,1546,1676,1572,2951,4623,4437,6299.0,8980,11659,17417.0,20387.0,18903,18151,22860.0,16634.0
24490,11122,US,115641,29.3880555556,-90.2694444444,Census,Town,LA,"Golden Meadow, Louisiana",0,0,0,0,0,0,0,0,0,0,0,0,0,0,0.0,0,0,3097.0,2681.0,2282,2049,2193.0,2101.0
24581,16878,US,115776,30.4788888889,-90.1041666667,Census,City,LA,"Covington, Louisiana",0,0,0,0,0,0,0,0,585,567,976,1205,2601,2942,3208.0,4123,5113,6754.0,7170.0,7892,7691,8483.0,8765.0
24606,15461,US,115840,30.4536111111,-91.21,Census,City,LA,"Port Allen, Louisiana",0,0,0,0,0,0,0,0,0,0,0,0,0,920,1524.0,1898,3097,5026.0,5728.0,6114,6277,5278.0,5180.0
24614,9945,US,115838,30.3547222222,-91.2647222222,Census,Town,LA,"Addis, Louisiana",0,0,0,0,0,0,0,0,0,0,0,0,0,473,425.0,492,505,590.0,724.0,1320,1222,2238.0,3593.0
24618,6969,US,115656,30.3672222222,-90.5663888889,Census,Village,LA,"Killian, Louisiana",0,0,0,0,0,0,0,0,0,0,0,0,0,0,0.0,0,0,0.0,293.0,611,721,1053.0,1206.0
24645,10550,US,115571,30.5708333333,-92.3191666667,Census,Village,LA,"Chataignier, Louisiana",0,0,0,0,0,0,0,0,0,0,0,0,0,0,0.0,0,0,0.0,0.0,431,281,383.0,364.0
24675,6830,US,115601,32.2819444444,-92.7183333333,Census,Village,LA,"North Hodge, Louisiana",0,0,0,0,0,0,0,0,0,0,0,0,0,0,0.0,0,0,680.0,640.0,573,477,436.0,388.0
24719,93542,US,3083,31.2927777778,-92.4591666667,Census,City,LA,"Alexandria, Louisiana",0,0,0,0,0,814,672,1461,1218,1800,2861,5648,11213,17510,23025.0,27066,34913,40279.0,41811.0,51648,49188,46342.0,47723.0
24873,13034,US,97667,,,Census,US County,LA,"St. Mary Parish, Louisiana",0,0,0,0,6442,8950,13697,16816,13860,19891,22416,34145,39368,30754,29397.0,31458,35848,48833.0,60752.0,64253,58086,53500.0,54650.0
24932,12428,US,115470,30.4866666667,-92.8466666667,Census,Town,LA,"Kinder, Louisiana",0,0,0,0,0,0,0,0,0,0,0,0,635,1148,962.0,1416,2003,2299.0,2307.0,2603,2246,2148.0,2477.0
25156,6611,US,115677,31.6541666667,-93.2011111111,Census,Village,LA,"Provencal, Louisiana",0,0,0,0,0,0,0,0,0,0,482,246,262,0,0.0,0,0,570.0,530.0,695,538,708.0,611.0
25292,17822,US,115797,31.8069444444,-91.3852777778,Census,Town,LA,"Waterproof, Louisiana",0,0,0,0,0,0,0,0,0,316,0,298,445,340,420.0,592,1180,1412.0,1438.0,1339,1080,834.0,688.0
25414,11197,US,115512,32.4361111111,-93.9638888889,Census,Town,LA,"Greenwood, Louisiana",0,0,0,0,0,0,0,0,0,0,0,0,0,0,0.0,0,0,0.0,212.0,1043,2092,2458.0,3219.0
25440,13208,US,11666393,30.8486111111,-90.15,Census,Town,LA,"Franklinton, Louisiana",0,0,0,0,0,0,0,143,121,0,97,236,814,964,963.0,1579,2342,3141.0,3562.0,4119,4007,3657.0,3857.0
25471,7382,US,115517,32.9713888889,-93.9958333333,Census,Village,LA,"Rodessa, Louisiana",0,0,0,0,0,0,0,0,0,0,0,0,0,0,0.0,0,0,0.0,273.0,337,294,307.0,270.0
25520,10500,US,115483,30.9536111111,-92.1855555556,Census,City,LA,"Bunkie, Louisiana",0,0,0,0,0,0,0,0,0,0,299,873,1765,1743,2464.0,3575,4666,5188.0,5395.0,5364,5044,4662.0,4171.0
25522,10339,US,115696,31.4080555556,-92.4022222222,Census,Town,LA,"Ball, Louisiana",0,0,0,0,0,0,0,0,0,0,0,0,0,0,0.0,0,0,0.0,0.0,3405,3305,3681.0,4000.0
25693,21710,US,115695,30.6963888889,-91.4388888889,Census,City,LA,"New Roads, Louisiana",0,0,0,0,0,0,0,0,0,0,0,770,1352,1294,1473.0,2255,2818,3965.0,3945.0,3924,5303,4966.0,4831.0
25733,23090,US,97712,,,Census,US County,LA,"Bossier Parish, Louisiana",0,0,0,0,0,0,6962,11348,12675,16042,20330,24153,21738,22266,28388.0,33162,40139,57622.0,64519.0,80721,86088,98310.0,116979.0
25767,13990,US,97689,,,Census,US County,LA,"Lincoln Parish, Louisiana",0,0,0,0,0,0,0,0,0,11075,14753,15898,18485,16962,22822.0,24790,25782,28535.0,33800.0,39763,41745,42509.0,46735.0
25825,8900,US,115849,32.0777777778,-92.6611111111,Census,Village,LA,"Dodson, Louisiana",0,0,0,0,0,0,0,0,0,0,0,0,845,410,436.0,442,375,512.0,457.0,469,350,357.0,337.0
26040,6708,US,115718,31.6902777778,-93.6822222222,Census,Village,LA,"Noble, Louisiana",0,0,0,0,0,0,0,0,0,0,0,0,453,316,268.0,238,238,206.0,209.0,194,225,259.0,252.0
26088,7768,US,115669,32.6236111111,-91.7744444444,Census,Village,LA,"Oak Ridge, Louisiana",0,0,0,0,0,0,0,0,0,0,296,348,332,318,260.0,373,287,287.0,276.0,257,174,142.0,144.0
26223,7126,US,115550,32.0166666667,-93.7227777778,Census,Village,LA,"South Mansfield, Louisiana",0,0,0,0,0,0,0,0,0,0,0,0,0,441,462.0,433,276,616.0,439.0,1463,407,352.0,346.0
26294,23757,US,97681,29.39,-89.48,Census,US County,LA,"Plaquemines Parish, Louisiana",0,0,0,2354,4489,5060,7390,8494,10552,11575,12541,13039,12524,10194,9608.0,12318,14239,22545.0,25225.0,26049,25575,26757.0,23042.0
26324,8960,US,115485,30.9527777778,-92.1091666667,Census,Town,LA,"Evergreen, Louisiana",0,0,0,0,0,0,0,0,0,297,0,322,299,262,298.0,384,382,325.0,307.0,272,283,314.0,310.0
26373,9115,US,115648,32.6997222222,-92.6572222222,Census,Town,LA,"Dubach, Louisiana",0,0,0,0,0,0,0,0,0,0,0,0,714,726,608.0,749,703,1013.0,1096.0,1161,843,800.0,961.0
26477,13829,US,115836,32.5408333333,-93.2933333333,Census,Town,LA,"Sibley, Louisiana",0,0,0,0,0,0,0,0,0,0,0,0,0,900,422.0,405,623,595.0,869.0,1211,997,1098.0,1218.0
26536,6735,US,115751,30.3491666667,-92.1116666667,Census,Village,LA,"Cankton, Louisiana",0,0,0,0,0,0,0,0,0,0,0,0,0,0,0.0,0,0,0.0,260.0,303,323,362.0,484.0
26548,6538,US,115793,30.8755555556,-90.5125,Census,Village,LA,"Tangipahoa, Louisiana",0,0,0,0,0,0,0,0,236,259,0,297,394,252,304.0,319,352,465.0,469.0,493,569,747.0,748.0
26549,7834,US,115754,30.47,-91.9825,Census,Town,LA,"Leonville, Louisiana",0,0,0,0,0,0,0,0,0,0,0,0,0,326,408.0,451,514,526.0,512.0,1143,825,1007.0,1084.0
26686,7299,US,115850,32.0808333333,-92.4886111111,Census,Village,LA,"Sikes, Louisiana",0,0,0,0,0,0,0,0,0,0,0,0,0,0,0.0,0,342,233.0,237.0,226,120,120.0,119.0
26721,8212,US,115589,30.4147222222,-91.4352777778,Census,Village,LA,"Grosse Tte, Louisiana",0,0,0,0,0,0,0,0,0,0,0,0,0,0,303.0,382,548,768.0,710.0,749,541,670.0,647.0
26731,15504,US,97693,,,Census,US County,LA,"Jefferson Davis Parish, Louisiana",0,0,0,0,0,0,0,0,0,0,0,0,0,18999,19765.0,24191,26298,29825.0,29554.0,32168,30722,31435.0,31594.0
26969,11771,US,115782,30.3711111111,-89.7511111111,Census,Town,LA,"Pearl River, Louisiana",0,0,0,0,0,0,0,0,0,0,0,0,277,364,264.0,612,637,964.0,1361.0,1693,1507,1839.0,2506.0
26971,12820,US,115593,30.2536111111,-91.1013888889,Census,City,LA,"St. Gabriel, Louisiana",0,0,0,0,0,0,0,0,0,0,0,0,0,0,0.0,0,0,0.0,0.0,0,0,5514.0,6677.0
26984,7977,US,115759,30.4083333333,-92.0661111111,Census,Town,LA,"Sunset, Louisiana",0,0,0,0,0,0,0,0,0,0,0,0,377,433,520.0,630,1080,1307.0,1675.0,2300,2201,2352.0,2897.0
27099,14701,US,115628,29.9030555556,-90.1430555556,Census,Suburban city,LA,"Westwego, Louisiana",0,0,0,0,0,0,0,0,0,0,0,0,0,0,3987.0,4997,8328,9815.0,11402.0,12663,11218,10763.0,8534.0
27148,10665,US,150475,29.9502777778,-91.9888888889,Census,Town,LA,"Delcambre, Louisiana",0,0,0,0,0,0,0,0,0,0,0,0,308,443,640.0,1255,1463,1857.0,1975.0,2216,1978,2168.0,1866.0
27151,24460,US,97715,,,Census,US County,LA,"Avoyelles Parish, Louisiana",0,0,1209,2245,3484,6616,9326,13167,12926,16747,25112,29701,34102,35300,34926.0,39256,38031,37606.0,37751.0,41393,39159,41481.0,42073.0
27165,6300,US,115820,31.1147222222,-93.2797222222,Census,Town,LA,"New Llano, Louisiana",0,0,0,0,0,0,0,0,0,0,0,0,0,0,0.0,0,277,264.0,1800.0,2213,2660,2415.0,2504.0
27226,18807,US,115722,29.9455555556,-89.9616666667,Census,Census-designated place,LA,"Chalmette, Louisiana",0,0,0,0,0,0,0,0,0,0,0,0,0,0,0.0,0,0,0.0,0.0,33847,31860,32069.0,16751.0
27253,22830,US,97698,,,Census,US County,LA,"Grant Parish, Louisiana",0,0,0,0,0,0,0,0,4517,6188,8270,12902,15958,14403,15709.0,15933,14263,13330.0,13671.0,16703,17526,18698.0,22309.0
27260,9587,US,115557,30.5041666667,-91.1161111111,Census,Census-designated place,LA,"Merrydale, Louisiana",0,0,0,0,0,0,0,0,0,0,0,0,0,0,0.0,0,0,0.0,0.0,0,10395,10427.0,9772.0
27371,19331,US,97653,,,Census,US County,LA,"Winn Parish, Louisiana",0,0,0,0,0,0,0,6876,4954,5846,7082,9648,18357,16119,14766.0,16923,16119,16034.0,16369.0,17253,16269,16894.0,15313.0
27434,10451,US,115521,30.2375,-93.0141666667,Census,Town,LA,"Iowa, Louisiana",0,0,0,0,0,0,0,0,0,0,0,0,0,0,0.0,0,0,1857.0,1944.0,2437,2588,2663.0,2996.0
27554,9031,US,115577,32.0497222222,-91.66,Census,Village,LA,"Gilbert, Louisiana",0,0,0,0,0,0,0,0,0,0,0,0,0,442,496.0,428,452,472.0,746.0,800,704,561.0,521.0
27576,15413,US,115497,32.5427777778,-93.0594444444,Census,Town,LA,"Gibsland, Louisiana",0,0,0,0,0,0,0,0,0,0,0,558,1065,798,1090.0,1023,1085,1150.0,1380.0,1354,1224,1119.0,979.0
27664,19510,US,150472,30.8513888889,-93.2902777778,Census,City,LA,"DeRidder, Louisiana",0,0,0,0,0,0,0,0,0,0,0,0,2100,3535,3747.0,3750,5799,7188.0,8030.0,10337,9868,9808.0,10578.0
27678,7619,US,115843,32.9961111111,-91.3152777778,Census,Village,LA,"Kilbourne, Louisiana",0,0,0,0,0,0,0,0,0,0,0,0,0,0,0.0,0,0,227.0,370.0,286,409,436.0,416.0
27746,9927,US,115502,32.1641666667,-92.9772222222,Census,Village,LA,"Saline, Louisiana",0,0,0,0,0,0,0,0,0,0,0,0,346,390,346.0,381,357,3293.0,307.0,293,272,296.0,277.0
27780,6824,US,115667,32.69,-91.8716666667,Census,Village,LA,"Collinston, Louisiana",0,0,0,0,0,0,0,0,0,0,0,0,333,354,473.0,482,546,497.0,397.0,439,375,327.0,287.0
