,article_length,country,id,lat,lon,poptype,settlement_type,state,title,y1790,y1800,y1810,y1820,y1830,y1840,y1850,y1860,y1870,y1880,y1890,y1900,y1910,y1920,y1930,y1940,y1950,y1960,y1970,y1980,y1990,y2000,y2010
11,13343,US,57774,46.9,-96.49,Census,US County,MN,"Clay County, Minnesota",0,0,0,0,0,0,0,72,92,5887,11517,17942,19640,21780,23120.0,25337,30363,39080.0,46585.0,49327,50422,51229.0,58999.0
14,13053,US,121542,44.7425,-94.7144444444,Census,City,MN,"Hector, Minnesota",0,0,0,0,0,0,0,0,0,196,354,654,866,830,864.0,1044,1196,1297.0,1178.0,1252,1145,1166.0,1151.0
24,10846,US,122042,45.0925,-92.9622222222,Census,City,MN,"Dellwood, Minnesota",0,0,0,0,0,0,0,0,0,0,0,0,0,87,90.0,152,245,310.0,524.0,751,887,1033.0,1063.0
83,10545,US,119917,44.6744444444,-92.9683333333,Census,City,MN,"Vermillion, Minnesota",0,0,0,0,0,0,0,0,0,0,0,100,161,99,114.0,107,112,248.0,359.0,438,510,437.0,419.0
132,11662,US,119700,44.9575,-95.3675,Census,City,MN,"Clara City, Minnesota",0,0,0,0,0,0,0,0,0,0,0,465,587,750,730.0,845,1106,1358.0,1491.0,1574,1307,1393.0,1360.0
148,10279,US,120443,45.0166666667,-95.2363888889,Census,City,MN,"Raymond, Minnesota",0,0,0,0,0,0,0,0,0,0,0,282,334,416,450.0,487,580,608.0,589.0,723,668,803.0,764.0
168,13413,US,124553,46.2836111111,-95.7133333333,Census,City,MN,"Battle Lake, Minnesota",0,0,0,0,0,0,0,0,0,0,0,420,567,628,552.0,623,714,733.0,772.0,708,698,686.0,875.0
208,10026,US,120008,43.53,-91.9297222222,Census,City,MN,"Canton, Minnesota",0,0,0,0,0,0,0,0,0,0,281,312,345,365,385.0,421,459,467.0,391.0,386,362,343.0,346.0
287,11237,US,119843,46.6019444444,-94.2155555556,Census,City,MN,"Breezy Point, Minnesota",0,0,0,0,0,0,0,0,0,0,0,0,0,0,0.0,114,154,134.0,233.0,384,432,979.0,2346.0
331,17320,US,94957,44.37,-93.73,Census,US County,MN,"Le Sueur County, Minnesota",0,0,0,0,0,0,0,5318,11607,16303,19057,20234,18609,17870,17990.0,19227,19088,19906.0,21331.0,23434,23929,25426.0,27703.0
349,10297,US,120824,46.07,-93.6683333333,Census,City,MN,"Onamia, Minnesota",0,0,0,0,0,0,0,0,0,0,0,0,314,416,514.0,619,704,645.0,670.0,691,676,847.0,878.0
367,5760,US,7057907,,,Census,Neighborhood,MN,"Bryant, Minneapolis",0,0,0,0,0,0,0,0,0,0,0,0,0,0,0.0,0,0,0.0,0.0,2695,2789,2789.0,2833.0
408,10917,US,120601,44.2341666667,-95.8725,Census,City,MN,"Balaton, Minnesota",0,0,0,0,0,0,0,0,0,0,0,209,364,664,605.0,713,723,723.0,649.0,752,737,637.0,643.0
411,11124,US,122194,44.6380555556,-96.1658333333,Census,City,MN,"Porter, Minnesota",0,0,0,0,0,0,0,0,0,0,0,196,253,257,263.0,250,291,261.0,207.0,211,210,190.0,183.0
418,4013,US,22991832,43.8691666667,-92.3858333333,Census,Unincorporated community,MN,"Pleasant Grove, Minnesota",0,0,0,0,0,0,0,0,0,200,0,0,0,0,0.0,0,0,0.0,0.0,0,0,0.0,0.0
452,13789,US,121302,46.1297222222,-92.865,Census,City,MN,"Sandstone, Minnesota",0,0,0,0,0,0,0,0,0,0,517,1187,1818,1200,1083.0,1559,1097,1552.0,1641.0,1594,2057,1549.0,2849.0
464,10547,US,120061,43.6494444444,-93.2469444444,Census,City,MN,"Hayward, Minnesota",0,0,0,0,0,0,0,0,0,0,0,0,0,0,158.0,184,241,258.0,261.0,294,246,249.0,250.0
475,11086,US,124540,43.9963888889,-95.9522222222,Census,City,MN,"Lake Wilson, Minnesota",0,0,0,0,0,0,0,0,0,0,0,0,219,354,329.0,421,434,436.0,378.0,380,319,270.0,251.0
577,9974,US,124592,48.78,-96.0166666667,Census,City,MN,"Badger, Minnesota",0,0,0,0,0,0,0,0,0,0,0,164,395,394,325.0,404,448,338.0,327.0,320,381,470.0,375.0
632,22643,US,124483,46.9166666667,-95.05,Census,City,MN,"Park Rapids, Minnesota",0,0,0,0,0,0,0,0,0,0,0,1313,1801,1603,2081.0,2643,3027,3047.0,2772.0,2976,2863,3276.0,3709.0
650,11751,US,119848,46.5166666667,-93.9238888889,Census,City,MN,"Cuyuna, Minnesota",0,0,0,0,0,0,0,0,0,0,0,0,0,417,266.0,176,112,86.0,82.0,157,172,231.0,332.0
669,21332,US,150566,45.1608333333,-93.2347222222,Census,City,MN,"Blaine, Minnesota",0,0,0,0,0,0,0,0,0,0,0,0,0,0,0.0,0,0,7570.0,20573.0,28558,38975,44942.0,57186.0
708,9071,US,121320,43.9580555556,-96.1938888889,Census,City,MN,"Hatfield, Minnesota",0,0,0,0,0,0,0,0,0,0,0,0,0,99,112.0,73,110,95.0,96.0,87,66,47.0,54.0
715,16203,US,94930,44.0,-92.4,Census,US County,MN,"Olmsted County, Minnesota",0,0,0,0,0,0,0,9524,19793,21543,19806,23119,22497,28014,35426.0,42658,48228,65532.0,84104.0,92006,106470,124277.0,144248.0
739,10765,US,121821,45.3166666667,-94.3,Census,City,MN,"Kimball, Minnesota",0,0,0,0,0,0,0,0,0,0,0,327,812,445,495.0,505,479,535.0,567.0,651,690,635.0,762.0
816,14569,US,94986,45.5,-92.91,Census,US County,MN,"Chisago County, Minnesota",0,0,0,0,0,0,0,1743,4358,7982,10359,13248,13537,14445,13189.0,13124,12669,13419.0,17492.0,25717,30521,41101.0,53887.0
850,12532,US,94903,44.58,-94.23,Census,US County,MN,"Sibley County, Minnesota",0,0,0,0,0,0,0,3609,6725,10637,15199,16862,15540,15635,15865.0,16625,15816,16228.0,15845.0,15448,14366,15356.0,15226.0
856,6633,US,7049183,,,Census,Neighborhood,MN,"Downtown East, Minneapolis",0,0,0,0,0,0,0,0,0,0,0,0,0,0,0.0,0,0,0.0,0.0,70,25,128.0,1254.0
857,18108,US,120452,45.1197222222,-95.0480555556,Census,City,MN,"Willmar, Minnesota",0,0,0,0,0,0,0,0,0,1002,1825,3409,4135,5892,6173.0,7623,9410,10417.0,12869.0,15895,17531,18351.0,19610.0
873,9341,US,120340,47.3763888889,-93.16,Census,City,MN,"Nashwauk, Minnesota",0,0,0,0,0,0,0,0,0,0,0,0,2080,2414,2555.0,2228,2029,1712.0,1341.0,1419,1026,935.0,983.0
929,11248,US,124510,44.2616666667,-96.2866666667,Census,City,MN,"Lake Benton, Minnesota",0,0,0,0,0,0,0,0,0,184,513,890,844,944,903.0,961,863,905.0,759.0,869,693,703.0,683.0
932,9627,US,121426,45.7519444444,-95.6183333333,Census,City,MN,"Farwell, Minnesota",0,0,0,0,0,0,0,0,0,0,0,0,141,140,147.0,132,112,106.0,102.0,77,74,57.0,51.0
935,9236,US,124521,48.4897222222,-96.4466666667,Census,City,MN,"Strandquist, Minnesota",0,0,0,0,0,0,0,0,0,0,0,0,0,0,139.0,180,208,160.0,138.0,136,98,88.0,69.0
940,9972,US,121768,47.5127777778,-92.4111111111,Census,City,MN,"McKinley, St. Louis County, Minnesota",0,0,0,0,0,0,0,0,0,0,0,262,411,395,304.0,235,196,408.0,317.0,230,116,80.0,128.0
941,11112,US,94892,44.28,-92.24,Census,US County,MN,"Wabasha County, Minnesota",0,0,0,0,0,0,243,7228,15850,18206,16972,18924,18554,17919,19613.0,17653,16878,17007.0,17224.0,19335,19744,21610.0,21676.0
942,16471,US,94980,44.03,-92.86,Census,US County,MN,"Dodge County, Minnesota",0,0,0,0,0,0,0,3797,8598,11344,10864,13340,12094,12552,12127.0,12931,12624,13259.0,13037.0,14773,15731,17731.0,20087.0
945,9934,US,119439,47.7875,-94.4327777778,Census,City,MN,"Funkley, Minnesota",0,0,0,0,0,0,0,0,0,0,0,0,59,56,60.0,26,28,28.0,19.0,18,15,15.0,5.0
952,9179,US,124620,45.7,-94.2666666667,Census,City,MN,"St. Stephen, Minnesota",0,0,0,0,0,0,0,0,0,0,0,0,0,246,229.0,247,234,276.0,331.0,453,607,860.0,851.0
971,21614,US,119938,45.8852333333,-95.3772222222,Census,City,MN,"Alexandria, Minnesota",0,0,0,0,0,0,0,0,0,1355,2118,2681,3001,3388,3876.0,5051,6319,6713.0,6973.0,7608,7838,8820.0,11070.0
1033,13264,US,94976,43.67,-93.35,Census,US County,MN,"Freeborn County, Minnesota",0,0,0,0,0,0,0,3367,10578,16069,17962,21838,22282,24692,28741.0,31780,34517,37891.0,38064.0,36329,33060,32584.0,31255.0
1045,10538,US,120749,43.8280555556,-94.4336111111,Census,City,MN,"Truman, Minnesota",0,0,0,0,0,0,0,0,0,0,0,261,451,752,730.0,984,1106,1256.0,1137.0,1392,1292,1259.0,1115.0
1090,9906,US,120566,44.3130555556,-93.5744444444,Census,City,MN,"Kilkenny, Minnesota",0,0,0,0,0,0,0,0,0,89,0,245,208,218,227.0,214,174,221.0,182.0,177,167,148.0,134.0
1122,9106,US,119348,46.6477777778,-93.1263888889,Census,City,MN,"Tamarack, Minnesota",0,0,0,0,0,0,0,0,0,0,0,0,0,0,145.0,150,132,112.0,100.0,83,53,59.0,94.0
1124,11756,US,119374,45.3380555556,-93.3333333333,Census,City,MN,"Oak Grove, Minnesota",0,0,0,0,0,0,0,0,0,0,0,0,0,0,0.0,0,0,0.0,0.0,0,0,6903.0,8031.0
1151,13371,US,121158,46.5194444444,-95.3730555556,Census,City,MN,"New York Mills, Minnesota",0,0,0,0,0,0,0,0,0,0,260,353,474,700,667.0,771,977,828.0,791.0,972,940,1158.0,1199.0
1170,10689,US,119569,44.3527777778,-94.8402777778,Census,City,MN,"Evan, Minnesota",0,0,0,0,0,0,0,0,0,0,0,0,112,123,131.0,145,141,153.0,126.0,90,83,91.0,86.0
1183,13029,US,121519,44.2236111111,-95.4688888889,Census,City,MN,"Walnut Grove, Minnesota",0,0,0,0,0,0,0,0,0,153,127,447,366,663,586.0,753,890,886.0,756.0,753,625,599.0,871.0
1204,15227,US,94997,45.43,-96.41,Census,US County,MN,"Big Stone County, Minnesota",0,0,0,0,0,0,0,0,24,3688,5722,8731,9367,9766,9838.0,10447,9607,8954.0,7941.0,7716,6285,5820.0,5269.0
1213,19527,US,119592,46.7216666667,-92.4594444444,Census,City,MN,"Cloquet, Minnesota",0,0,0,0,0,0,0,0,0,0,2530,3072,7031,5127,6782.0,7304,7685,9013.0,8699.0,11142,10885,11201.0,12124.0
1217,9366,US,121436,45.6480555556,-95.43,Census,City,MN,"Long Beach, Minnesota",0,0,0,0,0,0,0,0,0,0,0,0,0,0,0.0,119,181,236.0,219.0,263,204,271.0,335.0
1239,23257,US,94991,44.82,-93.8,Census,US County,MN,"Carver County, Minnesota",0,0,0,0,0,0,0,5106,11586,14140,16532,17544,17455,16946,16936.0,17606,18155,21358.0,28331.0,37046,47915,70205.0,91042.0
1278,17359,US,150645,44.5433333333,-95.1091666667,Census,City,MN,"Redwood Falls, Minnesota",0,0,0,0,0,0,0,0,0,981,1238,1661,1666,2421,2552.0,3270,3813,4285.0,4774.0,5210,4859,5459.0,5254.0
1313,12510,US,121747,47.4847222222,-92.4661111111,Census,City,MN,"Gilbert, Minnesota",0,0,0,0,0,0,0,0,0,0,0,0,1700,3510,2722.0,2504,2247,2591.0,2287.0,2721,1934,1847.0,1799.0
1323,10089,US,121755,47.5213888889,-92.1372222222,Census,City,MN,"Hoyt Lakes, Minnesota",0,0,0,0,0,0,0,0,0,0,0,0,0,0,0.0,0,0,3186.0,3634.0,3186,2348,2082.0,2017.0
1332,4397,US,7058063,,,Census,Neighborhood,MN,"Ericsson, Minneapolis",0,0,0,0,0,0,0,0,0,0,0,0,0,0,0.0,0,0,0.0,0.0,3441,3235,3149.0,3192.0
1358,10286,US,121902,45.2633333333,-95.4677777778,Census,City,MN,"De Graff, Minnesota",0,0,0,0,0,0,0,0,0,0,0,165,215,246,274.0,291,270,196.0,195.0,179,149,133.0,115.0
1361,6585,US,7056774,,,Census,Neighborhood,MN,"Como, Minneapolis",0,0,0,0,0,0,0,0,0,0,0,0,0,0,0.0,0,0,0.0,0.0,5083,5617,5691.0,6288.0
1430,15824,US,120237,43.7616666667,-91.5686111111,Census,City,MN,"Houston, Minnesota",0,0,0,0,0,0,0,0,0,510,536,542,700,778,794.0,977,973,1082.0,1090.0,1057,1013,1020.0,979.0
1463,10329,US,124651,45.2916666667,-94.2155555556,Census,City,MN,"South Haven, Minnesota",0,0,0,0,0,0,0,0,0,0,0,0,287,346,289.0,276,305,328.0,238.0,205,193,204.0,187.0
1486,11764,US,119781,47.6944444444,-95.4275,Census,City,MN,"Clearbrook, Minnesota",0,0,0,0,0,0,0,0,0,0,0,0,0,310,401.0,425,539,650.0,599.0,579,560,551.0,518.0
1494,14159,US,121272,46.2013888889,-92.9188888889,Census,City,MN,"Finlayson, Minnesota",0,0,0,0,0,0,0,0,0,0,0,0,186,293,241.0,225,195,213.0,192.0,202,242,314.0,315.0
1528,11167,US,119509,45.5566666667,-96.7130555556,Census,City,MN,"Beardsley, Minnesota",0,0,0,0,0,0,0,0,0,0,0,449,481,507,406.0,537,435,410.0,366.0,344,297,262.0,233.0
1538,12772,US,120657,48.3327777778,-96.8208333333,Census,City,MN,"Argyle, Minnesota",0,0,0,0,0,0,0,0,0,0,306,829,744,956,700.0,857,846,789.0,739.0,741,636,656.0,639.0
1553,10101,US,124550,47.2597222222,-96.2572222222,Census,City,MN,"Twin Valley, Minnesota",0,0,0,0,0,0,0,0,0,0,0,356,543,676,657.0,844,899,841.0,868.0,907,821,865.0,821.0
1585,10996,US,119639,46.8208333333,-94.5166666667,Census,City,MN,"Backus, Minnesota",0,0,0,0,0,0,0,0,0,0,0,0,184,297,314.0,334,367,317.0,257.0,255,240,311.0,250.0
1594,13576,US,150613,45.1633333333,-93.6608333333,Census,City,MN,"Hanover, Minnesota",0,0,0,0,0,0,0,0,0,0,0,259,267,199,197.0,241,228,263.0,365.0,647,787,1355.0,2938.0
1678,10752,US,122075,43.9227777778,-94.4366666667,Census,City,MN,"Lewisville, Minnesota",0,0,0,0,0,0,0,0,0,0,0,0,218,229,305.0,301,362,375.0,291.0,273,255,274.0,250.0
1707,9979,US,121548,44.5516666667,-94.9855555556,Census,City,MN,"Morton, Minnesota",0,0,0,0,0,0,0,0,0,0,453,789,761,709,756.0,904,794,624.0,591.0,549,448,442.0,411.0
1721,1626,US,47207882,47.3766666667,-94.7027777778,Census,Unincorporated Community,MN,"Farris, Minnesota",0,0,0,0,0,0,0,0,0,0,0,135,143,84,0.0,0,0,0.0,0.0,0,0,0.0,0.0
1745,15697,US,124432,47.0997222222,-94.5811111111,Census,City,MN,"Walker, Minnesota",0,0,0,0,0,0,0,0,0,0,0,500,917,785,618.0,939,1192,1180.0,1073.0,970,950,1069.0,941.0
1768,10684,US,121994,44.1644444444,-92.1691666667,Census,City,MN,"Plainview, Minnesota",0,0,0,0,0,0,0,0,637,668,0,1088,1175,1370,1233.0,1500,1524,1833.0,2093.0,2416,2768,3190.0,3340.0
1802,10220,US,120756,44.8269444444,-94.2733333333,Census,City,MN,"Biscay, Minnesota",0,0,0,0,0,0,0,0,0,0,0,0,0,0,0.0,0,0,70.0,105.0,114,113,114.0,113.0
1839,10006,US,120798,45.2,-94.3166666667,Census,City,MN,"Kingston, Minnesota",0,0,0,0,0,0,0,0,56,0,0,0,0,0,0.0,0,0,0.0,115.0,141,131,120.0,161.0
1844,17599,US,23748362,45.0202777778,-93.2177777778,Census,City,MN,"St. Anthony, Minnesota",0,0,0,0,0,0,0,0,0,0,0,0,0,0,0.0,1507,1406,5084.0,9239.0,7981,7727,8012.0,8226.0
1846,14941,US,121710,47.5333333333,-92.2333333333,Census,City,MN,"Aurora, Minnesota",0,0,0,0,0,0,0,0,0,0,0,0,1919,2809,1463.0,1528,1371,2799.0,2531.0,2670,1965,1850.0,1682.0
1878,30814,US,122145,44.05,-91.6333333333,Census,City,MN,"Winona, Minnesota",0,0,0,0,0,0,0,2464,7192,10208,18208,19714,18583,19143,20850.0,22490,25031,24895.0,26438.0,25075,25399,27069.0,27592.0
1918,7644,US,3129388,44.92797,-93.22311,Census,Neighborhood,MN,"Hiawatha, Minneapolis",0,0,0,0,0,0,0,0,0,0,0,0,0,0,0.0,0,0,0.0,0.0,5627,5759,5304.0,5461.0
1923,11449,US,793790,,,Census,Neighborhood,MN,"North Loop, Minneapolis",0,0,0,0,0,0,0,0,0,0,0,0,0,0,0.0,0,0,0.0,0.0,338,647,1515.0,4291.0
1926,11071,US,120036,43.6880555556,-92.3905555556,Census,City,MN,"Spring Valley, Minnesota",0,0,0,0,0,0,0,0,0,1256,1381,1770,1817,1871,1712.0,2133,2467,2628.0,2572.0,2616,2461,2518.0,2479.0
1997,11766,US,119916,44.8672222222,-93.0969444444,Census,City,MN,"Sunfish Lake, Minnesota",0,0,0,0,0,0,0,0,0,0,0,0,0,0,0.0,0,0,181.0,269.0,344,413,504.0,521.0
2071,3859,US,7051747,,,Census,Neighborhood,MN,"Folwell, Minneapolis",0,0,0,0,0,0,0,0,0,0,0,0,0,0,0.0,0,0,0.0,0.0,4964,5115,6331.0,5344.0
2107,12038,US,124438,46.6519444444,-96.4166666667,Census,City,MN,"Barnesville, Minnesota",0,0,0,0,0,0,0,0,0,0,1063,1326,1353,1564,1279.0,1450,1593,1632.0,1782.0,2207,2066,2173.0,2563.0
2111,4807,US,7074887,,,Census,Neighborhood,MN,"Windom Park, Minneapolis",0,0,0,0,0,0,0,0,0,0,0,0,0,0,0.0,0,0,0.0,0.0,5974,5809,5786.0,5678.0
2123,10506,US,120723,43.5327777778,-94.6336111111,Census,City,MN,"Ceylon, Minnesota",0,0,0,0,0,0,0,0,0,0,0,0,330,543,475.0,549,618,554.0,487.0,543,461,413.0,369.0
2150,13225,US,119527,43.8872222222,-94.1575,Census,City,MN,"Amboy, Minnesota",0,0,0,0,0,0,0,0,0,56,215,432,435,527,593.0,576,585,629.0,571.0,606,517,575.0,534.0
2160,14692,US,119727,45.3877777778,-92.8438888889,Census,City,MN,"Lindstrom, Minnesota",0,0,0,0,0,0,0,0,0,0,0,395,522,523,561.0,637,729,835.0,1260.0,1972,2461,3015.0,4442.0
2199,10438,US,121493,44.2291666667,-95.2672222222,Census,City,MN,"Lamberton, Minnesota",0,0,0,0,0,0,0,0,0,149,202,624,652,872,782.0,922,1208,1141.0,962.0,1032,972,859.0,824.0
2226,9296,US,120335,47.3194444444,-93.2961111111,Census,City,MN,"Marble, Minnesota",0,0,0,0,0,0,0,0,0,0,0,0,887,742,738.0,792,867,879.0,682.0,757,618,695.0,701.0
2244,14238,US,94998,45.7,-94.0,Census,US County,MN,"Benton County, Minnesota",0,0,0,0,0,0,418,627,1558,3012,6284,9912,11615,14073,15056.0,16106,15911,17287.0,20841.0,25187,30185,34226.0,38451.0
2246,11300,US,119779,47.5233333333,-95.4025,Census,City,MN,"Bagley, Minnesota",0,0,0,0,0,0,0,0,0,0,0,248,801,814,885.0,1241,1554,1385.0,1314.0,1321,1388,1235.0,1392.0
2259,30558,US,120225,44.9741666667,-93.5066666667,Census,City,MN,"Wayzata, Minnesota",0,0,0,0,0,0,0,0,0,132,273,276,492,633,1100.0,1473,1791,3219.0,3700.0,3621,3806,4113.0,3688.0
2292,11093,US,94884,46.36,-96.47,Census,US County,MN,"Wilkin County, Minnesota",0,0,0,0,0,0,0,40,295,1906,4346,8080,9063,10187,9791.0,10475,10567,10650.0,9389.0,8454,7516,7138.0,6576.0
2314,13810,US,119369,45.2544444444,-93.2158333333,Census,City,MN,"Ham Lake, Minnesota",0,0,0,0,0,0,0,0,0,0,0,0,0,0,0.0,0,0,0.0,0.0,7832,8924,12710.0,15296.0
2367,10558,US,122139,44.0255555556,-91.7730555556,Census,City,MN,"Stockton, Minnesota",0,0,0,0,0,0,0,0,0,214,0,0,0,0,0.0,0,235,242.0,346.0,517,529,682.0,697.0
2369,11475,US,119942,45.9658333333,-95.5952777778,Census,City,MN,"Brandon, Minnesota",0,0,0,0,0,0,0,0,0,0,225,272,276,292,311.0,345,319,353.0,414.0,473,441,450.0,489.0
2393,10620,US,121861,43.8719444444,-93.3,Census,City,MN,"Ellendale, Minnesota",0,0,0,0,0,0,0,0,0,0,0,0,261,367,385.0,430,476,501.0,569.0,555,549,590.0,691.0
2399,19997,US,120619,44.4472222222,-95.7877777778,Census,City,MN,"Marshall, Minnesota",0,0,0,0,0,0,0,0,0,961,1203,2088,2152,3092,3250.0,4590,5923,6681.0,9886.0,11161,12023,12735.0,13680.0
2410,11341,US,120222,,,Census,City,MN,"Shorewood, Minnesota",0,0,0,0,0,0,0,0,0,0,0,0,0,0,0.0,0,0,3197.0,4223.0,4646,5917,7400.0,7307.0
2456,10266,US,121899,45.3747222222,-95.6783333333,Census,City,MN,"Clontarf, Minnesota",0,0,0,0,0,0,0,0,0,0,0,0,153,223,180.0,230,206,139.0,147.0,196,172,173.0,164.0
2457,10636,US,120955,44.2736111111,-94.1883333333,Census,City,MN,"Nicollet, Minnesota",0,0,0,0,0,0,0,0,0,99,263,330,338,404,434.0,434,493,493.0,618.0,709,795,889.0,1093.0
2478,9669,US,120035,43.8005555556,-91.7836111111,Census,City,MN,"Rushford Village, Minnesota",0,0,0,0,0,0,0,0,0,0,0,1064,686,663,633.0,634,612,581.0,601.0,688,705,714.0,807.0
2527,9227,US,120688,48.435,-96.1636111111,Census,City,MN,"Middle River, Minnesota",0,0,0,0,0,0,0,0,0,0,0,0,149,324,275.0,328,356,414.0,369.0,349,285,319.0,303.0
2576,15689,US,120564,44.2905555556,-93.9641666667,Census,City,MN,"Kasota, Minnesota",0,0,0,0,0,0,0,0,0,156,655,764,700,686,593.0,604,600,649.0,732.0,739,655,680.0,675.0
2586,9001,US,120157,46.0341666667,-96.0994444444,Census,City,MN,"Wendell, Minnesota",0,0,0,0,0,0,0,0,0,0,0,0,175,270,260.0,273,284,253.0,247.0,216,159,177.0,167.0
2633,21691,US,119886,44.7319444444,-93.2175,Census,City,MN,"Apple Valley, Minnesota",0,0,0,0,0,0,0,0,0,0,0,0,0,0,0.0,0,0,0.0,8502.0,21818,34598,45527.0,49084.0
2642,9793,US,120751,43.6672222222,-94.6188888889,Census,City,MN,"Welcome, Minnesota",0,0,0,0,0,0,0,0,0,0,140,549,543,612,519.0,630,712,733.0,694.0,855,790,721.0,686.0
2697,10081,US,121588,43.7541666667,-96.0722222222,Census,City,MN,"Kenneth, Minnesota",0,0,0,0,0,0,0,0,0,0,0,0,0,0,118.0,148,119,111.0,89.0,95,81,61.0,68.0
2729,9681,US,119653,46.7425,-94.3997222222,Census,City,MN,"Chickamaw Beach, Minnesota",0,0,0,0,0,0,0,0,0,0,0,0,0,0,0.0,0,0,76.0,87.0,124,132,148.0,114.0
2732,10984,US,120000,43.7661111111,-94.1686111111,Census,City,MN,"Winnebago, Minnesota",0,0,0,0,0,0,0,48,326,993,1108,1816,1554,1641,1701.0,1992,2127,2088.0,1791.0,1869,1565,1487.0,1437.0
2793,11360,US,120417,45.1363888889,-94.7794444444,Census,City,MN,"Atwater, Minnesota",0,0,0,0,0,0,0,0,0,302,429,588,600,735,694.0,815,880,899.0,956.0,1128,1053,1079.0,1133.0
2803,11452,US,119837,44.0425,-95.4366666667,Census,City,MN,"Westbrook, Minnesota",0,0,0,0,0,0,0,0,0,0,0,0,429,654,610.0,871,1017,1012.0,990.0,978,853,755.0,739.0
2840,11577,US,119599,46.4872222222,-92.8772222222,Census,City,MN,"Kettle River, Minnesota",0,0,0,0,0,0,0,0,0,0,0,0,0,0,169.0,221,223,234.0,173.0,174,190,168.0,180.0
2851,10837,US,120610,44.5136111111,-95.8913888889,Census,City,MN,"Ghent, Minnesota",0,0,0,0,0,0,0,0,0,0,0,119,210,316,281.0,341,336,326.0,301.0,356,316,315.0,370.0
2882,9987,US,120058,43.5722222222,-93.2788888889,Census,City,MN,"Glenville, Minnesota",0,0,0,0,0,0,0,0,0,0,0,351,368,379,449.0,615,672,643.0,740.0,851,778,720.0,643.0
2891,10122,US,121936,46.3230555556,-95.0880555556,Census,City,MN,"Hewitt, Minnesota",0,0,0,0,0,0,0,0,0,0,0,311,322,399,309.0,294,312,267.0,198.0,299,269,267.0,266.0
2912,10956,US,122185,44.6908333333,-95.62,Census,City,MN,"Hanley Falls, Minnesota",0,0,0,0,0,0,0,0,0,0,0,278,275,326,288.0,336,320,334.0,265.0,265,246,323.0,304.0
2913,13068,US,120921,44.07,-95.6652777778,Census,City,MN,"Currie, Minnesota",0,0,0,0,0,0,0,0,0,78,0,0,329,405,435.0,524,551,438.0,368.0,359,303,225.0,233.0
2942,9401,US,119905,44.5986111111,-92.8075,Census,City,MN,"Miesville, Minnesota",0,0,0,0,0,0,0,0,0,0,0,0,0,0,0.0,0,0,126.0,192.0,179,135,135.0,125.0
2967,9095,US,122135,44.0980555556,-91.8236111111,Census,City,MN,"Rollingstone, Minnesota",0,0,0,0,0,0,0,0,0,0,0,202,205,272,289.0,324,315,392.0,450.0,528,697,697.0,664.0
2994,9792,US,121276,45.8713888889,-93.1202777778,Census,City,MN,"Henriette, Minnesota",0,0,0,0,0,0,0,0,0,0,0,0,0,0,128.0,148,57,65.0,56.0,61,78,101.0,71.0
3028,11532,US,1897861,45.4666666667,-94.2,Census,City,MN,"St. Augusta, Minnesota",0,0,0,0,0,0,0,0,0,0,0,0,0,0,0.0,0,0,0.0,0.0,0,0,0.0,3317.0
3035,5366,US,908685,,,Census,Neighborhood,MN,"Central (neighborhood), Minneapolis",0,0,0,0,0,0,0,0,0,0,0,0,0,0,0.0,0,0,0.0,0.0,7147,7521,8150.0,8307.0
3038,8824,US,120630,44.5944444444,-96.0638888889,Census,City,MN,"Taunton, Minnesota",0,0,0,0,0,0,0,0,0,0,0,0,205,183,211.0,207,217,233.0,195.0,177,175,207.0,139.0
3069,6845,US,8027299,,,Census,Neighborhood,MN,"Linden Hills, Minneapolis",0,0,0,0,0,0,0,0,0,0,0,0,0,0,0.0,0,0,0.0,0.0,8220,7678,7370.0,7564.0
3071,20254,US,120235,43.7594444444,-91.3463888889,Census,City,MN,"Hokah, Minnesota",0,0,0,0,0,0,0,309,525,961,582,536,400,407,452.0,546,643,685.0,697.0,686,687,614.0,580.0
3111,9232,US,121391,47.6988888889,-96.1422222222,Census,City,MN,"Mentor, Minnesota",0,0,0,0,0,0,0,0,0,0,0,0,222,255,265.0,287,321,381.0,236.0,219,185,150.0,153.0
3115,9375,US,119998,43.6061111111,-93.6736111111,Census,City,MN,"Walters, Minnesota",0,0,0,0,0,0,0,0,0,0,0,0,103,116,105.0,154,139,133.0,152.0,118,86,88.0,73.0
3142,10049,US,120604,44.6086111111,-95.6730555556,Census,City,MN,"Cottonwood, Minnesota",0,0,0,0,0,0,0,0,0,0,0,549,770,813,615.0,690,709,717.0,794.0,924,982,1148.0,1212.0
3194,10054,US,119647,47.1675,-94.1225,Census,City,MN,"Boy River, Minnesota",0,0,0,0,0,0,0,0,0,0,0,0,0,0,92.0,79,82,51.0,44.0,50,43,38.0,47.0
3302,13384,US,119936,44.1502777778,-92.9011111111,Census,City,MN,"West Concord, Minnesota",0,0,0,0,0,0,0,0,0,0,0,635,584,704,613.0,744,770,810.0,718.0,762,871,836.0,782.0
3315,10161,US,119636,44.9625,-93.8475,Census,City,MN,"Watertown, Minnesota",0,0,0,0,0,0,0,0,0,316,362,490,465,534,594.0,737,837,1046.0,1390.0,1818,2408,3029.0,4205.0
3333,13481,US,120556,44.3227777778,-93.8383333333,Census,City,MN,"Cleveland, Minnesota",0,0,0,0,0,0,0,0,0,156,132,0,212,269,290.0,313,325,389.0,492.0,699,699,673.0,719.0
3411,10598,US,121773,47.5191666667,-92.6063888889,Census,City,MN,"Mountain Iron, Minnesota",0,0,0,0,0,0,0,0,0,0,0,470,1343,1546,1349.0,1492,1377,1808.0,1698.0,4134,3362,2999.0,2869.0
3413,5029,US,7074551,,,Census,neighborhood,MN,"Harrison, Minneapolis",0,0,0,0,0,0,0,0,0,0,0,0,0,0,0.0,0,0,0.0,0.0,3140,3536,4156.0,3211.0
3447,4213,US,47863345,,,Census,Neighborhood,MN,"East Phillips, Minneapolis",0,0,0,0,0,0,0,0,0,0,0,0,0,0,0.0,0,0,0.0,0.0,0,0,4147.0,4269.0
3452,6458,US,121401,47.8791666667,-97.0038888889,Census,Township,MN,"Rhinehart Township, Polk County, Minnesota",0,0,0,0,0,0,0,0,0,0,0,160,225,165,149.0,125,148,220.0,416.0,98,132,91.0,139.0
3458,9382,US,120851,46.0044444444,-93.8894444444,Census,City,MN,"Hillman, Minnesota",0,0,0,0,0,0,0,0,0,0,0,0,0,0,0.0,110,85,80.0,49.0,51,45,29.0,38.0
3463,10748,US,121927,46.1302777778,-94.9486111111,Census,City,MN,"Clarissa, Minnesota",0,0,0,0,0,0,0,0,0,0,0,233,364,421,444.0,519,650,569.0,599.0,663,637,609.0,681.0
3476,9967,US,121475,47.8375,-95.8533333333,Census,City,MN,"Oklee, Minnesota",0,0,0,0,0,0,0,0,0,0,0,0,0,364,377.0,414,494,529.0,536.0,536,441,396.0,435.0
3485,10042,US,94911,43.67,-96.25,Census,US County,MN,"Rock County, Minnesota",0,0,0,0,0,0,0,23,138,3669,6817,9668,10222,10965,10962.0,10933,11278,11864.0,11346.0,10703,9806,9721.0,9687.0
3595,9909,US,121556,44.7866666667,-95.3516666667,Census,City,MN,"Sacred Heart, Minnesota",0,0,0,0,0,0,0,0,0,76,327,538,587,763,685.0,752,745,696.0,707.0,666,603,549.0,548.0
3628,11937,US,119365,45.27,-93.0605555556,Census,City,MN,"Columbus, Minnesota",0,0,0,0,0,0,0,0,0,0,0,0,0,0,0.0,0,0,0.0,0.0,0,0,0.0,3914.0
3638,19275,US,94883,43.98,-91.77,Census,US County,MN,"Winona County, Minnesota",0,0,0,0,0,0,0,9208,22319,27107,33797,35686,33398,33653,35144.0,37795,39841,40937.0,44409.0,46256,47828,49985.0,51461.0
3744,9827,US,121834,45.6286111111,-94.7533333333,Census,City,MN,"New Munich, Minnesota",0,0,0,0,0,0,0,0,0,0,0,136,190,325,321.0,305,277,296.0,307.0,302,314,352.0,320.0
3753,10237,US,121973,45.8047222222,-96.4961111111,Census,City,MN,"Wheaton, Minnesota",0,0,0,0,0,0,0,0,0,0,883,1132,1300,1337,1279.0,1700,1948,2102.0,2029.0,1969,1615,1619.0,1424.0
3821,10496,US,120656,48.1936111111,-96.9972222222,Census,City,MN,"Alvarado, Minnesota",0,0,0,0,0,0,0,0,0,0,0,0,128,361,323.0,336,317,282.0,302.0,385,356,371.0,363.0
3833,10483,US,120438,45.2983333333,-94.945,Census,City,MN,"New London, Minnesota",0,0,0,0,0,0,0,0,0,55,211,363,418,527,483.0,578,726,721.0,736.0,812,971,1066.0,1251.0
3849,11864,US,121093,46.3791666667,-96.1294444444,Census,City,MN,"Elizabeth, Minnesota",0,0,0,0,0,0,0,0,0,128,135,186,169,204,164.0,176,168,168.0,188.0,195,152,172.0,173.0
3927,11324,US,121264,46.2780555556,-92.6641666667,Census,City,MN,"Bruno, Minnesota",0,0,0,0,0,0,0,0,0,0,0,0,229,217,167.0,234,193,116.0,130.0,130,89,102.0,102.0
3963,9264,US,120064,43.76,-93.2030555556,Census,City,MN,"Hollandale, Minnesota",0,0,0,0,0,0,0,0,0,0,0,0,0,0,0.0,219,360,363.0,287.0,290,289,292.0,303.0
3976,10117,US,121921,46.2675,-95.0638888889,Census,City,MN,"Bertha, Minnesota",0,0,0,0,0,0,0,0,0,0,39,277,296,444,490.0,578,577,562.0,512.0,510,507,470.0,497.0
4000,5822,US,3620426,,,Census,Neighborhood,MN,"Armatage, Minneapolis",0,0,0,0,0,0,0,0,0,0,0,0,0,0,0.0,0,0,0.0,0.0,5428,4881,4759.0,4895.0
4050,13317,US,120173,45.0372222222,-93.3594444444,Census,City,MN,"Crystal, Minnesota",0,0,0,0,0,0,0,0,0,0,0,0,0,814,1865.0,2373,5713,24283.0,30925.0,25543,23788,22698.0,22151.0
4055,10429,US,119861,46.4766666667,-93.9861111111,Census,City,MN,"Ironton, Minnesota",0,0,0,0,0,0,0,0,0,0,0,0,0,1165,1033.0,827,828,724.0,562.0,537,553,498.0,572.0
4190,10738,US,119375,45.2608333333,-93.4425,Census,City,MN,"Ramsey, Minnesota",0,0,0,0,0,0,0,0,0,0,0,0,0,0,0.0,0,0,0.0,0.0,10093,12408,18510.0,23668.0
4200,16093,US,150681,46.35,-94.8,Census,City,MN,"Staples, Minnesota",0,0,0,0,0,0,0,0,0,0,585,1504,2558,2570,2667.0,2952,2782,2706.0,2755.0,2887,2754,3104.0,2981.0
4201,27991,US,124477,44.9483333333,-93.3480555556,Census,City,MN,"St. Louis Park, Minnesota",0,0,0,0,0,0,0,0,0,0,499,1325,1743,2281,4710.0,7737,22644,43310.0,48883.0,42931,43787,44126.0,45250.0
4244,17516,US,121753,46.8013888889,-92.2225,Census,City,MN,"Hermantown, Minnesota",0,0,0,0,0,0,0,0,0,0,0,0,0,0,0.0,0,0,0.0,0.0,6759,6761,7448.0,9414.0
4253,9042,US,122067,45.0538888889,-92.9566666667,Census,City,MN,"Willernie, Minnesota",0,0,0,0,0,0,0,0,0,0,0,0,0,0,0.0,0,592,664.0,697.0,654,584,549.0,507.0
4281,11990,US,121679,44.6077777778,-94.0780555556,Census,City,MN,"Arlington, Minnesota",0,0,0,0,0,0,0,0,0,0,417,712,733,776,915.0,1122,1313,1601.0,1823.0,1779,1886,2048.0,2233.0
4290,10846,US,121321,44.0888888889,-96.1897222222,Census,City,MN,"Holland, Minnesota",0,0,0,0,0,0,0,0,0,0,0,255,293,318,275.0,303,263,264.0,263.0,234,216,215.0,187.0
4378,9956,US,119376,46.8616666667,-95.9780555556,Census,City,MN,"Audubon, Minnesota",0,0,0,0,0,0,0,0,0,91,159,349,300,314,278.0,312,275,245.0,297.0,383,411,445.0,519.0
4399,203353,US,6097240,44.9833333333,-93.2666666667,Census,City,MN,Minneapolis,0,0,0,0,0,0,0,5809,13066,46887,164738,202718,301408,380582,464356.0,492370,521718,482872.0,434400.0,370951,368383,382618.0,382578.0
4430,27394,US,120856,45.9775,-94.3641666667,Census,City,MN,"Little Falls, Minnesota",0,0,0,0,0,0,0,0,0,508,2354,5774,6078,5500,5014.0,6047,6717,7551.0,7467.0,7250,7232,7719.0,8343.0
4448,11040,US,120786,45.0961111111,-94.4055555556,Census,City,MN,"Darwin, Minnesota",0,0,0,0,0,0,0,0,0,56,0,0,0,132,156.0,224,273,273.0,361.0,282,252,276.0,350.0
4460,17110,US,124472,45.0263888889,-93.3347222222,Census,City,MN,"Robbinsdale, Minnesota",0,0,0,0,0,0,0,0,0,0,0,520,765,1369,4427.0,6018,11289,16381.0,16845.0,14422,14396,14123.0,13953.0
4472,10262,US,120899,43.6886111111,-92.9763888889,Census,City,MN,"Mapleview, Minnesota",0,0,0,0,0,0,0,0,0,0,0,0,0,0,0.0,0,435,381.0,328.0,253,206,189.0,176.0
4511,13305,US,120995,43.7638888889,-95.8286111111,Census,City,MN,"Wilmont, Minnesota",0,0,0,0,0,0,0,0,0,0,0,0,258,376,374.0,361,473,473.0,390.0,380,351,332.0,339.0
4573,10362,US,94922,44.02,-96.25,Census,US County,MN,"Pipestone County, Minnesota",0,0,0,0,0,0,0,0,0,2092,5132,9264,9553,12050,12238.0,13794,14003,13605.0,12791.0,11690,10491,9895.0,9596.0
4605,21345,US,122155,45.0755555556,-94.1891666667,Census,City,MN,"Cokato, Minnesota",0,0,0,0,0,0,0,0,0,274,363,684,718,1014,1125.0,1175,1403,1356.0,1735.0,2056,2180,2727.0,2694.0
4626,13689,US,121034,44.0319444444,-92.6477777778,Census,City,MN,"Byron, Minnesota",0,0,0,0,0,0,0,0,0,222,291,347,272,302,323.0,341,385,660.0,1419.0,1715,2441,3500.0,4914.0
4627,10871,US,119870,46.5080555556,-94.2941666667,Census,City,MN,"Nisswa, Minnesota",0,0,0,0,0,0,0,0,0,0,0,0,0,0,214.0,400,578,742.0,1011.0,1407,1391,1953.0,1971.0
4639,9797,US,119677,46.3333333333,-94.4666666667,Census,City,MN,"Pillager, Minnesota",0,0,0,0,0,0,0,0,0,0,0,0,216,354,296.0,348,362,338.0,374.0,341,306,420.0,469.0
4645,12319,US,94914,44.4,-95.25,Census,US County,MN,"Redwood County, Minnesota",0,0,0,0,0,0,0,0,1829,5375,9886,17261,18425,20908,20620.0,22290,22127,21718.0,20024.0,19341,17254,16815.0,16059.0
4657,9923,US,6790818,,,Census,Community,MN,"Longfellow, Minneapolis",0,0,0,0,0,0,0,0,0,0,0,0,0,0,0.0,0,0,0.0,0.0,28675,28618,27776.0,27775.0
4779,9888,US,121926,45.8658333333,-94.6875,Census,City,MN,"Burtrum, Minnesota",0,0,0,0,0,0,0,0,0,0,0,0,217,212,175.0,297,194,160.0,135.0,177,172,146.0,144.0
4781,10145,US,119787,47.7369444444,-95.5113888889,Census,City,MN,"Gonvick, Minnesota",0,0,0,0,0,0,0,0,0,0,0,0,0,276,292.0,317,375,363.0,344.0,362,302,294.0,282.0
4782,10826,US,121227,46.6558333333,-95.8061111111,Census,City,MN,"Vergas, Minnesota",0,0,0,0,0,0,0,0,0,0,0,0,237,361,323.0,351,301,292.0,281.0,287,287,311.0,331.0
4800,4463,US,7058015,,,Census,Neighborhood,MN,"Standish, Minneapolis",0,0,0,0,0,0,0,0,0,0,0,0,0,0,0.0,0,0,0.0,0.0,6420,6478,6632.0,6527.0
4813,10499,US,121485,44.3811111111,-95.0536111111,Census,City,MN,"Clements, Minnesota",0,0,0,0,0,0,0,0,0,0,0,0,132,196,206.0,240,239,269.0,252.0,227,191,191.0,153.0
4831,11296,US,121840,45.4536111111,-94.5194444444,Census,City,MN,"Richmond, Minnesota",0,0,0,0,0,0,0,0,0,0,0,600,563,651,603.0,634,700,751.0,866.0,867,965,1213.0,1422.0
4835,14722,US,122158,45.0333333333,-93.7833333333,Census,City,MN,"Delano, Minnesota",0,0,0,0,0,0,0,0,0,407,889,967,1031,924,914.0,1094,1386,1612.0,1851.0,2480,2709,3836.0,5464.0
4884,11523,US,119737,45.335,-92.9936111111,Census,City,MN,"Wyoming, Minnesota",0,0,0,0,0,0,0,0,0,0,0,0,207,253,214.0,253,325,435.0,695.0,1559,2142,3048.0,7791.0
4892,31635,US,119386,46.8133333333,-95.8447222222,Census,City,MN,"Detroit Lakes, Minnesota",0,0,0,0,0,0,0,0,0,0,1510,2060,2807,3426,3675.0,5015,5787,5633.0,5797.0,7106,6635,7348.0,8569.0
4923,17070,US,94963,48.78,-96.78,Census,US County,MN,"Kittson County, Minnesota",0,0,0,0,0,0,0,1612,64,905,5387,7889,9669,10638,9688.0,10717,9649,8343.0,6853.0,6672,5767,5285.0,4552.0
4949,4037,US,12925356,,,Census,Neighborhood,MN,"Northeast Park, Minneapolis",0,0,0,0,0,0,0,0,0,0,0,0,0,0,0.0,0,0,0.0,0.0,761,722,882.0,672.0
4980,11764,US,94951,44.41,-96.27,Census,US County,MN,"Lincoln County, Minnesota",0,0,0,0,0,0,0,0,0,2945,5691,8966,9874,11268,11303.0,10797,10150,9651.0,8143.0,8207,6890,6429.0,5896.0
5011,27227,US,120495,48.5916666667,-93.4052777778,Census,City,MN,"International Falls, Minnesota",0,0,0,0,0,0,0,0,0,0,0,0,1487,3448,5036.0,5626,6269,6778.0,6439.0,5611,8324,6703.0,6424.0
5061,10301,US,121504,44.2091666667,-95.1288888889,Census,City,MN,"Sanborn, Minnesota",0,0,0,0,0,0,0,0,0,0,0,351,462,487,518.0,580,613,521.0,505.0,518,459,434.0,339.0
5112,19662,US,121347,47.7738888889,-96.6077777778,Census,City,MN,"Crookston, Minnesota",0,0,0,0,0,0,0,0,0,1227,3457,5359,7559,6825,6321.0,7161,7352,8546.0,8312.0,8628,8119,8192.0,7891.0
5140,9697,US,121599,43.5133333333,-96.2638888889,Census,City,MN,"Steen, Minnesota",0,0,0,0,0,0,0,0,0,0,0,0,0,0,0.0,0,228,198.0,191.0,153,176,182.0,180.0
5148,5426,US,2723758,,,Census,Neighborhood,MN,"East Calhoun, Minneapolis",0,0,0,0,0,0,0,0,0,0,0,0,0,0,0.0,0,0,0.0,0.0,2649,2495,2545.0,2457.0
5208,14490,US,28094825,43.8461111111,-92.1869444444,Census,City,MN,"Chatfield, Minnesota",0,0,0,0,0,0,0,0,0,1166,1335,1426,1228,1382,1269.0,1640,1605,1841.0,1885.0,2055,2226,2394.0,2779.0
5218,18526,US,150633,44.5452777778,-93.5752777778,Census,City,MN,"New Prague, Minnesota",0,0,0,0,0,0,0,0,0,384,955,1228,1554,1540,1548.0,1645,1915,2533.0,2680.0,2952,3569,4559.0,7321.0
5237,40918,US,120198,44.9307694444,-93.4016916667,Census,City,MN,"Hopkins, Minnesota",0,0,0,0,0,0,0,0,0,0,0,1648,3022,3055,3834.0,4100,7595,11370.0,13428.0,15336,16534,17145.0,17591.0
5238,9179,US,119795,47.6525,-95.2691666667,Census,City,MN,"Leonard, Minnesota",0,0,0,0,0,0,0,0,0,0,0,0,0,0,109.0,111,88,70.0,54.0,50,26,29.0,41.0
5251,9779,US,119734,45.3972222222,-92.9891666667,Census,City,MN,"Stacy, Minnesota",0,0,0,0,0,0,0,0,0,0,0,0,0,0,143.0,138,150,211.0,278.0,996,1081,1278.0,1456.0
5320,9863,US,120442,44.9363888889,-95.1897222222,Census,City,MN,"Prinsburg, Minnesota",0,0,0,0,0,0,0,0,0,0,0,0,0,0,0.0,0,0,462.0,448.0,557,502,458.0,497.0
5389,9269,US,121228,46.2625,-95.5369444444,Census,City,MN,"Vining, Minnesota",0,0,0,0,0,0,0,0,0,0,0,249,212,241,222.0,176,180,136.0,121.0,87,84,68.0,78.0
5405,9797,US,119626,44.7336111111,-93.9663888889,Census,City,MN,"Hamburg, Minnesota",0,0,0,0,0,0,0,0,0,0,0,136,153,153,195.0,198,184,288.0,405.0,475,492,538.0,513.0
5486,17366,US,119364,45.0333333333,-93.2666666667,Census,City,MN,"Columbia Heights, Minnesota",0,0,0,0,0,0,0,0,0,0,0,123,590,2968,5613.0,6035,8175,17533.0,23997.0,20029,18910,18520.0,19496.0
5509,22759,US,121738,47.4627777778,-92.5402777778,Census,City,MN,"Eveleth, Minnesota",0,0,0,0,0,0,0,0,0,0,0,2752,7036,7205,7484.0,6887,5872,5721.0,4721.0,5042,4064,3865.0,3718.0
5530,11530,US,121257,46.1877777778,-92.7808333333,Census,City,MN,"Askov, Minnesota",0,0,0,0,0,0,0,0,0,0,0,0,0,242,298.0,312,387,331.0,287.0,350,343,368.0,364.0
5546,16541,US,16887948,,,Census,Neighborhood,MN,Downtown Saint Paul,0,0,0,0,0,0,0,0,0,0,0,0,0,0,0.0,0,0,0.0,0.0,0,4410,5743.0,6604.0
5599,10390,US,121909,45.1916666667,-95.3166666667,Census,City,MN,"Kerkhoven, Minnesota",0,0,0,0,0,0,0,0,0,94,299,411,432,568,553.0,607,664,645.0,641.0,761,735,759.0,759.0
5668,9366,US,120854,46.0397222222,-94.0616666667,Census,City,MN,"Lastrup, Minnesota",0,0,0,0,0,0,0,0,0,0,0,0,0,121,118.0,128,158,138.0,161.0,150,112,99.0,104.0
5711,10978,US,150605,44.3708333333,-92.5119444444,Census,City,MN,"Bellechester, Minnesota",0,0,0,0,0,0,0,0,0,0,0,0,0,0,0.0,0,0,184.0,199.0,220,110,172.0,175.0
5719,9901,US,122129,44.0913888889,-91.7497222222,Census,City,MN,"Minnesota City, Minnesota",0,0,0,0,0,0,0,0,0,273,0,242,211,141,151.0,211,201,190.0,301.0,265,258,235.0,204.0
5726,10144,US,120930,43.915,-95.7852777778,Census,City,MN,"Iona, Minnesota",0,0,0,0,0,0,0,0,0,0,0,358,300,365,321.0,365,355,328.0,260.0,248,158,173.0,137.0
5737,9640,US,150631,44.2,-93.6772222222,Census,City,MN,"Elysian, Minnesota",0,0,0,0,0,0,0,0,0,167,348,459,345,354,388.0,382,402,382.0,445.0,454,445,486.0,652.0
5749,10449,US,120317,47.8405555556,-93.6380555556,Census,City,MN,"Effie, Minnesota",0,0,0,0,0,0,0,0,0,0,0,0,0,0,0.0,0,202,195.0,165.0,141,130,91.0,123.0
5856,9727,US,121809,45.55,-94.45,Census,Township,MN,"Collegeville Township, Stearns County, Minnesota",0,0,0,0,0,0,0,0,0,318,506,655,606,777,869.0,892,1457,1812.0,2371.0,3075,1624,3516.0,3343.0
5863,17648,US,121324,43.9977777778,-96.3172222222,Census,City,MN,"Pipestone, Minnesota",0,0,0,0,0,0,0,0,0,222,1232,2536,2475,3325,3489.0,4682,5269,5324.0,5328.0,4887,4554,4280.0,4317.0
5868,14130,US,122049,44.9988888889,-92.9094444444,Census,City,MN,"Lake Elmo, Minnesota",0,0,0,0,0,0,0,0,0,0,0,0,0,0,218.0,265,386,550.0,3565.0,5296,5903,6863.0,8069.0
5885,9532,US,121570,44.2269444444,-93.4436111111,Census,City,MN,"Morristown, Minnesota",0,0,0,0,0,0,0,0,317,517,517,589,592,688,613.0,677,533,616.0,659.0,639,784,981.0,987.0
5921,15667,US,124406,45.5927777778,-94.1638888889,Census,City,MN,"Sauk Rapids, Minnesota",0,0,0,0,0,0,0,167,412,598,1185,1391,1745,2349,2656.0,2981,3410,4038.0,5051.0,5793,7825,10213.0,12773.0
5933,10613,US,119743,46.8758333333,-96.7027777778,Census,City,MN,"Dilworth, Minnesota",0,0,0,0,0,0,0,0,0,0,0,0,0,882,983.0,1068,1429,2102.0,2321.0,2585,2562,3001.0,4024.0
5938,12936,US,124414,44.2394444444,-94.9786111111,Census,City,MN,"Springfield, Minnesota",0,0,0,0,0,0,0,0,0,167,716,1511,1482,1830,2049.0,2361,2574,2701.0,2530.0,2303,2173,2215.0,2152.0
5940,31405,US,121252,48.1166666667,-96.1833333333,Census,City,MN,"Thief River Falls, Minnesota",0,0,0,0,0,0,0,0,0,0,191,1819,3714,4685,4268.0,6019,6926,7151.0,8618.0,9105,8010,8410.0,8573.0
5965,11288,US,120888,43.7180555556,-92.7044444444,Census,City,MN,"Dexter, Minnesota",0,0,0,0,0,0,0,0,0,168,150,278,281,298,242.0,303,316,313.0,252.0,279,303,333.0,341.0
5992,10369,US,120121,45.83,-95.7891666667,Census,City,MN,"Hoffman, Minnesota",0,0,0,0,0,0,0,0,0,0,0,270,391,475,468.0,504,575,605.0,627.0,631,576,672.0,681.0
6003,11805,US,124610,45.45,-94.4333333333,Census,City,MN,"Cold Spring, Minnesota",0,0,0,0,0,0,0,0,0,0,0,486,594,705,1147.0,1427,1488,1760.0,2006.0,2294,2459,2975.0,4025.0
6010,9347,US,122061,45.0308333333,-92.9575,Census,City,MN,"Pine Springs, Minnesota",0,0,0,0,0,0,0,0,0,0,0,0,0,0,0.0,0,0,142.0,138.0,267,436,421.0,408.0
6013,4887,US,7053170,,,Census,Neighborhood,MN,"Bryn Mawr, Minneapolis",0,0,0,0,0,0,0,0,0,0,0,0,0,0,0.0,0,0,0.0,0.0,2777,2845,2663.0,2651.0
6020,10045,US,94894,45.77,-96.47,Census,US County,MN,"Traverse County, Minnesota",0,0,0,0,0,0,0,0,13,1507,4516,7573,8049,7943,7938.0,8283,8053,7503.0,6254.0,5542,4463,4134.0,3558.0
6026,12375,US,124649,45.0666666667,-94.0666666667,Census,City,MN,"Howard Lake, Minnesota",0,0,0,0,0,0,0,0,0,477,610,737,626,744,768.0,847,931,1007.0,1162.0,1240,1343,1853.0,1962.0
6030,9849,US,120050,43.6144444444,-93.53,Census,City,MN,"Conger, Minnesota",0,0,0,0,0,0,0,0,0,0,0,0,0,0,0.0,131,161,215.0,167.0,183,143,133.0,146.0
6043,10331,US,121569,44.48,-93.4305555556,Census,City,MN,"Lonsdale, Minnesota",0,0,0,0,0,0,0,0,0,0,0,0,271,459,508.0,545,510,541.0,622.0,1160,1252,1491.0,3674.0
6075,4056,US,12925451,,,Census,Neighborhood,MN,"St. Anthony East, Minneapolis",0,0,0,0,0,0,0,0,0,0,0,0,0,0,0.0,0,0,0.0,0.0,1818,1997,2148.0,2081.0
6090,10027,US,121497,44.4163888889,-94.9258333333,Census,City,MN,"Morgan, Minnesota",0,0,0,0,0,0,0,0,0,0,301,592,553,670,640.0,846,949,975.0,972.0,975,965,903.0,896.0
6095,12132,US,120915,43.9488888889,-95.6469444444,Census,City,MN,"Avoca, Minnesota",0,0,0,0,0,0,0,0,0,135,170,338,212,270,285.0,323,281,226.0,203.0,201,150,146.0,147.0
6096,4055,US,10444486,,,Census,Neighborhood,MN,"McKinley, Minneapolis",0,0,0,0,0,0,0,0,0,0,0,0,0,0,0.0,0,0,0.0,0.0,3286,3298,3658.0,3132.0
6104,10272,US,120314,47.2908333333,-93.4308333333,Census,City,MN,"Coleraine, Minnesota",0,0,0,0,0,0,0,0,0,0,0,0,1613,1300,1243.0,1325,1321,1346.0,1086.0,1116,1041,1110.0,1970.0
6143,11822,US,119657,46.3969444444,-94.3636111111,Census,City,MN,"East Gull Lake, Minnesota",0,0,0,0,0,0,0,0,0,0,0,0,0,0,0.0,125,238,311.0,440.0,586,687,978.0,1004.0
6159,12596,US,121478,47.8827777778,-96.2730555556,Census,City,MN,"Red Lake Falls, Minnesota",0,0,0,0,0,0,0,0,0,32,774,1885,1757,1549,1386.0,1530,1733,1520.0,1740.0,1732,1481,1590.0,1427.0
6201,4260,US,4020080,,,Census,Neighborhood,MN,"Audubon Park, Minneapolis",0,0,0,0,0,0,0,0,0,0,0,0,0,0,0.0,0,0,0.0,0.0,5924,5667,5256.0,4962.0
6238,10473,US,120620,44.5622222222,-95.9855555556,Census,City,MN,"Minneota, Minnesota",0,0,0,0,0,0,0,0,0,113,325,777,819,894,918.0,1065,1274,1297.0,1320.0,1470,1417,1449.0,1392.0
6269,12086,US,121466,47.8172222222,-96.0058333333,Census,City,MN,"Brooks, Minnesota",0,0,0,0,0,0,0,0,0,0,0,0,0,0,0.0,0,0,148.0,163.0,173,158,141.0,141.0
6270,17533,US,124471,45.0725,-93.4555555556,Census,City,MN,"Maple Grove, Minnesota",0,0,0,0,0,0,0,0,0,0,1197,1237,1211,1083,1113.0,1251,1778,2213.0,6275.0,20525,38736,50365.0,61567.0
6307,12576,US,120032,43.6725,-92.0827777778,Census,City,MN,"Preston, Minnesota",0,0,0,0,0,0,0,0,600,939,0,1278,1193,1227,1214.0,1447,1399,1491.0,1413.0,1478,1530,1426.0,1325.0
6316,10692,US,122000,44.2833333333,-92.4247222222,Census,City,MN,"Zumbro Falls, Minnesota",0,0,0,0,0,0,0,0,0,0,0,173,208,193,186.0,212,172,164.0,203.0,208,237,177.0,207.0
6402,17729,US,124575,45.0530555556,-93.1669444444,Census,City,MN,"Arden Hills, Minnesota",0,0,0,0,0,0,0,0,0,0,0,0,0,0,0.0,0,0,3930.0,5149.0,8012,9199,9652.0,9552.0
6405,12771,US,150642,45.5005555556,-95.1238888889,Census,City,MN,"Brooten, Minnesota",0,0,0,0,0,0,0,0,0,0,0,259,562,649,604.0,676,669,661.0,615.0,647,589,649.0,743.0
6419,12585,US,121458,45.0913888889,-93.0905555556,Census,City,MN,"North Oaks, Minnesota",0,0,0,0,0,0,0,0,0,0,0,0,0,0,0.0,0,0,803.0,2002.0,2846,3386,3883.0,4469.0
6433,10955,US,121540,44.5280555556,-94.8808333333,Census,City,MN,"Franklin, Minnesota",0,0,0,0,0,0,0,0,0,0,284,439,439,510,535.0,502,546,548.0,557.0,512,441,498.0,510.0
6446,12431,US,119920,44.9075,-93.0875,Census,City,MN,"West St. Paul, Minnesota",0,0,0,0,0,0,0,0,0,0,1596,1830,2660,2962,4463.0,5733,7955,13101.0,18802.0,18527,19248,19405.0,19540.0
6466,9447,US,119487,45.7352777778,-93.9483333333,Census,City,MN,"Gilman, Minnesota",0,0,0,0,0,0,0,0,0,0,0,0,0,0,0.0,0,0,146.0,111.0,156,192,215.0,224.0
6544,15819,US,95004,46.61,-93.41,Census,US County,MN,"Aitkin County, Minnesota",0,0,0,0,0,0,0,2,178,366,2462,6473,10371,15043,15009.0,17865,14327,12162.0,11403.0,13404,12425,15301.0,16202.0
6570,9181,US,120928,43.9997222222,-95.8530555556,Census,City,MN,"Hadley, Minnesota",0,0,0,0,0,0,0,0,0,22,0,0,136,147,105.0,162,139,151.0,119.0,137,94,81.0,61.0
6594,9784,US,119557,44.1408333333,-94.0336111111,Census,City,MN,"Skyline, Minnesota",0,0,0,0,0,0,0,0,0,0,0,0,0,0,0.0,0,0,354.0,400.0,399,272,330.0,289.0
6649,15137,US,120965,43.5041666667,-95.69,Census,City,MN,"Bigelow, Minnesota",0,0,0,0,0,0,0,0,0,0,0,0,195,223,199.0,250,238,256.0,262.0,249,232,231.0,235.0
6655,11609,US,120570,44.3886111111,-93.7308333333,Census,City,MN,"Le Center, Minnesota",0,0,0,0,0,0,0,0,0,73,169,478,741,863,948.0,1232,1314,1597.0,1890.0,1967,2006,2240.0,2499.0
6699,12277,US,94941,45.93,-93.63,Census,US County,MN,"Mille Lacs County, Minnesota",0,0,0,0,0,0,0,73,1109,1501,2845,8066,10705,14180,14076.0,15558,15165,14560.0,15703.0,18430,18670,22330.0,26097.0
6709,10098,US,120554,48.7686111111,-94.9544444444,Census,City,MN,"Williams, Minnesota",0,0,0,0,0,0,0,0,0,0,0,0,0,0,262.0,376,414,317.0,220.0,217,212,210.0,191.0
6722,5511,US,1141979,,,Census,Neighborhood,MN,"East Isles, Minneapolis",0,0,0,0,0,0,0,0,0,0,0,0,0,0,0.0,0,0,0.0,0.0,3386,3498,3340.0,3169.0
6731,22752,US,94964,45.15,-95.01,Census,US County,MN,"Kandiyohi County, Minnesota",0,0,0,0,0,0,0,76,1760,10159,13997,18416,18969,22060,23574.0,26524,28644,29987.0,30548.0,36763,38761,41203.0,42239.0
6753,9316,US,121843,45.4325,-94.6380555556,Census,City,MN,"Roscoe, Minnesota",0,0,0,0,0,0,0,0,0,0,0,0,0,182,202.0,171,182,168.0,195.0,154,141,116.0,102.0
6761,13453,US,122150,45.1719444444,-93.8747222222,Census,City,MN,"Buffalo, Minnesota",0,0,0,0,0,0,0,0,0,143,606,1040,1227,1438,1409.0,1695,1914,2322.0,3275.0,4560,6856,10097.0,15453.0
6768,20495,US,121590,43.6558333333,-96.2102777778,Census,City,MN,"Luverne, Minnesota",0,0,0,0,0,0,0,0,0,679,1466,2223,2540,2782,2644.0,3114,3650,4249.0,4703.0,4568,4382,4617.0,4745.0
6773,13495,US,120472,48.5761111111,-96.5188888889,Census,City,MN,"Karlstad, Minnesota",0,0,0,0,0,0,0,0,0,0,0,0,138,286,304.0,501,804,720.0,727.0,934,881,794.0,760.0
6776,12081,US,121459,45.0127777778,-92.9983333333,Census,City,MN,"North St. Paul, Minnesota",0,0,0,0,0,0,0,0,0,0,1099,1110,1404,1979,2915.0,3135,4248,8520.0,11950.0,11921,12376,11929.0,11460.0
6801,10678,US,121314,43.8752777778,-96.1322222222,Census,City,MN,"Edgerton, Minnesota",0,0,0,0,0,0,0,0,0,86,178,450,381,657,627.0,815,961,1019.0,1119.0,1123,1106,1033.0,1189.0
6836,11107,US,119850,46.4736111111,-93.9019444444,Census,City,MN,"Deerwood, Minnesota",0,0,0,0,0,0,0,0,0,0,0,0,586,532,552.0,570,572,527.0,448.0,580,524,590.0,532.0
6903,10062,US,122168,45.0672222222,-93.9125,Census,City,MN,"Montrose, Minnesota",0,0,0,0,0,0,0,0,0,141,214,305,284,268,233.0,275,300,360.0,379.0,762,1008,1143.0,2847.0
6927,9439,US,119964,45.8858333333,-95.2647222222,Census,City,MN,"Nelson, Minnesota",0,0,0,0,0,0,0,0,0,0,0,0,157,159,147.0,159,160,150.0,175.0,209,177,172.0,187.0
6937,10436,US,119560,44.0811111111,-93.8577777778,Census,City,MN,"St. Clair, Minnesota",0,0,0,0,0,0,0,0,0,0,0,0,323,260,260.0,286,324,373.0,488.0,655,633,827.0,868.0
6961,11469,US,119730,45.6852777778,-92.9686111111,Census,City,MN,"Rush City, Minnesota",0,0,0,0,0,0,0,0,0,580,707,987,964,971,908.0,1020,1175,1108.0,1130.0,1198,1497,2112.0,3079.0
6964,11182,US,120315,47.335,-93.7941666667,Census,City,MN,"Deer River, Minnesota",0,0,0,0,0,0,0,0,0,0,0,251,900,1044,832.0,987,1033,992.0,815.0,907,838,903.0,930.0
7010,21237,US,121654,44.7833333333,-93.3333333333,Census,City,MN,"Savage, Minnesota",0,0,0,0,0,0,0,0,0,0,0,179,271,206,214.0,222,389,1094.0,3611.0,3954,9606,21115.0,26911.0
7011,9758,US,120625,44.3180555556,-95.9505555556,Census,City,MN,"Russell, Minnesota",0,0,0,0,0,0,0,0,0,0,0,0,262,375,358.0,464,508,449.0,398.0,412,394,371.0,338.0
7063,10693,US,121036,43.9730555556,-92.1377777778,Census,City,MN,"Dover, Minnesota",0,0,0,0,0,0,0,0,0,231,0,0,233,266,272.0,269,263,312.0,321.0,312,416,438.0,735.0
7071,10881,US,120767,44.8844444444,-94.0425,Census,City,MN,"Lester Prairie, Minnesota",0,0,0,0,0,0,0,0,0,0,189,418,420,434,442.0,423,663,966.0,1162.0,1229,1180,1377.0,1730.0
7077,20517,US,119652,47.3786111111,-94.6038888889,Census,City,MN,"Cass Lake, Minnesota",0,0,0,0,0,0,0,0,0,0,0,546,2011,2109,1409.0,1904,1936,1586.0,1317.0,1001,923,860.0,770.0
7092,8717,US,120908,43.805,-92.8016666667,Census,City,MN,"Sargeant, Minnesota",0,0,0,0,0,0,0,0,0,0,0,0,76,79,91.0,138,121,113.0,85.0,95,78,76.0,61.0
7163,10475,US,120497,48.3977777778,-93.5569444444,Census,City,MN,"Littlefork, Minnesota",0,0,0,0,0,0,0,0,0,0,0,0,104,397,474.0,608,671,805.0,824.0,918,838,680.0,647.0
7289,13261,US,121711,47.6694444444,-91.9194444444,Census,City,MN,"Babbitt, Minnesota",0,0,0,0,0,0,0,0,0,0,0,0,0,0,0.0,0,0,2587.0,3076.0,2435,1562,1670.0,1475.0
7303,9772,US,119520,45.2602777778,-96.3286111111,Census,City,MN,"Odessa, Minnesota",0,0,0,0,0,0,0,0,0,0,0,204,235,271,284.0,316,283,234.0,194.0,177,155,113.0,135.0
7322,15550,US,122077,44.0502777778,-94.4158333333,Census,City,MN,"Madelia, Minnesota",0,0,0,0,0,0,0,0,0,489,852,1272,1273,1447,1397.0,1652,1790,2190.0,2316.0,2130,2237,2340.0,2308.0
7342,5992,US,4020103,,,Census,Neighborhoods,MN,"Bancroft, Minneapolis",0,0,0,0,0,0,0,0,0,0,0,0,0,0,0.0,0,0,0.0,0.0,5620,3377,3606.0,3371.0
7359,14087,US,150616,45.7236111111,-93.1736111111,Census,City,MN,"Braham, Minnesota",0,0,0,0,0,0,0,0,0,0,0,0,406,511,579.0,578,697,728.0,744.0,1015,1139,1276.0,1793.0
7379,11286,US,122119,43.9136111111,-91.3597222222,Census,City,MN,"Dakota, Minnesota",0,0,0,0,0,0,0,0,0,81,0,0,0,0,0.0,0,0,339.0,369.0,350,360,329.0,323.0
7384,10391,US,120409,45.8313888889,-93.4236111111,Census,City,MN,"Ogilvie, Minnesota",0,0,0,0,0,0,0,0,0,0,0,0,270,436,344.0,438,362,376.0,384.0,423,510,474.0,369.0
7388,1519,US,47386524,46.1605555556,-92.8519444444,Census,Unknown,MN,"Banning, Minnesota",0,0,0,0,0,0,0,0,0,0,0,0,149,44,0.0,0,0,0.0,0.0,0,0,0.0,0.0
7390,4503,US,6793486,,,Census,Community,MN,"Nokomis, Minneapolis",0,0,0,0,0,0,0,0,0,0,0,0,0,0,0.0,0,0,0.0,0.0,39944,38514,37270.0,37021.0
7412,12268,US,119322,46.9886111111,-93.5966666667,Census,City,MN,"Hill City, Minnesota",0,0,0,0,0,0,0,0,0,0,0,0,220,928,515.0,641,501,429.0,357.0,533,469,479.0,633.0
7417,24398,US,13777916,44.8,-93.5333333333,Census,City,MN,"Shakopee, Minnesota",0,0,0,0,0,0,0,1138,1349,2011,1757,2047,2302,1988,2023.0,2418,3185,5201.0,6876.0,9941,11739,20568.0,37076.0
7422,11635,US,120385,43.74,-95.3158333333,Census,City,MN,"Okabena, Minnesota",0,0,0,0,0,0,0,0,0,0,0,0,0,0,0.0,210,236,244.0,237.0,263,223,185.0,188.0
7463,10238,US,94947,47.33,-95.81,Census,US County,MN,"Mahnomen County, Minnesota",0,0,0,0,0,0,0,0,0,0,0,0,3249,6197,6153.0,8054,7059,6341.0,5638.0,5535,5044,5190.0,5413.0
7472,9901,US,119447,47.9427777778,-94.4494444444,Census,City,MN,"Kelliher, Minnesota",0,0,0,0,0,0,0,0,0,0,0,0,294,514,370.0,357,336,297.0,289.0,324,348,294.0,262.0
7479,11891,US,120034,43.8113888889,-91.7525,Census,City,MN,"Rushford, Minnesota",0,0,0,0,0,0,0,477,1245,941,968,1062,1011,1142,1125.0,1182,1270,1335.0,1318.0,1478,1485,1696.0,1731.0
7482,9976,US,121901,45.2827777778,-95.7547222222,Census,City,MN,"Danvers, Minnesota",0,0,0,0,0,0,0,0,0,0,0,112,215,253,177.0,184,162,132.0,136.0,152,98,108.0,97.0
7485,10033,US,122001,46.3747222222,-94.9397222222,Census,City,MN,"Aldrich, Minnesota",0,0,0,0,0,0,0,0,0,0,0,0,0,0,0.0,152,131,90.0,85.0,88,70,53.0,48.0
7494,15876,US,94912,,,Census,US County,MN,"Rice County, Minnesota",0,0,0,0,0,0,0,7543,16083,22481,23968,26080,25911,28307,29974.0,32160,36235,38988.0,41582.0,46087,49183,56665.0,64142.0
7511,15268,US,121893,45.2013888889,-96.0197222222,Census,City,MN,"Appleton, Minnesota",0,0,0,0,0,0,0,0,0,400,994,1184,1221,1579,1625.0,1877,2256,2172.0,1789.0,1842,1552,2871.0,1412.0
7515,16359,US,95001,46.93,-95.67,Census,US County,MN,"Becker County, Minnesota",0,0,0,0,0,0,0,386,308,5218,9401,14375,18840,22851,22503.0,26562,24836,23959.0,24372.0,29336,27881,30000.0,32504.0
7530,1444,US,47208166,47.3669444444,-94.8233333333,Census,Unincorporated Community,MN,"Nary, Minnesota",0,0,0,0,0,0,0,0,0,0,0,94,49,0,0.0,0,0,0.0,0.0,0,0,0.0,0.0
7543,10752,US,119846,46.6705555556,-94.1069444444,Census,City,MN,"Crosslake, Minnesota",0,0,0,0,0,0,0,0,0,0,0,0,0,0,0.0,0,0,165.0,358.0,1064,1132,1893.0,2141.0
7612,12305,US,120596,44.2758333333,-96.1333333333,Census,City,MN,"Tyler, Minnesota",0,0,0,0,0,0,0,0,0,81,137,515,614,858,905.0,1005,1121,1138.0,1069.0,1353,1257,1218.0,1143.0
7687,24544,US,150601,44.4583333333,-93.1611111111,Census,City,MN,"Northfield, Minnesota",0,0,0,0,0,0,0,0,0,2296,2659,3210,3265,4023,4153.0,4533,7487,8707.0,10235.0,12562,14684,17147.0,20007.0
7798,9473,US,120077,43.5608333333,-93.4236111111,Census,City,MN,"Twin Lakes, Minnesota",0,0,0,0,0,0,0,0,0,77,0,0,0,0,0.0,0,0,153.0,230.0,210,154,168.0,151.0
7827,12722,US,120291,45.4905555556,-93.25,Census,City,MN,"Isanti, Minnesota",0,0,0,0,0,0,0,0,0,0,0,0,316,411,371.0,354,422,521.0,679.0,858,1228,2324.0,5251.0
7847,17309,US,94967,47.51,-93.63,Census,US County,MN,"Itasca County, Minnesota",0,0,0,0,0,0,97,51,96,124,743,4573,17208,23876,27224.0,32996,33321,38006.0,35530.0,43069,40863,43992.0,45058.0
7906,16292,US,120108,45.9108333333,-95.8883333333,Census,City,MN,"Barrett, Minnesota",0,0,0,0,0,0,0,0,0,0,0,237,278,358,368.0,384,402,345.0,342.0,388,350,355.0,415.0
7908,13267,US,121609,48.6991666667,-96.1830555556,Census,City,MN,"Greenbush, Minnesota",0,0,0,0,0,0,0,0,0,0,0,0,274,310,387.0,556,713,706.0,787.0,817,800,784.0,719.0
7921,10210,US,121933,45.8241666667,-94.7488888889,Census,City,MN,"Grey Eagle, Minnesota",0,0,0,0,0,0,0,0,0,0,0,313,378,399,363.0,428,400,372.0,325.0,338,353,335.0,348.0
7987,9664,US,94931,47.33,-96.46,Census,US County,MN,"Norman County, Minnesota",0,0,0,0,0,0,0,0,0,0,10618,15045,13446,14880,14061.0,14746,12909,11253.0,10008.0,9379,7975,7442.0,6852.0
8012,8728,US,120500,48.6122222222,-93.3480555556,Census,City,MN,"Ranier, Minnesota",0,0,0,0,0,0,0,0,0,0,0,0,190,157,205.0,228,227,262.0,255.0,237,199,188.0,145.0
8033,12613,US,122060,44.9872222222,-92.9658333333,Census,City,MN,"Oakdale, Minnesota",0,0,0,0,0,0,0,0,0,0,0,0,0,0,0.0,0,0,0.0,7795.0,12123,18374,26653.0,27378.0
8036,14492,US,124577,44.9880555556,-93.1744444444,Census,City,MN,"Falcon Heights, Minnesota",0,0,0,0,0,0,0,0,0,0,0,0,0,0,0.0,0,3884,5927.0,5530.0,5291,5380,5572.0,5321.0
8064,25692,US,120321,47.2372222222,-93.5302777778,Census,City,MN,"Grand Rapids, Minnesota",0,0,0,0,0,0,0,0,0,0,0,1428,2230,2914,3205.0,4875,6019,7265.0,7247.0,7934,7976,7764.0,10869.0
8068,4535,US,2880170,44.9305555556,-93.3033333333,Census,Community,MN,"Southwest, Minneapolis",0,0,0,0,0,0,0,0,0,0,0,0,0,0,0.0,0,0,0.0,0.0,52946,49590,47863.0,48076.0
8098,9850,US,119906,44.6027777778,-92.9333333333,Census,City,MN,"New Trier, Minnesota",0,0,0,0,0,0,0,0,0,104,129,126,144,122,80.0,79,73,106.0,153.0,115,96,116.0,112.0
8128,9505,US,121696,44.6727777778,-94.2305555556,Census,City,MN,"New Auburn, Minnesota",0,0,0,0,0,0,0,0,0,204,0,274,261,209,245.0,263,290,299.0,274.0,331,363,488.0,456.0
8132,15179,US,119603,46.4513888889,-92.7633333333,Census,City,MN,"Moose Lake, Minnesota",0,0,0,0,0,0,0,0,0,100,169,354,526,571,742.0,1432,1603,1514.0,1400.0,1408,1206,2239.0,2751.0
8136,10764,US,122051,44.9536111111,-92.77,Census,City,MN,"Lakeland, Minnesota",0,0,0,0,0,0,0,0,0,303,523,0,0,0,0.0,0,0,598.0,962.0,1812,2000,1917.0,1796.0
8187,11747,US,121550,44.7758333333,-94.9919444444,Census,City,MN,"Olivia, Minnesota",0,0,0,0,0,0,0,0,0,48,263,970,960,1488,1475.0,1788,2012,2355.0,2553.0,2802,2623,2570.0,2484.0
8189,11163,US,119854,46.1666666667,-94.3666666667,Census,City,MN,"Fort Ripley, Minnesota",0,0,0,0,0,0,0,0,0,0,0,0,0,0,105.0,126,88,55.0,54.0,83,92,74.0,69.0
8206,14539,US,119432,47.7302777778,-94.5477777778,Census,City,MN,"Blackduck, Minnesota",0,0,0,0,0,0,0,0,0,0,0,0,942,788,704.0,753,732,765.0,595.0,653,718,696.0,785.0
8219,11017,US,119548,43.9272222222,-93.9552777778,Census,City,MN,"Mapleton, Minnesota",0,0,0,0,0,0,0,0,0,351,607,1008,809,857,862.0,1070,1083,1107.0,1307.0,1516,1526,1678.0,1756.0
8256,15091,US,124612,45.7333333333,-94.4666666667,Census,City,MN,"Holdingford, Minnesota",0,0,0,0,0,0,0,0,0,0,0,191,276,507,477.0,527,458,526.0,551.0,635,561,736.0,708.0
8277,13126,US,150603,45.8658333333,-95.1469444444,Census,City,MN,"Osakis, Minnesota",0,0,0,0,0,0,0,0,0,252,472,918,1013,1480,1155.0,1483,1488,1396.0,1306.0,1355,1256,1567.0,1740.0
8289,11999,US,122177,44.71,-96.275,Census,City,MN,"Canby, Minnesota",0,0,0,0,0,0,0,0,0,331,470,1100,1528,1754,1738.0,2099,2173,2146.0,2147.0,2143,1826,1903.0,1795.0
8324,11551,US,119540,44.1063888889,-94.2180555556,Census,City,MN,"Lake Crystal, Minnesota",0,0,0,0,0,0,0,0,360,483,824,1215,1055,1204,1173.0,1319,1430,1652.0,1807.0,2078,2084,2420.0,2549.0
8334,10764,US,119486,45.6638888889,-93.9111111111,Census,City,MN,"Foley, Minnesota",0,0,0,0,0,0,0,0,0,0,0,172,710,837,798.0,961,1089,1112.0,1271.0,1606,1854,2154.0,2603.0
8345,21247,US,94906,44.65,-93.53,Census,US County,MN,"Scott County, Minnesota",0,0,0,0,0,0,0,4595,11042,13516,13831,15147,14888,14245,14116.0,15585,16486,21909.0,32423.0,43784,57846,89498.0,129928.0
8353,11381,US,119729,45.5119444444,-92.9802777778,Census,City,MN,"North Branch, Minnesota",0,0,0,0,0,0,0,0,0,142,685,1211,642,742,691.0,762,769,949.0,1106.0,1597,1867,8023.0,10125.0
8376,15105,US,94937,43.67,-92.75,Census,US County,MN,"Mower County, Minnesota",0,0,0,0,0,0,0,3217,10447,16799,18019,22335,22640,25993,28065.0,36113,42277,48498.0,44919.0,40390,37385,38603.0,39163.0
8379,12791,US,120029,43.7877777778,-91.8322222222,Census,City,MN,"Peterson, Minnesota",0,0,0,0,0,0,0,0,0,0,0,0,266,291,291.0,331,318,283.0,269.0,291,259,269.0,199.0
8382,9736,US,120724,43.5605555556,-94.7738888889,Census,City,MN,"Dunnell, Minnesota",0,0,0,0,0,0,0,0,0,0,0,0,170,247,237.0,239,242,260.0,237.0,216,187,197.0,167.0
8452,11528,US,150636,45.3333333333,-94.55,Census,City,MN,"Eden Valley, Minnesota",0,0,0,0,0,0,0,0,0,0,327,604,740,665,612.0,716,792,793.0,776.0,763,732,866.0,1042.0
8496,12069,US,119988,43.5375,-93.7116666667,Census,City,MN,"Kiester, Minnesota",0,0,0,0,0,0,0,0,0,0,0,0,258,257,286.0,407,541,741.0,681.0,670,606,540.0,501.0
8503,9883,US,121447,45.7133333333,-95.2713888889,Census,City,MN,"Villard, Minnesota",0,0,0,0,0,0,0,0,0,0,203,249,260,308,234.0,248,288,235.0,221.0,275,247,244.0,254.0
8513,6497,US,119465,47.8716666667,-94.925,Census,CDP,MN,"Redby, Minnesota",0,0,0,0,0,0,0,0,0,0,0,0,92,93,208.0,0,0,0.0,0.0,0,787,957.0,1334.0
8555,11328,US,124435,45.395,-92.8172222222,Census,City,MN,"Center City, Minnesota",0,0,0,0,0,0,0,0,0,33,0,0,252,285,285.0,251,311,293.0,324.0,458,451,582.0,628.0
8611,11313,US,122128,43.9855555556,-91.8661111111,Census,City,MN,"Lewiston, Minnesota",0,0,0,0,0,0,0,0,0,241,324,371,473,758,656.0,761,786,890.0,1000.0,1226,1298,1484.0,1620.0
8658,10657,US,119594,46.6797222222,-92.8769444444,Census,City,MN,"Cromwell, Minnesota",0,0,0,0,0,0,0,0,0,0,0,0,143,164,207.0,214,197,187.0,181.0,229,221,143.0,234.0
8671,8272,US,122116,46.5636111111,-96.7344444444,Census,City,MN,"Wolverton, Minnesota",0,0,0,0,0,0,0,0,0,0,0,0,0,170,206.0,222,198,204.0,171.0,177,158,122.0,142.0
8692,10007,US,120733,43.6952777778,-94.3483333333,Census,City,MN,"Granada, Minnesota",0,0,0,0,0,0,0,0,0,0,0,309,333,387,397.0,431,403,418.0,381.0,377,374,317.0,303.0
8695,17937,US,120800,45.1166666667,-94.5333333333,Census,City,MN,"Litchfield, Minnesota",0,0,0,0,0,0,0,0,353,1250,1899,2280,2333,2790,2880.0,3920,4608,5078.0,5262.0,5904,6041,6562.0,6574.0
8720,9810,US,124448,46.7472222222,-94.0725,Census,City,MN,"Fifty Lakes, Minnesota",0,0,0,0,0,0,0,0,0,0,0,0,0,0,0.0,0,0,143.0,143.0,263,299,392.0,387.0
8741,11905,US,94961,45.0,-96.18,Census,US County,MN,"Lac qui Parle County, Minnesota",0,0,0,0,0,0,0,0,145,4891,10382,14289,15435,15554,15398.0,15509,14545,13330.0,11164.0,10592,8924,8067.0,7259.0
8747,17186,US,121628,48.8466666667,-95.7608333333,Census,City,MN,"Roseau, Minnesota",0,0,0,0,0,0,0,0,0,0,0,301,644,1012,1028.0,1775,2231,2146.0,2552.0,2272,2396,2756.0,2633.0
8763,10182,US,119613,46.6652777778,-92.3955555556,Census,Former City,MN,"Thomson, Minnesota",0,0,0,0,0,0,0,0,0,0,0,207,169,103,76.0,104,170,179.0,159.0,152,132,153.0,159.0
8815,10044,US,120209,45.0019444444,-93.4213888889,Census,City,MN,"Medicine Lake, Minnesota",0,0,0,0,0,0,0,0,0,0,0,0,0,0,0.0,0,284,323.0,446.0,419,385,368.0,371.0
8820,7437,US,1781246,44.9397222222,-93.2533333333,Census,Neighborhood,MN,"Powderhorn Park, Minneapolis",0,0,0,0,0,0,0,0,0,0,0,0,0,0,0.0,0,0,0.0,0.0,5981,7864,8957.0,8655.0
8822,9979,US,120392,43.8280555556,-95.1994444444,Census,City,MN,"Wilder, Minnesota",0,0,0,0,0,0,0,0,0,0,0,174,95,91,97.0,127,118,107.0,132.0,120,83,69.0,60.0
8877,10096,US,120699,48.1958333333,-97.1313888889,Census,City,MN,"Oslo, Minnesota",0,0,0,0,0,0,0,0,0,0,0,0,344,365,328.0,392,440,372.0,417.0,379,362,347.0,330.0
8882,16059,US,119499,45.75,-94.2166666667,Census,City,MN,"Rice, Minnesota",0,0,0,0,0,0,0,0,0,0,0,232,262,315,314.0,324,328,387.0,366.0,499,610,711.0,1275.0
8965,9923,US,122100,46.1844444444,-96.4838888889,Census,City,MN,"Doran, Minnesota",0,0,0,0,0,0,0,0,0,0,0,0,93,98,137.0,128,126,136.0,101.0,77,78,59.0,55.0
8967,11100,US,120879,45.8080555556,-94.5691666667,Census,City,MN,"Upsala, Minnesota",0,0,0,0,0,0,0,0,0,0,0,0,0,316,345.0,347,366,356.0,312.0,400,371,424.0,427.0
9029,10229,US,119606,46.7072222222,-92.4302777778,Census,City,MN,"Scanlon, Minnesota",0,0,0,0,0,0,0,0,0,0,0,0,572,383,435.0,460,572,1126.0,1132.0,1050,878,838.0,991.0
9042,11499,US,121841,45.4725,-94.34,Census,City,MN,"Rockville, Minnesota",0,0,0,0,0,0,0,0,0,0,0,0,127,172,294.0,345,288,357.0,302.0,597,579,749.0,2448.0
9062,14168,US,121277,46.0155555556,-92.9411111111,Census,City,MN,"Hinckley, Minnesota",0,0,0,0,0,0,0,0,0,0,618,459,673,673,682.0,873,902,851.0,885.0,963,946,1291.0,1800.0
9078,11389,US,119534,44.1611111111,-93.8825,Census,City,MN,"Eagle Lake, Minnesota",0,0,0,0,0,0,0,0,0,0,0,0,231,231,222.0,269,310,506.0,839.0,1470,1703,1787.0,2422.0
9140,10346,US,122094,46.0969444444,-96.4047222222,Census,City,MN,"Campbell, Minnesota",0,0,0,0,0,0,0,0,0,0,0,239,303,424,313.0,328,391,365.0,339.0,286,233,241.0,158.0
9187,13848,US,120999,47.2986111111,-96.5158333333,Census,City,MN,"Ada, Minnesota",0,0,0,0,0,0,0,0,0,138,622,1253,1432,1411,1285.0,1938,2121,2064.0,2076.0,1971,1708,1657.0,1707.0
9238,10346,US,150579,43.8413888889,-93.8327777778,Census,City,MN,"Minnesota Lake, Minnesota",0,0,0,0,0,0,0,0,0,208,340,518,445,450,435.0,526,609,697.0,711.0,744,681,681.0,687.0
9272,9045,US,120844,45.8255555556,-94.4986111111,Census,City,MN,"Elmdale, Minnesota",0,0,0,0,0,0,0,0,0,0,0,0,0,0,0.0,0,119,88.0,116.0,126,130,107.0,116.0
9284,10938,US,122028,43.8944444444,-93.4944444444,Census,City,MN,"New Richland, Minnesota",0,0,0,0,0,0,0,0,0,304,423,750,685,754,777.0,863,908,1046.0,1113.0,1263,1237,1197.0,1203.0
9289,20634,US,119622,44.7833333333,-93.6,Census,City,MN,"Chaska, Minnesota",0,0,0,0,0,0,0,0,0,1068,2210,2165,2050,1966,1901.0,1927,2008,2501.0,4352.0,8346,11339,17449.0,23770.0
9368,11616,US,121555,44.7897222222,-95.2127777778,Census,City,MN,"Renville, Minnesota",0,0,0,0,0,0,0,0,0,232,413,1075,1182,1142,1064.0,1256,1323,1373.0,1252.0,1493,1315,1323.0,1287.0
9418,12569,US,124455,44.0672222222,-92.7575,Census,City,MN,"Mantorville, Minnesota",0,0,0,0,0,0,0,280,622,477,460,602,410,381,387.0,486,477,498.0,479.0,705,874,1054.0,1197.0
9420,9633,US,94904,45.44,-93.77,Census,US County,MN,"Sherburne County, Minnesota",0,0,0,0,0,0,0,0,0,0,5908,7281,8136,9651,9709.0,10456,10661,12861.0,18344.0,29908,41945,64417.0,88499.0
9457,11133,US,94919,45.59,-95.45,Census,US County,MN,"Pope County, Minnesota",0,0,0,0,0,0,0,0,2691,5874,10032,12577,12746,13631,13085.0,13544,12862,11914.0,11107.0,11657,10745,11236.0,10995.0
9470,14674,US,94999,48.02,-94.92,Census,US County,MN,"Beltrami County, Minnesota",0,0,0,0,0,0,0,0,80,10,312,11030,19337,27079,20707.0,26107,24962,23425.0,26373.0,30982,34384,39650.0,44442.0
9478,11707,US,120589,44.4666666667,-96.25,Census,City,MN,"Ivanhoe, Minnesota",0,0,0,0,0,0,0,0,0,0,0,0,484,655,556.0,606,682,719.0,738.0,761,751,679.0,559.0
9481,10110,US,121079,46.3911111111,-95.3208333333,Census,City,MN,"Deer Creek, Minnesota",0,0,0,0,0,0,0,0,0,0,0,275,313,381,337.0,405,349,312.0,287.0,392,303,328.0,322.0
9488,11165,US,94900,44.02,-93.22,Census,US County,MN,"Steele County, Minnesota",0,0,0,0,0,0,0,2863,8271,12400,13232,16524,16146,18061,18475.0,19749,21155,25029.0,26931.0,30328,30729,33680.0,36575.0
9508,14584,US,122038,45.0177777778,-92.7802777778,Census,City,MN,"Bayport, Minnesota",0,0,0,0,0,0,0,0,0,601,1304,1422,1343,1936,2590.0,2633,2502,3205.0,2987.0,2932,3200,3162.0,3471.0
9520,8340,US,124617,45.5233333333,-94.8347222222,Census,City,MN,"Spring Hill, Minnesota",0,0,0,0,0,0,0,0,0,0,0,0,100,112,102.0,87,91,105.0,90.0,94,77,55.0,85.0
9521,11553,US,122085,43.9822222222,-94.6280555556,Census,City,MN,"St. James, Minnesota",0,0,0,0,0,0,0,0,0,444,939,2607,2102,2673,2808.0,3400,3861,4174.0,4027.0,4346,4364,4695.0,4605.0
9528,26265,US,119367,45.0855555556,-93.2594444444,Census,City,MN,"Fridley, Minnesota",0,0,0,0,0,0,0,0,0,0,0,0,0,0,0.0,0,3796,15173.0,29233.0,30228,28335,27449.0,27208.0
9547,10338,US,12242218,,,Census,Neighborhood,MN,"Waite Park, Minneapolis",0,0,0,0,0,0,0,0,0,0,0,0,0,0,0.0,0,0,0.0,0.0,6192,5707,5205.0,5244.0
9572,13802,US,121659,45.3913888889,-93.8727777778,Census,City,MN,"Becker, Minnesota",0,0,0,0,0,0,0,0,0,0,0,0,210,210,214.0,239,264,279.0,365.0,601,902,2673.0,4538.0
9624,6307,US,12925410,,,Census,Neighborhood,MN,"Sheridan, Minneapolis",0,0,0,0,0,0,0,0,0,0,0,0,0,0,0.0,0,0,0.0,0.0,2900,2752,2703.0,2884.0
9698,16904,US,121942,45.9747222222,-94.8655555556,Census,City,MN,"Long Prairie, Minnesota",0,0,0,0,0,0,0,0,0,220,0,1885,1250,1346,1854.0,2311,2443,2414.0,2416.0,2859,2786,3040.0,3458.0
9760,10206,US,119340,46.7127777778,-93.4894444444,Census,City,MN,"Palisade, Minnesota",0,0,0,0,0,0,0,0,0,0,0,0,0,0,162.0,202,212,180.0,149.0,155,144,118.0,167.0
9807,12040,US,121881,45.4966666667,-95.7941666667,Census,City,MN,"Hancock, Minnesota",0,0,0,0,0,0,0,0,0,91,218,415,524,763,798.0,827,852,942.0,806.0,877,723,717.0,765.0
9820,17027,US,120105,44.2927777778,-92.6716666667,Census,City,MN,"Zumbrota, Minnesota",0,0,0,0,0,0,0,0,0,797,867,1119,1138,1265,1350.0,1386,1686,1830.0,1929.0,2129,2312,2789.0,3252.0
9823,14421,US,120963,43.6344444444,-95.9341666667,Census,City,MN,"Adrian, Minnesota",0,0,0,0,0,0,0,0,0,193,671,1258,1112,1087,1000.0,1066,1115,1215.0,1350.0,1336,1141,1234.0,1209.0
9846,11021,US,121665,45.4452777778,-93.9988888889,Census,City,MN,"Clear Lake, Minnesota",0,0,0,0,0,0,0,0,0,0,0,222,263,275,242.0,285,297,316.0,280.0,266,315,266.0,545.0
9854,27280,US,6793312,44.9872222222,-93.2544444444,Census,Community,MN,"Northeast, Minneapolis",0,0,0,0,0,0,0,0,0,0,0,0,0,0,0.0,0,0,0.0,0.0,37507,36515,36913.0,36255.0
9862,9560,US,150628,48.8036111111,-95.0975,Census,City,MN,"Roosevelt, Minnesota",0,0,0,0,0,0,0,0,0,0,0,0,252,276,287.0,304,228,145.0,104.0,124,180,166.0,151.0
9879,10026,US,120502,45.1352777778,-96.2844444444,Census,City,MN,"Bellingham, Minnesota",0,0,0,0,0,0,0,0,0,0,166,380,359,405,375.0,456,388,327.0,263.0,290,247,205.0,168.0
9888,25845,US,150575,45.6202777778,-94.2061111111,Census,City,MN,"Sartell, Minnesota",0,0,0,0,0,0,0,0,0,0,0,0,240,510,521.0,532,662,791.0,1323.0,3427,5393,9641.0,15876.0
9941,10440,US,124478,43.6986111111,-91.2805555556,Census,City,MN,"Brownsville, Minnesota",0,0,0,0,0,0,0,0,625,607,447,453,361,338,274.0,298,330,382.0,417.0,418,415,517.0,466.0
9955,13538,US,120374,43.7930555556,-95.32,Census,City,MN,"Heron Lake, Minnesota",0,0,0,0,0,0,0,0,0,163,496,928,803,922,786.0,852,837,852.0,777.0,783,730,768.0,698.0
9962,6411,US,119768,46.9352777778,-96.7663888889,Census,CDP,MN,"Oakport, Minnesota",0,0,0,0,0,0,0,0,0,0,0,0,0,0,0.0,0,0,0.0,0.0,0,0,1334.0,1387.0
9965,10064,US,122179,44.6172222222,-95.415,Census,City,MN,"Echo, Minnesota",0,0,0,0,0,0,0,0,0,0,0,334,430,482,403.0,477,490,459.0,356.0,334,304,278.0,278.0
10032,10468,US,120051,43.5055555556,-93.4866666667,Census,City,MN,"Emmons, Minnesota",0,0,0,0,0,0,0,0,0,0,0,179,223,297,292.0,334,356,408.0,412.0,465,439,432.0,391.0
10051,10576,US,124424,47.2444444444,-94.2175,Census,City,MN,"Federal Dam, Minnesota",0,0,0,0,0,0,0,0,0,0,0,0,0,332,278.0,269,225,185.0,147.0,192,118,101.0,110.0
10091,9653,US,121328,43.8877777778,-96.2561111111,Census,City,MN,"Trosky, Minnesota",0,0,0,0,0,0,0,0,0,0,0,215,181,177,130.0,167,140,122.0,109.0,113,120,116.0,86.0
10146,10127,US,120504,44.8508333333,-95.9025,Census,City,MN,"Boyd, Minnesota",0,0,0,0,0,0,0,0,0,0,0,335,431,549,449.0,523,496,419.0,311.0,329,251,210.0,175.0
10162,12785,US,120508,44.9313888889,-96.0538888889,Census,City,MN,"Dawson, Minnesota",0,0,0,0,0,0,0,0,0,0,418,962,1318,1511,1386.0,1646,1834,1766.0,1699.0,1901,1626,1539.0,1540.0
10182,9696,US,120805,45.3161111111,-94.4097222222,Census,City,MN,"Watkins, Minnesota",0,0,0,0,0,0,0,0,0,0,0,250,366,454,518.0,584,659,744.0,785.0,757,849,880.0,962.0
10269,11792,US,120869,46.0883333333,-94.4994444444,Census,City,MN,"Randall, Minnesota",0,0,0,0,0,0,0,0,0,0,0,0,195,301,302.0,362,425,516.0,536.0,527,571,535.0,650.0
10275,17400,US,94982,46.49,-94.07,Census,US County,MN,"Crow Wing County, Minnesota",0,0,0,0,0,0,0,269,200,2319,8852,14250,16861,24566,25627.0,30226,30875,32134.0,34826.0,41722,44249,55099.0,62500.0
10336,16333,US,120537,48.7125,-94.595,Census,City,MN,"Baudette, Minnesota",0,0,0,0,0,0,0,0,0,0,0,0,897,960,822.0,1017,929,1597.0,1547.0,1170,1146,1104.0,1106.0
10349,10110,US,120806,45.7858333333,-93.5533333333,Census,City,MN,"Bock, Minnesota",0,0,0,0,0,0,0,0,0,0,0,0,0,0,109.0,125,96,91.0,105.0,105,115,106.0,106.0
10393,11936,US,94985,47.57,-95.38,Census,US County,MN,"Clearwater County, Minnesota",0,0,0,0,0,0,0,0,0,0,0,0,6870,8569,9546.0,11153,10204,8864.0,8013.0,8761,8309,8423.0,8695.0
10401,9252,US,122203,44.6522222222,-95.5380555556,Census,City,MN,"Wood Lake, Minnesota",0,0,0,0,0,0,0,0,0,0,0,264,292,447,391.0,436,504,506.0,418.0,420,406,436.0,439.0
10432,8916,US,124457,46.0663888889,-95.5613888889,Census,City,MN,"Millerville, Minnesota",0,0,0,0,0,0,0,0,0,0,0,0,150,152,141.0,182,173,119.0,109.0,124,104,115.0,106.0
10434,15351,US,94897,45.29,-95.68,Census,US County,MN,"Swift County, Minnesota",0,0,0,0,0,0,0,0,0,7473,10161,13503,12949,15093,14735.0,15469,15837,14936.0,13177.0,12920,10724,11956.0,9783.0
10478,4174,US,12921969,,,Census,Neighborhood,MN,"Morris Park, Minneapolis",0,0,0,0,0,0,0,0,0,0,0,0,0,0,0.0,0,0,0.0,0.0,3518,3213,2984.0,2819.0
10492,8493,US,120563,44.5,-93.6166666667,Census,City,MN,"Heidelberg, Minnesota",0,0,0,0,0,0,0,0,0,0,0,114,111,73,56.0,71,61,44.0,72.0,102,73,72.0,122.0
10495,9527,US,119616,46.6205555556,-92.3869444444,Census,City,MN,"Wrenshall, Minnesota",0,0,0,0,0,0,0,0,0,0,0,0,0,0,186.0,168,148,189.0,147.0,333,296,308.0,399.0
10512,8732,US,120352,47.6286111111,-94.1388888889,Census,City,MN,"Squaw Lake, Minnesota",0,0,0,0,0,0,0,0,0,0,0,0,0,0,0.0,0,132,129.0,113.0,162,139,99.0,107.0
10520,10511,US,120207,45.0538888889,-93.6344444444,Census,City,MN,"Loretto, Minnesota",0,0,0,0,0,0,0,0,0,0,0,0,0,0,0.0,0,179,271.0,340.0,297,404,570.0,650.0
10594,9522,US,121988,44.245,-92.2947222222,Census,City,MN,"Millville, Minnesota",0,0,0,0,0,0,0,0,0,143,0,149,156,194,185.0,175,168,171.0,139.0,186,163,186.0,182.0
10667,25875,US,120095,44.5666666667,-92.5333333333,Census,City,MN,"Red Wing, Minnesota",0,0,0,0,0,0,0,1250,4260,5876,6294,7525,9048,8637,9629.0,9962,10645,10528.0,10441.0,13736,15134,16116.0,16459.0
10685,9493,US,120712,48.22,-96.4066666667,Census,City,MN,"Viking, Minnesota",0,0,0,0,0,0,0,0,0,0,0,0,0,0,133.0,146,130,128.0,118.0,129,103,92.0,104.0
10736,12388,US,122054,45.0608333333,-92.9588888889,Census,City,MN,"Mahtomedi, Minnesota",0,0,0,0,0,0,0,0,0,0,0,0,0,0,0.0,876,1375,2127.0,2640.0,3851,5569,7563.0,7676.0
10748,14016,US,121638,44.6166666667,-93.7666666667,Census,City,MN,"Belle Plaine, Minnesota",0,0,0,0,0,0,0,0,497,629,814,1121,1204,1251,1236.0,1407,1708,1931.0,2328.0,2754,3149,3789.0,6661.0
10751,10008,US,121505,44.4769444444,-95.3286111111,Census,City,MN,"Seaforth, Minnesota",0,0,0,0,0,0,0,0,0,0,0,0,158,113,124.0,148,136,131.0,132.0,90,87,77.0,86.0
10758,9133,US,120770,44.7730555556,-94.0386111111,Census,City,MN,"Plato, Minnesota",0,0,0,0,0,0,0,0,0,49,130,232,238,251,242.0,283,263,280.0,303.0,390,355,336.0,320.0
10817,9635,US,122103,46.4366666667,-96.6855555556,Census,City,MN,"Kent, Minnesota",0,0,0,0,0,0,0,0,0,0,0,0,238,150,137.0,146,178,134.0,139.0,121,131,120.0,81.0
10826,10838,US,120210,45.0447222222,-93.5730555556,Census,City,MN,"Medina, Minnesota",0,0,0,0,0,0,0,0,0,0,0,0,0,0,0.0,1045,1166,1472.0,2396.0,2623,3096,4005.0,4892.0
10842,10118,US,120475,48.8588888889,-96.8047222222,Census,City,MN,"Lancaster, Minnesota",0,0,0,0,0,0,0,0,0,0,0,0,204,354,456.0,473,536,462.0,382.0,368,342,363.0,340.0
10849,13203,US,6792505,44.9647222222,-93.2747222222,Census,Neighborhoods of Minneapolis,MN,"Stevens Square, Minneapolis",0,0,0,0,0,0,0,0,0,0,0,0,0,0,0.0,0,0,0.0,0.0,3827,4433,3948.0,3833.0
10856,15108,US,119515,45.5694444444,-96.4377777778,Census,City,MN,"Graceville, Minnesota",0,0,0,0,0,0,0,0,0,40,508,856,987,1022,969.0,1020,962,823.0,735.0,780,671,605.0,577.0
10869,27293,US,6045317,44.8177777778,-93.1669444444,Census,City,MN,"Eagan, Minnesota",0,0,0,0,0,0,0,0,0,0,0,0,0,0,0.0,0,0,0.0,10398.0,20700,47409,63557.0,64206.0
10912,11453,US,119358,45.2333333333,-93.2913888889,Census,City,MN,"Andover, Minnesota",0,0,0,0,0,0,0,0,0,0,0,0,0,0,0.0,0,0,0.0,0.0,9387,15216,26588.0,30598.0
11024,12229,US,124641,43.9588888889,-94.7944444444,Census,City,MN,"Butterfield, Minnesota",0,0,0,0,0,0,0,0,0,0,0,332,377,404,412.0,511,529,601.0,619.0,634,509,564.0,586.0
11033,31957,US,121736,47.9022222222,-91.8558333333,Census,City,MN,"Ely, Minnesota",0,0,0,0,0,0,0,0,0,0,901,3717,3572,4902,6156.0,5970,5474,5438.0,4904.0,4820,3968,3724.0,3460.0
11036,13161,US,94992,46.59,-92.68,Census,US County,MN,"Carlton County, Minnesota",0,0,0,0,0,0,0,51,286,1230,5272,10017,17559,19391,21232.0,24212,24584,27932.0,28072.0,29936,29259,31671.0,35386.0
11062,20233,US,94983,44.01,-95.18,Census,US County,MN,"Cottonwood County, Minnesota",0,0,0,0,0,0,0,12,534,5533,7412,12069,12651,14570,14782.0,16143,15763,16166.0,14887.0,14854,12694,12167.0,11687.0
11071,13631,US,121786,46.7433333333,-92.2255555556,Census,City,MN,"Proctor, Minnesota",0,0,0,0,0,0,0,0,0,0,0,784,2243,2378,2521.0,2468,2693,2963.0,3123.0,3180,2974,2852.0,3057.0
11075,4571,US,2880106,,,Census,Neighborhood,MN,"Windom, Minneapolis",0,0,0,0,0,0,0,0,0,0,0,0,0,0,0.0,0,0,0.0,0.0,5061,5188,4984.0,4980.0
11123,9428,US,124613,45.6333333333,-94.8666666667,Census,City,MN,"Meire Grove, Minnesota",0,0,0,0,0,0,0,0,0,0,0,165,163,185,176.0,162,128,167.0,171.0,174,124,149.0,179.0
11198,14300,US,120697,48.3552777778,-96.3283333333,Census,City,MN,"Newfolden, Minnesota",0,0,0,0,0,0,0,0,0,0,0,0,0,246,244.0,300,367,370.0,390.0,384,345,362.0,368.0
11205,14084,US,120176,44.9319444444,-93.5244444444,Census,City,MN,"Deephaven, Minnesota",0,0,0,0,0,0,0,0,0,0,0,0,234,238,530.0,1026,1823,3286.0,3853.0,3716,3653,3853.0,3642.0
11217,4386,US,37316848,44.515,-93.46,Census,Unincorporated community,MN,"Veseli, Minnesota",0,0,0,0,0,0,0,0,0,0,182,249,235,179,0.0,0,0,0.0,0.0,0,0,0.0,0.0
11268,13464,US,119999,43.7425,-93.7277777778,Census,City,MN,"Wells, Minnesota",0,0,0,0,0,0,0,0,0,661,1208,2017,1755,1894,1795.0,2127,2475,2897.0,2791.0,2777,2465,2494.0,2343.0
11338,9874,US,119897,44.6097222222,-92.9975,Census,City,MN,"Hampton, Minnesota",0,0,0,0,0,0,0,0,0,0,0,196,190,246,196.0,224,275,305.0,369.0,299,363,434.0,689.0
11430,12261,US,119845,46.4819444444,-93.9580555556,Census,City,MN,"Crosby, Minnesota",0,0,0,0,0,0,0,0,0,0,0,0,0,3500,3451.0,2954,2777,2629.0,2241.0,2218,2073,2299.0,2386.0
11492,10664,US,120354,47.3166666667,-93.3622222222,Census,City,MN,"Taconite, Minnesota",0,0,0,0,0,0,0,0,0,0,0,0,549,621,485.0,375,322,376.0,352.0,331,310,315.0,360.0
11514,10335,US,122101,46.2766666667,-96.3091666667,Census,City,MN,"Foxhome, Minnesota",0,0,0,0,0,0,0,0,0,0,0,0,206,266,228.0,240,217,181.0,185.0,161,160,143.0,116.0
11522,14619,US,94921,47.77,-96.4,Census,US County,MN,"Polk County, Minnesota",0,0,0,0,0,0,0,0,0,11433,30192,35429,36001,37090,36019.0,37734,35900,36182.0,34435.0,34844,32498,31369.0,31600.0
11533,20690,US,121351,47.6666666667,-96.01,Census,City,MN,"Erskine, Minnesota",0,0,0,0,0,0,0,0,0,0,0,156,324,457,511.0,581,608,614.0,571.0,585,424,437.0,503.0
11553,10243,US,119750,47.0791666667,-96.7938888889,Census,City,MN,"Georgetown, Minnesota",0,0,0,0,0,0,0,0,0,0,0,0,182,136,183.0,193,192,178.0,141.0,124,107,125.0,129.0
11584,4007,US,12921707,,,Census,Neighborhood,MN,"Keewaydin, Minneapolis",0,0,0,0,0,0,0,0,0,0,0,0,0,0,0.0,0,0,0.0,0.0,3576,3369,3178.0,3096.0
11605,14186,US,124474,45.2,-93.5666666667,Census,City,MN,"Rogers, Minnesota",0,0,0,0,0,0,0,0,0,0,0,0,0,190,222.0,274,268,378.0,544.0,652,698,3588.0,8597.0
11612,5963,US,7074595,,,Census,Neighborhood,MN,"Hawthorne, Minneapolis",0,0,0,0,0,0,0,0,0,0,0,0,0,0,0.0,0,0,0.0,0.0,6036,6032,5985.0,4567.0
11625,10945,US,120534,47.2925,-91.2727777778,Census,City,MN,"Silver Bay, Minnesota",0,0,0,0,0,0,0,0,0,0,0,0,0,0,0.0,0,0,3723.0,3504.0,2917,1894,2068.0,1887.0
11667,10719,US,119804,47.5294444444,-95.2608333333,Census,City,MN,"Shevlin, Minnesota",0,0,0,0,0,0,0,0,0,0,0,172,172,184,228.0,226,242,203.0,185.0,193,157,160.0,176.0
11670,11524,US,94886,43.98,-94.61,Census,US County,MN,"Watonwan County, Minnesota",0,0,0,0,0,0,0,0,2426,5104,7746,11496,11332,12457,12802.0,13902,13881,14460.0,13298.0,12361,11682,11876.0,11211.0
11721,10619,US,121446,45.6138888889,-95.5305555556,Census,City,MN,"Starbuck, Minnesota",0,0,0,0,0,0,0,0,0,0,224,469,497,824,781.0,972,1143,1099.0,1138.0,1224,1143,1314.0,1302.0
11731,10901,US,120049,43.7633333333,-93.33,Census,City,MN,"Clarks Grove, Minnesota",0,0,0,0,0,0,0,0,0,0,0,0,0,0,180.0,203,254,353.0,480.0,620,675,734.0,706.0
11833,10121,US,121127,46.3216666667,-95.4441666667,Census,city,MN,"Henning, Minnesota",0,0,0,0,0,0,0,0,0,0,254,645,603,755,731.0,948,1004,980.0,850.0,832,738,719.0,802.0
11918,10020,US,122018,46.4,-95.0166666667,Census,City,MN,"Verndale, Minnesota",0,0,0,0,0,0,0,0,0,0,635,672,538,571,424.0,521,576,606.0,570.0,504,560,575.0,602.0
11921,10435,US,120192,44.9113888889,-93.5544444444,Census,City,MN,"Greenwood, Minnesota",0,0,0,0,0,0,0,0,0,0,0,0,0,0,0.0,0,0,520.0,587.0,653,614,729.0,688.0
11937,8913,US,120466,48.6597222222,-96.5986111111,Census,City,MN,"Halma, Minnesota",0,0,0,0,0,0,0,0,0,0,0,0,0,0,129.0,158,177,115.0,96.0,97,73,78.0,61.0
11967,9842,US,121981,44.2225,-92.3730555556,Census,City,MN,"Hammond, Minnesota",0,0,0,0,0,0,0,0,0,0,0,238,241,226,184.0,252,192,205.0,179.0,178,205,198.0,132.0
12062,9976,US,120272,47.2138888889,-94.755,Census,City,MN,"Laporte, Minnesota",0,0,0,0,0,0,0,0,0,0,0,0,140,216,185.0,213,189,155.0,154.0,160,101,145.0,111.0
12074,10452,US,120044,43.6713888889,-93.575,Census,City,MN,"Alden, Minnesota",0,0,0,0,0,0,0,0,0,235,276,636,544,530,532.0,544,668,694.0,713.0,687,623,652.0,661.0
12076,10104,US,120245,43.5611111111,-91.6372222222,Census,City,MN,"Spring Grove, Minnesota",0,0,0,0,0,0,0,0,0,293,394,491,620,753,867.0,967,1093,1342.0,1290.0,1275,1153,1304.0,1330.0
12153,9420,US,120028,43.6138888889,-92.4269444444,Census,City,MN,"Ostrander, Minnesota",0,0,0,0,0,0,0,0,0,0,0,0,0,206,151.0,163,191,216.0,268.0,293,276,212.0,254.0
12197,14538,US,120728,43.6522222222,-94.4586111111,Census,City,MN,"Fairmont, Minnesota",0,0,0,0,0,0,0,0,0,541,1205,3040,2958,4630,5521.0,6988,8193,9745.0,10751.0,11506,11265,10889.0,10666.0
12217,3997,US,32716239,43.845,-92.55,Census,Unincorporated community,MN,"High Forest, Minnesota",0,0,0,0,0,0,0,0,249,180,163,139,127,0,0.0,0,0,0.0,0.0,0,0,0.0,0.0
12223,8213,US,121226,46.1238888889,-95.5102777778,Census,City,MN,"Urbank, Minnesota",0,0,0,0,0,0,0,0,0,0,0,0,0,0,0.0,0,162,177.0,125.0,95,73,59.0,54.0
12247,10741,US,119633,44.8641666667,-93.6491666667,Census,City,MN,"Victoria, Minnesota",0,0,0,0,0,0,0,0,0,0,0,0,0,206,240.0,276,302,425.0,850.0,1425,2354,4025.0,7345.0
12257,9221,US,124475,,,Census,City,MN,"Spring Park, Minnesota",0,0,0,0,0,0,0,0,0,0,0,0,0,0,0.0,0,0,668.0,1087.0,1465,1571,1717.0,1669.0
12288,14089,US,119712,44.9486111111,-95.7202777778,Census,City,MN,"Montevideo, Minnesota",0,0,0,0,0,0,0,0,0,862,1437,2146,3056,4419,4319.0,5220,5459,5693.0,5661.0,5845,5499,5346.0,5383.0
12306,16115,US,122115,46.0441666667,-96.4541666667,Census,Unincorporated community,MN,"Tenney, Minnesota",0,0,0,0,0,0,0,0,0,0,0,0,185,102,80.0,89,62,35.0,24.0,19,4,6.0,5.0
12316,8256,US,121851,45.7305555556,-94.7161111111,Census,City,MN,"St. Rosa, Minnesota",0,0,0,0,0,0,0,0,0,0,0,0,0,0,0.0,0,69,62.0,93.0,77,75,44.0,68.0
12325,9527,US,121520,44.3161111111,-95.2125,Census,City,MN,"Wanda, Minnesota",0,0,0,0,0,0,0,0,0,0,0,0,129,185,151.0,191,178,160.0,124.0,118,103,103.0,84.0
12330,11094,US,119817,43.9069444444,-95.0444444444,Census,City,MN,"Bingham Lake, Minnesota",0,0,0,0,0,0,0,0,0,0,0,311,285,273,243.0,251,229,254.0,214.0,222,155,167.0,126.0
12363,12859,US,122149,45.2666666667,-94.1166666667,Census,City,MN,"Annandale, Minnesota",0,0,0,0,0,0,0,0,0,0,211,481,624,644,663.0,755,899,984.0,1234.0,1568,2054,2684.0,3228.0
12365,10463,US,119587,46.5041666667,-92.6905555556,Census,City,MN,"Barnum, Minnesota",0,0,0,0,0,0,0,0,0,49,417,391,262,242,271.0,327,344,417.0,382.0,464,482,525.0,613.0
12368,16199,US,120744,43.6527777778,-94.7263888889,Census,City,MN,"Sherburn, Minnesota",0,0,0,0,0,0,0,0,0,131,316,891,814,832,860.0,1030,1221,1227.0,1190.0,1275,1105,1082.0,1137.0
12426,8665,US,119500,45.6833333333,-93.8666666667,Census,Census-designated place (CDP) and Unincorporated community,MN,"Ronneby, Minnesota",0,0,0,0,0,0,0,0,0,0,0,156,132,76,75.0,107,72,84.0,59.0,56,58,16.0,67.0
12466,26724,US,121457,45.0333333333,-93.2,Census,City,MN,"New Brighton, Minnesota",0,0,0,0,0,0,0,0,0,0,355,350,375,368,500.0,658,2218,6448.0,19507.0,23269,22207,22206.0,21456.0
12503,9481,US,120739,43.7344444444,-94.4372222222,Census,City,MN,"Northrop, Minnesota",0,0,0,0,0,0,0,0,0,0,0,0,0,0,0.0,134,157,189.0,188.0,269,276,262.0,227.0
12518,11425,US,121538,44.5263888889,-94.72,Census,City,MN,"Fairfax, Minnesota",0,0,0,0,0,0,0,0,0,0,351,642,815,1066,916.0,1116,1143,1489.0,1432.0,1405,1276,1295.0,1235.0
12617,9718,US,120448,45.2338888889,-94.9388888889,Census,City,MN,"Spicer, Minnesota",0,0,0,0,0,0,0,0,0,0,0,0,228,299,290.0,480,566,589.0,586.0,909,1020,1129.0,1167.0
12638,9218,US,122050,44.9219444444,-92.77,Census,City,MN,"Lake St. Croix Beach, Minnesota",0,0,0,0,0,0,0,0,0,0,0,0,0,0,0.0,0,0,716.0,1111.0,1176,1078,1140.0,1051.0
12645,4658,US,7074291,44.9122222222,-93.2833333333,Census,Neighborhood,MN,"Tangletown, Minneapolis",0,0,0,0,0,0,0,0,0,0,0,0,0,0,0.0,0,0,0.0,0.0,4783,4464,4263.0,4351.0
12665,14356,US,94948,,,Census,US County,MN,"McLeod County, Minnesota",0,0,0,0,0,0,0,1286,5643,12342,17026,19595,18691,20444,20522.0,21380,22198,24401.0,27662.0,29657,32030,34898.0,36651.0
12743,11875,US,121326,44.1761111111,-96.1033333333,Census,City,MN,"Ruthton, Minnesota",0,0,0,0,0,0,0,0,0,0,0,323,290,403,387.0,480,534,476.0,405.0,328,328,284.0,241.0
12770,10251,US,121271,46.3636111111,-92.9469444444,Census,City,MN,"Denham, Minnesota",0,0,0,0,0,0,0,0,0,0,0,0,0,0,0.0,90,96,71.0,56.0,48,36,40.0,35.0
12832,16337,US,119899,44.8375,-93.0516666667,Census,City,MN,"Inver Grove Heights, Minnesota",0,0,0,0,0,0,0,0,0,0,0,0,0,0,0.0,0,0,0.0,12148.0,17171,22477,29751.0,33880.0
12857,19624,US,120166,45.1888888889,-93.3975,Census,City,MN,"Champlin, Minnesota",0,0,0,0,0,0,0,0,0,240,325,0,0,0,0.0,0,828,1271.0,2275.0,9006,16849,22193.0,23089.0
12930,12321,US,150609,44.2027777778,-92.6438888889,Census,City,MN,"Pine Island, Minnesota",0,0,0,0,0,0,0,0,0,656,548,832,834,934,961.0,1040,1298,1308.0,1640.0,1977,2125,2337.0,3263.0
12934,14630,US,121956,45.5947222222,-96.8316666667,Census,City,MN,"Browns Valley, Minnesota",0,0,0,0,0,0,0,0,0,64,498,721,1058,1073,981.0,1075,1117,1033.0,906.0,887,804,690.0,589.0
12936,15797,US,94939,45.9666666667,-94.3666666667,Census,US County,MN,"Morrison County, Minnesota",0,0,0,0,0,0,0,618,1681,5875,13325,22891,24053,25841,25442.0,27473,25832,26641.0,26949.0,29311,29604,31712.0,33198.0
13057,11011,US,121830,45.6744444444,-94.8138888889,Census,City,MN,"Melrose, Minnesota",0,0,0,0,0,0,0,0,0,0,780,1768,2591,2529,1801.0,2015,2106,2135.0,2273.0,2409,2561,3091.0,3598.0
13074,9632,US,122074,44.0702777778,-94.5702777778,Census,City,MN,"La Salle, Minnesota",0,0,0,0,0,0,0,0,0,0,0,0,0,0,121.0,139,144,147.0,132.0,115,98,90.0,87.0
13075,10288,US,120024,43.5219444444,-91.7694444444,Census,City,MN,"Mabel, Minnesota",0,0,0,0,0,0,0,0,0,0,273,494,549,550,686.0,741,788,815.0,888.0,861,745,766.0,780.0
13119,13115,US,119391,46.7283333333,-95.7011111111,Census,City,MN,"Frazee, Minnesota",0,0,0,0,0,0,0,0,0,97,0,1000,1645,1277,1041.0,1167,1021,1083.0,1015.0,1284,1176,1377.0,1350.0
13129,9256,US,121296,45.7580555556,-92.9294444444,Census,City,MN,"Rock Creek, Minnesota",0,0,0,0,0,0,0,0,0,0,0,0,0,0,0.0,0,0,0.0,0.0,890,1040,1119.0,1628.0
13135,10736,US,121006,47.3716666667,-96.2661111111,Census,City,MN,"Gary, Minnesota",0,0,0,0,0,0,0,0,0,0,0,0,251,333,308.0,300,278,262.0,265.0,241,200,215.0,214.0
13147,9865,US,121262,45.9494444444,-93.0747222222,Census,City,MN,"Brook Park, Minnesota",0,0,0,0,0,0,0,0,0,0,0,0,0,167,159.0,160,148,108.0,113.0,93,125,156.0,139.0
13194,3977,US,6793688,,,Census,Community,MN,"University, Minneapolis",0,0,0,0,0,0,0,0,0,0,0,0,0,0,0.0,0,0,0.0,0.0,29818,30464,33440.0,38785.0
13260,13866,US,94936,44.02,-95.76,Census,US County,MN,"Murray County, Minnesota",0,0,0,0,0,0,0,29,209,3604,6692,11911,11755,13631,13902.0,15060,14801,14743.0,12508.0,11507,9660,9165.0,8725.0
13292,11122,US,119684,47.0558333333,-93.9138888889,Census,City,MN,"Remer, Minnesota",0,0,0,0,0,0,0,0,0,0,0,0,0,290,263.0,407,412,492.0,403.0,396,342,372.0,370.0
13295,10881,US,121454,44.9944444444,-93.2016666667,Census,City,MN,"Lauderdale, Minnesota",0,0,0,0,0,0,0,0,0,0,0,0,0,0,0.0,0,1033,1676.0,2530.0,1985,2700,2364.0,2379.0
13312,10888,US,119857,46.2958333333,-93.8244444444,Census,City,MN,"Garrison, Minnesota",0,0,0,0,0,0,0,0,0,0,0,0,0,0,0.0,211,150,118.0,125.0,174,138,213.0,210.0
13326,29000,US,124502,47.0252777778,-91.6738888889,Census,City,MN,"Two Harbors, Minnesota",0,0,0,0,0,0,0,0,0,0,1224,3278,4990,4546,4425.0,4046,4400,4695.0,4437.0,4039,3651,3613.0,3745.0
13338,11056,US,121496,44.4180555556,-95.5533333333,Census,City,MN,"Milroy, Minnesota",0,0,0,0,0,0,0,0,0,0,0,0,137,177,157.0,261,268,268.0,247.0,242,297,271.0,251.0
13339,10294,US,121853,45.5502777778,-94.2241666667,Census,City,MN,"Waite Park, Minnesota",0,0,0,0,0,0,0,0,0,0,0,317,406,953,1318.0,1427,1639,2016.0,2824.0,3496,5020,6568.0,6715.0
13342,11588,US,121586,43.5263888889,-96.3583333333,Census,City,MN,"Hills, Minnesota",0,0,0,0,0,0,0,0,0,0,0,0,398,418,407.0,450,520,516.0,571.0,598,607,565.0,686.0
13406,10744,US,121301,46.2583333333,-92.8638888889,Census,City,MN,"Rutledge, Minnesota",0,0,0,0,0,0,0,0,0,0,0,363,89,90,95.0,161,163,146.0,123.0,185,152,196.0,229.0
13426,9122,US,119508,45.5591666667,-96.56,Census,City,MN,"Barry, Minnesota",0,0,0,0,0,0,0,0,0,0,0,0,105,107,74.0,116,74,60.0,52.0,43,40,25.0,16.0
13451,4079,US,9132384,,,Census,Neighborhood,MN,"Willard-Hay, Minneapolis",0,0,0,0,0,0,0,0,0,0,0,0,0,0,0.0,0,0,0.0,0.0,8678,8409,9277.0,8611.0
13457,12019,US,94916,47.88,-96.1,Census,US County,MN,"Red Lake County, Minnesota",0,0,0,0,0,0,0,0,0,0,0,12195,6564,7263,6887.0,7413,6806,5830.0,5388.0,5471,4525,4299.0,4089.0
13504,12194,US,120940,43.9883333333,-95.7558333333,Census,City,MN,"Slayton, Minnesota",0,0,0,0,0,0,0,0,0,0,380,883,850,1045,1102.0,1587,1887,2487.0,2351.0,2420,2147,2072.0,2153.0
13506,9166,US,122186,44.7513888889,-95.7152777778,Census,City,MN,"Hazel Run, Minnesota",0,0,0,0,0,0,0,0,0,0,0,0,121,145,143.0,126,129,115.0,115.0,93,81,64.0,63.0
13529,11002,US,120040,43.7074611111,-92.2682611111,Census,City,MN,"Wykoff, Minnesota",0,0,0,0,0,0,0,0,0,272,335,495,456,482,426.0,521,509,391.0,450.0,482,493,460.0,444.0
13559,4199,US,7066581,,,Census,Neighborhood,MN,"Cleveland, Minneapolis",0,0,0,0,0,0,0,0,0,0,0,0,0,0,0.0,0,0,0.0,0.0,3220,3216,3440.0,3025.0
13566,9799,US,121415,47.5358333333,-95.9872222222,Census,City,MN,"Winger, Minnesota",0,0,0,0,0,0,0,0,0,0,0,0,0,0,258.0,301,283,292.0,228.0,200,165,205.0,220.0
13634,11985,US,121816,45.6666666667,-94.6833333333,Census,City,MN,"Freeport, Minnesota",0,0,0,0,0,0,0,0,0,0,0,313,450,525,456.0,548,558,615.0,593.0,563,556,454.0,632.0
13765,8925,US,120523,45.0677777778,-96.4413888889,Census,City,MN,"Nassau, Minnesota",0,0,0,0,0,0,0,0,0,0,0,134,213,168,170.0,208,205,182.0,126.0,115,83,83.0,72.0
13804,18193,US,120572,44.4402777778,-93.5805555556,Census,City,MN,"Montgomery, Minnesota",0,0,0,0,0,0,0,0,0,261,1086,979,1267,1297,1570.0,1741,1913,2118.0,2281.0,2349,2399,2794.0,2956.0
13826,4379,US,1975462,,,Census,Neighborhood,MN,"Webber-Camden, Minneapolis",0,0,0,0,0,0,0,0,0,0,0,0,0,0,0.0,0,0,0.0,0.0,5179,4948,5676.0,5097.0
13838,23703,US,119359,45.1977777778,-93.3872222222,Census,City,MN,"Anoka, Minnesota",0,0,0,0,0,0,0,0,0,2766,4252,3769,3972,4287,4851.0,6426,7396,10562.0,13298.0,15634,17192,18076.0,17142.0
13913,11860,US,120306,47.7469444444,-93.655,Census,City,MN,"Bigfork, Minnesota",0,0,0,0,0,0,0,0,0,0,0,0,167,160,295.0,382,463,464.0,399.0,457,384,469.0,446.0
13977,5034,US,2723743,,,Census,Community,MN,"Calhoun Isles, Minneapolis",0,0,0,0,0,0,0,0,0,0,0,0,0,0,0.0,0,0,0.0,0.0,30779,30322,30430.0,29913.0
14007,10494,US,122169,45.2716666667,-93.5988888889,Census,City,MN,"Otsego, Minnesota",0,0,0,0,0,0,0,0,0,62,0,0,0,0,0.0,0,0,0.0,0.0,0,0,6389.0,13571.0
14014,4347,US,47863309,,,Census,Community,MN,"Powderhorn, Minneapolis",0,0,0,0,0,0,0,0,0,0,0,0,0,0,0.0,0,0,0.0,0.0,51519,51954,57299.0,54743.0
14039,12813,US,124646,43.9697222222,-92.0641666667,Census,City,MN,"St. Charles, Minnesota",0,0,0,0,0,0,0,0,1151,1155,1178,1304,1159,1351,1311.0,1507,1548,1882.0,1942.0,2184,2642,3295.0,3735.0
14040,11478,US,121976,44.1308333333,-92.2541666667,Census,City,MN,"Elgin, Minnesota",0,0,0,0,0,0,0,0,0,144,0,344,324,501,466.0,468,438,521.0,580.0,667,733,826.0,1089.0
14051,1074,US,11471021,47.4291666667,-92.9852777778,Census,Unknown,MN,"Leetonia, Hibbing, Minnesota",0,0,0,0,0,0,0,0,0,0,0,0,0,0,0.0,396,0,0.0,0.0,0,0,0.0,0.0
14055,9679,US,120876,45.915,-94.64,Census,City,MN,"Swanville, Minnesota",0,0,0,0,0,0,0,0,0,0,0,244,397,400,435.0,417,373,342.0,300.0,295,324,351.0,350.0
14057,10636,US,121928,46.1641666667,-95.0372222222,Census,City,MN,"Eagle Bend, Minnesota",0,0,0,0,0,0,0,0,0,0,306,547,551,600,575.0,682,691,611.0,557.0,593,524,595.0,535.0
14112,14823,US,120251,47.0016666667,-94.7280555556,Census,City,MN,"Akeley, Minnesota",0,0,0,0,0,0,0,0,0,0,0,0,0,855,514.0,566,525,434.0,468.0,486,393,412.0,432.0
14118,32696,US,119428,47.4736111111,-94.8802777778,Census,City,MN,"Bemidji, Minnesota",0,0,0,0,0,0,0,0,0,0,0,2183,5099,7086,7202.0,9427,10001,9958.0,11490.0,10949,11245,11917.0,13431.0
14120,11554,US,121048,44.1613888889,-92.5413888889,Census,City,MN,"Oronoco, Minnesota",0,0,0,0,0,0,0,0,0,241,0,0,0,0,0.0,0,0,0.0,564.0,574,727,883.0,1300.0
14121,7620,US,2578528,,,Census,Neighborhood,MN,"Cooper, Minneapolis",0,0,0,0,0,0,0,0,0,0,0,0,0,0,0.0,0,0,0.0,0.0,3938,3708,3448.0,3503.0
14134,10016,US,122058,44.8711111111,-93.0019444444,Census,City,MN,"Newport, Minnesota",0,0,0,0,0,0,0,0,0,0,0,307,370,453,541.0,872,1672,2349.0,2922.0,3323,3720,3715.0,3435.0
14136,4184,US,3653584,,,Census,Neighborhood,MN,"Hale, Minneapolis",0,0,0,0,0,0,0,0,0,0,0,0,0,0,0.0,0,0,0.0,0.0,3266,3227,3196.0,3176.0
14152,15284,US,94974,44.41,-92.72,Census,US County,MN,"Goodhue County, Minnesota",0,0,0,0,0,0,0,8977,22018,29651,28806,31137,31637,30799,31317.0,31564,32118,33035.0,34804.0,38749,40690,44127.0,46183.0
14207,9577,US,119513,45.2316666667,-96.1613888889,Census,City,MN,"Correll, Minnesota",0,0,0,0,0,0,0,0,0,0,0,0,102,176,143.0,151,130,101.0,95.0,83,60,47.0,34.0
14243,10765,US,119725,45.5936111111,-92.9802777778,Census,City,MN,"Harris, Minnesota",0,0,0,0,0,0,0,0,0,0,504,710,673,672,584.0,609,569,552.0,559.0,678,843,1121.0,1132.0
14248,9468,US,119747,47.0772222222,-96.5044444444,Census,City,MN,"Felton, Minnesota",0,0,0,0,0,0,0,0,0,0,0,0,149,184,137.0,200,258,201.0,232.0,264,211,216.0,177.0
14261,10095,US,120418,44.9430555556,-95.0241666667,Census,City,MN,"Blomkest, Minnesota",0,0,0,0,0,0,0,0,0,0,0,0,0,0,0.0,0,0,171.0,172.0,200,183,186.0,157.0
14266,26220,US,119842,46.3580555556,-94.2008333333,Census,City,MN,"Brainerd, Minnesota",0,0,0,0,0,0,0,0,0,1865,5703,7524,8526,9591,10221.0,12071,12087,12898.0,11667.0,11489,12353,13178.0,13590.0
14280,10473,US,121518,44.4016666667,-95.2538888889,Census,City,MN,"Wabasso, Minnesota",0,0,0,0,0,0,0,0,0,0,0,178,343,459,482.0,604,693,789.0,738.0,745,684,643.0,696.0
14296,12229,US,94934,44.34,-94.25,Census,US County,MN,"Nicollet County, Minnesota",0,0,0,0,0,0,0,3778,8362,12333,13382,14774,14125,15036,16550.0,18282,20929,23196.0,24518.0,26929,28076,29771.0,32727.0
14315,9495,US,121003,47.1805555556,-96.505,Census,City,MN,"Borup, Minnesota",0,0,0,0,0,0,0,0,0,0,0,0,0,0,0.0,0,0,145.0,128.0,160,119,91.0,110.0
14339,21002,US,119839,43.8683333333,-95.1186111111,Census,City,MN,"Windom, Minnesota",0,0,0,0,0,0,0,0,0,443,835,1944,1749,2123,2123.0,2807,3165,3691.0,3952.0,4666,4283,4490.0,4646.0
14401,10005,US,12923892,,,Census,Neighborhood,MN,"King Field, Minneapolis",0,0,0,0,0,0,0,0,0,0,0,0,0,0,0.0,0,0,0.0,0.0,8443,7884,7816.0,7473.0
14458,10008,US,119949,45.7905555556,-95.3533333333,Census,City,MN,"Forada, Minnesota",0,0,0,0,0,0,0,0,0,0,0,0,66,92,91.0,96,89,98.0,158.0,191,171,197.0,185.0
14496,10813,US,121689,44.6780555556,-94.0080555556,Census,City,MN,"Green Isle, Minnesota",0,0,0,0,0,0,0,0,0,0,219,275,256,262,300.0,376,332,331.0,363.0,357,239,334.0,559.0
14512,13432,US,120984,43.7483333333,-95.9486111111,Census,City,MN,"Lismore, Minnesota",0,0,0,0,0,0,0,0,0,0,0,0,268,350,325.0,311,317,306.0,323.0,276,248,238.0,227.0
14528,13051,US,120217,44.9711111111,-93.6038888889,Census,City,MN,"Orono, Minnesota",0,0,0,0,0,0,0,0,0,0,0,0,0,0,0.0,0,0,5643.0,6787.0,6845,7285,7538.0,7437.0
14529,10283,US,119710,44.9063888889,-95.4686111111,Census,City,MN,"Maynard, Minnesota",0,0,0,0,0,0,0,0,0,0,0,245,386,536,504.0,580,507,429.0,455.0,428,419,388.0,366.0
14545,3965,US,7075178,,,Census,neighborhood,MN,"Page, Minneapolis",0,0,0,0,0,0,0,0,0,0,0,0,0,0,0.0,0,0,0.0,0.0,1816,1742,1682.0,1730.0
14559,4698,US,1155389,,,Census,Neighborhood,MN,"Victory, Minneapolis",0,0,0,0,0,0,0,0,0,0,0,0,0,0,0.0,0,0,0.0,0.0,4815,4750,4975.0,4580.0
14566,8118,US,730715,,,Census,Neighborhood,MN,"Seward, Minneapolis",0,0,0,0,0,0,0,0,0,0,0,0,0,0,0.0,0,0,0.0,0.0,6791,7020,7174.0,7308.0
14571,10773,US,122059,45.035,-92.8105555556,Census,City,MN,"Oak Park Heights, Minnesota",0,0,0,0,0,0,0,0,0,0,0,0,0,0,0.0,0,0,332.0,1238.0,2591,3486,3957.0,4339.0
14626,9757,US,120828,45.6980555556,-93.6483333333,Census,City,MN,"Pease, Minnesota",0,0,0,0,0,0,0,0,0,0,0,0,0,0,133.0,126,179,191.0,187.0,174,178,163.0,242.0
14637,5298,US,7048930,,,Census,Neighborhood,MN,"Downtown West, Minneapolis",0,0,0,0,0,0,0,0,0,0,0,0,0,0,0.0,0,0,0.0,0.0,3522,3789,4581.0,5781.0
14645,10523,US,122161,45.23,-94.0011111111,Census,City,MN,"Maple Lake, Minnesota",0,0,0,0,0,0,0,0,0,0,0,470,522,677,660.0,637,780,1018.0,1124.0,1132,1394,1633.0,2059.0
14688,10556,US,120275,46.9641666667,-94.8444444444,Census,City,MN,"Nevis, Minnesota",0,0,0,0,0,0,0,0,0,0,0,0,238,412,275.0,358,332,344.0,308.0,332,375,364.0,390.0
14689,8978,US,122198,44.7163888889,-96.0536111111,Census,City,MN,"St. Leo, Minnesota",0,0,0,0,0,0,0,0,0,0,0,0,0,0,0.0,0,128,129.0,153.0,147,111,106.0,100.0
14739,10061,US,121322,43.9088888889,-96.3691666667,Census,City,MN,"Ihlen, Minnesota",0,0,0,0,0,0,0,0,0,0,0,0,0,211,203.0,174,135,111.0,132.0,129,101,107.0,63.0
14745,9945,US,120838,45.8166666667,-94.4,Census,City,MN,"Bowlus, Minnesota",0,0,0,0,0,0,0,0,0,0,0,0,164,247,266.0,304,233,263.0,268.0,276,260,260.0,290.0
14756,9203,US,121183,46.4219444444,-95.5661111111,Census,City,MN,"Ottertail, Minnesota",0,0,0,0,0,0,0,0,0,0,0,0,176,223,221.0,254,237,164.0,180.0,239,313,451.0,572.0
14766,12081,US,121040,43.9872222222,-92.2316666667,Census,City,MN,"Eyota, Minnesota",0,0,0,0,0,0,0,0,0,404,377,424,423,403,404.0,438,495,558.0,639.0,1244,1448,1644.0,1977.0
14804,10460,US,120748,43.7613888889,-94.7136111111,Census,City,MN,"Trimont, Minnesota",0,0,0,0,0,0,0,0,0,0,0,0,0,0,0.0,791,876,942.0,835.0,805,745,754.0,747.0
14844,25881,US,94888,45.04,-92.89,Census,US County,MN,"Washington County, Minnesota",0,0,0,0,0,0,1056,6123,11809,19563,25992,27808,26013,23761,24753.0,26430,34544,52432.0,83003.0,113571,145896,201130.0,238136.0
14853,10361,US,119335,46.6083333333,-93.3061111111,Census,City,MN,"McGregor, Minnesota",0,0,0,0,0,0,0,0,0,0,0,0,126,195,216.0,311,322,283.0,331.0,447,376,404.0,391.0
14866,11937,US,119591,46.6638888889,-92.425,Census,City,MN,"Carlton, Minnesota",0,0,0,0,0,0,0,0,0,0,612,449,597,700,687.0,700,652,862.0,884.0,862,923,810.0,862.0
14876,4211,US,3129333,,,Census,Neighborhood,MN,"Howe, Minneapolis",0,0,0,0,0,0,0,0,0,0,0,0,0,0,0.0,0,0,0.0,0.0,7241,7108,6878.0,6608.0
14887,11362,US,121787,46.8791666667,-92.12,Census,City,MN,"Rice Lake, Minnesota",0,0,0,0,0,0,0,0,0,0,0,0,0,0,0.0,0,0,0.0,0.0,0,0,0.0,0.0
14891,18844,US,119309,46.5319444444,-93.7075,Census,City,MN,"Aitkin, Minnesota",0,0,0,0,0,0,0,0,0,136,737,1719,1638,1490,1545.0,2063,2079,1829.0,1553.0,1770,1698,1984.0,2165.0
15021,11274,US,121456,44.9927777778,-93.0238888889,Census,City,MN,"Maplewood, Minnesota",0,0,0,0,0,0,0,0,0,0,0,0,0,0,0.0,0,0,18519.0,25186.0,26990,30954,34947.0,38018.0
15062,10913,US,120880,43.5669444444,-92.7186111111,Census,City,MN,"Adams, Minnesota",0,0,0,0,0,0,0,0,0,96,216,573,576,609,574.0,674,663,806.0,771.0,797,756,800.0,787.0
15081,13005,US,120229,43.6330555556,-91.4963888889,Census,City,MN,"Caledonia, Minnesota",0,0,0,0,0,0,0,0,470,894,927,1175,1372,1570,1554.0,1985,2243,2563.0,2619.0,2691,2846,2965.0,2868.0
15089,4176,US,7074709,,,Census,Neighborhood,MN,"Kenny, Minneapolis",0,0,0,0,0,0,0,0,0,0,0,0,0,0,0.0,0,0,0.0,0.0,4081,3708,3493.0,3523.0
15106,23494,US,2152716,44.9666666667,-93.2433333333,Census,Neighborhood,MN,"Cedar-Riverside, Minneapolis",0,0,0,0,0,0,0,0,0,0,0,0,0,0,0.0,0,0,0.0,0.0,6728,6368,7545.0,8094.0
15108,13714,US,94971,43.67,-91.49,Census,US County,MN,"Houston County, Minnesota",0,0,0,0,0,0,0,6645,14936,16332,14653,15400,14297,14013,13845.0,14735,14435,16588.0,17556.0,18382,18497,19718.0,19027.0
15183,4560,US,10822636,46.9494444444,-91.7791666667,Census,Unincorporated community,MN,"Knife River, Minnesota",0,0,0,0,0,0,0,0,0,0,0,0,491,0,0.0,0,0,0.0,0.0,0,0,0.0,0.0
15191,6638,US,7066939,,,Census,Neighborhood,MN,"Columbia Park, Minneapolis",0,0,0,0,0,0,0,0,0,0,0,0,0,0,0.0,0,0,0.0,0.0,1770,1674,1834.0,1563.0
15205,10793,US,120313,47.2519444444,-93.6236111111,Census,City,MN,"Cohasset, Minnesota",0,0,0,0,0,0,0,0,0,0,0,0,521,420,299.0,389,484,605.0,536.0,0,0,2481.0,2698.0
15223,27544,US,150600,44.7333333333,-92.85,Census,City,MN,"Hastings, Minnesota",0,0,0,0,0,0,0,1642,3458,3809,3705,3811,3983,4571,5086.0,5662,6560,8965.0,12195.0,12827,15445,18204.0,22172.0
15224,13388,US,120204,44.9847222222,-93.5708333333,Census,City,MN,"Long Lake, Minnesota",0,0,0,0,0,0,0,0,0,150,0,0,161,148,207.0,260,399,996.0,1506.0,1747,1984,1842.0,1768.0
15230,10099,US,121818,45.6,-94.8666666667,Census,City,MN,"Greenwald, Minnesota",0,0,0,0,0,0,0,0,0,0,0,0,0,153,237.0,233,207,266.0,244.0,259,209,201.0,222.0
15237,12844,US,121464,45.0586111111,-93.0777777778,Census,City,MN,"Vadnais Heights, Minnesota",0,0,0,0,0,0,0,0,0,0,0,0,0,0,0.0,0,0,2459.0,3411.0,5111,11041,13069.0,12302.0
15240,9297,US,122052,44.9491666667,-92.7633333333,Census,City,MN,"Lakeland Shores, Minnesota",0,0,0,0,0,0,0,0,0,0,0,0,0,0,0.0,0,43,52.0,72.0,171,291,355.0,311.0
15296,9809,US,120581,44.3833333333,-96.1833333333,Census,City,MN,"Arco, Minnesota",0,0,0,0,0,0,0,0,0,0,0,0,97,231,185.0,243,178,140.0,121.0,96,104,100.0,75.0
15301,10725,US,120757,44.7316666667,-94.3505555556,Census,City,MN,"Brownton, Minnesota",0,0,0,0,0,0,0,0,0,75,384,454,509,540,632.0,723,696,698.0,688.0,697,781,807.0,762.0
15335,12847,US,119363,45.145,-93.1513888889,Census,City,MN,"Circle Pines, Minnesota",0,0,0,0,0,0,0,0,0,0,0,0,0,0,0.0,0,0,2789.0,3902.0,3321,4704,4663.0,4918.0
15354,5106,US,47863311,,,Census,Neighborhood,MN,"Corcoran, Minneapolis",0,0,0,0,0,0,0,0,0,0,0,0,0,0,0.0,0,0,0.0,0.0,3760,3635,4228.0,3942.0
15404,9991,US,120363,47.3202777778,-93.7955555556,Census,City,MN,"Zemple, Minnesota",0,0,0,0,0,0,0,0,0,0,0,0,0,284,164.0,165,87,82.0,71.0,62,63,75.0,93.0
15405,8088,US,119423,46.8027777778,-95.3522222222,Census,City,MN,"Wolf Lake, Minnesota",0,0,0,0,0,0,0,0,0,0,0,0,0,0,0.0,0,109,83.0,58.0,67,35,31.0,57.0
15406,5200,US,7052996,,,Census,Neighborhood,MN,"Kenwood, Minneapolis",0,0,0,0,0,0,0,0,0,0,0,0,0,0,0.0,0,0,0.0,0.0,1963,1817,1501.0,1414.0
15433,11165,US,94970,47.1,-94.91,Census,US County,MN,"Hubbard County, Minnesota",0,0,0,0,0,0,0,0,0,0,1412,6578,9831,10136,9596.0,11085,11085,9962.0,10583.0,14098,14939,18376.0,20428.0
15508,25280,US,121461,45.0855555556,-93.1352777778,Census,City,MN,"Shoreview, Minnesota",0,0,0,0,0,0,0,0,0,0,0,0,0,0,0.0,0,0,7157.0,10978.0,17300,24587,25377.0,25043.0
15517,18587,US,94933,43.67,-95.76,Census,US County,MN,"Nobles County, Minnesota",0,0,0,0,0,0,0,35,117,4435,7958,14932,15210,17917,18618.0,21215,22435,23365.0,23208.0,21840,20098,20832.0,21378.0
15539,16638,US,94968,45.56,-93.29,Census,US County,MN,"Isanti County, Minnesota",0,0,0,0,0,0,0,284,2035,5063,7607,11675,12615,13278,12081.0,12950,12123,13530.0,16560.0,23600,25921,31287.0,37816.0
15563,139552,US,63503,46.7869388889,-92.0981944444,Census,City,MN,"Duluth, Minnesota",0,0,0,0,0,0,0,71,3129,3483,33115,52969,78466,98917,101453.0,101065,104511,107312.0,100578.0,92811,85493,86918.0,86265.0
15659,14655,US,121759,47.5144444444,-92.7316666667,Census,City,MN,"Kinney, Minnesota",0,0,0,0,0,0,0,0,0,0,0,0,0,1200,737.0,462,336,240.0,325.0,447,257,199.0,169.0
15671,8700,US,121371,47.7672222222,-95.6252777778,Census,City,MN,"Gully, Minnesota",0,0,0,0,0,0,0,0,0,0,0,0,0,0,138.0,164,183,168.0,96.0,116,117,106.0,66.0
15693,12184,US,120408,45.8738888889,-93.2938888889,Census,City,MN,"Mora, Minnesota",0,0,0,0,0,0,0,0,0,0,0,785,892,1006,1014.0,1494,2018,2329.0,2582.0,2890,2905,3139.0,3571.0
15748,14372,US,121572,44.3411111111,-93.0663888889,Census,City,MN,"Nerstrand, Minnesota",0,0,0,0,0,0,0,0,0,0,0,256,292,245,283.0,251,228,584.0,231.0,255,210,233.0,295.0
15756,11676,US,94988,45.03,-95.56,Census,US County,MN,"Chippewa County, Minnesota",0,0,0,0,0,0,0,0,1467,5408,8555,12499,13458,15720,15762.0,16927,16739,16320.0,15109.0,14941,13228,13088.0,12441.0
15772,12881,US,119874,46.6038888889,-94.3158333333,Census,City,MN,"Pequot Lakes, Minnesota",0,0,0,0,0,0,0,0,0,0,0,0,260,419,488.0,514,552,461.0,499.0,681,843,947.0,2162.0
15775,25750,US,94972,,,Census,US County,MN,"Hennepin County, Minnesota",0,0,0,0,0,0,0,12849,31566,67013,185294,228340,333480,415419,517785.0,568899,676579,842854.0,960080.0,941411,1032431,1116200.0,1152425.0
15813,15525,US,122172,45.2,-93.6666666667,Census,City,MN,"St. Michael, Minnesota",0,0,0,0,0,0,0,0,0,0,0,305,401,406,385.0,389,487,707.0,1023.0,1519,5411,9099.0,16399.0
15822,5500,US,7056374,,,Census,Neighborhood,MN,"Midtown Phillips, Minneapolis",0,0,0,0,0,0,0,0,0,0,0,0,0,0,0.0,0,0,0.0,0.0,0,0,4118.0,4782.0
15848,17227,US,150639,46.4394444444,-95.1372222222,Census,City,MN,"Wadena, Minnesota",0,0,0,0,0,0,0,0,0,307,895,1520,1820,2186,2512.0,2916,3958,4381.0,4640.0,4699,4131,4294.0,4088.0
15889,8894,US,121336,47.5405555556,-96.53,Census,City,MN,"Beltrami, Minnesota",0,0,0,0,0,0,0,0,0,0,0,0,149,219,226.0,213,199,186.0,171.0,134,133,101.0,107.0
15891,16979,US,120287,45.5644444444,-93.2283333333,Census,City,MN,"Cambridge, Minnesota",0,0,0,0,0,0,0,0,0,136,258,737,900,1080,1183.0,1592,1790,2728.0,2720.0,3287,5094,5520.0,8111.0
15892,9850,US,150682,44.1927777778,-91.8691666667,Census,City,MN,"Minneiska, Minnesota",0,0,0,0,0,0,0,0,217,0,325,372,395,208,192.0,187,134,110.0,80.0,132,127,116.0,111.0
15901,11678,US,122053,44.9511111111,-92.9769444444,Census,City,MN,"Landfall, Minnesota",0,0,0,0,0,0,0,0,0,0,0,0,0,0,0.0,0,0,437.0,671.0,679,685,700.0,686.0
15935,13889,US,120215,,,Census,City,MN,"Mound, Minnesota",0,0,0,0,0,0,0,0,0,0,0,0,0,393,668.0,1189,2061,5440.0,7572.0,9280,9634,9435.0,9052.0
15948,10461,US,120783,44.9372222222,-94.6975,Census,City,MN,"Cosmos, Minnesota",0,0,0,0,0,0,0,0,0,0,0,0,0,0,230.0,357,382,487.0,570.0,571,610,582.0,473.0
15971,10389,US,120470,48.9213888889,-97.0947222222,Census,City,MN,"Humboldt, Minnesota",0,0,0,0,0,0,0,0,0,0,0,0,0,198,139.0,139,143,169.0,112.0,111,74,61.0,45.0
16032,22549,US,119809,47.7538888889,-90.3352777778,Census,City,MN,"Grand Marais, Minnesota",0,0,0,0,0,0,0,0,0,0,0,0,355,443,618.0,855,1078,1301.0,1301.0,1289,1171,1353.0,1351.0
16069,11017,US,122026,44.1177777778,-93.7080555556,Census,City,MN,"Janesville, Minnesota",0,0,0,0,0,0,0,0,0,1021,921,1254,1173,1261,1184.0,1296,1287,1426.0,1557.0,1897,1969,2109.0,2256.0
16114,11082,US,120816,46.1405555556,-93.4666666667,Census,City,MN,"Isle, Minnesota",0,0,0,0,0,0,0,0,0,0,0,0,0,328,523.0,567,674,529.0,551.0,573,566,707.0,751.0
16161,10711,US,94925,48.07,-96.04,Census,US County,MN,"Pennington County, Minnesota",0,0,0,0,0,0,0,0,0,0,0,0,9376,12091,10487.0,12913,12965,12468.0,13266.0,15258,13306,13584.0,13930.0
16178,9828,US,119878,46.4619444444,-94.0472222222,Census,City,MN,"Riverton, Minnesota",0,0,0,0,0,0,0,0,0,0,0,0,0,398,168.0,141,148,121.0,103.0,112,122,115.0,117.0
16200,9370,US,124419,44.8847222222,-93.9663888889,Census,City,MN,"New Germany, Minnesota",0,0,0,0,0,0,0,0,0,0,0,0,210,230,209.0,247,286,274.0,303.0,347,353,346.0,372.0
16213,10093,US,121212,46.5066666667,-95.6263888889,Census,City,MN,"Richville, Minnesota",0,0,0,0,0,0,0,0,0,0,0,0,255,281,179.0,233,141,91.0,102.0,132,121,124.0,96.0
16235,9481,US,121813,45.5633333333,-94.9477777778,Census,City,MN,"Elrosa, Minnesota",0,0,0,0,0,0,0,0,0,0,0,0,0,0,0.0,187,173,205.0,203.0,214,205,166.0,211.0
16249,8912,US,122033,43.9336111111,-93.6969444444,Census,City,MN,"Waldorf, Minnesota",0,0,0,0,0,0,0,0,0,0,0,0,0,0,183.0,240,266,270.0,285.0,249,243,242.0,229.0
16258,12240,US,150602,43.8672222222,-93.0547222222,Census,City,MN,"Blooming Prairie, Minnesota",0,0,0,0,0,0,0,0,0,338,808,855,854,1012,1046.0,1205,1442,1778.0,1804.0,1969,2043,1933.0,1996.0
16273,6194,US,7067320,,,Census,Neighborhood,MN,"East Harriet, Minneapolis",0,0,0,0,0,0,0,0,0,0,0,0,0,0,0.0,0,0,0.0,0.0,3864,3954,3999.0,3604.0
16284,8225,US,121970,46.0102777778,-96.3216666667,Census,City,MN,"Tintah, Minnesota",0,0,0,0,0,0,0,0,0,0,0,220,217,249,192.0,200,235,228.0,167.0,119,74,79.0,63.0
16290,10709,US,119752,46.8736111111,-96.5797222222,Census,City,MN,"Glyndon, Minnesota",0,0,0,0,0,0,0,0,0,406,275,250,295,382,388.0,405,411,489.0,674.0,882,862,1049.0,1394.0
16292,14444,US,94959,48.77,-94.9,Census,US County,MN,"Lake of the Woods County, Minnesota",0,0,0,0,0,0,0,0,0,0,0,0,0,0,4194.0,5975,4955,4304.0,3987.0,3764,4076,4522.0,4045.0
16344,10759,US,150580,44.1700111111,-94.0137805556,Census,City,MN,"North Mankato, Minnesota",0,0,0,0,0,0,0,0,0,0,0,939,1279,1840,2822.0,3517,4788,5927.0,7347.0,9145,10164,11798.0,13394.0
16354,9203,US,121101,46.485,-96.0975,Census,City,MN,"Erhard, Minnesota",0,0,0,0,0,0,0,0,0,0,0,0,0,0,0.0,0,145,150.0,148.0,194,181,150.0,148.0
16421,3954,US,6791511,,,Census,Community,MN,"Near North, Minneapolis",0,0,0,0,0,0,0,0,0,0,0,0,0,0,0.0,0,0,0.0,0.0,33721,35225,35632.0,31192.0
16430,10882,US,122063,44.8394444444,-92.9916666667,Census,City,MN,"St. Paul Park, Minnesota",0,0,0,0,0,0,0,0,0,0,1173,0,832,900,982.0,1096,2438,3267.0,5587.0,4864,4965,5070.0,5279.0
16449,9853,US,120039,43.7316666667,-91.9277777778,Census,City,MN,"Whalan, Minnesota",0,0,0,0,0,0,0,0,0,134,98,134,121,142,155.0,190,176,146.0,114.0,119,94,64.0,63.0
16496,9365,US,121025,47.4580555556,-96.8191666667,Census,City,MN,"Shelly, Minnesota",0,0,0,0,0,0,0,0,0,0,0,0,195,289,308.0,344,329,310.0,260.0,276,225,266.0,191.0
16507,6221,US,119939,45.9019444444,-95.3458333333,Census,Township,MN,"Alexandria Township, Douglas County, Minnesota",0,0,0,0,0,0,0,0,0,0,0,0,0,0,0.0,0,0,0.0,0.0,0,4014,4760.0,0.0
16508,8238,US,136360,45.6888888889,-94.6116666667,Census,city,MN,"St. Anthony, Stearns County, Minnesota",0,0,0,0,0,0,0,0,0,0,0,0,0,161,62.0,90,66,72.0,66.0,78,81,90.0,86.0
16514,9916,US,121345,47.6088888889,-96.8155555556,Census,City,MN,"Climax, Minnesota",0,0,0,0,0,0,0,0,0,0,0,259,269,274,239.0,253,271,310.0,255.0,273,264,243.0,267.0
16542,11792,US,119903,44.8855555556,-93.1605555556,Census,City,MN,"Mendota, Minnesota",0,0,0,0,0,0,0,0,0,348,248,282,245,193,173.0,228,243,259.0,266.0,219,164,197.0,198.0
16559,9455,US,121503,44.2222222222,-95.3633333333,Census,City,MN,"Revere, Minnesota",0,0,0,0,0,0,0,0,0,0,0,0,134,134,146.0,197,198,201.0,166.0,158,117,100.0,95.0
16577,8696,US,2971920,,,Census,Neighborhood,MN,"Elliot Park, Minneapolis",0,0,0,0,0,0,0,0,0,0,0,0,0,0,0.0,0,0,0.0,0.0,5287,5678,6476.0,6693.0
16596,10807,US,122040,45.0594444444,-92.9752777778,Census,City,MN,"Birchwood Village, Minnesota",0,0,0,0,0,0,0,0,0,0,0,0,0,0,99.0,91,312,598.0,926.0,1059,1042,968.0,870.0
16600,10920,US,94943,45.12,-94.53,Census,US County,MN,"Meeker County, Minnesota",0,0,0,0,0,0,0,928,6090,11739,15456,17753,17022,18103,17914.0,19277,18966,18887.0,18387.0,20594,20846,22644.0,23300.0
16625,19107,US,119670,46.9852777778,-94.2141666667,Census,City,MN,"Longville, Minnesota",0,0,0,0,0,0,0,0,0,0,0,0,0,0,0.0,0,116,159.0,171.0,191,224,180.0,156.0
16636,13784,US,119582,44.2955555556,-94.7236111111,Census,City,MN,"Sleepy Eye, Minnesota",0,0,0,0,0,0,0,0,0,997,1513,2048,2247,2449,2576.0,2923,3278,3492.0,3461.0,3581,3694,3515.0,3599.0
16642,15522,US,94891,46.58,-94.96,Census,US County,MN,"Wadena County, Minnesota",0,0,0,0,0,0,0,0,6,2080,4058,7921,8652,10699,10990.0,12772,12806,12199.0,12412.0,14192,13154,13713.0,13843.0
16656,6136,US,7842450,,,Census,Neighborhood,MN,"Sumner-Glenwood, Minneapolis",0,0,0,0,0,0,0,0,0,0,0,0,0,0,0.0,0,0,0.0,0.0,2095,3336,144.0,1475.0
16669,9925,US,120066,43.725,-93.4508333333,Census,City,MN,"Manchester, Minnesota",0,0,0,0,0,0,0,0,0,0,0,0,0,0,0.0,0,113,131.0,89.0,96,69,81.0,57.0
16679,8862,US,121444,45.5772222222,-95.2472222222,Census,City,MN,"Sedan, Minnesota",0,0,0,0,0,0,0,0,0,0,0,153,127,147,125.0,126,134,91.0,55.0,62,63,65.0,45.0
16713,10700,US,120893,43.5105555556,-92.5047222222,Census,City,MN,"Le Roy, Minnesota",0,0,0,0,0,0,0,0,0,482,523,772,702,707,661.0,752,959,971.0,870.0,930,904,925.0,929.0
16738,25930,US,124547,43.6238888889,-95.5991666667,Census,City,MN,"Worthington, Minnesota",0,0,0,0,0,0,0,0,0,636,1164,2386,2385,3481,3878.0,5918,7923,9015.0,9916.0,10243,9977,11283.0,12764.0
16739,10045,US,121081,46.5544444444,-95.7183333333,Census,City,MN,"Dent, Minnesota",0,0,0,0,0,0,0,0,0,0,0,0,244,221,224.0,204,187,176.0,156.0,167,177,192.0,192.0
16802,10140,US,121516,44.5069444444,-95.4158333333,Census,City,MN,"Vesta, Minnesota",0,0,0,0,0,0,0,0,0,0,0,214,243,334,310.0,334,340,318.0,330.0,360,302,339.0,319.0
16821,10900,US,120862,45.9833333333,-94.1,Census,City,MN,"Pierz, Minnesota",0,0,0,0,0,0,0,0,0,0,0,358,545,624,634.0,714,856,816.0,893.0,1018,1014,1277.0,1393.0
16854,9343,US,119403,47.1038888889,-95.9266666667,Census,City,MN,"Ogema, Minnesota",0,0,0,0,0,0,0,0,0,0,0,0,171,238,253.0,328,249,224.0,236.0,215,164,143.0,184.0
16858,13618,US,120759,44.7705555556,-94.1511111111,Census,City,MN,"Glencoe, Minnesota",0,0,0,0,0,0,0,0,0,1078,1649,1780,1788,1747,1925.0,2387,2801,3216.0,4217.0,4396,4648,5453.0,5631.0
16886,13015,US,150610,45.2,-93.5,Census,City,MN,"Dayton, Minnesota",0,0,0,0,0,0,0,0,0,0,0,0,343,299,265.0,253,363,456.0,517.0,4070,4443,4699.0,4671.0
16894,27006,US,121111,46.2841666667,-96.1566666667,Census,City,MN,"Fergus Falls, Minnesota",0,0,0,0,0,0,0,0,0,1635,3772,6072,6887,7581,9389.0,10848,12917,13733.0,12443.0,12519,12362,13471.0,13138.0
16969,10432,US,119852,46.7725,-93.9786111111,Census,City,MN,"Emily, Minnesota",0,0,0,0,0,0,0,0,0,0,0,0,0,0,0.0,0,0,351.0,386.0,588,613,847.0,813.0
16975,6598,US,7050415,,,Census,Neighborhood,MN,"Marcy-Holmes, Minneapolis",0,0,0,0,0,0,0,0,0,0,0,0,0,0,0.0,0,0,0.0,0.0,8646,8810,9009.0,10015.0
17041,9806,US,124526,44.9430555556,-94.5211111111,Census,City,MN,"Cedar Mills, Minnesota",0,0,0,0,0,0,0,0,0,0,0,0,0,0,0.0,0,99,96.0,81.0,73,80,53.0,45.0
17148,3259,US,42662469,44.4647222222,-93.4836111111,Census,Unincorporated community,MN,"Wheatland, Minnesota",0,0,0,0,0,0,0,0,0,0,0,135,85,0,0.0,0,0,0.0,0.0,0,0,0.0,0.0
17151,10298,US,121225,46.2852777778,-95.8708333333,Census,City,MN,"Underwood, Minnesota",0,0,0,0,0,0,0,0,0,0,0,0,0,258,308.0,353,336,314.0,278.0,332,284,319.0,341.0
17174,7825,US,12922178,,,Census,Neighborhood,MN,"Wenonah, Minneapolis",0,0,0,0,0,0,0,0,0,0,0,0,0,0,0.0,0,0,0.0,0.0,4355,4159,4422.0,4521.0
17183,12273,US,122015,46.6283333333,-95.0908333333,Census,City,MN,"Sebeka, Minnesota",0,0,0,0,0,0,0,0,0,0,0,223,428,585,548.0,648,802,823.0,668.0,774,662,710.0,711.0
17203,21053,US,94918,45.02,-93.1,Census,US County,MN,"Ramsey County, Minnesota",0,0,0,0,0,0,2227,12150,23085,45890,139796,170554,223675,244554,286721.0,309935,355332,422525.0,476255.0,459784,485765,511035.0,508640.0
17294,11635,US,120517,45.0136111111,-96.1894444444,Census,City,MN,"Madison, Minnesota",0,0,0,0,0,0,0,0,0,0,625,1386,1811,1838,1916.0,2312,2303,2380.0,2242.0,2212,1951,1768.0,1551.0
17319,17063,US,121793,47.8069444444,-92.2794444444,Census,City,MN,"Tower, Minnesota",0,0,0,0,0,0,0,0,0,0,1110,1366,1111,706,801.0,820,773,878.0,699.0,640,502,479.0,500.0
17372,21214,US,150586,44.8622222222,-93.5305555556,Census,City,MN,"Chanhassen, Minnesota",0,0,0,0,0,0,0,0,0,0,0,175,164,129,128.0,132,182,244.0,4879.0,6359,11732,20321.0,22952.0
17390,13919,US,94994,44.23,-94.72,Census,US County,MN,"Brown County, Minnesota",0,0,0,0,0,0,0,2339,6396,12018,15817,19787,20134,22421,23428.0,25544,25895,27676.0,28887.0,28645,26984,26911.0,25893.0
17398,4606,US,3129363,,,Census,Neighborhood,MN,"Longfellow (neighborhood), Minneapolis",0,0,0,0,0,0,0,0,0,0,0,0,0,0,0.0,0,0,0.0,0.0,5078,5023,4972.0,4895.0
17487,12020,US,121686,44.5561111111,-94.2194444444,Census,City,MN,"Gaylord, Minnesota",0,0,0,0,0,0,0,0,0,0,387,608,610,783,812.0,1049,1229,1631.0,1720.0,1933,1935,2279.0,2305.0
17505,13475,US,121895,45.3152777778,-95.6038888889,Census,City,MN,"Benson, Minnesota",0,0,0,0,0,0,0,0,0,456,877,1525,1677,2111,2095.0,2729,3398,3678.0,3484.0,3656,3235,3376.0,3240.0
17521,12179,US,120309,47.2961111111,-93.4133333333,Census,City,MN,"Bovey, Minnesota",0,0,0,0,0,0,0,0,0,0,0,0,1377,1324,1248.0,1355,1320,1086.0,858.0,813,662,662.0,804.0
17527,1677,US,47370626,46.6577777778,-95.6527777778,Census,Unincorporated Community,MN,"Luce, Minnesota",0,0,0,0,0,0,0,0,0,0,0,0,139,135,0.0,0,0,0.0,0.0,0,0,0.0,0.0
17580,15810,US,120716,48.1969444444,-96.7708333333,Census,City,MN,"Warren, Minnesota",0,0,0,0,0,0,0,0,0,108,648,1276,1813,1772,1472.0,1839,1779,2007.0,1999.0,2105,1813,1678.0,1563.0
17641,26654,US,119900,44.6497222222,-93.2425,Census,City,MN,"Lakeville, Minnesota",0,0,0,0,0,0,0,0,0,108,258,373,385,474,522.0,543,628,924.0,7556.0,14790,24854,43128.0,55954.0
17656,26258,US,119765,46.8738888889,-96.7672222222,Census,City,MN,"Moorhead, Minnesota",0,0,0,0,0,0,0,0,0,1500,2088,3730,4540,5720,7651.0,9491,14870,22934.0,29687.0,29998,32295,32177.0,38065.0
17691,10515,US,120795,45.1494444444,-94.6813888889,Census,City,MN,"Grove City, Minnesota",0,0,0,0,0,0,0,0,0,230,349,316,351,388,372.0,447,481,466.0,531.0,596,547,608.0,635.0
17692,5333,US,7065541,,,Census,Neighborhood,MN,"Beltrami, Minneapolis",0,0,0,0,0,0,0,0,0,0,0,0,0,0,0.0,0,0,0.0,0.0,996,1202,1277.0,1248.0
17749,13252,US,124615,45.3833333333,-94.7166666667,Census,City,MN,"Paynesville, Minnesota",0,0,0,0,0,0,0,0,0,127,352,373,901,1060,1121.0,1317,1503,1754.0,1920.0,2140,2275,2267.0,2432.0
17755,11064,US,119982,43.505,-94.0855555556,Census,City,MN,"Elmore, Minnesota",0,0,0,0,0,0,0,0,0,0,488,924,795,904,744.0,935,1074,1078.0,910.0,882,709,735.0,663.0
17832,10878,US,124465,45.8094444444,-96.1430555556,Census,City,MN,"Herman, Minnesota",0,0,0,0,0,0,0,0,0,184,322,550,604,630,518.0,703,752,764.0,619.0,600,485,452.0,437.0
17834,11091,US,121200,46.5691666667,-96.0813888889,Census,City,MN,"Pelican Rapids, Minnesota",0,0,0,0,0,0,0,0,0,0,624,1033,1019,1156,1365.0,1560,1676,1693.0,1835.0,1867,1886,2374.0,2464.0
17872,12764,US,122147,45.2380555556,-93.6597222222,Census,City,MN,"Albertville, Minnesota",0,0,0,0,0,0,0,0,0,0,0,0,222,268,217.0,243,238,279.0,451.0,564,1251,3621.0,7044.0
17881,9934,US,121757,47.4169444444,-92.6044444444,Census,City,MN,"Iron Junction, Minnesota",0,0,0,0,0,0,0,0,0,0,0,118,76,92,128.0,107,128,187.0,150.0,134,133,93.0,86.0
17950,9609,US,120435,44.9444444444,-94.8808333333,Census,City,MN,"Lake Lillian, Minnesota",0,0,0,0,0,0,0,0,0,0,0,0,0,0,206.0,271,358,335.0,316.0,329,229,257.0,238.0
18002,10158,US,121702,44.5425,-94.3666666667,Census,City,MN,"Winthrop, Minnesota",0,0,0,0,0,0,0,0,0,0,488,813,1048,1147,1037.0,1195,1251,1381.0,1391.0,1376,1279,1367.0,1399.0
18014,11940,US,124393,45.1663888889,-93.0519444444,Census,City,MN,"Centerville, Minnesota",0,0,0,0,0,0,0,0,0,0,0,0,0,209,196.0,195,209,338.0,534.0,734,1633,3202.0,3792.0
18034,16858,US,94944,43.68,-94.56,Census,US County,MN,"Martin County, Minnesota",0,0,0,0,0,0,0,151,3867,5249,9408,16936,17518,21085,22401.0,24656,25655,26986.0,24316.0,24687,22914,21802.0,20840.0
18154,11458,US,119562,43.9622222222,-94.1683333333,Census,City,MN,"Vernon Center, Minnesota",0,0,0,0,0,0,0,0,0,125,0,311,289,283,306.0,355,344,333.0,347.0,365,339,359.0,332.0
18182,13842,US,119825,44.0575,-95.1958333333,Census,City,MN,"Jeffers, Minnesota",0,0,0,0,0,0,0,0,0,0,0,0,227,393,434.0,648,516,489.0,436.0,437,443,396.0,369.0
18249,9842,US,119665,46.5008333333,-94.3575,Census,City,MN,"Lake Shore, Minnesota",0,0,0,0,0,0,0,0,0,0,0,0,0,0,0.0,227,326,264.0,410.0,583,693,966.0,1004.0
18339,9504,US,124476,,,Census,City,MN,"St. Bonifacius, Minnesota",0,0,0,0,0,0,0,0,0,0,0,0,275,332,336.0,363,438,576.0,685.0,857,1180,1873.0,2283.0
18374,12687,US,122048,45.1522222222,-92.9633333333,Census,City,MN,"Hugo, Minnesota",0,0,0,0,0,0,0,0,0,0,0,0,204,246,303.0,348,440,538.0,751.0,3771,4417,6363.0,13332.0
18378,10178,US,124412,44.2858333333,-94.8486111111,Census,City,MN,"Cobden, Minnesota",0,0,0,0,0,0,0,0,0,0,0,0,87,108,108.0,136,118,114.0,113.0,72,62,61.0,36.0
18426,5776,US,12925317,,,Census,Neighborhood,MN,"Marshall Terrace, Minneapolis",0,0,0,0,0,0,0,0,0,0,0,0,0,0,0.0,0,0,0.0,0.0,1418,1297,1342.0,1381.0
18463,10555,US,121802,45.6333333333,-94.5666666667,Census,City,MN,"Albany, Minnesota",0,0,0,0,0,0,0,0,0,0,0,517,657,824,851.0,975,1196,1375.0,1599.0,1569,1548,1796.0,2561.0
18466,4107,US,23922171,44.3822222222,-93.9458333333,Census,Unincorporated community,MN,"Ottawa, Minnesota",0,0,0,0,0,0,0,0,0,0,0,246,0,0,0.0,0,0,0.0,0.0,0,0,0.0,0.0
18468,10368,US,124564,48.0130555556,-96.2141666667,Census,City,MN,"St. Hilaire, Minnesota",0,0,0,0,0,0,0,0,0,0,193,840,468,346,280.0,288,276,270.0,337.0,388,298,272.0,279.0
18526,9679,US,122080,43.8666666667,-94.7419444444,Census,City,MN,"Odin, Minnesota",0,0,0,0,0,0,0,0,0,0,0,0,139,195,194.0,198,208,184.0,166.0,134,102,125.0,106.0
18540,12615,US,94913,44.72,-94.96,Census,US County,MN,"Renville County, Minnesota",0,0,0,0,0,0,0,245,3219,10791,17099,23693,23123,23634,23645.0,24625,23954,23249.0,21139.0,20401,17673,17154.0,15730.0
18574,21249,US,122068,44.9188888889,-92.9366666667,Census,City,MN,"Woodbury, Minnesota",0,0,0,0,0,0,0,0,0,0,0,0,0,0,0.0,0,0,3014.0,6184.0,10297,20075,46463.0,61961.0
18585,13670,US,120890,43.7061111111,-92.5705555556,Census,City,MN,"Grand Meadow, Minnesota",0,0,0,0,0,0,0,0,0,374,373,477,552,579,585.0,700,766,837.0,869.0,965,967,945.0,1139.0
18613,9803,US,119380,46.9830555556,-95.9086111111,Census,City,MN,"Callaway, Minnesota",0,0,0,0,0,0,0,0,0,0,0,0,276,325,230.0,249,193,235.0,233.0,238,212,200.0,234.0
18627,12106,US,150574,45.8333333333,-94.3,Census,City,MN,"Royalton, Minnesota",0,0,0,0,0,0,0,0,0,0,582,664,676,690,518.0,518,500,580.0,534.0,660,802,816.0,1242.0
18654,16380,US,121455,45.0208333333,-93.0791666667,Census,City,MN,"Little Canada, Minnesota",0,0,0,0,0,0,0,0,0,0,0,0,0,0,0.0,0,0,3512.0,3481.0,7102,8971,9771.0,9773.0
18665,9227,US,122108,46.0372222222,-96.3083333333,Census,City,MN,"Nashua, Minnesota",0,0,0,0,0,0,0,0,0,0,0,0,271,127,161.0,177,181,146.0,114.0,89,63,69.0,68.0
18690,12809,US,119398,46.8858333333,-96.0955555556,Census,City,MN,"Lake Park, Minnesota",0,0,0,0,0,0,0,0,0,0,349,570,740,700,624.0,654,689,730.0,658.0,716,638,782.0,783.0
18700,11608,US,121720,47.4936111111,-92.7736111111,Census,City,MN,"Buhl, Minnesota",0,0,0,0,0,0,0,0,0,0,0,0,1005,2007,1634.0,1600,1462,1526.0,1303.0,1284,915,983.0,1000.0
18724,9261,US,119477,47.6611111111,-94.6808333333,Census,City,MN,"Tenstrike, Minnesota",0,0,0,0,0,0,0,0,0,0,0,0,250,235,201.0,239,206,147.0,138.0,159,184,195.0,201.0
18726,14437,US,122055,45.1986111111,-92.7697222222,Census,City,MN,"Marine on St. Croix, Minnesota",0,0,0,0,0,0,0,0,0,460,679,562,491,361,297.0,338,334,454.0,513.0,543,602,602.0,689.0
18737,10038,US,120609,44.2155555556,-95.7597222222,Census,City,MN,"Garvin, Minnesota",0,0,0,0,0,0,0,0,0,0,0,0,0,0,0.0,0,264,205.0,201.0,172,149,159.0,135.0
18741,17071,US,121349,47.93,-97.0241666667,Census,City,MN,"East Grand Forks, Minnesota",0,0,0,0,0,0,0,0,0,0,795,2077,2533,2490,2922.0,3511,5049,6998.0,7607.0,8537,8658,7501.0,8601.0
18744,9516,US,120474,48.7325,-96.6627777778,Census,City,MN,"Lake Bronson, Minnesota",0,0,0,0,0,0,0,0,0,0,0,0,101,181,239.0,350,438,421.0,325.0,298,272,246.0,229.0
18765,8910,US,121449,45.7144444444,-95.1661111111,Census,City,MN,"Westport, Minnesota",0,0,0,0,0,0,0,0,0,0,0,0,0,0,81.0,102,96,87.0,65.0,50,47,72.0,57.0
18834,15449,US,120969,43.6983333333,-95.4677777778,Census,City,MN,"Brewster, Minnesota",0,0,0,0,0,0,0,0,0,0,0,234,311,405,396.0,467,478,500.0,563.0,559,532,502.0,473.0
18836,10347,US,122072,44.0516666667,-94.8375,Census,City,MN,"Darfur, Minnesota",0,0,0,0,0,0,0,0,0,0,0,0,72,112,101.0,132,150,191.0,179.0,139,128,137.0,108.0
18845,5329,US,12923777,,,Census,Neighborhood,MN,"Lynnhurst, Minneapolis",0,0,0,0,0,0,0,0,0,0,0,0,0,0,0.0,0,0,0.0,0.0,6419,5845,5613.0,5826.0
18875,10339,US,119986,43.5852777778,-93.9247222222,Census,City,MN,"Frost, Minnesota",0,0,0,0,0,0,0,0,0,0,0,0,138,252,233.0,278,326,381.0,290.0,293,236,251.0,198.0
18877,10973,US,120920,43.9294444444,-95.9472222222,Census,City,MN,"Chandler, Minnesota",0,0,0,0,0,0,0,0,0,0,0,0,225,272,250.0,363,331,388.0,319.0,344,316,276.0,270.0
18883,10013,US,120488,48.9683333333,-97.2261111111,Census,City,MN,"St. Vincent, Minnesota",0,0,0,0,0,0,0,0,0,0,0,256,328,343,304.0,327,272,217.0,177.0,141,116,117.0,64.0
18886,6329,US,7065627,,,Census,Neighborhood,MN,"Bottineau, Minneapolis",0,0,0,0,0,0,0,0,0,0,0,0,0,0,0.0,0,0,0.0,0.0,1152,1150,1254.0,1656.0
18891,12221,US,1020367,44.9688888889,-93.2125,Census,Neighborhood,MN,"Prospect Park, Minneapolis",0,0,0,0,0,0,0,0,0,0,0,0,0,0,0.0,0,0,0.0,0.0,4964,5074,6326.0,7457.0
18892,10159,US,119718,45.0102777778,-95.8002777778,Census,City,MN,"Watson, Minnesota",0,0,0,0,0,0,0,0,0,0,0,167,152,215,246.0,290,284,267.0,228.0,238,211,209.0,205.0
18894,9550,US,121908,45.2483333333,-95.9122222222,Census,City,MN,"Holloway, Minnesota",0,0,0,0,0,0,0,0,0,0,0,0,215,289,269.0,286,264,242.0,146.0,142,123,112.0,92.0
18902,10308,US,120812,45.7366666667,-93.7091666667,Census,City,MN,"Foreston, Minnesota",0,0,0,0,0,0,0,0,0,0,287,263,204,328,280.0,300,301,266.0,273.0,283,354,389.0,533.0
18951,13143,US,150608,44.4455555556,-92.2705555556,Census,City,MN,"Lake City, Minnesota",0,0,0,0,0,0,0,0,0,2596,2128,2744,3142,2846,3210.0,3204,3457,3494.0,3594.0,4505,4391,4950.0,5063.0
18973,9957,US,120774,44.7230555556,-94.4866666667,Census,City,MN,"Stewart, Minnesota",0,0,0,0,0,0,0,0,0,80,166,407,412,540,541.0,636,695,676.0,666.0,616,566,564.0,571.0
18997,13418,US,3431641,44.97,-93.2838888889,Census,Neighborhood,MN,Loring Park,0,0,0,0,0,0,0,0,0,0,0,0,0,0,0.0,0,0,0.0,0.0,5908,6586,7501.0,7873.0
19036,9245,US,121764,47.4680555556,-92.5680555556,Census,City,MN,"Leonidas, Minnesota",0,0,0,0,0,0,0,0,0,0,0,0,0,457,499.0,440,88,94.0,157.0,95,70,60.0,52.0
19043,27831,US,121868,44.0872222222,-93.2244444444,Census,City,MN,"Owatonna, Minnesota",0,0,0,0,0,0,0,609,2070,3161,3849,5561,5658,7252,7654.0,8694,10191,13409.0,15341.0,18632,19386,22434.0,25599.0
19050,11036,US,94973,45.93,-96.01,Census,US County,MN,"Grant County, Minnesota",0,0,0,0,0,0,0,0,340,3004,6875,8935,9114,9788,9558.0,9828,9542,8870.0,7462.0,7171,6246,6289.0,6018.0
19087,9992,US,121013,47.2641666667,-96.8105555556,Census,City,MN,"Hendrum, Minnesota",0,0,0,0,0,0,0,0,0,0,0,0,355,354,326.0,341,352,305.0,311.0,336,309,315.0,307.0
19145,5196,US,7012740,,,Census,Neighborhood,MN,"Nicollet Island/East Bank, Minneapolis",0,0,0,0,0,0,0,0,0,0,0,0,0,0,0.0,0,0,0.0,0.0,203,666,828.0,1309.0
19203,4204,US,2028241,,,Census,Neighborhood,MN,"Diamond Lake, Minneapolis",0,0,0,0,0,0,0,0,0,0,0,0,0,0,0.0,0,0,0.0,0.0,5760,5487,5251.0,5480.0
19211,9833,US,121874,45.5736111111,-96.1744444444,Census,City,MN,"Chokio, Minnesota",0,0,0,0,0,0,0,0,0,0,0,300,328,420,386.0,492,541,498.0,455.0,559,521,443.0,400.0
19241,10058,US,120329,47.2266666667,-93.4936111111,Census,City,MN,"La Prairie, Minnesota",0,0,0,0,0,0,0,0,0,0,0,88,48,63,43.0,69,88,243.0,413.0,536,438,605.0,665.0
19250,12843,US,119624,44.7708333333,-93.7830555556,Census,City,MN,"Cologne, Minnesota",0,0,0,0,0,0,0,0,0,60,193,238,390,383,355.0,427,462,454.0,518.0,545,563,1012.0,1519.0
19286,10575,US,119679,46.72,-94.4027777778,Census,City,MN,"Pine River, Minnesota",0,0,0,0,0,0,0,0,0,0,0,0,329,442,422.0,574,835,775.0,803.0,881,871,928.0,944.0
19354,13874,US,120499,47.8730555556,-94.2788888889,Census,City,MN,"Northome, Minnesota",0,0,0,0,0,0,0,0,0,0,0,0,206,270,258.0,343,349,291.0,351.0,312,283,230.0,200.0
19366,24307,US,94928,46.41,-95.71,Census,US County,MN,"Otter Tail County, Minnesota",0,0,0,0,0,0,0,240,1968,18675,34232,45375,46036,50818,51006.0,53192,51320,48960.0,46097.0,51937,50714,57159.0,57303.0
19367,18215,US,119372,45.1675,-93.0975,Census,City,MN,"Lino Lakes, Minnesota",0,0,0,0,0,0,0,0,0,0,0,0,0,0,0.0,0,0,2329.0,3692.0,4966,7807,11791.0,20216.0
19391,11620,US,121864,44.1727777778,-93.2469444444,Census,City,MN,"Medford, Minnesota",0,0,0,0,0,0,0,0,0,0,0,0,0,0,0.0,342,409,567.0,690.0,775,733,984.0,1239.0
19403,9653,US,120461,48.5725,-96.8955555556,Census,City,MN,"Donaldson, Minnesota",0,0,0,0,0,0,0,0,0,0,0,0,132,167,133.0,120,128,64.0,69.0,84,57,41.0,42.0
19457,8997,US,121394,47.5283333333,-96.8166666667,Census,City,MN,"Nielsville, Minnesota",0,0,0,0,0,0,0,0,0,0,0,0,0,0,186.0,175,189,183.0,156.0,145,96,91.0,90.0
19478,9314,US,121304,46.3833333333,-92.8272222222,Census,City,MN,"Sturgeon Lake, Minnesota",0,0,0,0,0,0,0,0,0,0,0,0,183,208,210.0,215,189,151.0,167.0,222,230,347.0,439.0
19491,9481,US,119776,47.0783333333,-96.26,Census,City,MN,"Ulen, Minnesota",0,0,0,0,0,0,0,0,0,0,0,317,438,590,452.0,562,525,481.0,486.0,514,547,532.0,547.0
19498,11725,US,150614,45.0905555556,-93.7388888889,Census,City,MN,"Rockford, Minnesota",0,0,0,0,0,0,0,0,0,159,0,340,287,324,287.0,270,369,533.0,730.0,2408,2665,3484.0,4316.0
19532,10641,US,121592,43.6447222222,-96.0772222222,Census,Town,MN,"Magnolia, Minnesota",0,0,0,0,0,0,0,0,0,0,0,176,189,219,240.0,273,260,280.0,233.0,234,155,221.0,222.0
19589,5791,US,12925218,,,Census,Neighborhood,MN,"Logan Park, Minneapolis",0,0,0,0,0,0,0,0,0,0,0,0,0,0,0.0,0,0,0.0,0.0,2283,1851,2222.0,2179.0
19609,4508,US,7075041,,,Census,Neighborhood,MN,"Fulton, Minneapolis",0,0,0,0,0,0,0,0,0,0,0,0,0,0,0.0,0,0,0.0,0.0,6647,5988,5566.0,5860.0
19621,11119,US,121800,47.9288888889,-91.8013888889,Census,City,MN,"Winton, Minnesota",0,0,0,0,0,0,0,0,0,0,0,0,426,499,341.0,224,184,182.0,294.0,276,169,185.0,172.0
19625,9296,US,120516,45.1658333333,-96.1722222222,Census,City,MN,"Louisburg, Minnesota",0,0,0,0,0,0,0,0,0,0,0,0,88,99,77.0,94,93,91.0,75.0,52,42,26.0,47.0
19628,16470,US,120765,44.8888888889,-94.375,Census,City,MN,"Hutchinson, Minnesota",0,0,0,0,0,0,0,0,0,580,1414,2495,2368,3379,3406.0,3887,4690,6207.0,8031.0,9244,11523,13080.0,14178.0
19631,49182,US,121291,45.8272222222,-92.9713888889,Census,City,MN,"Pine City, Minnesota",0,0,0,0,0,0,0,0,0,0,535,993,1258,1303,1343.0,1708,1937,1972.0,2143.0,2489,2613,3043.0,3127.0
19632,14088,US,120018,43.5527777778,-92.0094444444,Census,City,MN,"Harmony, Minnesota",0,0,0,0,0,0,0,0,0,0,0,517,655,718,821.0,890,1022,1214.0,1130.0,1133,1081,1080.0,1020.0
19640,9975,US,120450,45.3477777778,-95.2397222222,Census,City,MN,"Sunburg, Minnesota",0,0,0,0,0,0,0,0,0,0,0,0,0,0,0.0,0,0,161.0,144.0,130,117,110.0,100.0
19722,9868,US,124531,45.9611111111,-94.1141666667,Census,City,MN,"Genola, Minnesota",0,0,0,0,0,0,0,0,0,0,0,0,0,156,68.0,87,79,108.0,97.0,83,85,71.0,75.0
19734,9479,US,121849,45.5025,-94.6672222222,Census,City,MN,"St. Martin, Minnesota",0,0,0,0,0,0,0,0,0,0,0,170,177,177,165.0,183,195,215.0,188.0,220,274,278.0,308.0
19767,10508,US,120208,45.0083333333,-93.6588888889,Census,City,MN,"Maple Plain, Minnesota",0,0,0,0,0,0,0,0,0,105,0,0,0,273,288.0,360,479,754.0,1169.0,1421,2005,2088.0,1768.0
19786,12408,US,121362,47.5780555556,-95.7488888889,Census,City,MN,"Fosston, Minnesota",0,0,0,0,0,0,0,0,0,0,207,864,1075,1014,978.0,1271,1424,1704.0,1684.0,1599,1517,1575.0,1527.0
19791,10730,US,120430,45.1330555556,-94.9330555556,Census,City,MN,"Kandiyohi, Minnesota",0,0,0,0,0,0,0,0,0,75,0,0,185,184,192.0,271,293,312.0,295.0,447,506,555.0,491.0
19798,9485,US,120907,43.6036111111,-92.8305555556,Census,City,MN,"Rose Creek, Minnesota",0,0,0,0,0,0,0,0,0,0,0,204,202,208,210.0,261,314,351.0,390.0,371,363,354.0,394.0
19821,19038,US,94960,47.53,-91.39,Census,US County,MN,"Lake County, Minnesota",0,0,0,0,0,0,0,248,135,106,1299,4654,8011,8251,7068.0,6956,7781,13702.0,13351.0,13043,10415,11058.0,10866.0
19831,9122,US,120226,44.9516666667,-93.5088888889,Census,City,MN,"Woodland, Minnesota",0,0,0,0,0,0,0,0,0,0,0,0,0,0,0.0,0,411,449.0,544.0,526,496,480.0,437.0
19960,20964,US,119915,44.8880555556,-93.0455555556,Census,City,MN,"South St. Paul, Minnesota",0,0,0,0,0,0,0,0,0,489,2242,2322,4510,6860,10009.0,11844,15909,22032.0,25016.0,21235,20197,20167.0,20160.0
19995,10489,US,119889,44.715,-93.035,Census,City,MN,"Coates, Minnesota",0,0,0,0,0,0,0,0,0,0,0,0,0,0,0.0,0,0,202.0,212.0,207,186,163.0,161.0
19997,17375,US,119972,43.6402777778,-94.0986111111,Census,City,MN,"Blue Earth, Minnesota",0,0,0,0,0,0,0,0,0,1066,1569,2900,2319,2568,2884.0,3702,3843,4200.0,3965.0,4132,3745,3621.0,3353.0
20010,12367,US,94978,,,Census,US County,MN,"Faribault County, Minnesota",0,0,0,0,0,0,0,1335,9940,13016,16708,22055,19949,20998,21642.0,23941,23879,23685.0,20896.0,19714,16937,16181.0,14553.0
20050,39463,US,94981,44.68,-93.06,Census,US County,MN,"Dakota County, Minnesota",0,0,0,0,0,0,584,9093,16312,17391,20240,21733,25171,28967,34592.0,39660,49019,78303.0,139808.0,194279,275227,355904.0,398552.0
20077,11759,US,120107,46.0908333333,-95.8169444444,Census,City,MN,"Ashby, Minnesota",0,0,0,0,0,0,0,0,0,0,231,279,334,388,358.0,384,443,426.0,415.0,486,469,472.0,446.0
20081,9331,US,119570,44.15,-94.4947222222,Census,City,MN,"Hanska, Minnesota",0,0,0,0,0,0,0,0,0,0,0,0,310,412,359.0,461,473,491.0,442.0,429,443,443.0,402.0
20094,12236,US,94979,45.94,-95.45,Census,US County,MN,"Douglas County, Minnesota",0,0,0,0,0,0,0,0,4239,9130,14606,17964,17669,19039,18813.0,20369,21304,21313.0,22892.0,27839,28839,32821.0,36009.0
20114,6117,US,1986472,,,Census,Neighborhood,MN,"Lowry Hill East, Minneapolis",0,0,0,0,0,0,0,0,0,0,0,0,0,0,0.0,0,0,0.0,0.0,6187,5933,5912.0,6150.0
20124,49165,US,150576,45.55,-94.1666666667,Census,City,MN,"St. Cloud, Minnesota",0,0,0,0,0,0,0,0,2181,2482,7086,8683,10600,15873,21000.0,24173,28410,32415.0,39691.0,42566,48812,59108.0,65842.0
20145,9883,US,120839,45.8980555556,-94.0925,Census,City,MN,"Buckman, Minnesota",0,0,0,0,0,0,0,0,0,0,0,0,137,227,212.0,186,173,166.0,158.0,171,201,208.0,270.0
20162,9925,US,121960,45.7180555556,-96.4236111111,Census,City,MN,"Dumont, Minnesota",0,0,0,0,0,0,0,0,0,0,0,236,188,210,186.0,238,223,226.0,204.0,173,126,122.0,100.0
20176,10609,US,121482,44.6041666667,-95.3283333333,Census,City,MN,"Belview, Minnesota",0,0,0,0,0,0,0,0,0,0,0,254,290,381,350.0,409,381,400.0,429.0,438,383,412.0,384.0
20177,12792,US,119362,45.3325,-93.4466666667,Census,City,MN,"Nowthen, Minnesota",0,0,0,0,0,0,0,0,0,0,0,0,0,0,0.0,0,0,0.0,0.0,0,0,0.0,4443.0
20186,10721,US,120311,47.3211111111,-93.2744444444,Census,City,MN,"Calumet, Minnesota",0,0,0,0,0,0,0,0,0,0,0,0,245,445,805.0,946,854,799.0,460.0,469,382,383.0,367.0
20196,23042,US,119926,44.0288888889,-92.855,Census,City,MN,"Dodge Center, Minnesota",0,0,0,0,0,0,0,0,0,726,633,942,957,921,854.0,1029,1151,1441.0,1603.0,1816,1954,2226.0,2670.0
20216,11809,US,119721,45.365,-92.8866666667,Census,City,MN,"Chisago City, Minnesota",0,0,0,0,0,0,0,0,0,92,0,0,276,422,416.0,510,703,772.0,1068.0,1634,2009,2622.0,4967.0
20231,10630,US,120216,45.0333333333,-93.3833333333,Census,City,MN,"New Hope, Minnesota",0,0,0,0,0,0,0,0,0,0,0,0,0,0,0.0,0,0,3552.0,23180.0,23087,21853,20873.0,20339.0
20240,3683,US,12383023,48.5952777778,-93.1669444444,Census,Unincorporated community,MN,"Island View, Minnesota",0,0,0,0,0,0,0,0,0,0,0,0,0,0,0.0,0,18,13.0,44.0,101,150,0.0,0.0
20284,29113,US,120179,44.8547222222,-93.4708333333,Census,City,MN,"Eden Prairie, Minnesota",0,0,0,0,0,0,0,0,0,0,0,0,0,0,0.0,0,0,0.0,6938.0,16263,39311,54901.0,60797.0
20285,11722,US,119630,44.8852777778,-93.89,Census,City,MN,"Mayer, Minnesota",0,0,0,0,0,0,0,0,0,0,0,0,161,144,138.0,146,153,179.0,325.0,388,471,554.0,1749.0
20312,4540,US,12924642,,,Census,Neighborhood,MN,"University (neighborhood), Minneapolis",0,0,0,0,0,0,0,0,0,0,0,0,0,0,0.0,0,0,0.0,0.0,4194,3880,4026.0,5421.0
20343,11082,US,124584,44.7647222222,-94.8947222222,Census,City,MN,"Bird Island, Minnesota",0,0,0,0,0,0,0,0,0,289,441,846,931,976,1004.0,1201,1333,1384.0,1309.0,1372,1326,1195.0,1042.0
20425,25270,US,124638,45.2761111111,-92.9847222222,Census,City,MN,"Forest Lake, Minnesota",0,0,0,0,0,0,0,0,0,46,0,241,540,800,916.0,1120,1766,2347.0,3207.0,4596,5833,6856.0,18375.0
20438,8917,US,122062,44.9163888889,-92.7708333333,Census,City,MN,"St. Marys Point, Minnesota",0,0,0,0,0,0,0,0,0,0,0,0,0,0,0.0,0,0,271.0,319.0,348,339,344.0,368.0
20447,10945,US,150567,45.1158333333,-93.2477777778,Census,City,MN,"Spring Lake Park, Minnesota",0,0,0,0,0,0,0,0,0,0,0,0,0,0,0.0,0,0,3260.0,6417.0,6477,6532,6778.0,6412.0
20527,10561,US,119536,44.0041666667,-94.0691666667,Census,City,MN,"Good Thunder, Minnesota",0,0,0,0,0,0,0,0,0,149,0,505,419,464,452.0,457,476,468.0,489.0,560,561,592.0,583.0
20567,4460,US,7056526,,,Census,Neighborhood,MN,"Phillips West, Minneapolis",0,0,0,0,0,0,0,0,0,0,0,0,0,0,0.0,0,0,0.0,0.0,0,0,4771.0,4727.0
20583,9928,US,121390,47.6363888889,-95.8872222222,Census,City,MN,"McIntosh, Minnesota",0,0,0,0,0,0,0,0,0,0,0,569,634,805,688.0,903,881,785.0,753.0,681,670,638.0,625.0
20601,13023,US,121057,43.8572222222,-92.4872222222,Census,City,MN,"Stewartville, Minnesota",0,0,0,0,0,0,0,0,0,0,0,830,794,941,793.0,1025,1193,1670.0,2802.0,3925,4520,5411.0,5916.0
20651,8423,US,121635,48.5536111111,-96.1680555556,Census,City,MN,"Strathcona, Minnesota",0,0,0,0,0,0,0,0,0,0,0,0,0,0,112.0,114,143,64.0,31.0,47,40,29.0,44.0
20690,14707,US,120184,,,Census,City,MN,"Excelsior, Minnesota",0,0,0,0,0,0,0,0,0,417,619,717,1015,790,1072.0,1422,1763,2020.0,2563.0,2523,2367,2393.0,2188.0
20694,9681,US,119741,46.66,-96.7469444444,Census,City,MN,"Comstock, Minnesota",0,0,0,0,0,0,0,0,0,0,0,0,0,0,157.0,134,139,138.0,135.0,110,123,123.0,93.0
20700,16355,US,120161,45.0691666667,-93.3138888889,Census,City,MN,"Brooklyn Center, Minnesota",0,0,0,0,0,0,0,0,0,0,0,0,0,788,1344.0,1870,4284,24356.0,35173.0,31230,28887,29172.0,30104.0
20721,3829,US,7074620,,,Census,Neighborhood,MN,"Jordan, Minneapolis",0,0,0,0,0,0,0,0,0,0,0,0,0,0,0.0,0,0,0.0,0.0,7861,7737,9149.0,7360.0
20734,9136,US,120101,44.3025,-92.7913888889,Census,City,MN,"Wanamingo, Minnesota",0,0,0,0,0,0,0,0,0,0,0,0,0,350,471.0,449,496,540.0,574.0,717,847,1007.0,1086.0
20795,10610,US,121486,44.5980555556,-95.2133333333,Census,City,MN,"Delhi, Minnesota",0,0,0,0,0,0,0,0,0,0,0,0,159,194,178.0,174,152,124.0,154.0,96,69,69.0,70.0
20807,11802,US,119904,44.8869444444,-93.135,Census,City,MN,"Mendota Heights, Minnesota",0,0,0,0,0,0,0,0,0,0,0,0,0,0,0.0,0,0,5028.0,6565.0,7288,9431,11434.0,11071.0
20810,9320,US,121687,44.5333333333,-94.5241666667,Census,City,MN,"Gibbon, Minnesota",0,0,0,0,0,0,0,0,0,0,282,545,533,583,612.0,761,830,896.0,877.0,787,712,808.0,772.0
20818,10769,US,119978,43.7680555556,-94.0186111111,Census,City,MN,"Delavan, Minnesota",0,0,0,0,0,0,0,0,0,251,252,321,284,318,299.0,321,302,322.0,281.0,262,245,223.0,179.0
20819,12437,US,121306,46.3202777778,-92.8363888889,Census,City,MN,"Willow River, Minnesota",0,0,0,0,0,0,0,0,0,0,0,466,212,247,253.0,314,294,343.0,331.0,303,284,309.0,415.0
20821,9881,US,120705,48.4505555556,-96.8752777778,Census,City,MN,"Stephen, Minnesota",0,0,0,0,0,0,0,0,0,0,265,513,618,581,474.0,673,877,858.0,904.0,898,707,708.0,658.0
20842,16776,US,121796,47.5172222222,-92.5413888889,Census,City,MN,"Virginia, Minnesota",0,0,0,0,0,0,0,0,0,0,0,2962,10473,14022,11963.0,12264,12486,14034.0,12450.0,11056,9410,9157.0,8712.0
20866,9571,US,150635,43.8491666667,-94.6975,Census,City,MN,"Ormsby, Minnesota",0,0,0,0,0,0,0,0,0,0,0,0,112,115,107.0,183,190,221.0,199.0,181,159,154.0,131.0
20901,9575,US,119732,45.3858333333,-92.7477777778,Census,City,MN,"Shafer, Minnesota",0,0,0,0,0,0,0,0,0,0,0,0,0,0,117.0,106,127,147.0,149.0,180,368,343.0,1045.0
20941,13015,US,150577,45.3058333333,-96.4438888889,Census,City,MN,"Ortonville, Minnesota",0,0,0,0,0,0,0,0,0,0,768,1247,1774,1758,2017.0,2469,2577,2674.0,2665.0,2550,2205,2158.0,1916.0
20969,8835,US,121824,45.4605555556,-94.795,Census,City,MN,"Lake Henry, Minnesota",0,0,0,0,0,0,0,0,0,0,0,0,0,197,95.0,89,97,91.0,92.0,90,90,90.0,103.0
20978,11915,US,124607,47.0727777778,-92.7316666667,Census,City,MN,"Meadowlands, Minnesota",0,0,0,0,0,0,0,0,0,0,0,0,0,0,121.0,142,134,176.0,128.0,135,92,111.0,134.0
20988,13780,US,120586,44.5066666667,-96.4233333333,Census,City,MN,"Hendricks, Minnesota",0,0,0,0,0,0,0,0,0,0,0,0,406,731,702.0,740,781,797.0,712.0,737,684,725.0,713.0
21039,5564,US,7057953,,,Census,Neighborhood,MN,"Lyndale, Minneapolis",0,0,0,0,0,0,0,0,0,0,0,0,0,0,0.0,0,0,0.0,0.0,7167,7239,7690.0,7419.0
21062,19298,US,94910,48.77,-95.8,Census,US County,MN,"Roseau County, Minnesota",0,0,0,0,0,0,0,0,0,0,0,6994,11338,13305,12621.0,15103,14505,12154.0,11569.0,12574,15026,16338.0,15629.0
21066,9646,US,121070,46.2752777778,-95.63,Census,City,MN,"Clitherall, Minnesota",0,0,0,0,0,0,0,0,0,0,0,167,187,178,151.0,172,175,138.0,131.0,121,109,118.0,112.0
21070,12338,US,121729,47.8530555556,-92.6866666667,Census,City,MN,"Cook, Minnesota",0,0,0,0,0,0,0,0,0,0,0,0,0,0,272.0,470,482,527.0,687.0,800,680,622.0,574.0
21102,11337,US,121581,43.6125,-96.3633333333,Census,City,MN,"Beaver Creek, Minnesota",0,0,0,0,0,0,0,0,0,37,232,186,195,217,324.0,254,245,250.0,235.0,260,249,250.0,297.0
21204,4281,US,7012595,,,Census,Neighborhood,MN,"Near North (neighborhood), Minneapolis",0,0,0,0,0,0,0,0,0,0,0,0,0,0,0.0,0,0,0.0,0.0,5911,6175,6921.0,5968.0
21317,15826,US,94881,45.18,-93.97,Census,US County,MN,"Wright County, Minnesota",0,0,0,0,0,0,0,3729,9457,18104,24164,29157,28082,28685,27119.0,27550,27716,29935.0,38933.0,58681,68710,89986.0,122700.0
21358,10565,US,119371,45.1375,-93.1722222222,Census,City,MN,"Lexington, Minnesota",0,0,0,0,0,0,0,0,0,0,0,0,0,0,0.0,0,0,1457.0,2165.0,2150,2279,2214.0,2049.0
21443,9398,US,122140,43.9761111111,-91.9561111111,Census,City,MN,"Utica, Minnesota",0,0,0,0,0,0,0,0,0,0,0,204,172,189,181.0,179,194,218.0,240.0,249,220,230.0,291.0
21455,21174,US,95002,45.27,-93.24,Census,US County,MN,"Anoka County, Minnesota",0,0,0,0,0,0,0,2106,3940,7108,9884,11313,12493,15626,18415.0,22443,35579,85916.0,154712.0,195998,243641,298084.0,330844.0
21460,8722,US,119480,47.5933333333,-94.7633333333,Census,Town,MN,"Turtle River, Minnesota",0,0,0,0,0,0,0,0,0,0,0,0,108,74,109.0,90,57,48.0,50.0,60,62,75.0,77.0
21472,21257,US,150632,44.4658333333,-93.9088888889,Census,City,MN,"Le Sueur, Minnesota",0,0,0,0,0,0,0,0,0,1414,1763,1937,1755,1795,1897.0,2302,2713,3310.0,3745.0,3763,3714,3922.0,4058.0
21475,9753,US,121585,43.7752777778,-96.1969444444,Census,City,MN,"Hardwick, Minnesota",0,0,0,0,0,0,0,0,0,0,0,259,292,217,247.0,273,297,328.0,274.0,279,234,222.0,198.0
21502,7856,US,121022,47.1769444444,-96.8030555556,Census,City,MN,"Perley, Minnesota",0,0,0,0,0,0,0,0,0,0,0,0,188,222,231.0,246,204,165.0,149.0,134,132,121.0,92.0
21532,12351,US,121986,44.2725,-92.5441666667,Census,City,MN,"Mazeppa, Minnesota",0,0,0,0,0,0,0,0,0,460,0,556,471,481,450.0,545,523,444.0,498.0,680,722,778.0,842.0
21536,13273,US,121661,45.3444444444,-93.7527777778,Census,City,MN,"Big Lake, Minnesota",0,0,0,0,0,0,0,0,0,0,0,177,229,361,417.0,442,480,610.0,1015.0,2210,3113,6063.0,10060.0
21539,10095,US,120776,44.9647222222,-94.0475,Census,City,MN,"Winsted, Minnesota",0,0,0,0,0,0,0,0,0,140,267,281,296,434,482.0,660,941,1163.0,1266.0,1522,1581,2094.0,2355.0
21552,11890,US,150680,45.4166666667,-94.0491666667,Census,City,MN,"Clearwater, Minnesota",0,0,0,0,0,0,0,0,0,218,248,271,311,331,212.0,241,224,274.0,282.0,379,597,858.0,1735.0
21571,9505,US,119961,46.0447222222,-95.2938888889,Census,City,MN,"Miltona, Minnesota",0,0,0,0,0,0,0,0,0,0,0,0,0,0,89.0,116,150,163.0,172.0,187,181,279.0,424.0
21572,11890,US,120086,44.4,-92.6247222222,Census,City,MN,"Goodhue, Minnesota",0,0,0,0,0,0,0,0,0,0,0,241,408,398,467.0,480,489,566.0,539.0,657,533,778.0,1176.0
21591,1816,US,45665909,47.7888888889,-95.0180555556,Census,Unincorporated Community,MN,"Island Lake, Beltrami County, Minnesota",0,0,0,0,0,0,0,0,0,0,0,0,41,0,0.0,0,0,0.0,0.0,0,0,0.0,0.0
21612,12117,US,122174,45.0675,-93.9677777778,Census,City,MN,"Waverly, Minnesota",0,0,0,0,0,0,0,0,0,124,370,542,460,418,458.0,458,493,574.0,573.0,470,600,732.0,1357.0
21644,10090,US,121425,45.615,-95.7386111111,Census,City,MN,"Cyrus, Minnesota",0,0,0,0,0,0,0,0,0,0,0,197,272,312,386.0,357,363,362.0,289.0,334,328,303.0,288.0
21645,10618,US,119955,45.7777777778,-95.6955555556,Census,City,MN,"Kensington, Minnesota",0,0,0,0,0,0,0,0,0,0,0,207,244,252,283.0,337,354,324.0,308.0,331,295,286.0,292.0
21678,8771,US,119483,47.5061111111,-94.9961111111,Census,City,MN,"Wilton, Minnesota",0,0,0,0,0,0,0,0,0,87,0,0,215,176,155.0,139,108,112.0,119.0,176,171,186.0,204.0
21696,10217,US,119862,46.6480555556,-94.3325,Census,City,MN,"Jenkins, Minnesota",0,0,0,0,0,0,0,0,0,0,0,0,130,125,148.0,206,170,144.0,148.0,219,262,287.0,430.0
21716,9345,US,120680,48.2922222222,-96.1941666667,Census,City,MN,"Holt, Minnesota",0,0,0,0,0,0,0,0,0,0,0,0,0,232,193.0,209,172,114.0,97.0,119,88,89.0,88.0
21740,4138,US,7051048,,,Census,Neighborhood,MN,"Shingle Creek, Minneapolis",0,0,0,0,0,0,0,0,0,0,0,0,0,0,0.0,0,0,0.0,0.0,3256,3000,3170.0,3031.0
21781,12378,US,94879,44.72,-95.86,Census,US County,MN,"Yellow Medicine County, Minnesota",0,0,0,0,0,0,0,0,0,5884,9854,14602,15406,16550,16625.0,16917,16279,15523.0,14418.0,13653,11684,11080.0,10438.0
21802,10262,US,120201,45.0175,-93.6994444444,Census,City,MN,"Independence, Minnesota",0,0,0,0,0,0,0,0,0,0,0,0,0,0,0.0,0,0,1446.0,1993.0,2640,2822,3236.0,3504.0
21815,10274,US,122045,45.0816666667,-92.9211111111,Census,City,MN,"Grant, Minnesota",0,0,0,0,0,0,0,0,0,0,0,0,0,0,0.0,0,0,0.0,0.0,0,0,4026.0,4096.0
21835,9961,US,121386,47.5152777778,-95.6352777778,Census,City,MN,"Lengby, Minnesota",0,0,0,0,0,0,0,0,0,0,0,0,167,170,144.0,195,206,181.0,140.0,123,112,79.0,86.0
21837,10973,US,120947,44.2677777778,-94.3397222222,Census,City,MN,"Courtland, Minnesota",0,0,0,0,0,0,0,0,0,0,0,174,208,224,260.0,291,251,239.0,300.0,399,412,538.0,611.0
21853,11471,US,150640,43.8502777778,-96.3997222222,Census,City,MN,"Jasper, Minnesota",0,0,0,0,0,0,0,0,0,0,372,559,704,968,769.0,880,840,850.0,754.0,731,599,597.0,633.0
21856,8071,US,120849,46.1113888889,-94.0441666667,Census,City,MN,"Harding, Minnesota",0,0,0,0,0,0,0,0,0,0,0,0,0,0,0.0,117,124,111.0,119.0,93,76,105.0,125.0
21858,26525,US,121667,45.3172222222,-93.5811111111,Census,City,MN,"Elk River, Minnesota",0,0,0,0,0,0,0,0,0,635,679,831,859,983,1026.0,1245,1399,1763.0,2252.0,6785,11143,16447.0,22974.0
21893,11057,US,120578,44.2191666667,-93.5686111111,Census,City,MN,"Waterville, Minnesota",0,0,0,0,0,0,0,0,0,498,937,1260,1273,1211,1419.0,1600,1627,1623.0,1539.0,1717,1771,1833.0,1868.0
21918,9369,US,120653,47.1841666667,-95.9413888889,Census,City,MN,"Waubun, Minnesota",0,0,0,0,0,0,0,0,0,0,0,0,230,346,337.0,438,426,350.0,345.0,390,330,403.0,400.0
21920,12564,US,122057,45.2536111111,-92.8058333333,Census,City,MN,"Scandia, Minnesota",0,0,0,0,0,0,0,0,0,0,0,0,0,0,0.0,0,0,0.0,0.0,0,0,0.0,3936.0
21922,10130,US,119360,45.4022222222,-93.2677777778,Census,City,MN,"Bethel, Minnesota",0,0,0,0,0,0,0,0,0,0,0,0,221,265,184.0,188,250,302.0,311.0,272,394,443.0,466.0
21925,12086,US,119736,45.4086111111,-92.6588888889,Census,City,MN,"Taylors Falls, Minnesota",0,0,0,0,0,0,0,0,0,1007,567,535,454,570,527.0,552,520,546.0,587.0,623,694,951.0,976.0
21953,9893,US,119946,46.0066666667,-95.6875,Census,City,MN,"Evansville, Minnesota",0,0,0,0,0,0,0,0,0,0,452,483,389,427,397.0,439,478,411.0,553.0,571,566,566.0,612.0
21964,8739,US,120903,43.7763888889,-92.4822222222,Census,City,MN,"Racine, Minnesota",0,0,0,0,0,0,0,0,0,0,0,0,0,0,0.0,0,0,180.0,197.0,285,288,355.0,442.0
21992,14049,US,94966,43.68,-95.16,Census,US County,MN,"Jackson County, Minnesota",0,0,0,0,0,0,0,181,1825,4806,8924,14793,14491,15955,15863.0,16805,16306,15501.0,14352.0,13690,11677,11268.0,10266.0
22004,99742,US,40469,44.9441666667,-93.0936111111,Census,State capital,MN,"Saint Paul, Minnesota",0,0,0,0,0,0,1112,10401,20030,41473,133156,163065,214744,234698,271606.0,287736,311349,313411.0,309980.0,270230,272235,287151.0,285068.0
22066,14280,US,121647,44.6683333333,-93.6325,Census,City,MN,"Jordan, Minnesota",0,0,0,0,0,0,0,0,0,915,1233,1270,1151,1106,1119.0,1422,1494,1479.0,1836.0,2663,2909,3833.0,5470.0
22081,10376,US,121719,46.8658333333,-92.6033333333,Census,City,MN,"Brookston, Minnesota",0,0,0,0,0,0,0,0,0,0,0,0,160,135,144.0,135,180,144.0,137.0,124,107,98.0,141.0
22179,13809,US,150581,44.1094444444,-94.9041666667,Census,City,MN,"Comfrey, Minnesota",0,0,0,0,0,0,0,0,0,0,0,0,238,533,535.0,555,642,616.0,525.0,548,433,367.0,382.0
22229,9006,US,120912,43.8225,-92.8761111111,Census,City,MN,"Waltham, Minnesota",0,0,0,0,0,0,0,0,0,0,0,150,170,180,190.0,172,212,207.0,189.0,176,170,196.0,151.0
22235,14368,US,122166,45.3005555556,-93.7966666667,Census,City,MN,"Monticello, Minnesota",0,0,0,0,0,0,0,0,0,290,503,818,858,1024,924.0,1076,1231,1477.0,1636.0,2830,4941,7868.0,12759.0
22243,9661,US,121437,45.7047222222,-95.5161111111,Census,City,MN,"Lowry, Minnesota",0,0,0,0,0,0,0,0,0,0,0,260,252,225,272.0,273,285,294.0,257.0,283,233,271.0,299.0
22261,16883,US,94990,46.95,-94.32,Census,US County,MN,"Cass County, Minnesota",0,0,0,0,0,0,0,150,380,486,1247,7777,11620,15897,15591.0,20646,19468,16720.0,17323.0,21050,21791,27150.0,28567.0
22286,10393,US,124534,43.6616666667,-92.7086111111,Census,City,MN,"Elkton, Minnesota",0,0,0,0,0,0,0,0,0,0,0,0,86,102,91.0,117,141,147.0,134.0,139,142,149.0,141.0
22318,9603,US,122124,44.0644444444,-91.7058333333,Census,City,MN,"Goodview, Minnesota",0,0,0,0,0,0,0,0,0,0,0,0,0,0,0.0,0,777,1348.0,1829.0,2567,2878,3373.0,4036.0
22334,9044,US,121984,44.3069444444,-91.9988888889,Census,City,MN,"Kellogg, Minnesota",0,0,0,0,0,0,0,0,0,0,0,228,372,370,409.0,403,409,446.0,403.0,440,423,439.0,456.0
22387,17037,US,119930,44.0316666667,-92.7502777778,Census,City,MN,"Kasson, Minnesota",0,0,0,0,0,0,0,0,515,1054,992,1112,932,1150,1019.0,1230,1353,1732.0,1883.0,2827,3514,4398.0,5931.0
22427,8972,US,119867,46.7269444444,-94.1341666667,Census,City,MN,"Manhattan Beach, Minnesota",0,0,0,0,0,0,0,0,0,0,0,0,0,0,0.0,86,72,62.0,46.0,60,61,50.0,57.0
22428,36016,US,120181,44.8955555556,-93.3547222222,Census,City,MN,"Edina, Minnesota",0,0,0,0,0,0,0,0,0,0,531,749,1101,1833,3138.0,5855,9744,30482.0,44031.0,46073,46075,47425.0,47941.0
22431,13955,US,119912,44.7411111111,-93.1197222222,Census,City,MN,"Rosemount, Minnesota",0,0,0,0,0,0,0,0,0,116,198,182,238,310,294.0,364,567,1068.0,1337.0,5083,8622,14619.0,21874.0
22443,15474,US,120896,43.5052777778,-92.9438888889,Census,City,MN,"Lyle, Minnesota",0,0,0,0,0,0,0,0,0,182,306,488,552,505,453.0,513,609,607.0,522.0,576,504,566.0,551.0
22468,10943,US,120090,44.2713888889,-92.9861111111,Census,City,MN,"Kenyon, Minnesota",0,0,0,0,0,0,0,0,0,0,666,1202,1237,1362,1382.0,1530,1651,1624.0,1575.0,1529,1552,1661.0,1815.0
22484,11490,US,122037,44.9027777778,-92.7833333333,Census,City,MN,"Afton, Minnesota",0,0,0,0,0,0,0,0,0,130,0,0,0,183,148.0,132,142,158.0,248.0,2550,2645,2839.0,2886.0
22500,16893,US,119894,44.6491666667,-93.1522222222,Census,City,MN,"Farmington, Minnesota",0,0,0,0,0,0,0,0,0,688,657,733,1024,1449,1342.0,1580,1916,2300.0,3104.0,4370,5940,12365.0,21086.0
22513,9840,US,120635,47.4416666667,-95.9752777778,Census,City,MN,"Bejou, Minnesota",0,0,0,0,0,0,0,0,0,0,0,0,0,0,99.0,200,173,164.0,157.0,109,110,94.0,89.0
22519,12722,US,120990,43.5391666667,-95.4677777778,Census,City,MN,"Round Lake, Minnesota",0,0,0,0,0,0,0,0,0,0,174,226,237,345,403.0,430,435,449.0,506.0,480,463,424.0,376.0
22539,9425,US,124525,44.9044444444,-94.1980555556,Census,City,MN,"Silver Lake, Minnesota",0,0,0,0,0,0,0,0,0,0,0,321,382,475,477.0,604,603,646.0,694.0,698,764,761.0,837.0
22586,42135,US,119887,44.7677777778,-93.2775,Census,City,MN,"Burnsville, Minnesota",0,0,0,0,0,0,0,0,0,388,309,358,385,419,490.0,495,583,2716.0,19940.0,35674,51288,60220.0,60306.0
22595,9010,US,120358,47.1305555556,-93.2688888889,Census,City,MN,"Warba, Minnesota",0,0,0,0,0,0,0,0,0,0,0,0,0,0,154.0,124,125,162.0,148.0,150,137,183.0,181.0
22602,9121,US,124396,45.3955555556,-93.3866666667,Census,City,MN,"St. Francis, Minnesota",0,0,0,0,0,0,0,0,0,0,0,0,0,0,0.0,0,0,0.0,897.0,1184,2538,4910.0,7218.0
22614,4253,US,12921800,,,Census,Neighborhood,MN,"Minnehaha, Minneapolis",0,0,0,0,0,0,0,0,0,0,0,0,0,0,0.0,0,0,0.0,0.0,4138,4334,4058.0,3980.0
22624,11672,US,122121,44.0925,-92.0180555556,Census,City,MN,"Elba, Minnesota",0,0,0,0,0,0,0,0,0,98,0,198,151,172,152.0,159,147,152.0,158.0,198,220,214.0,152.0
22644,14915,US,121651,44.7133333333,-93.4227777778,Census,City,MN,"Prior Lake, Minnesota",0,0,0,0,0,0,0,0,0,0,0,148,162,246,266.0,349,536,848.0,1114.0,7284,11482,15917.0,22796.0
22667,10787,US,119511,45.4597222222,-96.4361111111,Census,City,MN,"Clinton, Minnesota",0,0,0,0,0,0,0,0,0,0,0,346,384,512,537.0,630,718,565.0,608.0,622,574,453.0,449.0
22678,15867,US,120023,43.7175,-91.975,Census,City,MN,"Lanesboro, Minnesota",0,0,0,0,0,0,0,0,655,1032,898,1102,987,1015,1014.0,1100,1100,1063.0,850.0,923,858,788.0,754.0
22685,10852,US,124422,47.3411111111,-94.2080555556,Census,City,MN,"Bena, Minnesota",0,0,0,0,0,0,0,0,0,0,0,0,179,205,145.0,319,331,286.0,169.0,153,147,110.0,116.0
22717,9061,US,120951,44.4472222222,-94.3947222222,Census,City,MN,"Lafayette, Minnesota",0,0,0,0,0,0,0,0,0,0,0,0,195,309,389.0,400,438,516.0,498.0,507,462,529.0,504.0
22722,24977,US,121754,47.4172222222,-92.9383333333,Census,City,MN,"Hibbing, Minnesota",0,0,0,0,0,0,0,0,0,0,0,2481,8832,15089,15666.0,16385,16276,17731.0,20744.0,21193,18046,17071.0,16361.0
22747,10510,US,94898,45.58,-96.0,Census,US County,MN,"Stevens County, Minnesota",0,0,0,0,0,0,0,0,174,3911,5251,8721,8293,9778,10185.0,11039,11106,11262.0,11218.0,11322,10634,10053.0,9726.0
22750,15589,US,121725,47.4911111111,-92.8788888889,Census,City,MN,"Chisholm, Minnesota",0,0,0,0,0,0,0,0,0,0,0,0,7684,9039,8308.0,7487,6861,7144.0,5913.0,5930,5290,4960.0,4976.0
22783,13638,US,121923,46.0847222222,-94.8683333333,Census,City,MN,"Browerville, Minnesota",0,0,0,0,0,0,0,0,0,0,86,466,633,681,709.0,786,735,744.0,665.0,693,782,735.0,790.0
22812,12803,US,124616,45.7363888889,-94.9541666667,Census,City,MN,"Sauk Centre, Minnesota",0,0,0,0,0,0,0,0,0,1201,1695,2220,2154,2699,2716.0,3016,3140,3573.0,3750.0,3709,3581,3930.0,4317.0
22817,11516,US,94889,44.02,-93.59,Census,US County,MN,"Waseca County, Minnesota",0,0,0,0,0,0,0,2601,7854,12385,13313,14760,13466,14133,14412.0,15186,14957,16041.0,16663.0,18448,18079,19526.0,19136.0
22839,10387,US,121876,45.6891666667,-96.0133333333,Census,City,MN,"Donnelly, Minnesota",0,0,0,0,0,0,0,0,0,0,0,164,276,354,309.0,370,396,358.0,252.0,317,221,254.0,241.0
22844,9425,US,119884,46.5063888889,-94.0175,Census,City,MN,"Trommald, Minnesota",0,0,0,0,0,0,0,0,0,0,0,0,0,301,242.0,166,117,101.0,82.0,84,80,125.0,98.0
22863,13915,US,120973,43.5197222222,-96.0202777778,Census,City,MN,"Ellsworth, Minnesota",0,0,0,0,0,0,0,0,0,0,258,454,536,667,644.0,660,630,634.0,588.0,629,580,540.0,463.0
22868,10872,US,120679,48.2997222222,-95.62,Census,City,MN,"Grygla, Minnesota",0,0,0,0,0,0,0,0,0,0,0,0,0,155,147.0,183,216,192.0,211.0,216,220,228.0,221.0
22909,10035,US,122010,46.6366666667,-94.8783333333,Census,City,MN,"Nimrod, Minnesota",0,0,0,0,0,0,0,0,0,0,0,0,0,0,0.0,0,112,60.0,64.0,69,65,75.0,69.0
22923,11037,US,119981,43.7655555556,-93.9016666667,Census,City,MN,"Easton, Minnesota",0,0,0,0,0,0,0,0,0,68,180,318,262,326,297.0,332,379,411.0,352.0,283,229,214.0,199.0
22928,10502,US,119334,46.2433333333,-93.2741666667,Census,City,MN,"McGrath, Minnesota",0,0,0,0,0,0,0,0,0,0,0,0,0,0,141.0,138,135,96.0,70.0,81,62,65.0,80.0
22937,9980,US,119950,45.9405555556,-95.4927777778,Census,City,MN,"Garfield, Minnesota",0,0,0,0,0,0,0,0,0,0,0,0,160,176,180.0,203,244,240.0,198.0,284,203,281.0,354.0
22938,37109,US,121052,44.0234,-92.46295,Census,City,MN,"Rochester, Minnesota",0,0,0,0,0,0,0,1424,3953,5103,5321,6843,7844,13722,20621.0,28312,29885,40663.0,53766.0,57890,70745,85806.0,106769.0
22979,10511,US,120381,43.6777777778,-95.1722222222,Census,City,MN,"Lakefield, Minnesota",0,0,0,0,0,0,0,0,0,0,275,862,924,1346,1349.0,1699,1651,1789.0,1820.0,1845,1679,1721.0,1694.0
23070,10678,US,94965,45.95,-93.3,Census,US County,MN,"Kanabec County, Minnesota",0,0,0,0,0,0,0,30,93,505,1579,4614,6461,9086,8558.0,9651,9192,9007.0,9775.0,12161,12802,14996.0,16239.0
23071,18714,US,119621,44.7627777778,-93.6258333333,Census,City,MN,"Carver, Minnesota",0,0,0,0,0,0,0,0,521,683,625,583,571,504,427.0,519,548,467.0,669.0,642,744,1266.0,3724.0
23073,16327,US,124394,45.12,-93.2875,Census,City,MN,"Coon Rapids, Minnesota",0,0,0,0,0,0,0,0,0,0,0,0,0,0,0.0,0,0,14931.0,30505.0,35826,52978,61627.0,61476.0
23077,12397,US,121847,45.5666666667,-94.3166666667,Census,City,MN,"St. Joseph, Minnesota",0,0,0,0,0,0,0,0,0,292,503,549,706,717,1009.0,1055,1246,1487.0,1786.0,2994,3294,4681.0,6534.0
23088,9768,US,120327,47.3963888889,-93.0783333333,Census,City,MN,"Keewatin, Minnesota",0,0,0,0,0,0,0,0,0,0,0,0,695,1879,1807.0,1942,1807,1651.0,1382.0,1443,1118,1164.0,1068.0
23125,11476,US,119835,44.0383333333,-95.3188888889,Census,City,MN,"Storden, Minnesota",0,0,0,0,0,0,0,0,0,0,0,0,0,0,285.0,331,398,390.0,364.0,341,283,274.0,219.0
23130,21503,US,122041,44.8277777778,-92.9438888889,Census,City,MN,"Cottage Grove, Minnesota",0,0,0,0,0,0,0,0,0,0,0,0,0,0,0.0,0,0,0.0,13419.0,18994,22935,30582.0,34589.0
23172,11029,US,121715,47.5333333333,-92.3422222222,Census,City,MN,"Biwabik, Minnesota",0,0,0,0,0,0,0,0,0,0,0,1299,1690,2024,1383.0,1304,1245,1836.0,1483.0,1428,1097,954.0,969.0
23195,11823,US,121428,45.6505555556,-95.3830555556,Census,City,MN,"Glenwood, Minnesota",0,0,0,0,0,0,0,0,0,0,627,1116,2161,2187,2220.0,2564,2666,2631.0,2584.0,2523,2573,2594.0,2564.0
23224,14493,US,94924,46.14,-92.74,Census,US County,MN,"Pine County, Minnesota",0,0,0,0,0,0,0,92,648,1365,4052,11546,15878,21117,20264.0,21478,18223,17004.0,16821.0,19871,21264,26530.0,29750.0
23258,12439,US,94946,48.35,-96.38,Census,US County,MN,"Marshall County, Minnesota",0,0,0,0,0,0,0,0,0,992,9130,15698,16338,19443,17003.0,18364,16125,14262.0,13060.0,13027,10993,10155.0,9439.0
23326,11134,US,121535,44.7902777778,-95.1013888889,Census,City,MN,"Danube, Minnesota",0,0,0,0,0,0,0,0,0,0,0,0,217,300,332.0,350,437,494.0,497.0,590,562,529.0,505.0
23344,3719,US,12921476,,,Census,Neighborhood,MN,"Northrop, Minneapolis",0,0,0,0,0,0,0,0,0,0,0,0,0,0,0.0,0,0,0.0,0.0,4767,4683,4335.0,4369.0
23358,9990,US,121453,45.0561111111,-93.0433333333,Census,City,MN,"Gem Lake, Minnesota",0,0,0,0,0,0,0,0,0,0,0,0,0,0,0.0,0,0,305.0,216.0,394,439,419.0,393.0
23393,9310,US,120520,45.0111111111,-96.4183333333,Census,City,MN,"Marietta, Minnesota",0,0,0,0,0,0,0,0,0,0,0,144,338,413,344.0,400,380,327.0,264.0,279,211,174.0,162.0
23423,23581,US,94995,44.03,-94.06,Census,US County,MN,"Blue Earth County, Minnesota",0,0,0,0,0,0,0,4803,17302,22889,29210,32263,29337,31477,33847.0,36203,38327,44385.0,52322.0,52314,54044,55941.0,64013.0
23429,13114,US,120979,43.825,-95.4875,Census,City,MN,"Kinbrae, Minnesota",0,0,0,0,0,0,0,0,0,0,0,137,137,121,115.0,107,85,55.0,37.0,40,18,21.0,12.0
23444,11800,US,94950,44.41,-95.84,Census,US County,MN,"Lyon County, Minnesota",0,0,0,0,0,0,0,0,0,6257,9501,14591,15722,18837,19328.0,21569,22253,22655.0,24273.0,25207,24789,25425.0,25857.0
23463,4317,US,2723773,,,Census,Neighborhood,MN,"CARAG, Minneapolis",0,0,0,0,0,0,0,0,0,0,0,0,0,0,0.0,0,0,0.0,0.0,6223,5825,5907.0,5647.0
23587,4341,US,2724764,,,Census,Neighborhood,MN,"West Calhoun, Minneapolis",0,0,0,0,0,0,0,0,0,0,0,0,0,0,0.0,0,0,0.0,0.0,1595,1874,1865.0,1740.0
23616,16353,US,119370,45.0522222222,-93.2494444444,Census,City,MN,"Hilltop, Minnesota",0,0,0,0,0,0,0,0,0,0,0,0,0,0,0.0,0,0,607.0,1015.0,817,749,766.0,744.0
23626,12093,US,120789,45.0813888889,-94.3102777778,Census,City,MN,"Dassel, Minnesota",0,0,0,0,0,0,0,0,0,247,552,568,643,804,785.0,872,962,863.0,1058.0,1066,1082,1233.0,1469.0
23636,14460,US,121358,47.5336111111,-96.2833333333,Census,City,MN,"Fertile, Minnesota",0,0,0,0,0,0,0,0,0,0,273,587,614,800,800.0,907,890,968.0,955.0,869,859,893.0,842.0
23639,38519,US,150578,44.1666666667,-94.0,Census,City,MN,"Mankato, Minnesota",0,0,0,0,0,0,0,0,3482,5550,8838,10599,10365,12469,14039.0,15654,18809,23797.0,30895.0,28651,31477,32427.0,39309.0
23652,9776,US,121063,46.4677777778,-95.2311111111,Census,City,MN,"Bluffton, Minnesota",0,0,0,0,0,0,0,0,0,69,0,0,148,220,204.0,234,239,211.0,195.0,206,187,210.0,207.0
23682,33204,US,121743,46.9269444444,-92.9158333333,Census,City,MN,"Floodwood, Minnesota",0,0,0,0,0,0,0,0,0,0,0,224,481,277,343.0,571,667,677.0,650.0,648,574,503.0,528.0
23811,24699,US,120042,43.6478611111,-93.36875,Census,City,MN,"Albert Lea, Minnesota",0,0,0,0,0,0,0,262,0,1966,3305,4500,6192,8056,10169.0,12200,13545,17108.0,19418.0,19200,18310,18356.0,18016.0
23816,4292,US,4020057,,,Census,Neighborhood,MN,"Field, Minneapolis",0,0,0,0,0,0,0,0,0,0,0,0,0,0,0.0,0,0,0.0,0.0,2757,2591,2526.0,2366.0
23832,9524,US,120473,48.6425,-96.9086111111,Census,City,MN,"Kennedy, Minnesota",0,0,0,0,0,0,0,0,0,0,0,158,232,311,279.0,338,480,458.0,424.0,405,337,255.0,193.0
23851,10403,US,150607,44.4063888889,-93.0372222222,Census,City,MN,"Dennison, Minnesota",0,0,0,0,0,0,0,0,0,0,0,0,184,218,262.0,216,163,179.0,203.0,176,152,168.0,212.0
23858,18997,US,94901,45.55,-94.61,Census,US County,MN,"Stearns County, Minnesota",0,0,0,0,0,0,0,4505,14206,21956,34844,44464,47733,55741,62121.0,67200,70681,80345.0,95400.0,108161,118791,133166.0,150642.0
23859,12680,US,120991,43.62,-95.7991666667,Census,City,MN,"Rushmore, Minnesota",0,0,0,0,0,0,0,0,0,99,0,0,237,313,332.0,423,368,382.0,394.0,387,381,376.0,342.0
23914,34227,US,119828,43.9388888889,-94.9297222222,Census,City,MN,"Mountain Lake, Minnesota",0,0,0,0,0,0,0,0,0,0,323,959,1081,1309,1388.0,1745,1733,1943.0,1986.0,2277,1906,2082.0,2104.0
23936,10173,US,150638,46.4744444444,-96.28,Census,City,MN,"Rothsay, Minnesota",0,0,0,0,0,0,0,0,0,0,174,296,343,398,386.0,415,537,457.0,448.0,476,433,497.0,493.0
23945,9982,US,121359,47.8,-96.8,Census,City,MN,"Fisher, Minnesota",0,0,0,0,0,0,0,0,0,239,481,410,328,305,297.0,333,302,326.0,383.0,453,395,435.0,435.0
23949,12171,US,122092,46.2666666667,-96.5833333333,Census,City,MN,"Breckenridge, Minnesota",0,0,0,0,0,0,0,0,0,0,655,1282,1840,2401,2261.0,2745,3623,4335.0,4200.0,3909,3708,3559.0,3386.0
23950,13985,US,121565,44.4333333333,-93.2,Census,City,MN,"Dundas, Minnesota",0,0,0,0,0,0,0,0,0,580,554,493,357,373,377.0,456,469,488.0,460.0,422,473,547.0,1367.0
23954,11780,US,121691,44.5288888889,-93.9077777778,Census,City,MN,"Henderson, Minnesota",0,0,0,0,0,0,0,0,706,964,909,904,753,766,672.0,820,762,728.0,730.0,739,746,910.0,886.0
23968,10056,US,120016,43.7413888889,-92.1355555556,Census,City,MN,"Fountain, Minnesota",0,0,0,0,0,0,0,0,0,266,248,294,321,340,303.0,306,312,297.0,347.0,327,327,343.0,410.0
23974,12197,US,94895,46.07,-94.9,Census,US County,MN,"Todd County, Minnesota",0,0,0,0,0,0,0,430,2036,6133,12930,22214,23407,26059,26170.0,27438,25420,23119.0,22114.0,24991,23363,24426.0,24895.0
24049,10945,US,120052,43.7661111111,-93.5633333333,Census,City,MN,"Freeborn, Minnesota",0,0,0,0,0,0,0,0,0,72,89,0,0,0,0.0,0,0,314.0,296.0,323,301,305.0,297.0
24173,11026,US,122178,44.7911111111,-95.8033333333,Census,City,MN,"Clarkfield, Minnesota",0,0,0,0,0,0,0,0,0,0,178,437,603,724,802.0,965,1012,1100.0,1084.0,1171,924,944.0,863.0
24175,13129,US,94977,43.68,-92.09,Census,US County,MN,"Fillmore County, Minnesota",0,0,0,0,0,0,0,13542,24887,28162,25996,28288,25680,25330,24748.0,25830,24465,23768.0,21916.0,21930,20777,21122.0,20866.0
24189,10593,US,120645,47.3158333333,-95.9694444444,Census,City,MN,"Mahnomen, Minnesota",0,0,0,0,0,0,0,0,0,0,0,0,796,1076,989.0,1429,1464,1462.0,1313.0,1283,1154,1202.0,1214.0
24192,11991,US,120170,45.1038888889,-93.5738888889,Census,City,MN,"Corcoran, Minnesota",0,0,0,0,0,0,0,0,0,0,0,0,0,0,0.0,0,0,1237.0,1656.0,4252,5199,5630.0,5379.0
24247,5380,US,7049501,,,Census,Community,MN,"Phillips, Minneapolis",0,0,0,0,0,0,0,0,0,0,0,0,0,0,0.0,0,0,0.0,0.0,17413,17247,19805.0,20315.0
24249,10144,US,122118,44.0697222222,-91.9391666667,Census,City,MN,"Altura, Minnesota",0,0,0,0,0,0,0,0,0,0,0,0,200,189,256.0,258,269,320.0,334.0,354,349,417.0,493.0
24263,16505,US,122034,44.0788888889,-93.5063888889,Census,City,MN,"Waseca, Minnesota",0,0,0,0,0,0,0,0,551,1708,2482,3103,3054,3908,3815.0,4270,4927,5898.0,6789.0,8219,8385,8493.0,9410.0
24313,9803,US,121330,44.0086111111,-96.1,Census,City,MN,"Woodstock, Minnesota",0,0,0,0,0,0,0,0,0,0,0,211,226,277,235.0,253,277,213.0,217.0,180,159,132.0,124.0
24354,11053,US,122009,46.7530555556,-95.0997222222,Census,City,MN,"Menahga, Minnesota",0,0,0,0,0,0,0,0,0,0,0,413,346,478,486.0,768,849,799.0,835.0,980,1076,1220.0,1306.0
24376,10836,US,121531,44.7366666667,-94.6183333333,Census,City,MN,"Buffalo Lake, Minnesota",0,0,0,0,0,0,0,0,0,0,0,389,371,468,545.0,637,724,707.0,758.0,782,734,768.0,733.0
24430,13345,US,120820,45.7566666667,-93.6513888889,Census,City,MN,"Milaca, Minnesota",0,0,0,0,0,0,0,0,0,0,404,1204,1102,1347,1318.0,1627,1917,1821.0,1940.0,2104,2182,2580.0,2946.0
24445,8763,US,120070,43.5627777778,-93.1627777778,Census,City,MN,"Myrtle, Minnesota",0,0,0,0,0,0,0,0,0,0,0,0,0,0,0.0,133,136,89.0,83.0,86,72,63.0,48.0
24509,10740,US,120463,48.7722222222,-96.9438888889,Census,City,MN,"Hallock, Minnesota",0,0,0,0,0,0,0,0,0,0,302,805,910,1012,869.0,1353,1552,1527.0,1477.0,1405,1304,1196.0,981.0
24572,9807,US,121914,45.2238888889,-95.3922222222,Census,City,MN,"Murdock, Minnesota",0,0,0,0,0,0,0,0,0,0,130,275,288,391,326.0,334,393,381.0,358.0,343,282,303.0,278.0
24612,28811,US,1106365,44.9555555556,-93.2777777778,Census,Neighborhood,MN,"Whittier, Minneapolis",0,0,0,0,0,0,0,0,0,0,0,0,0,0,0.0,0,0,0.0,0.0,12729,13051,15247.0,13689.0
24624,11454,US,119366,45.3269444444,-93.21,Census,City,MN,"East Bethel, Minnesota",0,0,0,0,0,0,0,0,0,0,0,0,0,0,0.0,0,0,1408.0,2586.0,6626,8050,10941.0,11626.0
24637,11247,US,121203,46.595,-95.5738888889,Census,City,MN,"Perham, Minnesota",0,0,0,0,0,0,0,0,0,269,761,1182,1376,1370,1411.0,1534,1926,2019.0,1933.0,2086,2075,2559.0,2985.0
24654,10565,US,120365,43.6383333333,-94.8716666667,Census,City,MN,"Alpha, Minnesota",0,0,0,0,0,0,0,0,0,0,0,209,223,261,209.0,229,230,207.0,179.0,180,105,126.0,116.0
24656,4733,US,7066394,,,Census,Neighborhood,MN,"Cedar-Isles-Dean, Minneapolis",0,0,0,0,0,0,0,0,0,0,0,0,0,0,0.0,0,0,0.0,0.0,2035,2243,2698.0,2925.0
24673,9459,US,119772,46.7788888889,-96.6536111111,Census,City,MN,"Sabin, Minnesota",0,0,0,0,0,0,0,0,0,0,0,0,0,0,197.0,210,211,251.0,333.0,446,495,421.0,522.0
24681,16858,US,121885,45.585,-95.91,Census,City,MN,"Morris, Minnesota",0,0,0,0,0,0,0,0,0,748,1266,1934,1685,2320,2474.0,3214,3811,4199.0,5366.0,5367,5613,5068.0,5286.0
24689,21955,US,120220,45.0105555556,-93.4555555556,Census,City,MN,"Plymouth, Minnesota",0,0,0,0,0,0,0,0,0,0,1053,1154,1221,1275,1683.0,2989,5813,9576.0,18077.0,31615,50889,65894.0,70576.0
24711,12890,US,120971,43.8447222222,-95.4677777778,Census,City,MN,"Dundee, Minnesota",0,0,0,0,0,0,0,0,0,0,0,217,175,215,192.0,222,179,148.0,138.0,129,107,102.0,68.0
24744,10270,US,120413,45.9130555556,-93.1766666667,Census,City,MN,"Quamba, Minnesota",0,0,0,0,0,0,0,0,0,0,0,0,0,0,0.0,0,0,95.0,114.0,122,124,98.0,123.0
24760,6880,US,823202,,,Census,Neighborhood,MN,"Holland, Minneapolis",0,0,0,0,0,0,0,0,0,0,0,0,0,0,0.0,0,0,0.0,0.0,4185,4328,4381.0,4507.0
24772,20028,US,121460,45.0141666667,-93.1530555556,Census,City,MN,"Roseville, Minnesota",0,0,0,0,0,0,0,0,0,0,0,0,0,0,0.0,0,6437,23997.0,34438.0,35820,33485,33690.0,33660.0
24886,10555,US,121236,48.1438888889,-95.8058333333,Census,City,MN,"Goodridge, Minnesota",0,0,0,0,0,0,0,0,0,0,0,0,0,231,171.0,174,144,134.0,144.0,191,115,98.0,132.0
24928,9121,US,120224,,,Census,City,MN,"Tonka Bay, Minnesota",0,0,0,0,0,0,0,0,0,0,0,0,107,84,193.0,361,899,1204.0,1397.0,1354,1472,1547.0,1475.0
24995,10163,US,120616,44.3866666667,-95.8919444444,Census,City,MN,"Lynd, Minnesota",0,0,0,0,0,0,0,0,0,0,0,0,0,0,0.0,0,0,259.0,267.0,304,287,346.0,448.0
25025,8074,US,120445,45.4055555556,-94.8472222222,Census,City,MN,"Regal, Minnesota",0,0,0,0,0,0,0,0,0,0,0,0,0,0,0.0,0,64,53.0,44.0,70,51,40.0,34.0
25074,10346,US,150588,46.335,-94.6458333333,Census,City,MN,"Motley, Minnesota",0,0,0,0,0,0,0,0,0,199,525,404,428,396,397.0,368,435,430.0,351.0,444,441,585.0,671.0
25097,16900,US,94984,,,Census,US County,MN,"Cook County, Minnesota",0,0,0,0,0,0,0,0,0,65,98,810,1336,1841,2435.0,3030,2900,3377.0,3423.0,4092,3868,5168.0,5176.0
25107,8830,US,119469,47.5197222222,-95.1305555556,Census,City,MN,"Solway, Minnesota",0,0,0,0,0,0,0,0,0,0,0,177,85,106,104.0,136,124,100.0,96.0,89,74,69.0,96.0
25168,9843,US,119909,44.525,-93.0194444444,Census,City,MN,"Randolph, Minnesota",0,0,0,0,0,0,0,0,0,0,0,0,182,170,214.0,236,259,315.0,350.0,351,331,318.0,436.0
25193,9669,US,121872,45.5736111111,-96.0483333333,Census,City,MN,"Alberta, Minnesota",0,0,0,0,0,0,0,0,0,0,0,0,0,109,153.0,200,139,149.0,140.0,145,136,142.0,103.0
25212,7605,US,8229652,,,Census,Neighborhood,MN,"St. Anthony West, Minneapolis",0,0,0,0,0,0,0,0,0,0,0,0,0,0,0.0,0,0,0.0,0.0,2134,2359,2623.0,2200.0
25224,16624,US,120927,43.87,-95.6,Census,City,MN,"Fulda, Minnesota",0,0,0,0,0,0,0,0,0,150,348,886,743,893,818.0,984,1149,1202.0,1226.0,1308,1212,1283.0,1318.0
25280,4487,US,7049740,,,Census,Neighborhood,MN,"Ventura Village, Minneapolis",0,0,0,0,0,0,0,0,0,0,0,0,0,0,0.0,0,0,0.0,0.0,0,0,6769.0,6537.0
25337,21391,US,150644,45.0697222222,-93.0111111111,Census,City,MN,"White Bear Lake, Minnesota",0,0,0,0,0,0,0,0,0,435,1356,1288,1505,2022,2600.0,2858,3646,12849.0,23313.0,22538,24704,24325.0,23797.0
25376,10227,US,119928,43.8891666667,-92.8461111111,Census,City,MN,"Hayfield, Minnesota",0,0,0,0,0,0,0,0,0,0,0,439,586,799,730.0,742,805,889.0,939.0,1243,1283,1325.0,1340.0
25397,49776,US,124468,44.8336111111,-93.31,Census,City,MN,"Bloomington, Minnesota",0,0,0,0,0,0,0,0,0,820,959,1085,1161,1330,2645.0,3647,9902,50498.0,81971.0,81831,86355,85172.0,82893.0
25416,9014,US,121411,47.7805555556,-95.695,Census,City,MN,"Trail, Minnesota",0,0,0,0,0,0,0,0,0,0,0,0,0,0,0.0,0,0,100.0,99.0,97,77,62.0,46.0
25422,14468,US,121996,44.3794444444,-92.0355555556,Census,City,MN,"Wabasha, Minnesota",0,0,0,0,0,0,0,0,1739,2088,2489,2528,2622,2249,2212.0,2368,2468,2500.0,2371.0,2372,2384,2599.0,2521.0
25429,10045,US,121279,46.3397222222,-92.5858333333,Census,City,MN,"Kerrick, Minnesota",0,0,0,0,0,0,0,0,0,0,0,0,0,0,0.0,0,81,110.0,114.0,79,56,71.0,65.0
25475,9959,US,120923,44.0533333333,-95.5491666667,Census,City,MN,"Dovray, Minnesota",0,0,0,0,0,0,0,0,0,0,0,0,0,0,103.0,128,127,113.0,104.0,87,60,67.0,57.0
25487,10034,US,119711,45.1105555556,-95.9122222222,Census,City,MN,"Milan, Minnesota",0,0,0,0,0,0,0,0,0,0,0,396,468,590,548.0,624,561,482.0,427.0,417,353,326.0,369.0
25528,10585,US,120214,,,Census,City,MN,"Minnetrista, Minnesota",0,0,0,0,0,0,0,0,0,0,0,0,0,0,0.0,0,0,0.0,2878.0,3236,3439,4358.0,6384.0
25591,9006,US,121476,47.9116666667,-96.0425,Census,City,MN,"Plummer, Minnesota",0,0,0,0,0,0,0,0,0,0,0,0,139,252,279.0,312,340,283.0,285.0,353,277,270.0,292.0
25619,35095,US,94907,47.58,-92.46,Census,US County,MN,"St. Louis County, Minnesota",0,0,0,0,0,0,0,406,4561,4504,44862,82932,163274,206391,204596.0,206917,206062,231588.0,220693.0,222229,198213,200528.0,200226.0
25652,9575,US,120441,45.1494444444,-95.1755555556,Census,City,MN,"Pennock, Minnesota",0,0,0,0,0,0,0,0,0,0,0,0,189,251,191.0,219,238,257.0,255.0,410,476,504.0,508.0
25721,17073,US,150592,44.8105555556,-95.5433333333,Census,City,MN,"Granite Falls, Minnesota",0,0,0,0,0,0,0,0,0,578,800,1214,1454,1611,1791.0,2388,2511,2728.0,3225.0,3451,3083,3070.0,2897.0
25749,9834,US,119944,45.9719444444,-95.2925,Census,City,MN,"Carlos, Minnesota",0,0,0,0,0,0,0,0,0,0,0,0,167,208,178.0,187,233,262.0,278.0,364,361,329.0,502.0
25830,13418,US,119840,46.3483333333,-94.2686111111,Census,City,MN,"Baxter, Minnesota",0,0,0,0,0,0,0,0,0,0,0,0,0,0,169.0,357,507,1037.0,1556.0,2625,3695,5555.0,7610.0
25843,10311,US,120886,43.7402777778,-92.8675,Census,City,MN,"Brownsdale, Minnesota",0,0,0,0,0,0,0,0,0,346,282,261,264,271,273.0,355,493,622.0,625.0,691,695,718.0,676.0
25848,10253,US,120833,46.1227777778,-93.52,Census,City,MN,"Wahkon, Minnesota",0,0,0,0,0,0,0,0,0,0,0,0,0,292,228.0,273,202,172.0,208.0,271,197,314.0,206.0
25864,3663,US,12921354,,,Census,Neighborhood,MN,"Regina, Minneapolis",0,0,0,0,0,0,0,0,0,0,0,0,0,0,0.0,0,0,0.0,0.0,2550,2474,2489.0,2292.0
25867,21984,US,121567,44.2905888889,-93.2683194444,Census,City,MN,"Faribault, Minnesota",0,0,0,0,0,0,0,0,3045,5415,6520,7868,9001,11089,12767.0,14527,16028,16926.0,16595.0,16241,17085,20818.0,23352.0
25936,10476,US,120494,48.1894444444,-93.8077777778,Census,City,MN,"Big Falls, Minnesota",0,0,0,0,0,0,0,0,0,0,0,0,325,365,440.0,509,441,526.0,534.0,490,341,264.0,236.0
25950,11725,US,119634,,,Census,City,MN,"Waconia, Minnesota",0,0,0,0,0,0,0,0,0,218,441,728,817,901,1291.0,1315,1569,2048.0,2445.0,2638,3498,6814.0,10697.0
25968,14319,US,121637,48.9052777778,-95.3144444444,Census,City,MN,"Warroad, Minnesota",0,0,0,0,0,0,0,0,0,0,0,238,927,1211,1184.0,1309,1276,1309.0,1086.0,1216,1679,1722.0,1781.0
26020,13722,US,119631,44.7666666667,-93.9166666667,Census,City,MN,"Norwood Young America, Minnesota",0,0,0,0,0,0,0,0,0,0,0,0,0,0,0.0,0,0,0.0,0.0,0,0,3108.0,3549.0
26052,10541,US,121075,46.1733333333,-95.9166666667,Census,City,MN,"Dalton, Minnesota",0,0,0,0,0,0,0,0,0,0,0,0,175,200,182.0,226,279,239.0,221.0,248,234,258.0,253.0
26104,1950,US,47434780,44.5830555556,-95.0472222222,Census,Unincorporated Community,MN,"Beaver Falls, Minnesota",0,0,0,0,0,0,0,0,0,0,0,189,0,0,0.0,0,0,0.0,0.0,0,0,0.0,0.0
26141,17734,US,120377,43.6208333333,-94.9886111111,Census,City,MN,"Jackson, Minnesota",0,0,0,0,0,0,0,0,0,501,720,1756,1907,2144,2206.0,2840,3313,3370.0,3550.0,3797,3559,3501.0,3299.0
26191,11270,US,120846,45.9488888889,-94.5325,Census,City,MN,"Flensburg, Minnesota",0,0,0,0,0,0,0,0,0,0,0,0,0,210,284.0,275,281,280.0,259.0,256,213,244.0,225.0
26196,13476,US,120189,45.0977777778,-93.6847222222,Census,City,MN,"Greenfield, Minnesota",0,0,0,0,0,0,0,0,0,0,0,0,0,0,0.0,0,0,639.0,977.0,1391,1450,2544.0,2777.0
26200,17165,US,94962,48.26,-93.77,Census,US County,MN,"Koochiching County, Minnesota",0,0,0,0,0,0,0,0,0,0,0,0,6431,13520,14078.0,16930,16910,18190.0,17131.0,17571,16299,14355.0,13311.0
26222,5393,US,6794044,,,Census,Community,MN,"Camden, Minneapolis",0,0,0,0,0,0,0,0,0,0,0,0,0,0,0.0,0,0,0.0,0.0,29652,28776,31698.0,28778.0
26236,11107,US,119974,43.5605555556,-93.8119444444,Census,City,MN,"Bricelyn, Minnesota",0,0,0,0,0,0,0,0,0,0,0,166,352,564,509.0,601,639,542.0,470.0,487,426,379.0,365.0
26238,31709,US,119578,44.3119444444,-94.4630555556,Census,City,MN,"New Ulm, Minnesota",0,0,0,0,0,0,0,635,1310,2471,3741,5403,5648,6745,7308.0,8743,9348,11114.0,13051.0,13755,13132,13594.0,13522.0
26291,10760,US,120056,43.8227777778,-93.2686111111,Census,City,MN,"Geneva, Minnesota",0,0,0,0,0,0,0,0,0,0,0,218,140,207,245.0,313,332,347.0,358.0,417,444,449.0,555.0
26317,9005,US,120059,43.8044444444,-93.4855555556,Census,City,MN,"Hartland, Minnesota",0,0,0,0,0,0,0,0,0,107,0,317,227,229,228.0,224,300,330.0,331.0,322,270,288.0,315.0
26339,10607,US,121191,46.15,-95.3333333333,Census,City,MN,"Parkers Prairie, Minnesota",0,0,0,0,0,0,0,0,0,0,0,0,383,570,631.0,781,900,884.0,882.0,917,956,991.0,1011.0
26362,23394,US,120221,44.882026,-93.268447,Census,City,MN,"Richfield, Minnesota",0,0,0,0,0,0,0,0,0,0,0,0,2673,2411,3344.0,3778,17502,42523.0,47231.0,37851,35710,34439.0,35228.0
26381,8815,US,119517,45.5722222222,-96.2963888889,Census,City,MN,"Johnson, Minnesota",0,0,0,0,0,0,0,0,0,0,0,0,192,100,96.0,101,54,64.0,53.0,57,46,32.0,29.0
26385,11344,US,121807,45.4513888889,-95.0033333333,Census,City,MN,"Belgrade, Minnesota",0,0,0,0,0,0,0,0,0,0,366,450,448,487,508.0,553,659,666.0,713.0,805,700,750.0,740.0
26410,27796,US,120960,44.3333333333,-93.9666666667,Census,City,MN,"St. Peter, Minnesota",0,0,0,0,0,0,0,0,2124,3436,3671,4302,4176,4335,4811.0,5870,7754,8484.0,8339.0,9056,9421,9747.0,11196.0
26428,16648,US,120218,45.1172222222,-93.3994444444,Census,City,MN,"Osseo, Minnesota",0,0,0,0,0,0,0,0,0,206,353,346,390,433,561.0,738,1167,2104.0,2908.0,2974,2704,2434.0,2430.0
26463,15727,US,150637,45.5727777778,-93.5852777778,Census,City,MN,"Princeton, Minnesota",0,0,0,0,0,0,0,0,0,587,816,1319,1555,1685,1636.0,1865,2108,2353.0,2531.0,3146,3719,3933.0,4698.0
26474,5036,US,1870103,,,Census,Neighborhood,MN,"Lowry Hill, Minneapolis",0,0,0,0,0,0,0,0,0,0,0,0,0,0,0.0,0,0,0.0,0.0,3964,3792,3999.0,3760.0
26482,9622,US,121779,48.0611111111,-92.8291666667,Census,City,MN,"Orr, Minnesota",0,0,0,0,0,0,0,0,0,0,0,0,0,0,0.0,234,309,361.0,315.0,294,265,249.0,267.0
26514,20925,US,120164,45.0941666667,-93.3561111111,Census,City,MN,"Brooklyn Park, Minnesota",0,0,0,0,0,0,0,0,0,0,0,0,0,0,0.0,0,0,10197.0,26230.0,43332,56381,67388.0,75781.0
26540,9668,US,119901,44.9005555556,-93.1394444444,Census,City,MN,"Lilydale, Minnesota",0,0,0,0,0,0,0,0,0,0,0,0,0,0,0.0,0,0,116.0,322.0,417,506,552.0,623.0
26561,11696,US,120631,44.2333333333,-95.6166666667,Census,city,MN,"Tracy, Minnesota",0,0,0,0,0,0,0,0,0,322,1400,1911,1876,2463,2570.0,3085,3020,2862.0,2516.0,2478,2059,2268.0,2163.0
26595,8562,US,119553,44.0077777778,-93.7830555556,Census,City,MN,"Pemberton, Minnesota",0,0,0,0,0,0,0,0,0,0,0,0,0,0,0.0,0,152,177.0,128.0,208,228,246.0,247.0
26600,12852,US,119923,44.0447222222,-92.9983333333,Census,City,MN,"Claremont, Minnesota",0,0,0,0,0,0,0,0,0,269,0,317,275,334,373.0,398,426,466.0,520.0,591,530,620.0,548.0
26689,17586,US,120186,44.9925,-93.3591666667,Census,City,MN,"Golden Valley, Minnesota",0,0,0,0,0,0,0,0,0,0,509,680,692,830,1320.0,2048,5551,14559.0,24246.0,22775,20971,20281.0,20371.0
26758,13585,US,121805,45.6088888889,-94.4519444444,Census,City,MN,"Avon, Minnesota",0,0,0,0,0,0,0,0,0,0,0,162,277,709,362.0,403,386,443.0,725.0,804,970,1242.0,1396.0
26761,11172,US,119546,44.2038888889,-93.8133333333,Census,City,MN,"Madison Lake, Minnesota",0,0,0,0,0,0,0,0,0,0,0,300,335,359,365.0,377,357,477.0,587.0,592,643,837.0,1017.0
26762,80619,US,120883,43.6666666667,-92.9666666667,Census,City,MN,"Austin, Minnesota",0,0,0,0,0,0,0,200,2039,2305,3901,5474,6960,10118,12276.0,18307,23100,27908.0,25074.0,23020,21907,23314.0,24718.0
26766,10092,US,121495,44.4091666667,-95.4116666667,Census,City,MN,"Lucan, Minnesota",0,0,0,0,0,0,0,0,0,0,0,0,98,181,182.0,226,246,216.0,254.0,262,235,226.0,191.0
26921,8605,US,120874,45.9133333333,-94.4747222222,Census,City,MN,"Sobieski, Minnesota",0,0,0,0,0,0,0,0,0,0,0,0,0,203,250.0,171,189,190.0,189.0,219,199,196.0,195.0
26970,14337,US,120081,44.5102777778,-92.9044444444,Census,City,MN,"Cannon Falls, Minnesota",0,0,0,0,0,0,0,0,0,942,1078,1239,1385,1315,1358.0,1544,1831,2055.0,2072.0,2653,3232,3795.0,4083.0
26977,9681,US,120498,47.9252777778,-94.2063888889,Census,City,MN,"Mizpah, Minnesota",0,0,0,0,0,0,0,0,0,0,0,0,149,212,190.0,173,166,140.0,118.0,129,100,78.0,56.0
27064,26886,US,120211,44.9133333333,-93.5033333333,Census,City,MN,"Minnetonka, Minnesota",0,0,0,0,0,0,0,0,0,161,0,0,0,0,0.0,0,0,25037.0,35776.0,38683,48370,51301.0,49734.0
27073,10252,US,119758,46.9769444444,-96.2561111111,Census,City,MN,"Hitterdal, Minnesota",0,0,0,0,0,0,0,0,0,0,0,0,0,204,198.0,268,262,235.0,201.0,253,242,201.0,201.0
27123,4754,US,30981760,43.8955555556,-91.3433333333,Census,Unincorporated community,MN,"Dresbach, Minnesota",0,0,0,0,0,0,0,0,0,0,0,285,174,176,0.0,0,0,0.0,0.0,0,0,0.0,0.0
27155,18407,US,122064,45.05,-92.8166666667,Census,City,MN,"Stillwater, Minnesota",0,0,0,0,0,0,0,2380,4124,9055,11260,12818,10198,7735,7173.0,7013,7674,8310.0,10191.0,12290,13882,15143.0,18225.0
27159,11069,US,121010,47.3513888889,-96.8255555556,Census,City,MN,"Halstad, Minnesota",0,0,0,0,0,0,0,0,0,0,0,442,494,528,535.0,570,635,639.0,598.0,690,611,622.0,597.0
27316,10435,US,119618,46.6719444444,-93.0069444444,Census,City,MN,"Wright, Minnesota",0,0,0,0,0,0,0,0,0,0,0,0,0,0,191.0,201,199,169.0,132.0,162,144,93.0,127.0
27329,10160,US,120401,45.7941666667,-93.1483333333,Census,City,MN,"Grasston, Minnesota",0,0,0,0,0,0,0,0,0,0,0,0,189,239,229.0,144,154,146.0,132.0,123,119,105.0,158.0
27334,9742,US,5147816,44.7677777778,-93.2775,Census,City,MN,"Elko New Market, Minnesota",0,0,0,0,0,0,0,0,0,0,0,0,0,0,0.0,0,0,0.0,0.0,0,0,3972.0,4110.0
27383,9122,US,120910,43.5583333333,-92.6405555556,Census,City,MN,"Taopi, Minnesota",0,0,0,0,0,0,0,0,0,0,0,115,140,153,102.0,151,118,92.0,59.0,96,83,93.0,58.0
27389,14943,US,119756,46.8802777778,-96.3180555556,Census,City,MN,"Hawley, Minnesota",0,0,0,0,0,0,0,0,0,77,270,526,800,939,958.0,1122,1196,1270.0,1371.0,1634,1655,1882.0,2067.0
27413,12569,US,121675,45.4438888889,-93.5908333333,Census,City,MN,"Zimmerman, Minnesota",0,0,0,0,0,0,0,0,0,0,0,0,175,240,206.0,188,169,302.0,495.0,1074,1350,2851.0,5228.0
27441,16151,US,150615,43.8266666667,-91.305,Census,City,MN,"La Crescent, Minnesota",0,0,0,0,0,0,0,0,380,326,0,0,372,373,520.0,815,1229,2624.0,3296.0,3674,4311,4923.0,4830.0
27455,10535,US,120530,47.2580555556,-91.3011111111,Census,City,MN,"Beaver Bay, Minnesota",0,0,0,0,0,0,0,0,0,0,0,0,0,0,0.0,0,0,287.0,362.0,283,147,175.0,181.0
27479,11599,US,119660,46.9288888889,-94.5216666667,Census,City,MN,"Hackensack, Minnesota",0,0,0,0,0,0,0,0,0,0,0,0,84,200,256.0,264,272,204.0,220.0,285,245,285.0,313.0
27511,8857,US,120212,44.9394444444,-93.5916666667,Census,City,MN,"Minnetonka Beach, Minnesota",0,0,0,0,0,0,0,0,0,0,0,101,166,94,112.0,229,376,544.0,586.0,575,573,614.0,539.0
27628,6416,US,6790616,,,Census,Community,MN,"Central, Minneapolis",0,0,0,0,0,0,0,0,0,0,0,0,0,0,0.0,0,0,0.0,0.0,18952,21158,24149.0,29725.0
27670,5871,US,7051258,,,Census,Neighborhood,MN,"Lind-Bohanon, Minneapolis",0,0,0,0,0,0,0,0,0,0,0,0,0,0,0.0,0,0,0.0,0.0,4932,4449,4401.0,4569.0
27752,9070,US,120135,45.8686111111,-96.1944444444,Census,City,MN,"Norcross, Minnesota",0,0,0,0,0,0,0,0,0,0,0,0,177,195,163.0,180,179,153.0,137.0,124,86,59.0,70.0
27764,8746,US,121952,45.7991666667,-95.0847222222,Census,City,MN,"West Union, Minnesota",0,0,0,0,0,0,0,0,0,0,0,0,161,169,132.0,78,100,83.0,71.0,74,54,87.0,111.0
27774,12864,US,136022,45.9941666667,-95.9766666667,Census,City,MN,"Elbow Lake, Grant County, Minnesota",0,0,0,0,0,0,0,0,0,0,267,625,776,867,903.0,1150,1398,1521.0,1484.0,1358,1186,1275.0,1176.0
27776,11168,US,124578,45.1047222222,-93.2061111111,Census,City,MN,"Mounds View, Minnesota",0,0,0,0,0,0,0,0,0,0,0,0,0,0,0.0,0,0,6416.0,10599.0,12593,12541,12738.0,12155.0
27793,9735,US,120608,44.2369444444,-96.0516666667,Census,City,MN,"Florence, Minnesota",0,0,0,0,0,0,0,0,0,0,0,0,0,0,108.0,149,137,87.0,58.0,55,53,61.0,39.0
27802,9846,US,120234,43.5083333333,-91.4647222222,Census,City,MN,"Eitzen, Minnesota",0,0,0,0,0,0,0,0,0,0,0,0,0,0,0.0,0,151,181.0,208.0,226,221,229.0,243.0
