,article_length,country,id,lat,lon,poptype,settlement_type,state,title,y1790,y1800,y1810,y1820,y1830,y1840,y1850,y1860,y1870,y1880,y1890,y1900,y1910,y1920,y1930,y1940,y1950,y1960,y1970,y1980,y1990,y2000,y2010
46,6179,US,127822,34.2927777778,-78.7069444444,Census,Town,NC,"Brunswick, North Carolina",0,0,0,0,0,0,0,0,0,0,0,0,0,0,416.0,227,190,169.0,206.0,223,302,360.0,1119.0
96,8048,US,128021,35.8,-82.6747222222,Census,Town,NC,"Marshall, North Carolina",0,0,0,0,0,0,0,0,0,175,203,337,802,748,1132.0,1160,983,926.0,982.0,809,809,840.0,872.0
151,13609,US,128255,35.2255555556,-80.12,Census,Town,NC,"Norwood, North Carolina",0,0,0,0,0,0,0,0,0,0,159,663,928,1221,1452.0,1515,1735,1844.0,1896.0,1818,1617,2216.0,2379.0
169,9240,US,127843,35.0952777778,-78.7866666667,Census,Town,NC,"Eastover, North Carolina",0,0,0,0,0,0,0,0,0,0,0,0,0,0,0.0,0,0,0.0,0.0,1075,1243,1376.0,3628.0
186,6718,US,128401,35.6536111111,-77.7763888889,Census,Town,NC,"Saratoga, North Carolina",0,0,0,0,0,0,0,0,0,81,102,123,136,0,0.0,292,366,409.0,391.0,381,342,379.0,408.0
214,7087,US,127874,34.8955555556,-78.055,Census,Town,NC,"Magnolia, North Carolina",0,0,0,0,0,0,0,0,0,403,460,454,653,694,802.0,730,585,629.0,614.0,592,747,932.0,939.0
217,24581,US,150835,35.8275,-78.8288888889,Census,Town,NC,"Morrisville, North Carolina",0,0,0,0,0,0,0,0,0,165,149,100,151,166,161.0,0,221,222.0,209.0,251,1022,5208.0,18576.0
224,7293,US,128402,35.76,-78.0588888889,Census,Town,NC,"Sims, North Carolina",0,0,0,0,0,0,0,0,0,0,0,0,0,0,122.0,173,207,205.0,205.0,192,124,128.0,282.0
249,7943,US,128265,36.2961111111,-80.1411111111,Census,Town,NC,"Walnut Cove, North Carolina",0,0,0,0,0,0,0,0,0,0,320,336,480,651,1081.0,1084,1132,1288.0,1213.0,1147,1088,1465.0,1425.0
347,9814,US,150855,34.7380555556,-79.3511111111,Census,Town,NC,"Maxton, North Carolina",0,0,0,0,0,0,0,0,0,0,694,935,1321,1397,1386.0,1656,1974,1755.0,1885.0,2711,2373,2551.0,2426.0
414,11515,US,128133,35.4711111111,-77.4208333333,Census,Town,NC,"Ayden, North Carolina",0,0,0,0,0,0,0,0,0,0,0,557,990,1673,1607.0,1884,2282,3108.0,3450.0,4361,4740,4622.0,4932.0
483,7805,US,127764,34.6877777778,-76.8913888889,Census,Town,NC,"Indian Beach, North Carolina",0,0,0,0,0,0,0,0,0,0,0,0,0,0,0.0,0,0,0.0,0.0,54,153,95.0,112.0
484,6723,US,127642,34.8633333333,-80.0,Census,Town,NC,"Morven, North Carolina",0,0,0,0,0,0,0,0,0,0,0,447,498,631,590.0,602,601,518.0,562.0,765,590,579.0,511.0
510,15490,US,127656,35.4744444444,-76.8088888889,Census,Town,NC,"Bath, North Carolina",0,0,0,0,0,0,0,0,0,89,0,400,283,274,361.0,380,381,346.0,231.0,207,154,275.0,249.0
615,8720,US,127893,36.1591666667,-80.1677777778,Census,Town,NC,"Walkertown, North Carolina",0,0,0,0,0,0,0,0,0,0,0,0,0,0,0.0,0,0,0.0,0.0,0,1200,4009.0,4675.0
619,10243,US,127637,35.9177777778,-81.1744444444,Census,Town,NC,"Taylorsville, North Carolina",0,0,0,0,0,0,0,0,169,180,0,413,662,1122,926.0,1122,1310,1470.0,1231.0,1103,1566,1799.0,2098.0
659,8497,US,127937,36.4341666667,-77.9116666667,Census,Town,NC,"Littleton, North Carolina",0,0,0,0,0,0,0,0,0,113,534,0,1152,1010,1133.0,1200,1173,1024.0,903.0,820,691,692.0,674.0
690,16398,US,128116,35.0258333333,-76.8288888889,Census,Town,NC,"Arapahoe, North Carolina",0,0,0,0,0,0,0,0,0,0,0,0,0,0,290.0,307,273,274.0,212.0,467,430,436.0,556.0
692,12333,US,128038,35.6294444444,-82.1791666667,Census,Town,NC,"Old Fort, North Carolina",0,0,0,0,0,0,0,0,0,0,249,253,778,931,866.0,774,771,787.0,676.0,752,720,963.0,908.0
706,6755,US,127880,35.9922222222,-77.58,Census,Town,NC,"Leggett, North Carolina",0,0,0,0,0,0,0,0,0,0,0,0,0,0,0.0,0,0,0.0,120.0,99,108,77.0,60.0
748,4117,US,8916078,36.1794444444,-79.5066666667,Census,town|nickname = |motto =,NC,"Ossipee, North Carolina",0,0,0,0,0,0,0,0,0,0,0,0,0,0,0.0,0,0,0.0,0.0,0,0,0.0,543.0
779,7306,US,150838,36.1058333333,-77.7136111111,Census,Town,NC,"Whitakers, North Carolina",0,0,0,0,0,0,0,0,0,0,0,388,755,723,930.0,883,962,1004.0,926.0,924,860,799.0,744.0
808,6177,US,128235,34.7688888889,-79.4447222222,Census,Town,NC,"East Laurinburg, North Carolina",0,0,0,0,0,0,0,0,0,0,0,0,577,541,813.0,890,745,695.0,487.0,536,302,295.0,300.0
815,6023,US,128154,34.9033333333,-79.6911111111,Census,Town,NC,"Dobbins Heights, North Carolina",0,0,0,0,0,0,0,0,0,0,0,0,0,0,0.0,0,0,0.0,0.0,0,1144,936.0,866.0
968,7665,US,127742,35.3222222222,-80.6533333333,Census,Suburban Town,NC,"Harrisburg, North Carolina",0,0,0,0,0,0,0,0,0,0,0,0,0,0,0.0,0,0,0.0,0.0,1433,1625,4493.0,11526.0
979,14188,US,128338,35.8597222222,-76.7477777778,Census,Town,NC,"Plymouth, North Carolina",0,0,0,0,0,0,951,872,1389,836,1212,1011,2165,1847,2139.0,2461,4486,4666.0,4774.0,4571,4328,4107.0,3878.0
1017,7300,US,127794,35.4808333333,-81.5141666667,Census,Town,NC,"Belwood, North Carolina",0,0,0,0,0,0,0,0,0,0,0,0,0,0,0.0,0,0,0.0,0.0,613,631,962.0,950.0
1069,8638,US,150841,36.2305555556,-80.3633333333,Census,Village,NC,"Tobaccoville, North Carolina",0,0,0,0,0,0,0,0,0,0,0,0,0,0,0.0,0,0,0.0,0.0,0,0,2209.0,2441.0
1155,9103,US,128214,35.3663888889,-81.9588888889,Census,Town,NC,"Rutherfordton, North Carolina",0,0,0,0,0,0,484,0,479,300,0,880,1062,1693,2020.0,2326,3146,3392.0,3245.0,3434,3617,4131.0,4213.0
1205,10493,US,127867,35.9986111111,-80.4313888889,Census,Town,NC,"Bermuda Run, North Carolina",0,0,0,0,0,0,0,0,0,0,0,0,0,0,0.0,0,0,0.0,0.0,0,0,1431.0,1725.0
1226,20289,US,128247,35.3583333333,-80.1952777778,Census,City,NC,"Albemarle, North Carolina",0,0,0,0,0,0,0,0,0,0,248,1382,2116,2691,3493.0,4060,11798,12261.0,11126.0,15110,14939,15680.0,15903.0
1230,8245,US,128122,35.1838888889,-76.6680555556,Census,Town,NC,"Vandemere, North Carolina",0,0,0,0,0,0,0,0,0,0,90,169,296,308,360.0,436,475,452.0,379.0,335,299,289.0,254.0
1295,8422,US,127735,35.7183333333,-81.4188888889,Census,Town,NC,"Hildebran, North Carolina",0,0,0,0,0,0,0,0,0,0,0,109,140,172,246.0,357,529,518.0,481.0,628,790,1472.0,2023.0
1312,6886,US,127823,34.3222222222,-78.9280555556,Census,Town,NC,"Cerro Gordo, North Carolina",0,0,0,0,0,0,0,0,0,90,129,123,323,262,325.0,379,265,306.0,322.0,295,227,244.0,207.0
1371,9398,US,127934,36.1797222222,-77.6688888889,Census,Town,NC,"Enfield, North Carolina",0,0,0,0,0,0,0,0,0,504,568,361,1167,1648,2234.0,2208,2361,2978.0,3272.0,2995,3082,2347.0,2532.0
1417,5984,US,128123,34.5277777778,-78.17,Census,Town,NC,"Atkinson, North Carolina",0,0,0,0,0,0,0,0,0,0,0,0,115,296,331.0,312,294,302.0,325.0,298,275,236.0,299.0
1423,6086,US,128025,35.9075,-77.2786111111,Census,Census-Designated Place,NC,"Hassell, North Carolina",0,0,0,0,0,0,0,0,0,0,0,0,90,85,169.0,150,137,147.0,160.0,109,95,72.0,84.0
1517,14396,US,128192,36.3452777778,-79.675,Census,City,NC,"Reidsville, North Carolina",0,0,0,0,0,0,0,0,0,1316,2969,3262,4828,5333,6851.0,10387,11708,14267.0,13636.0,12492,12183,14485.0,14520.0
1559,14094,US,93305,35.35,-83.83,Census,US County,NC,"Graham County, North Carolina",0,0,0,0,0,0,0,0,0,2335,3313,4343,4749,4872,5841.0,6418,6886,6432.0,6562.0,7217,7196,7993.0,8861.0
1570,6594,US,128012,35.0566666667,-77.7444444444,Census,Town,NC,"Pink Hill, North Carolina",0,0,0,0,0,0,0,0,0,0,0,0,58,166,188.0,307,386,457.0,522.0,644,547,521.0,552.0
1600,26711,US,127992,35.3741666667,-83.2177777778,Census,Town,NC,"Sylva, North Carolina",0,0,0,0,0,0,0,0,0,0,0,281,698,863,1340.0,1409,1382,1564.0,1561.0,1699,1809,2435.0,2588.0
1610,7526,US,128215,35.3583333333,-81.9252777778,Census,Town,NC,"Spindale, North Carolina",0,0,0,0,0,0,0,0,0,0,0,0,0,0,3066.0,3952,3891,4082.0,3848.0,4246,4040,4022.0,4321.0
1618,6866,US,150852,35.0219444444,-80.7319444444,Census,Town,NC,"Weddington, North Carolina",0,0,0,0,0,0,0,0,0,0,0,0,0,0,0.0,0,0,0.0,0.0,0,3803,6696.0,9459.0
1623,14718,US,127776,35.7111111111,-81.2197222222,Census,City,NC,"Conover, North Carolina",0,0,0,0,0,0,0,0,0,150,337,413,421,681,973.0,1195,1164,2281.0,3355.0,4245,5465,6604.0,8165.0
1656,15202,US,127849,34.9705555556,-78.9566666667,Census,Town,NC,"Hope Mills, North Carolina",0,0,0,0,0,0,0,0,0,0,456,881,964,783,971.0,900,1077,1109.0,1866.0,5412,8184,11237.0,15176.0
1769,9009,US,127996,35.4472222222,-78.4261111111,Census,Town,NC,"Four Oaks, North Carolina",0,0,0,0,0,0,0,0,0,0,62,171,329,583,684.0,828,942,1010.0,1057.0,1049,1308,1424.0,1921.0
1904,21443,US,127870,34.9236111111,-77.7741666667,Census,Town,NC,"Beulaville, North Carolina",0,0,0,0,0,0,0,0,0,32,51,0,0,354,494.0,567,724,1062.0,1156.0,1060,933,1067.0,1296.0
1932,8546,US,128209,35.3297222222,-81.7588888889,Census,Town,NC,"Ellenboro, North Carolina",0,0,0,0,0,0,0,0,0,0,0,172,293,333,431.0,471,537,492.0,465.0,560,514,479.0,873.0
1940,7216,US,128105,34.4919444444,-77.5530555556,Census,Town,NC,"Holly Ridge, North Carolina",0,0,0,0,0,0,0,0,0,0,0,0,0,0,0.0,0,1082,731.0,415.0,465,728,831.0,1268.0
1961,6127,US,127820,34.4397222222,-78.9486111111,Census,Town,NC,"Boardman, North Carolina",0,0,0,0,0,0,0,0,0,0,0,604,796,828,158.0,0,0,0.0,0.0,0,0,202.0,157.0
1984,7474,US,128058,35.1066666667,-79.4702777778,Census,Town,NC,"Pinebluff, North Carolina",0,0,0,0,0,0,0,0,0,0,0,0,92,165,289.0,330,575,509.0,570.0,935,876,1109.0,1337.0
1986,9483,US,150845,34.8144444444,-79.1841666667,Census,Town,NC,"Red Springs, North Carolina",0,0,0,0,0,0,0,0,0,0,0,858,1089,1018,1300.0,1559,2245,2767.0,3383.0,3607,3799,3493.0,3428.0
2032,6887,US,128288,35.0733333333,-80.5208333333,Census,Town,NC,"Unionville, North Carolina",0,0,0,0,0,0,0,0,0,0,0,0,0,135,140.0,144,124,119.0,0.0,0,0,4797.0,5929.0
2103,10520,US,127994,35.3822222222,-78.5461111111,Census,Town,NC,"Benson, North Carolina",0,0,0,0,0,0,0,0,0,0,191,384,800,1123,1522.0,1837,2102,2355.0,2267.0,2792,2810,2923.0,3311.0
2106,7460,US,127755,34.6991666667,-77.0366666667,Census,Town,NC,"Bogue, North Carolina",0,0,0,0,0,0,0,0,0,0,0,0,0,0,0.0,0,0,0.0,0.0,0,0,590.0,684.0
2194,26708,US,127905,35.2552777778,-81.1802777778,Census,Satellite city,NC,"Gastonia, North Carolina",0,0,0,0,0,0,0,0,0,236,1033,4610,5759,12871,17093.0,21313,23069,37276.0,47322.0,47218,54732,66277.0,71741.0
2230,8703,US,127848,35.2177777778,-78.6797222222,Census,Town,NC,"Godwin, North Carolina",0,0,0,0,0,0,0,0,0,0,0,0,102,90,136.0,123,145,149.0,129.0,233,77,112.0,139.0
2281,6876,US,127819,35.3619444444,-81.4291666667,Census,Town,NC,"Waco, North Carolina",0,0,0,0,0,0,0,0,0,0,105,160,185,189,176.0,281,310,256.0,245.0,322,320,328.0,321.0
2295,12114,US,93223,35.7,-77.92,Census,US County,NC,"Wilson County, North Carolina",0,0,0,0,0,0,0,9720,12258,16064,18644,23596,28269,36813,44914.0,50219,54506,57716.0,57486.0,63132,66061,73814.0,81234.0
2330,14546,US,128146,35.7152777778,-79.8130555556,Census,City,NC,"Asheboro, North Carolina",0,0,0,0,0,0,176,0,182,299,510,992,1865,2559,5021.0,6981,7701,9449.0,10797.0,15252,16362,21672.0,25012.0
2476,6929,US,127968,36.3575,-76.9086111111,Census,Village,NC,"Cofield, North Carolina",0,0,0,0,0,0,0,0,0,0,0,0,0,0,0.0,0,0,0.0,318.0,465,407,347.0,413.0
2486,11086,US,127928,36.1669444444,-79.9825,Census,Town,NC,"Oak Ridge, North Carolina",0,0,0,0,0,0,0,0,0,0,0,161,0,0,0.0,0,0,0.0,0.0,0,0,3988.0,6185.0
2489,9426,US,128216,34.9991666667,-78.6402777778,Census,Town,NC,"Autryville, North Carolina",0,0,0,0,0,0,0,0,0,0,0,61,77,99,119.0,94,151,192.0,213.0,228,166,196.0,196.0
2540,18469,US,93309,36.08,-78.28,Census,US County,NC,"Franklin County, North Carolina",7502,8529,10166,9741,10665,10980,11713,14107,14134,20829,21090,25116,24692,26667,29456.0,30382,31341,28755.0,26820.0,30055,36414,47260.0,60619.0
2587,12331,US,128060,35.43,-79.5802777778,Census,City,NC,"Robbins, North Carolina",0,0,0,0,0,0,0,0,0,0,0,0,0,0,0.0,972,1158,1294.0,1059.0,1256,970,1195.0,1097.0
2617,25058,US,93225,35.36,-78.0,Census,US County,NC,"Wayne County, North Carolina",6115,6772,8687,9040,10331,10891,13486,14905,18144,24951,26100,31356,35698,43640,53013.0,58328,64267,82059.0,85408.0,97054,104666,113329.0,122623.0
2648,10936,US,128252,35.4447222222,-80.2186111111,Census,Town,NC,"New London, North Carolina",0,0,0,0,0,0,0,0,0,0,317,299,312,228,246.0,243,285,223.0,285.0,454,414,326.0,600.0
2669,21412,US,87482,35.4872222222,-80.6216666667,Census,City,NC,"Kannapolis, North Carolina",0,0,0,0,0,0,0,0,0,0,0,0,0,0,0.0,0,0,0.0,0.0,0,29696,36910.0,42625.0
2678,10299,US,127628,36.097135,-79.512102,Census,Town,NC,"Elon, North Carolina",0,0,0,0,0,0,0,0,0,0,0,638,200,425,373.0,494,1109,1284.0,2150.0,2873,4394,6738.0,9419.0
2698,6286,US,128244,34.8880555556,-79.3641666667,Census,Town,NC,"Wagram, North Carolina",0,0,0,0,0,0,0,0,0,0,0,0,0,174,309.0,388,397,562.0,718.0,617,480,801.0,840.0
2748,2875,US,17159093,35.1405555556,-76.8425,Census,town,NC,"Grantsboro, North Carolina",0,0,0,0,0,0,0,0,0,0,0,0,0,0,0.0,0,0,0.0,0.0,0,0,0.0,688.0
2796,11943,US,127702,33.9152777778,-78.2863888889,Census,Seaside town,NC,"Holden Beach, North Carolina",0,0,0,0,0,0,0,0,0,0,0,0,0,0,0.0,0,0,0.0,136.0,232,626,787.0,575.0
2889,13248,US,93292,,,Census,US County,NC,"Hyde County, North Carolina",4204,4829,6029,4967,6184,6458,7636,7732,6445,7765,8903,9278,8840,8386,8550.0,7860,6479,5765.0,5571.0,5873,5411,5826.0,5810.0
2910,10885,US,128056,35.3294444444,-79.4086111111,Census,Town,NC,"Carthage, North Carolina",0,0,0,0,0,0,0,0,0,366,485,605,863,962,1129.0,1381,1194,1190.0,1034.0,925,976,1871.0,2205.0
2936,19080,US,93254,36.4,-79.78,Census,US County,NC,"Rockingham County, North Carolina",6211,8277,10316,11474,12935,13442,14495,16746,15708,21744,25363,33163,36442,44149,51083.0,57898,64816,69629.0,72402.0,83426,86064,91928.0,93643.0
3001,6881,US,128023,35.8336111111,-77.1713888889,Census,Town,NC,"Everetts, North Carolina",0,0,0,0,0,0,0,0,0,0,0,127,146,230,270.0,265,244,225.0,198.0,213,143,179.0,164.0
3135,27650,US,127885,35.9027777778,-77.5458333333,Census,Town,NC,"Tarboro, North Carolina",0,0,523,0,0,0,709,1048,1340,1600,1924,2499,4129,4568,6379.0,7148,8120,8411.0,9425.0,8741,11037,11138.0,11415.0
3160,14353,US,128151,35.5422222222,-79.7780555556,Census,Town,NC,"Seagrove, North Carolina",0,0,0,0,0,0,0,0,0,0,0,0,0,189,245.0,316,319,323.0,354.0,294,244,246.0,228.0
3247,6633,US,127933,36.0797222222,-79.5666666667,Census,Town,NC,"Whitsett, North Carolina",0,0,0,0,0,0,0,0,0,0,0,0,0,0,0.0,0,0,0.0,0.0,0,0,686.0,590.0
3249,6551,US,127800,35.4275,-81.5016666667,Census,Hamlet,NC,"Fallston, North Carolina",0,0,0,0,0,0,0,0,0,0,0,0,0,0,0.0,0,0,0.0,301.0,614,498,603.0,607.0
3266,37132,US,93261,,,Census,US County,NC,"Person County, North Carolina",0,6402,6642,9029,10027,9790,10781,11221,11170,13719,15151,16685,17356,18973,22039.0,25029,24361,26394.0,25914.0,29164,30180,35623.0,39464.0
3283,6725,US,127717,33.9441666667,-78.2311111111,Census,Town,NC,"Varnamtown, North Carolina",0,0,0,0,0,0,0,0,0,0,0,0,0,0,0.0,0,0,0.0,0.0,0,404,481.0,541.0
3303,7533,US,127744,35.85,-81.5386111111,Census,Town,NC,"Cajah's Mountain, North Carolina",0,0,0,0,0,0,0,0,0,0,0,0,0,0,0.0,0,0,0.0,0.0,0,2429,2683.0,2823.0
3328,11555,US,127896,36.185,-78.1113888889,Census,Town,NC,"Centerville, North Carolina",0,0,0,0,0,0,0,0,0,0,0,0,0,0,0.0,0,0,0.0,123.0,135,115,99.0,89.0
3365,5786,US,128277,35.1041666667,-80.6280555556,Census,Town,NC,"Hemby Bridge, North Carolina",0,0,0,0,0,0,0,0,0,0,0,0,0,0,0.0,0,0,0.0,0.0,0,0,897.0,1520.0
3375,11108,US,128218,35.0025,-78.3288888889,Census,City,NC,"Clinton, North Carolina",0,0,0,0,0,0,0,209,204,620,839,958,1101,2110,2712.0,3557,4414,7461.0,7157.0,7552,8204,8600.0,8639.0
3392,20708,US,93310,36.13,-80.26,Census,US County,NC,"Forsyth County, North Carolina",0,0,0,0,0,0,11168,12692,13050,18070,28434,35261,47311,77269,111681.0,126475,146135,189428.0,214348.0,243683,265878,306067.0,350670.0
3406,6641,US,128233,34.9930555556,-78.1841666667,Census,Town,NC,"Turkey, North Carolina",0,0,0,0,0,0,0,0,0,0,0,0,0,146,213.0,188,223,199.0,329.0,417,234,262.0,292.0
3446,15248,US,93298,35.55,-82.98,Census,US County,NC,"Haywood County, North Carolina",0,0,2780,4073,4578,4975,7074,5801,7921,10271,13346,16222,21020,23496,28273.0,34804,37631,39711.0,41710.0,46495,46942,54033.0,59036.0
3512,20034,US,93244,35.49,-83.49,Census,US County,NC,"Swain County, North Carolina",0,0,0,0,0,0,0,0,0,3784,6577,8401,10403,13224,11568.0,12177,9921,8387.0,7861.0,10283,11268,12968.0,13981.0
3547,9566,US,128002,35.5091666667,-78.3463888889,Census,Town,NC,"Smithfield, North Carolina",0,0,0,0,0,0,329,0,415,485,550,764,1347,1895,2543.0,3678,5574,6117.0,6677.0,7288,7540,11510.0,10966.0
3561,9797,US,93249,34.84,-79.48,Census,US County,NC,"Scotland County, North Carolina",0,0,0,0,0,0,0,0,0,0,0,12553,15363,15600,20174.0,23232,26336,25183.0,26929.0,32273,33754,35998.0,36157.0
3685,6221,US,128160,35.0327777778,-79.5494444444,Census,Town,NC,"Hoffman, North Carolina",0,0,0,0,0,0,0,0,0,0,0,184,175,385,569.0,395,398,344.0,434.0,389,348,624.0,588.0
3703,93006,US,127718,35.58,-82.5558333333,Census,City,NC,"Asheville, North Carolina",0,38,0,0,0,0,0,502,1400,2616,10235,14694,18762,28504,50193.0,51310,53000,60192.0,57929.0,54022,61607,68889.0,83393.0
3730,7022,US,128068,36.0113888889,-77.8580555556,Census,Town,NC,"Dortches, North Carolina",0,0,0,0,0,0,0,0,0,0,0,0,0,0,0.0,0,0,0.0,0.0,885,840,809.0,935.0
3786,8887,US,93262,36.18,-76.41,Census,US County,NC,"Perquimans County, North Carolina",5439,5708,6052,6857,7419,7346,7332,7238,7945,9466,9293,10091,11054,11137,10668.0,9773,9602,9178.0,8351.0,9486,10447,11368.0,13453.0
3788,10770,US,128150,35.8155555556,-79.8044444444,Census,City,NC,"Randleman, North Carolina",0,0,0,0,0,0,0,0,0,1027,1754,2190,1950,1967,1863.0,2032,2066,2232.0,2312.0,2156,2612,3557.0,4113.0
3853,7004,US,128231,35.0161111111,-78.5041666667,Census,Town,NC,"Salemburg, North Carolina",0,0,0,0,0,0,0,0,0,0,0,0,0,215,318.0,371,435,569.0,669.0,742,409,469.0,435.0
3886,17201,US,93284,35.15,-83.42,Census,US County,NC,"Macon County, North Carolina",0,0,0,0,5333,4869,6389,6004,6615,8064,10102,12104,12191,12887,13672.0,15880,16174,14935.0,15788.0,20178,23499,29811.0,33922.0
3905,49635,US,71821,35.9131388889,-79.0558055556,Census,Town,NC,"Chapel Hill, North Carolina",0,0,0,0,0,0,0,0,0,831,1017,1099,1149,1483,2699.0,3654,9177,12573.0,26199.0,32421,38719,48715.0,57233.0
3915,5718,US,128181,34.575,-79.1902777778,Census,Town,NC,"Raynham, North Carolina",0,0,0,0,0,0,0,0,0,0,0,0,0,0,0.0,0,0,0.0,0.0,83,106,67.0,72.0
3919,8793,US,127732,35.7444444444,-81.5036111111,Census,Town,NC,"Connelly Springs, North Carolina",0,0,0,0,0,0,0,0,0,0,0,0,0,0,384.0,0,0,0.0,0.0,0,1349,1814.0,1669.0
3959,7340,US,128000,35.4652777778,-78.1602777778,Census,Town,NC,"Princeton, North Carolina",0,0,0,0,0,0,0,0,0,0,248,281,354,403,509.0,512,608,948.0,1044.0,1034,1181,1066.0,1194.0
3966,21583,US,93260,35.59,-77.38,Census,US County,NC,"Pitt County, North Carolina",8270,9084,9169,10001,12093,11806,13397,16080,17276,21794,25519,30889,36340,45569,54466.0,61244,63789,69942.0,73900.0,90146,107924,133798.0,168148.0
4023,10474,US,128019,35.892,-82.829,Census,Town,NC,"Hot Springs, North Carolina",0,0,0,0,0,0,0,0,0,0,695,445,443,495,637.0,773,721,723.0,653.0,678,478,645.0,560.0
4026,10901,US,9278567,35.054659,-80.850238,Census,Neighborhood,NC,Ballantyne (Charlotte neighborhood),0,0,0,0,0,0,0,0,0,0,0,0,0,0,0.0,0,0,0.0,0.0,0,0,9466.0,20936.0
4066,16197,US,93274,35.97,-77.99,Census,US County,NC,"Nash County, North Carolina",7390,6975,7268,8185,8490,9047,10657,11687,11077,17731,20707,25478,33727,41061,52782.0,55608,59919,61002.0,59122.0,67153,76677,87420.0,95840.0
4156,17158,US,93335,35.95,-81.55,Census,US County,NC,"Caldwell County, North Carolina",0,0,0,0,0,0,6317,7497,8476,10291,12298,15694,20579,19984,28016.0,35795,43352,49552.0,56699.0,67746,70709,77415.0,83029.0
4176,9459,US,150842,35.9038888889,-79.9661111111,Census,City,NC,"Archdale, North Carolina",0,0,0,0,0,0,0,0,0,0,224,182,145,178,628.0,1097,1218,1520.0,4874.0,5326,6913,9014.0,11415.0
4191,10804,US,150826,35.2441666667,-81.3425,Census,City,NC,"Kings Mountain, North Carolina",0,0,0,0,0,0,0,0,0,337,429,2062,2218,2800,5632.0,6547,7206,8008.0,8465.0,9080,8763,9693.0,10296.0
4224,25090,US,128132,36.3916666667,-78.9819444444,Census,City,NC,"Roxboro, North Carolina",0,0,0,0,0,0,0,0,0,483,421,1021,1425,1651,3657.0,4599,4321,5147.0,5370.0,7532,7332,8696.0,8362.0
4256,8581,US,128080,33.9977777778,-77.9080555556,Census,Town,NC,"Kure Beach, North Carolina",0,0,0,0,0,0,0,0,0,0,0,0,0,0,0.0,0,228,293.0,394.0,611,619,1507.0,2012.0
4294,33319,US,128113,35.9205555556,-79.0838888889,Census,Town,NC,"Carrboro, North Carolina",0,0,0,0,0,0,0,0,0,0,0,0,0,1129,1242.0,1455,1795,1997.0,5058.0,7336,12134,16782.0,19582.0
4466,7336,US,128147,35.7444444444,-79.6916666667,Census,Town,NC,"Franklinville, North Carolina",0,0,0,0,0,0,0,0,0,366,0,0,0,631,676.0,851,778,686.0,794.0,607,666,1258.0,1164.0
4467,6743,US,128121,35.1375,-76.7475,Census,Town,NC,"Stonewall, North Carolina",0,0,0,0,0,0,0,0,0,209,196,168,161,218,329.0,261,272,214.0,335.0,360,279,285.0,281.0
4512,27884,US,127737,35.7425,-81.6922222222,Census,City,NC,"Morganton, North Carolina",0,0,0,0,0,0,558,0,554,861,1557,1938,2712,2867,6001.0,7670,8311,9186.0,13625.0,13763,15085,17310.0,16918.0
4514,13801,US,127890,36.0980555556,-80.4161111111,Census,Town,NC,"Lewisville, North Carolina",0,0,0,0,0,0,0,0,0,48,439,0,0,0,0.0,0,0,0.0,0.0,4547,3206,8826.0,12639.0
4540,13279,US,127948,35.3102777778,-78.6108333333,Census,City,NC,"Dunn, North Carolina",0,0,0,0,0,0,0,0,0,0,419,1072,1823,2805,4558.0,5256,6316,7566.0,8302.0,8962,8336,9196.0,9263.0
4678,9992,US,93242,35.87,-76.17,Census,US County,NC,"Tyrrell County, North Carolina",4826,3395,3364,4319,4732,4657,5133,4944,4173,4545,4225,4980,5219,4849,5164.0,5556,5048,4520.0,3806.0,3975,3856,4149.0,4407.0
4739,17129,US,127786,35.7202777778,-79.1763888889,Census,Town,NC,"Pittsboro, North Carolina",0,0,0,0,0,0,0,0,0,0,0,424,502,584,675.0,826,1094,1215.0,1447.0,1332,1436,2226.0,3743.0
4810,13278,US,127909,35.2952777778,-81.0194444444,Census,City,NC,"Mount Holly, North Carolina",0,0,0,0,0,0,0,0,0,0,472,630,526,1160,2254.0,2055,2241,4037.0,5107.0,4530,7710,9618.0,13656.0
4815,23384,US,93277,36.01,-82.16,Census,US County,NC,"Mitchell County, North Carolina",0,0,0,0,0,0,0,0,4705,9435,12807,15221,17245,11278,13962.0,15980,15143,13906.0,13447.0,14428,14433,15687.0,15579.0
4900,7476,US,128398,35.6361111111,-77.9333333333,Census,Town,NC,"Black Creek, North Carolina",0,0,0,0,0,0,0,0,77,129,191,196,219,274,355.0,333,316,310.0,449.0,523,615,714.0,769.0
4917,6787,US,127840,35.0744444444,-77.1486111111,Census,Town,NC,"River Bend, North Carolina",0,0,0,0,0,0,0,0,0,0,0,0,0,0,0.0,0,0,0.0,0.0,0,2408,2923.0,3119.0
5050,8733,US,127962,35.4327777778,-82.5066666667,Census,Town,NC,"Fletcher, North Carolina",0,0,0,0,0,0,0,0,0,0,0,0,0,0,0.0,0,0,0.0,0.0,0,2787,4185.0,7187.0
5097,8372,US,128399,35.8077777778,-77.8622222222,Census,Town,NC,"Elm City, North Carolina",0,0,0,0,0,0,0,0,0,313,482,560,590,725,905.0,946,839,729.0,1201.0,1561,1624,1165.0,1298.0
5129,6719,US,128092,36.4377777778,-77.2266666667,Census,Town,NC,"Conway, North Carolina",0,0,0,0,0,0,0,0,0,0,0,0,0,294,400.0,449,618,662.0,694.0,678,759,734.0,836.0
5235,10645,US,127852,35.1775,-78.9755555556,Census,Town,NC,"Spring Lake, North Carolina",0,0,0,0,0,0,0,0,0,0,0,0,0,0,0.0,0,0,4110.0,3968.0,6273,7524,8098.0,11964.0
5271,12085,US,127770,36.4069444444,-79.3416666667,Census,Town,NC,"Yanceyville, North Carolina",0,0,0,0,0,0,0,0,0,0,0,0,338,0,0.0,0,1391,1113.0,1274.0,0,1973,2091.0,2039.0
5365,14024,US,93228,36.4,-78.1,Census,US County,NC,"Warren County, North Carolina",9379,11284,11004,11158,11877,12919,13912,15726,17768,22619,19360,19151,20266,21593,23364.0,23145,23539,19652.0,15810.0,16232,17265,19972.0,20972.0
5371,11068,US,127886,36.1844444444,-80.3347222222,Census,Town,NC,"Bethania, North Carolina",0,0,0,0,0,0,0,0,0,105,0,0,0,0,0.0,0,0,0.0,0.0,0,0,354.0,328.0
5424,8119,US,128196,35.7311111111,-80.6788888889,Census,Town,NC,"Cleveland, North Carolina",0,0,0,0,0,0,0,0,0,0,0,198,426,366,435.0,506,580,594.0,614.0,595,696,808.0,871.0
5454,23770,US,93226,36.23,-81.7,Census,US County,NC,"Watauga County, North Carolina",0,0,0,0,0,0,3400,4957,5287,8160,10611,13417,13556,13477,15165.0,18114,18342,17529.0,23404.0,31666,36952,42695.0,51079.0
5479,6882,US,128197,35.6827777778,-80.4313888889,Census,Town,NC,"East Spencer, North Carolina",0,0,0,0,0,0,0,0,0,0,0,0,1729,2239,2098.0,2181,2444,2171.0,2217.0,2150,2055,1755.0,1534.0
5493,12227,US,93326,36.13,-76.6,Census,US County,NC,"Chowan County, North Carolina",4988,5132,5297,6464,6697,6690,6721,6842,6450,7900,9167,10258,11303,10649,11282.0,11572,12540,11729.0,10764.0,12558,13506,14526.0,14793.0
5534,14400,US,128059,35.1961111111,-79.4641666667,Census,Village,NC,"Pinehurst, North Carolina",0,0,0,0,0,0,0,0,0,0,0,0,0,0,0.0,0,1016,1124.0,1056.0,0,5103,9706.0,13124.0
5581,19041,US,127897,36.1025,-78.4530555556,Census,Town,NC,"Franklinton, North Carolina",0,0,0,0,0,0,0,160,305,484,583,761,809,1058,1320.0,1273,1414,1513.0,1459.0,1394,1615,1745.0,2023.0
5590,7423,US,127803,35.3130555556,-81.6569444444,Census,Town,NC,"Lattimore, North Carolina",0,0,0,0,0,0,0,0,0,0,0,108,297,262,270.0,342,286,257.0,257.0,237,183,419.0,488.0
5663,6794,US,127641,34.8133333333,-79.9758333333,Census,Town,NC,"McFarlan, North Carolina",0,0,0,0,0,0,0,0,0,0,0,112,186,219,138.0,184,136,161.0,140.0,133,98,89.0,117.0
5675,19936,US,127963,35.3205555556,-82.4616666667,Census,City,NC,"Hendersonville, North Carolina",0,0,0,0,0,0,0,1740,278,554,1216,1917,2818,3729,5070.0,5381,6103,5911.0,6443.0,6862,7284,10420.0,13137.0
5681,8134,US,128075,34.0366666667,-77.8969444444,Census,Town,NC,"Carolina Beach, North Carolina",0,0,0,0,0,0,0,0,0,0,0,0,0,0,95.0,637,1080,1192.0,1663.0,2000,3630,4701.0,5706.0
5724,8584,US,150820,35.7702777778,-81.4327777778,Census,Town,NC,"Rhodhiss, North Carolina",0,0,0,0,0,0,0,0,0,0,0,0,370,835,954.0,930,923,837.0,784.0,727,638,366.0,1070.0
5753,12031,US,127795,35.2516666667,-81.6641666667,Census,Town,NC,"Boiling Springs, North Carolina",0,0,0,0,0,0,0,0,0,0,0,0,0,0,672.0,613,1145,1311.0,2284.0,2381,2445,3866.0,4647.0
5754,8553,US,128153,35.8736111111,-80.0102777778,Census,City,NC,"Trinity, North Carolina",0,0,0,0,0,0,0,0,0,240,380,274,332,400,554.0,0,0,0.0,0.0,6878,5469,6690.0,6614.0
5769,12819,US,93348,34.97,-80.1,Census,US County,NC,"Anson County, North Carolina",5133,8146,8831,12534,14095,15077,13489,13664,12428,17994,20027,21870,25465,28334,29349.0,28443,26781,24962.0,23488.0,25649,23474,25275.0,26948.0
5906,7485,US,128131,36.2144444444,-76.4566666667,Census,Town,NC,"Winfall, North Carolina",0,0,0,0,0,0,0,0,0,0,0,222,289,288,426.0,160,421,269.0,581.0,634,501,554.0,594.0
6139,9725,US,127699,33.8925,-78.5666666667,Census,Town,NC,"Calabash, North Carolina",0,0,0,0,0,0,0,0,0,0,0,0,0,0,0.0,0,0,0.0,0.0,128,1210,711.0,1786.0
6150,17446,US,93315,35.93,-80.54,Census,US County,NC,"Davie County, North Carolina",0,0,0,0,0,7574,7866,8494,9620,11096,11621,12115,13394,13578,14386.0,14909,15420,16728.0,18855.0,24599,27859,34835.0,41240.0
6212,34459,US,128359,35.3819444444,-77.9780555556,Census,city,NC,"Goldsboro, North Carolina",0,0,0,0,0,0,0,885,1134,3286,4017,5877,6107,11296,14985.0,17274,21454,28873.0,26960.0,31871,40709,39043.0,36437.0
6261,10090,US,127648,36.3952777778,-81.4916666667,Census,Town,NC,"West Jefferson, North Carolina",0,0,0,0,0,0,0,0,0,0,0,0,0,462,704.0,883,871,1000.0,889.0,822,1002,1081.0,1299.0
6276,33018,US,93336,,,Census,US County,NC,"Cabarrus County, North Carolina",0,5094,6158,7248,8810,9259,9747,10546,11954,14964,18142,22456,26240,33730,44331.0,59393,63783,68137.0,74629.0,85895,98935,131063.0,178011.0
6280,9646,US,127961,35.2666666667,-82.4533333333,Census,Village,NC,"Flat Rock, Henderson County, North Carolina",0,0,0,0,0,0,0,0,0,0,0,0,0,0,0.0,0,0,1808.0,1688.0,1922,1812,2565.0,3114.0
6345,9996,US,93281,35.84,-77.1,Census,US County,NC,"Martin County, North Carolina",6010,5629,5987,6320,8539,7637,8307,10195,9647,13140,15221,15383,17797,20828,23400.0,26111,27938,27139.0,24730.0,25948,25078,25593.0,24505.0
6351,7500,US,128134,35.8069444444,-77.3769444444,Census,Town,NC,"Bethel, North Carolina",0,0,0,0,0,0,0,0,0,127,377,457,469,817,1149.0,1333,1402,1578.0,1514.0,1825,1842,1681.0,1577.0
6356,7385,US,128050,35.2930555556,-79.7425,Census,Town,NC,"Candor, North Carolina",0,0,0,0,0,0,0,0,0,0,0,0,160,267,462.0,509,617,593.0,561.0,868,748,825.0,840.0
6382,9536,US,127978,34.9816666667,-79.2275,Census,City,NC,"Raeford, North Carolina",0,0,0,0,0,0,0,0,0,0,0,0,580,1235,1303.0,1628,2030,3058.0,3180.0,3630,3469,3386.0,4611.0
6418,8582,US,128193,36.4658333333,-79.9063888889,Census,Town,NC,"Stoneville, North Carolina",0,0,0,0,0,0,0,0,0,100,115,0,404,472,564.0,615,786,951.0,1030.0,1054,1109,1002.0,1056.0
6625,25979,US,93345,35.48,-76.84,Census,US County,NC,"Beaufort County, North Carolina",5405,6242,7203,9850,10969,12225,13816,14766,13011,17474,21072,26404,30877,31024,35026.0,36431,37134,36014.0,35980.0,40355,42283,44958.0,47759.0
6644,16404,US,128287,35.0894444444,-80.6866666667,Census,Suburban Town,NC,"Stallings, North Carolina",0,0,0,0,0,0,0,0,0,0,0,0,0,0,0.0,0,0,0.0,0.0,1826,2132,3189.0,13831.0
6648,6954,US,128334,36.4383333333,-78.0830555556,Census,Town,NC,"Macon, North Carolina",0,0,0,0,0,0,0,0,0,0,0,157,189,149,227.0,197,238,187.0,179.0,153,154,115.0,119.0
6715,6877,US,127833,35.1875,-77.3213888889,Census,Town,NC,"Cove City, North Carolina",0,0,0,0,0,0,0,0,0,0,0,0,308,258,194.0,371,465,551.0,485.0,500,497,433.0,399.0
6738,7276,US,128291,34.985,-80.4472222222,Census,Town,NC,"Wingate, North Carolina",0,0,0,0,0,0,0,0,0,0,0,0,353,470,526.0,541,793,1304.0,2569.0,2615,2821,2406.0,3491.0
6742,7897,US,150821,35.2672222222,-80.4266666667,Census,City,NC,"Locust, North Carolina",0,0,0,0,0,0,0,0,0,35,0,0,0,95,103.0,151,216,211.0,0.0,1590,1940,2416.0,2930.0
6748,34218,US,128035,35.825,-77.2527777778,Census,Town,NC,"Robersonville, North Carolina",0,0,0,0,0,0,0,0,0,148,228,275,616,1199,1181.0,1407,1414,1684.0,1910.0,1981,1940,1731.0,1488.0
6766,6502,US,127998,35.5627777778,-78.2038888889,Census,Town,NC,"Micro, North Carolina",0,0,0,0,0,0,0,0,0,0,0,61,74,183,222.0,289,310,350.0,300.0,438,417,454.0,441.0
6818,5980,US,128169,34.5533333333,-79.1761111111,Census,Town,NC,"McDonald, North Carolina",0,0,0,0,0,0,0,0,0,0,0,0,0,120,141.0,127,78,79.0,80.0,117,88,119.0,113.0
6857,7514,US,127930,36.0783333333,-79.6275,Census,Town,NC,"Sedalia, North Carolina",0,0,0,0,0,0,0,0,0,0,0,0,0,0,0.0,0,0,0.0,0.0,0,0,618.0,623.0
6901,7869,US,128094,36.4961111111,-77.6438888889,Census,Town,NC,"Gaston, North Carolina",0,0,0,0,0,0,274,0,11,0,0,0,0,0,0.0,0,1218,1214.0,1105.0,883,1003,973.0,1152.0
6907,9197,US,127740,35.7433333333,-81.5586111111,Census,Town,NC,"Valdese, North Carolina",0,0,0,0,0,0,0,0,0,0,0,0,0,0,1816.0,2615,2730,2941.0,3182.0,3364,3914,4485.0,4490.0
6956,7352,US,128107,34.4769444444,-77.4611111111,Census,Town,NC,"North Topsail Beach, North Carolina",0,0,0,0,0,0,0,0,0,0,0,0,0,0,0.0,0,0,0.0,0.0,0,0,843.0,743.0
6997,25817,US,93308,,,Census,US County,NC,"Gaston County, North Carolina",0,0,0,0,0,0,8073,9307,12602,14254,17764,27903,37063,51242,78093.0,87531,110836,127074.0,148415.0,162568,175093,190365.0,206086.0
7008,19296,US,93304,36.3,-78.66,Census,US County,NC,"Granville County, North Carolina",10982,14015,15576,18222,19355,18817,21249,23396,24831,31286,24484,23263,25102,26846,28723.0,29344,31793,33110.0,32762.0,34043,38345,48498.0,59916.0
7037,7634,US,127944,36.4266666667,-77.6016666667,Census,Town,NC,"Weldon, North Carolina",0,0,0,0,0,0,0,0,208,932,1286,1433,1999,1872,2323.0,2341,2295,2165.0,2304.0,1844,1392,1374.0,1655.0
7053,8183,US,128202,35.5530555556,-80.4080555556,Census,Town,NC,"Rockwell, North Carolina",0,0,0,0,0,0,0,0,0,0,0,0,249,453,696.0,825,852,948.0,999.0,1339,1598,1971.0,2108.0
7130,9436,US,127912,35.3080555556,-81.1086111111,Census,Town,NC,"Spencer Mountain, North Carolina",0,0,0,0,0,0,0,0,0,0,0,0,0,0,0.0,0,0,0.0,300.0,169,135,51.0,37.0
7161,7366,US,128053,35.3605555556,-79.8963888889,Census,Town,NC,"Troy, North Carolina",0,0,0,0,0,0,0,0,67,130,0,878,1055,1102,1522.0,1861,2213,2346.0,2429.0,2702,3404,3430.0,3189.0
7201,10422,US,23971857,35.6327777778,-80.1116666667,Census,Town,NC,"Denton, North Carolina",0,0,0,0,0,0,0,0,0,0,0,0,320,559,540.0,677,766,852.0,1017.0,949,1292,1450.0,1636.0
7226,8742,US,127910,35.2902777778,-81.1336111111,Census,Town,NC,"Ranlo, North Carolina",0,0,0,0,0,0,0,0,0,0,0,0,0,0,0.0,0,0,0.0,2092.0,1774,1650,2198.0,3434.0
7261,7639,US,127746,35.8686111111,-81.5927777778,Census,Town,NC,"Gamewell, North Carolina",0,0,0,0,0,0,0,0,0,0,0,0,0,0,0.0,0,0,0.0,0.0,0,3357,3644.0,4051.0
7325,17164,US,127972,36.4411111111,-77.0969444444,Census,Town,NC,"Murfreesboro, North Carolina",0,0,0,0,0,0,0,466,753,645,674,657,809,621,1000.0,1550,2140,2643.0,4418.0,3007,2580,2045.0,2835.0
7343,13245,US,127904,35.3147222222,-81.1752777778,Census,Town,NC,"Dallas, North Carolina",0,0,0,0,0,0,0,0,299,417,441,514,1065,1397,1489.0,1704,2454,3270.0,4059.0,3340,3012,3402.0,4488.0
7385,8636,US,127922,35.4230555556,-77.59,Census,Town,NC,"Hookerton, North Carolina",0,0,0,0,0,0,0,0,163,179,173,139,204,294,307.0,319,253,358.0,441.0,460,422,467.0,409.0
7448,12059,US,127908,35.2638888889,-81.0791666667,Census,Town,NC,"McAdenville, North Carolina",0,0,0,0,0,0,0,0,0,0,0,1144,983,1162,914.0,887,1060,748.0,950.0,947,830,619.0,651.0
7464,10728,US,93333,36.34,-76.16,Census,US County,NC,"Camden County, North Carolina",4022,4191,5347,6347,6733,5663,6049,5343,5361,6274,5667,5474,5640,5382,5461.0,5440,5223,5598.0,5453.0,5829,5904,6885.0,9980.0
7470,10100,US,58110,35.33,-79.9,Census,US County,NC,"Montgomery County, North Carolina",5039,7677,8430,8693,10919,10780,6872,7649,7487,9374,11239,14197,14967,14607,16218.0,16280,17260,18408.0,19267.0,22469,23346,26822.0,27798.0
7514,6532,US,128140,35.5752777778,-77.2786111111,Census,Village,NC,"Simpson, North Carolina",0,0,0,0,0,0,0,0,0,0,0,0,0,0,209.0,0,0,0.0,0.0,407,410,464.0,416.0
7572,7265,US,127652,36.1005555556,-81.8502777778,Census,Village,NC,"Grandfather, North Carolina",0,0,0,0,0,0,0,0,0,0,0,0,0,0,0.0,0,0,0.0,0.0,0,34,73.0,25.0
7644,11412,US,128130,36.1872222222,-76.4722222222,Census,Town,NC,"Hertford, North Carolina",0,0,0,0,0,0,369,0,486,661,733,1382,1841,1704,1914.0,1959,2096,2068.0,2023.0,1941,2105,2070.0,2143.0
7678,26727,US,93291,35.81,-80.87,Census,US County,NC,"Iredell County, North Carolina",5430,8856,10972,13071,14918,15685,14719,15347,16931,22675,25462,29064,34315,37956,46693.0,50424,56303,62526.0,72197.0,82538,92931,122660.0,159437.0
7679,31006,US,150818,35.7377777778,-81.3283333333,Census,City,NC,"Hickory, North Carolina",0,0,0,0,0,0,0,0,0,0,2023,2535,3716,5076,7363.0,13487,14755,19328.0,20569.0,20757,28301,37222.0,40010.0
7699,7481,US,127984,35.9894444444,-80.9883333333,Census,Town,NC,"Love Valley, North Carolina",0,0,0,0,0,0,0,0,0,0,0,0,0,0,0.0,0,0,0.0,40.0,55,67,30.0,90.0
7728,7117,US,127673,36.2027777778,-77.2375,Census,Town,NC,"Roxobel, North Carolina",0,0,0,0,0,0,0,0,0,0,0,227,491,330,334.0,332,394,452.0,347.0,278,244,263.0,240.0
7741,12009,US,93320,35.05,-78.83,Census,US County,NC,"Cumberland County, North Carolina",8730,9264,9382,14446,14834,15284,20610,16369,17035,23836,27321,29249,35284,35064,45219.0,59320,96006,148418.0,212042.0,247160,274566,302963.0,319431.0
7800,16596,US,93332,34.7333333333,-76.7666666667,Census,US County,NC,"Carteret County, North Carolina",3734,4399,4823,5609,6597,6591,6939,8186,9010,9784,10825,11811,13776,15384,16900.0,18284,23059,30940.0,31603.0,41092,52556,59383.0,66469.0
7813,14476,US,127856,36.0255555556,-75.67,Census,Town,NC,"Kill Devil Hills, North Carolina",0,0,0,0,0,0,0,0,0,0,0,0,0,0,0.0,0,0,268.0,357.0,1796,4238,5897.0,6683.0
7838,7913,US,127877,35.0,-78.1,Census,Town,NC,"Warsaw, North Carolina",0,0,0,0,0,0,0,0,0,182,401,576,723,1108,1222.0,1483,1598,2221.0,2701.0,2910,2859,3051.0,3054.0
7841,12038,US,128333,35.7822222222,-78.3683333333,Census,Town,NC,"Wendell, North Carolina",0,0,0,0,0,0,0,0,0,0,0,0,759,1239,980.0,1132,1253,1620.0,1929.0,2222,2822,4247.0,5845.0
7871,7796,US,128049,35.3605555556,-79.7802777778,Census,Town,NC,"Biscoe, North Carolina",0,0,0,0,0,0,0,0,0,0,0,0,697,755,819.0,843,1034,1053.0,1244.0,1334,1484,1700.0,1700.0
7975,8554,US,128278,35.0769444444,-80.6691666667,Census,Suburban Town,NC,"Indian Trail, North Carolina",0,0,0,0,0,0,0,0,0,0,0,0,154,224,209.0,225,308,364.0,405.0,811,1942,11905.0,33518.0
8026,6600,US,127825,34.3111111111,-79.0325,Census,Town,NC,"Fair Bluff, North Carolina",0,0,0,0,0,0,0,0,0,218,243,328,441,397,806.0,970,1056,1030.0,1039.0,1095,1068,1181.0,951.0
8056,6858,US,127639,35.1047222222,-80.1097222222,Census,Town,NC,"Ansonville, North Carolina",0,0,0,0,0,0,0,0,0,0,0,0,0,0,532.0,519,545,558.0,694.0,794,614,636.0,631.0
8057,17021,US,127801,35.1733333333,-81.4483333333,Census,Town,NC,"Grover, North Carolina",0,0,0,0,0,0,0,0,0,0,126,174,209,296,435.0,469,535,538.0,555.0,597,516,698.0,708.0
8070,16455,US,128091,34.2111111111,-77.7986111111,Census,Town,NC,"Wrightsville Beach, North Carolina",0,0,0,0,0,0,0,0,0,0,0,22,54,20,109.0,252,711,723.0,1701.0,2910,2937,2593.0,2477.0
8076,9399,US,127650,36.0205555556,-81.9291666667,Census,Town,NC,"Crossnore, North Carolina",0,0,0,0,0,0,0,0,0,0,0,0,0,0,181.0,266,240,277.0,264.0,297,271,242.0,192.0
8086,14850,US,127722,35.6191666667,-82.3255555556,Census,Town,NC,"Black Mountain, North Carolina",0,0,0,0,0,0,0,0,0,0,0,209,311,531,737.0,1042,1174,1313.0,3204.0,4083,5418,7511.0,7848.0
8094,15218,US,127919,36.3119444444,-78.5908333333,Census,City,NC,"Oxford, North Carolina",0,0,0,0,0,0,669,878,916,1349,2907,2059,3018,3606,4101.0,3991,6685,6978.0,7178.0,7709,7913,8338.0,8461.0
8129,8219,US,127663,35.5858333333,-76.6597222222,Census,Town,NC,"Pantego, North Carolina",0,0,0,0,0,0,0,0,0,71,151,150,324,335,329.0,29,275,262.0,218.0,185,171,170.0,179.0
8130,10468,US,150843,35.4583333333,-79.0533333333,Census,Town,NC,"Broadway, North Carolina",0,0,0,0,0,0,0,0,0,0,0,0,149,250,347.0,338,469,466.0,694.0,908,973,1015.0,1229.0
8188,6571,US,127798,35.5144444444,-81.6161111111,Census,Town,NC,"Casar, North Carolina",0,0,0,0,0,0,0,0,0,0,0,0,0,0,0.0,0,0,0.0,339.0,346,328,308.0,297.0
8210,8304,US,128207,35.3622222222,-81.8344444444,Census,Town,NC,"Bostic, North Carolina",0,0,0,0,0,0,0,0,0,0,0,97,209,206,238.0,226,227,274.0,289.0,476,371,328.0,386.0
8230,6688,US,128119,34.9761111111,-76.8152777778,Census,Town,NC,"Minnesott Beach, North Carolina",0,0,0,0,0,0,0,0,0,0,0,0,0,0,0.0,0,0,0.0,0.0,171,266,311.0,440.0
8245,20559,US,128037,35.6830555556,-82.0058333333,Census,City,NC,"Marion, North Carolina",0,0,0,0,0,0,0,0,0,372,799,1116,1519,1784,2467.0,2889,2740,3345.0,3335.0,3684,4765,4943.0,7838.0
8315,20908,US,57780,35.06,-83.76,Census,US County,NC,"Clay County, North Carolina",0,0,0,0,0,0,0,0,2461,3316,4197,4532,3909,4646,5434.0,6405,6006,5526.0,5180.0,6619,7155,8775.0,10587.0
8366,158049,US,21650,,,Census,US State,NC,North Carolina,393751,478103,556526,638829,737987,753419,869039,992622,1071361,1399750,1617949,1893810,2206287,2559123,3170276.0,3571623,4061929,4556155.0,5082059.0,5881766,6628637,8049313.0,9535471.0
8422,12598,US,7502430,35.2206194444,-80.8110305556,Census,Neighborhood,NC,Plaza-Midwood (Charlotte neighborhood),0,0,0,0,0,0,0,0,0,0,0,0,0,0,0.0,0,0,0.0,0.0,0,0,3897.0,3993.0
8586,6579,US,127679,34.3813888889,-78.3216666667,Census,Town,NC,"East Arcadia, North Carolina",0,0,0,0,0,0,0,0,0,0,0,0,0,0,0.0,0,0,0.0,0.0,461,468,524.0,487.0
8588,6475,US,127708,34.2872222222,-78.1533333333,Census,Town,NC,"Sandy Creek, North Carolina",0,0,0,0,0,0,0,0,0,0,0,0,0,0,0.0,0,0,0.0,0.0,0,243,246.0,260.0
8597,14405,US,93311,35.91,-77.6,Census,US County,NC,"Edgecombe County, North Carolina",10265,10421,12423,13276,14935,15708,17189,17376,22970,26181,24113,26591,32010,37995,47894.0,49162,51634,54226.0,52341.0,55988,56558,55606.0,56552.0
8735,6758,US,127672,36.225,-76.9316666667,Census,Town,NC,"Powellsville, North Carolina",0,0,0,0,0,0,0,0,0,0,0,44,75,157,194.0,267,250,259.0,247.0,320,103,259.0,276.0
8786,23176,US,128328,35.6544444444,-78.8247222222,Census,Town,NC,"Holly Springs, North Carolina",0,0,0,0,0,0,0,0,0,0,218,219,261,333,362.0,394,406,558.0,697.0,688,908,9192.0,24661.0
8795,6195,US,127842,35.3038888889,-77.1522222222,Census,Town,NC,"Vanceboro, North Carolina",0,0,0,0,0,0,0,0,0,146,0,291,392,540,742.0,826,753,806.0,758.0,833,946,898.0,1005.0
8806,11622,US,128292,36.3247222222,-78.4086111111,Census,City,NC,"Henderson, North Carolina",0,0,0,0,0,0,0,186,1635,1421,4191,3746,4503,5222,6345.0,7647,10996,12740.0,13896.0,13522,15655,16095.0,15368.0
8856,8162,US,128363,35.2261111111,-77.8458333333,Census,Town,NC,"Seven Springs, North Carolina",0,0,0,0,0,0,0,0,0,0,0,114,179,164,156.0,170,197,207.0,188.0,166,163,86.0,110.0
8891,8498,US,127680,34.6255555556,-78.6122222222,Census,Town,NC,"Elizabethtown, North Carolina",0,0,0,0,0,0,0,0,62,212,0,144,117,335,765.0,1123,1611,1625.0,1418.0,3551,3704,3698.0,3583.0
8897,5915,US,128168,34.3683333333,-79.1211111111,Census,Town,NC,"Marietta, North Carolina",0,0,0,0,0,0,0,0,0,0,0,0,0,0,0.0,0,0,0.0,0.0,0,206,164.0,175.0
9000,7091,US,127850,35.2555555556,-78.7466666667,Census,Town,NC,"Linden, North Carolina",0,0,0,0,0,0,0,0,0,0,0,0,0,191,174.0,224,194,157.0,205.0,365,180,127.0,130.0
9060,15293,US,127903,35.2366666667,-81.0738888889,Census,Town,NC,"Cramerton, North Carolina",0,0,0,0,0,0,0,0,0,0,0,0,0,0,0.0,0,3211,3123.0,2142.0,1869,2371,2976.0,4165.0
9088,13236,US,7944208,35.213,-80.768,Census,Neighborhood,NC,Eastland (Charlotte neighborhood),0,0,0,0,0,0,0,0,0,0,0,0,0,0,0.0,0,0,0.0,0.0,0,0,4660.0,5781.0
9156,41740,US,93265,36.06,-79.12,Census,US County,NC,"Orange County, North Carolina",12216,16362,20135,23492,23908,24356,17055,16947,17507,23698,14948,14690,15064,17895,21171.0,23072,34435,42970.0,57707.0,77055,93851,118227.0,133801.0
9200,8705,US,128276,35.9177777778,-76.2497222222,Census,Town,NC,"Columbia, North Carolina",0,0,0,0,0,0,0,0,0,166,209,382,848,738,864.0,1090,1161,1099.0,902.0,758,836,819.0,891.0
9208,25193,US,93222,36.16,-80.67,Census,US County,NC,"Yadkin County, North Carolina",0,0,0,0,0,0,0,10714,10697,12420,13790,14083,15428,16391,18010.0,20657,22133,22804.0,24599.0,28439,30488,36348.0,38406.0
9266,14192,US,93342,34.62,-78.56,Census,US County,NC,"Bladen County, North Carolina",5100,7028,5671,7276,7811,8022,9767,11995,12831,16158,16763,17677,18006,19761,22389.0,27156,29703,28881.0,26477.0,30491,28663,32278.0,35190.0
9301,10604,US,127793,35.0466666667,-83.8177777778,Census,Town,NC,"Hayesville, North Carolina",0,0,0,0,0,0,0,0,35,0,0,0,0,257,305.0,336,356,428.0,428.0,376,279,297.0,311.0
9392,7422,US,127881,35.7516666667,-77.6716666667,Census,Town,NC,"Macclesfield, North Carolina",0,0,0,0,0,0,0,0,0,0,0,0,0,0,0.0,0,0,0.0,536.0,504,493,458.0,471.0
9395,7522,US,128135,35.6955555556,-77.5133333333,Census,Town,NC,"Falkland, North Carolina",0,0,0,0,0,0,0,0,0,0,61,139,132,198,187.0,188,174,140.0,130.0,118,108,112.0,96.0
9405,6388,US,127884,35.97,-77.4441666667,Census,Town,NC,"Speed, North Carolina",0,0,0,0,0,0,0,0,0,0,0,0,0,0,95.0,127,103,142.0,142.0,95,88,70.0,80.0
9541,9116,US,128063,35.2163888889,-79.4955555556,Census,Town,NC,"Taylortown, North Carolina",0,0,0,0,0,0,0,0,0,0,0,0,0,0,0.0,0,0,0.0,0.0,0,543,845.0,722.0
9546,7196,US,127947,35.4063888889,-78.6697222222,Census,Town,NC,"Coats, North Carolina",0,0,0,0,0,0,0,0,0,0,0,0,169,526,562.0,827,1047,1049.0,1051.0,1385,1493,1845.0,2112.0
9565,6539,US,127834,35.2175,-77.4369444444,Census,Town,NC,"Dover, North Carolina",0,0,0,0,0,0,0,0,0,0,0,0,737,670,621.0,623,638,651.0,585.0,600,451,443.0,401.0
9570,8855,US,127725,35.6455555556,-82.3005555556,Census,Town,NC,"Montreat, North Carolina",0,0,0,0,0,0,0,0,0,0,0,0,0,0,0.0,0,0,0.0,581.0,741,693,630.0,723.0
9601,6791,US,128290,35.01,-80.6791666667,Census,Village,NC,"Wesley Chapel, North Carolina",0,0,0,0,0,0,0,0,0,242,0,0,0,0,0.0,0,0,0.0,0.0,0,0,2549.0,7463.0
9607,6637,US,128118,35.2013888889,-76.6380555556,Census,Town,NC,"Mesic, North Carolina",0,0,0,0,0,0,0,0,0,0,0,0,0,0,0.0,0,0,0.0,0.0,390,310,257.0,220.0
9637,12674,US,93259,35.28,-82.17,Census,county,NC,"Polk County, North Carolina",0,0,0,0,0,0,0,4043,4319,5062,5902,7004,7640,8832,10216.0,11874,11627,11395.0,11735.0,12984,14416,18324.0,20510.0
9668,57994,US,150823,36.2955555556,-76.225,Census,City,NC,"Elizabeth City, North Carolina",0,0,0,0,0,0,0,0,930,2315,3251,6348,8412,8925,10037.0,11564,12685,14062.0,14381.0,14004,14292,17188.0,18683.0
9687,10920,US,128162,34.9394444444,-79.7611111111,Census,City,NC,"Rockingham, North Carolina",0,0,0,0,0,0,0,0,454,0,0,1507,2155,2509,2906.0,3657,3356,5512.0,5852.0,8300,9399,9672.0,9558.0
9704,12315,US,127706,33.9119444444,-78.1061111111,Census,Seaside town,NC,"Oak Island, North Carolina",0,0,0,0,0,0,0,0,0,0,0,0,0,0,0.0,0,0,0.0,0.0,0,0,6571.0,6783.0
9811,8475,US,127671,36.1188888889,-77.1822222222,Census,Town,NC,"Lewiston Woodville, North Carolina",0,0,0,0,0,0,0,0,0,0,373,163,262,244,412.0,304,339,360.0,327.0,0,788,613.0,549.0
9908,22668,US,93340,,,Census,US County,NC,"Buncombe County, North Carolina",0,5812,9277,10542,16281,10084,13425,12654,15412,21909,35266,44288,49798,64148,97937.0,108755,124403,130074.0,145056.0,160934,174821,206330.0,238318.0
9923,34101,US,127839,35.1091666667,-77.0691666667,Census,City,NC,"New Bern, North Carolina",0,2467,0,3663,3796,3690,4681,5432,5849,6443,7843,9090,9961,12198,11981.0,11815,15812,15717.0,14660.0,14557,17363,23128.0,29524.0
9936,7167,US,127882,35.7908333333,-77.6388888889,Census,Town,NC,"Pinetops, North Carolina",0,0,0,0,0,0,0,0,0,0,0,0,211,465,603.0,713,1031,1372.0,1379.0,1465,1514,1419.0,1374.0
9944,8954,US,127738,35.7458333333,-81.5286111111,Census,Town,NC,"Rutherford College, North Carolina",0,0,0,0,0,0,0,0,0,0,0,0,229,275,330.0,0,0,0.0,0.0,1108,1126,1293.0,1341.0
9964,7388,US,150831,34.7291666667,-78.1991666667,Census,Town,NC,"Harrells, North Carolina",0,0,0,0,0,0,0,0,0,68,0,0,0,0,0.0,0,147,259.0,249.0,255,187,187.0,202.0
9969,13839,US,93331,36.4,-79.33,Census,US County,NC,"Caswell County, North Carolina",10096,8701,11757,13253,15185,14693,15269,16215,16081,17825,16028,15028,14858,15759,18214.0,20032,20870,19912.0,19055.0,20705,20693,23501.0,23719.0
10123,8378,US,128095,36.3902777778,-77.4222222222,Census,Town,NC,"Jackson, North Carolina",0,0,0,0,0,0,300,0,181,255,750,441,527,579,677.0,758,853,765.0,762.0,720,592,695.0,513.0
10139,12678,US,128052,35.3983333333,-79.7833333333,Census,Town,NC,"Star, North Carolina",0,0,0,0,0,0,0,0,0,0,0,211,239,467,634.0,611,677,745.0,892.0,816,775,807.0,876.0
10369,9256,US,128040,35.4788888889,-80.8844444444,Census,Town,NC,"Cornelius, North Carolina",0,0,0,0,0,0,0,0,0,0,0,0,833,1141,1230.0,1195,1548,1444.0,1296.0,1460,2581,11969.0,24866.0
10397,6832,US,128400,35.6436111111,-78.0083333333,Census,Town,NC,"Lucama, North Carolina",0,0,0,0,0,0,0,0,0,0,0,236,266,316,363.0,362,405,498.0,610.0,1070,933,847.0,1108.0
10540,7502,US,150817,36.1519444444,-81.8072222222,Census,Town,NC,"Seven Devils, North Carolina",0,0,0,0,0,0,0,0,0,0,0,0,0,0,0.0,0,0,0.0,0.0,54,117,129.0,192.0
10548,11178,US,93263,34.51,-77.89,Census,US County,NC,"Pender County, North Carolina",0,0,0,0,0,0,0,0,0,12468,12514,13381,15471,14788,15686.0,17710,18423,18508.0,18149.0,22215,28855,41082.0,52217.0
10593,19724,US,93248,35.31,-80.25,Census,US County,NC,"Stanly County, North Carolina",0,0,0,0,0,0,6922,7801,8315,10505,12136,15220,19909,27429,30216.0,32834,37130,40873.0,42822.0,48517,51765,58100.0,60600.0
10635,10571,US,128237,34.7647222222,-79.4702777778,Census,City,NC,"Laurinburg, North Carolina",0,0,0,0,0,0,0,0,0,968,1357,1334,2322,2643,3312.0,5685,7134,8242.0,8859.0,11480,11643,15874.0,15962.0
10653,14913,US,93231,36.36,-78.41,Census,US County,NC,"Vance County, North Carolina",0,0,0,0,0,0,0,0,0,0,17581,16684,19425,22799,27294.0,29961,32101,32002.0,32691.0,36748,38892,42954.0,45422.0
10797,7416,US,128258,35.2291666667,-80.3325,Census,Town,NC,"Oakboro, North Carolina",0,0,0,0,0,0,0,0,0,0,0,0,0,282,421.0,503,631,581.0,568.0,587,600,1198.0,1859.0
10859,8672,US,128110,34.8988888889,-77.5477777778,Census,Town,NC,"Richlands, North Carolina",0,0,0,0,0,0,0,0,0,0,198,160,445,548,503.0,688,877,1079.0,935.0,825,996,928.0,1520.0
10960,8017,US,127640,34.9672222222,-79.9855555556,Census,Town,NC,"Lilesville, North Carolina",0,0,0,0,0,0,0,0,0,192,222,213,386,440,496.0,556,605,635.0,641.0,588,468,459.0,536.0
10981,12995,US,128337,35.8702777778,-76.3938888889,Census,Town,NC,"Creswell, North Carolina",0,0,0,0,0,0,0,0,0,145,202,224,329,393,350.0,459,425,402.0,633.0,426,361,278.0,276.0
11015,9626,US,127973,36.39,-76.9358333333,Census,Town,NC,"Winton, North Carolina",0,0,0,0,0,0,0,0,0,253,419,688,624,489,582.0,733,834,835.0,917.0,825,796,956.0,769.0
11117,49868,US,127828,34.1486111111,-78.8719444444,Census,Town,NC,"Tabor City, North Carolina",0,0,0,0,0,0,0,0,0,0,0,0,418,782,1165.0,1552,2033,2338.0,2400.0,2710,2330,2509.0,2511.0
11136,9155,US,93271,36.26,-76.26,Census,US County,NC,"Pasquotank County, North Carolina",5477,5379,7674,8008,8641,8514,8950,8940,8131,10369,10748,13660,16693,17670,19143.0,20568,24347,25630.0,26824.0,28462,31298,34895.0,40661.0
11151,10894,US,127907,35.2672222222,-81.1011111111,Census,City,NC,"Lowell, North Carolina",0,0,0,0,0,0,0,0,0,35,0,290,876,1151,1664.0,1826,2313,2784.0,3307.0,2917,2704,2662.0,3526.0
11170,8450,US,128195,35.5702777778,-80.5780555556,Census,City,NC,"China Grove, North Carolina",0,0,0,0,0,0,0,0,0,26,174,887,852,1027,1258.0,1567,1491,1500.0,1788.0,2081,2732,3616.0,3563.0
11238,11954,US,128361,35.4988888889,-77.9861111111,Census,Town,NC,"Pikeville, North Carolina",0,0,0,0,0,0,0,0,0,122,0,168,210,333,449.0,425,464,525.0,580.0,662,598,719.0,678.0
11243,10843,US,127748,35.8455555556,-81.4902777778,Census,Town,NC,"Hudson, North Carolina",0,0,0,0,0,0,0,0,0,0,0,0,411,403,650.0,748,922,1536.0,2820.0,2888,2819,3078.0,3776.0
11292,9208,US,128293,36.2219444444,-78.4411111111,Census,Township,NC,"Kittrell, North Carolina",0,0,0,0,0,0,0,0,0,0,317,168,242,223,220.0,184,189,121.0,427.0,225,228,148.0,467.0
11330,17682,US,128297,35.7319444444,-78.8527777778,Census,Town,NC,"Apex, North Carolina",0,0,0,0,0,0,0,0,0,228,269,349,681,926,863.0,977,1065,1368.0,2192.0,2847,4968,20212.0,37476.0
11343,27450,US,93329,35.66,-81.21,Census,US County,NC,"Catawba County, North Carolina",0,0,0,0,0,0,8862,10729,10984,14946,18689,22133,27918,33839,43991.0,54653,61794,73191.0,90873.0,105208,118412,141685.0,154358.0
11383,6787,US,128057,35.1755555556,-79.5727777778,Census,Village,NC,"Foxfire, North Carolina",0,0,0,0,0,0,0,0,0,0,0,0,0,0,0.0,0,0,0.0,0.0,153,334,474.0,902.0
11394,11786,US,127630,36.0644444444,-79.3980555556,Census,City,NC,"Graham, North Carolina",0,0,0,0,0,0,0,0,502,379,991,2052,2504,2366,2972.0,4339,5026,7723.0,8172.0,8674,10426,12833.0,14153.0
11404,9955,US,93294,35.02,-79.23,Census,US County,NC,"Hoke County, North Carolina",0,0,0,0,0,0,0,0,0,0,0,0,0,11722,14244.0,14937,15756,16356.0,16436.0,20383,22856,33646.0,46952.0
11406,7418,US,128093,36.4497222222,-77.5597222222,Census,Town,NC,"Garysburg, North Carolina",0,0,0,0,0,0,0,0,0,97,0,269,169,203,284.0,320,344,181.0,231.0,1434,1057,1254.0,1057.0
11493,9049,US,127999,35.5102777778,-78.2458333333,Census,Town,NC,"Pine Level, Johnston County, North Carolina",0,0,0,0,0,0,0,0,0,219,264,266,394,373,497.0,595,602,833.0,983.0,953,1217,1313.0,1700.0
11525,8093,US,128186,34.8072222222,-78.9727777778,Census,Town,NC,"St. Pauls, North Carolina",0,0,0,0,0,0,0,0,0,0,0,0,419,1147,2080.0,1923,2251,2249.0,2011.0,1639,1992,2137.0,2035.0
11589,57839,US,127894,36.1027638889,-80.2604916667,Census,City,NC,"Winston-Salem, North Carolina",0,0,0,0,0,0,0,0,443,4194,10729,13650,22700,48395,75274.0,79815,87881,111135.0,133683.0,131885,143485,185776.0,229617.0
11653,7655,US,127692,34.0386111111,-78.0538888889,Census,City,NC,"Boiling Spring Lakes, North Carolina",0,0,0,0,0,0,0,0,0,0,0,0,0,0,0.0,0,0,0.0,245.0,998,1650,2972.0,5372.0
11682,10418,US,150824,35.5788888889,-81.2119444444,Census,Town,NC,"Maiden, North Carolina",0,0,0,0,0,0,0,0,0,0,264,614,664,1266,1628.0,1803,1952,2039.0,2416.0,2574,2574,3282.0,3310.0
11793,7466,US,128208,35.4408333333,-82.2527777778,Census,Village,NC,"Chimney Rock, North Carolina",0,0,0,0,0,0,0,0,0,0,0,0,0,0,0.0,0,0,0.0,0.0,0,0,175.0,113.0
11821,117127,US,57845,35.7666666667,-78.6333333333,Census,State capital,NC,"Raleigh, North Carolina",0,669,976,2674,1700,2244,4518,4780,7790,9265,12678,13643,19218,24418,37379.0,46879,65679,93931.0,122830.0,150255,212092,276093.0,403892.0
11974,29776,US,93250,34.99,-78.37,Census,US County,NC,"Sampson County, North Carolina",6162,6719,6620,8908,11634,12157,14585,16624,16436,22894,25096,26380,29982,36002,40082.0,47440,49780,48013.0,44954.0,49687,47297,60161.0,63431.0
11985,25556,US,93266,34.71,-77.41,Census,US County,NC,"Onslow County, North Carolina",5387,5623,6669,7016,7814,7527,8283,8856,7569,9829,10303,11940,14125,14703,15289.0,17939,42047,82706.0,103126.0,112784,149838,150355.0,177772.0
12072,7390,US,128073,35.9441666667,-78.1097222222,Census,Town,NC,"Spring Hope, North Carolina",0,0,0,0,0,0,0,0,0,0,248,666,1246,1221,1222.0,1222,1275,1336.0,1334.0,1254,1221,1261.0,1320.0
12092,7533,US,127929,35.9611111111,-79.7633333333,Census,Town,NC,"Pleasant Garden, North Carolina",0,0,0,0,0,0,0,0,0,0,0,0,0,0,0.0,0,0,0.0,0.0,1991,2228,4714.0,4489.0
12107,6498,US,127668,36.2283333333,-77.1116666667,Census,Town,NC,"Aulander, North Carolina",0,0,0,0,0,0,0,0,0,0,163,342,543,803,1041.0,1057,1112,1083.0,947.0,1214,1209,888.0,700.0
12137,18649,US,127918,36.1230555556,-78.6833333333,Census,City,NC,"Creedmoor, North Carolina",0,0,0,0,0,0,0,0,0,0,0,0,324,392,388.0,640,852,862.0,1405.0,1641,1504,2232.0,4124.0
12202,21416,US,93273,34.18,-77.86,Census,US County,NC,"New Hanover County, North Carolina",6837,7060,11465,10866,10959,13312,17668,15429,27978,21376,24026,25785,32037,40620,43010.0,47935,63272,71742.0,82996.0,103471,120284,160307.0,202667.0
12216,17523,US,128167,34.6272222222,-79.0119444444,Census,City,NC,"Lumberton, North Carolina",0,0,0,0,0,0,0,0,615,533,584,849,2230,2691,4140.0,5803,9186,15305.0,16961.0,18241,18601,20795.0,21542.0
12219,9980,US,127662,35.5158333333,-77.1005555556,Census,Town,NC,"Chocowinity, North Carolina",0,0,0,0,0,0,0,0,0,0,0,0,0,0,0.0,0,0,580.0,566.0,644,624,733.0,820.0
12258,22673,US,93252,35.64,-80.52,Census,US County,NC,"Rowan County, North Carolina",15972,20060,21543,26009,20786,12109,13870,14589,16810,19965,24123,31066,37521,44062,56665.0,69206,75410,82817.0,90035.0,99186,110605,130340.0,138446.0
12277,21804,US,127765,34.7277777778,-76.7466666667,Census,Town,NC,"Morehead City, North Carolina",0,0,0,0,0,0,0,316,267,520,1064,1379,2039,2958,3483.0,3695,5144,5583.0,5233.0,4359,6046,7691.0,8661.0
12322,16157,US,127713,33.9244444444,-78.0205555556,Census,City,NC,"Southport, North Carolina",0,0,0,0,0,0,0,0,810,1008,1207,1336,1484,1664,1760.0,1760,1748,2034.0,2220.0,2824,2369,2351.0,2833.0
12359,7877,US,127771,35.7036111111,-81.3466666667,Census,Town,NC,"Brookford, North Carolina",0,0,0,0,0,0,0,0,0,0,0,0,725,709,694.0,910,768,596.0,590.0,467,451,434.0,382.0
12450,8564,US,127924,35.5952777778,-77.6977777778,Census,Town,NC,"Walstonburg, North Carolina",0,0,0,0,0,0,0,0,0,0,0,0,127,158,178.0,198,177,191.0,176.0,181,188,224.0,219.0
12483,10164,US,127917,36.1383333333,-78.7588888889,Census,Town,NC,"Butner, North Carolina",0,0,0,0,0,0,0,0,0,0,0,0,0,0,0.0,0,0,0.0,3538.0,4240,4679,5792.0,7591.0
12548,14200,US,93256,35.0,-79.75,Census,US County,NC,"Richmond County, North Carolina",5053,5623,6695,7537,9396,8909,9818,11009,12882,18245,23948,15855,19673,25567,34016.0,36810,39597,39202.0,39889.0,45481,44518,46564.0,46639.0
12549,26633,US,128394,36.1708333333,-81.1419444444,Census,Town,NC,"North Wilkesboro, North Carolina",0,0,0,0,0,0,0,0,0,0,0,918,1902,2363,3668.0,4478,4379,4197.0,3357.0,3275,3384,4116.0,4245.0
12599,6509,US,128033,35.9630555556,-77.3055555556,Census,Town,NC,"Oak City, North Carolina",0,0,0,0,0,0,0,0,0,0,0,115,251,397,481.0,512,518,574.0,559.0,475,389,339.0,317.0
12705,8575,US,127991,35.2972222222,-83.1936111111,Census,Village,NC,"Forest Hills, North Carolina",0,0,0,0,0,0,0,0,0,0,0,0,0,0,0.0,0,0,0.0,0.0,0,0,330.0,365.0
12817,6713,US,128070,35.9636111111,-78.0477777778,Census,Town,NC,"Momeyer, North Carolina",0,0,0,0,0,0,0,0,0,0,0,0,0,0,0.0,0,0,0.0,0.0,0,0,291.0,224.0
13025,6601,US,127678,34.6558333333,-78.7247222222,Census,Town,NC,"Dublin, North Carolina",0,0,0,0,0,0,0,0,0,0,0,0,0,99,189.0,325,243,366.0,283.0,477,246,250.0,338.0
13104,8595,US,128204,35.6936111111,-80.4319444444,Census,Town,NC,"Spencer, North Carolina",0,0,0,0,0,0,0,0,0,0,0,0,1915,2510,3128.0,3072,3242,2904.0,3075.0,2938,3219,3355.0,3267.0
13108,15467,US,127915,35.3636111111,-83.8644444444,Census,Town,NC,"Lake Santeetlah, North Carolina",0,0,0,0,0,0,0,0,0,0,0,0,0,0,0.0,0,0,0.0,0.0,0,47,67.0,45.0
13111,9199,US,150851,35.375,-77.4338888889,Census,Town,NC,"Grifton, North Carolina",0,0,0,0,0,0,0,0,0,0,121,229,291,375,403.0,456,510,1816.0,1860.0,2179,2393,2073.0,2617.0
13192,6324,US,128096,36.35,-77.3055555556,Census,Town,NC,"Lasker, North Carolina",0,0,0,0,0,0,0,0,0,0,0,121,203,106,201.0,169,177,119.0,114.0,96,139,103.0,122.0
13237,5708,US,128125,34.5133333333,-77.9147222222,Census,Village,NC,"St. Helena, North Carolina",0,0,0,0,0,0,0,0,0,0,0,0,0,0,0.0,0,0,0.0,0.0,0,321,395.0,389.0
13257,9725,US,127675,34.5405555556,-78.7930555556,Census,Town,NC,"Bladenboro, North Carolina",0,0,0,0,0,0,0,0,0,0,0,0,276,459,587.0,724,796,774.0,783.0,1428,1821,1718.0,1750.0
13348,7235,US,128006,35.0063888889,-77.2219444444,Census,Town,NC,"Pollocksville, North Carolina",0,0,0,0,0,0,0,0,0,53,143,198,227,339,357.0,408,420,416.0,456.0,318,299,269.0,311.0
13410,35816,US,93297,35.34,-82.48,Census,county,NC,"Henderson County, North Carolina",0,0,0,0,0,5129,6853,10448,7706,10281,12589,14104,16262,18248,23404.0,26049,30921,36163.0,42804.0,58580,69285,89173.0,106740.0
13438,10013,US,127704,34.2569444444,-78.0047222222,Census,Town,NC,"Navassa, North Carolina",0,0,0,0,0,0,0,0,0,0,0,0,0,0,0.0,0,0,0.0,0.0,439,445,479.0,1505.0
13552,9086,US,127653,36.0863888889,-81.9266666667,Census,Town,NC,"Newland, North Carolina",0,0,0,0,0,0,0,0,0,0,0,0,0,289,328.0,471,425,564.0,524.0,722,645,704.0,698.0
13608,16610,US,128286,34.9888888889,-80.5497222222,Census,City,NC,"Monroe, North Carolina",0,0,0,0,0,0,204,239,1144,1564,1866,2427,4082,4084,6100.0,6475,10140,10882.0,11282.0,12639,16127,26228.0,32797.0
13614,6607,US,128184,34.5352777778,-79.2925,Census,Town,NC,"Rowland, North Carolina",0,0,0,0,0,0,0,0,0,0,72,357,787,767,915.0,999,1293,1408.0,1358.0,1841,1139,1146.0,1037.0
13617,7123,US,127936,36.0266666667,-77.3983333333,Census,Town,NC,"Hobgood, North Carolina",0,0,0,0,0,0,0,0,0,0,0,122,165,336,557.0,629,603,630.0,530.0,483,435,404.0,348.0
13694,6612,US,128295,36.3988888889,-78.3238888889,Census,Town,NC,"Middleburg, North Carolina",0,0,0,0,0,0,0,0,0,84,0,169,117,104,138.0,181,217,170.0,149.0,185,131,162.0,133.0
13722,12455,US,128289,34.9283333333,-80.7447222222,Census,Town,NC,"Waxhaw, North Carolina",0,0,0,0,0,0,0,0,0,0,0,752,602,750,840.0,611,818,729.0,1248.0,1208,1294,2625.0,9859.0
13794,7283,US,127752,35.8186111111,-81.48,Census,Town,NC,"Sawmills, North Carolina",0,0,0,0,0,0,0,0,0,0,0,0,0,0,0.0,0,0,0.0,0.0,0,4088,4921.0,5240.0
13797,9064,US,128141,35.53,-77.4,Census,Town / Suburb,NC,"Winterville, North Carolina",0,0,0,0,0,0,0,0,0,0,0,243,484,650,654.0,848,870,1418.0,1437.0,2052,2816,4791.0,9269.0
13831,6818,US,128072,36.0313888889,-77.9016666667,Census,Town,NC,"Red Oak, North Carolina",0,0,0,0,0,0,0,0,0,0,0,0,0,0,0.0,0,0,0.0,359.0,314,280,2723.0,3430.0
13850,7085,US,127970,36.5,-77.0147222222,Census,Town,NC,"Como, North Carolina",0,0,0,0,0,0,0,0,0,0,0,0,0,0,0.0,0,0,0.0,211.0,89,71,78.0,91.0
13921,27200,US,93317,35.69,-75.73,Census,US County,NC,"Dare County, North Carolina",0,0,0,0,0,0,0,0,2778,3243,3768,4757,4841,5115,5202.0,6401,5405,5935.0,6995.0,13377,22746,29959.0,33920.0
14031,9021,US,128124,34.5505555556,-77.9261111111,Census,Town,NC,"Burgaw, North Carolina",0,0,0,0,0,0,0,0,0,184,366,387,956,1040,1209.0,1476,1613,1750.0,1744.0,1738,1807,3337.0,3872.0
14070,6728,US,128022,35.7661111111,-77.1294444444,Census,Town,NC,"Bear Grass, North Carolina",0,0,0,0,0,0,0,0,0,0,0,0,56,108,131.0,114,128,103.0,99.0,82,77,53.0,73.0
14167,7200,US,128285,34.9375,-80.675,Census,"&quot;GR1&quot;&gt;publisher=[[United States Census Bureau|accessdate=2011-04-23|date=2011-02-12|title=US Gazetteer files: 2010, 2000, and 1990}}",NC,"Mineral Springs, North Carolina",0,0,0,0,0,0,0,0,0,0,0,0,0,84,114.0,0,0,0.0,0.0,0,0,1370.0,2639.0
14177,8615,US,128266,36.3916666667,-80.7211111111,Census,Town,NC,"Dobson, North Carolina",0,0,0,0,0,0,0,0,0,0,0,327,360,368,446.0,520,609,684.0,933.0,1222,1195,1457.0,1586.0
14312,11770,US,355411,35.2272222222,-80.5008333333,Census,town,NC,"Midland, North Carolina",0,0,0,0,0,0,0,0,0,0,0,0,0,0,0.0,0,0,0.0,0.0,0,0,0.0,3073.0
14329,9335,US,128042,35.1169444444,-80.7163888889,Census,Suburban Town,NC,"Matthews, North Carolina",0,0,0,0,0,0,0,0,0,191,335,378,396,310,454.0,486,589,609.0,783.0,1648,13651,22127.0,27198.0
14346,7372,US,127971,36.3038888889,-76.79,Census,Town,NC,"Harrellsville, North Carolina",0,0,0,0,0,0,0,0,0,0,110,109,140,131,159.0,154,167,171.0,165.0,151,106,102.0,106.0
14366,8485,US,38337999,36.4002777778,-78.1569444444,Census,Town,NC,"Warrenton, North Carolina",0,0,0,0,0,0,1242,1520,941,816,740,836,807,927,1072.0,1147,1166,1124.0,1035.0,908,949,811.0,862.0
14420,14831,US,127632,36.0952777778,-79.3577777778,Census,Town,NC,"Haw River, North Carolina",0,0,0,0,0,0,0,0,0,0,317,0,0,0,0.0,0,0,0.0,0.0,1858,1855,1908.0,2298.0
14430,6817,US,128102,36.5130555556,-77.1888888889,Census,Town,NC,"Severn, North Carolina",0,0,0,0,0,0,0,0,0,0,0,0,0,284,354.0,323,340,310.0,356.0,309,260,263.0,276.0
14434,10322,US,127869,35.8963888889,-80.5619444444,Census,Town,NC,"Mocksville, North Carolina",0,0,0,0,0,0,0,710,300,562,0,745,1063,1146,1503.0,1607,1909,2379.0,2529.0,2637,3399,4178.0,5051.0
14474,21819,US,127898,36.1002777778,-78.2988888889,Census,Town,NC,"Louisburg, North Carolina",0,0,0,0,0,0,0,0,750,730,667,1178,1775,1954,2182.0,2309,2545,2862.0,2941.0,3238,3037,3111.0,3359.0
14608,54950,US,150828,35.9705555556,-79.9975,Census,City,NC,"High Point, North Carolina",0,0,0,0,0,0,0,525,1627,1991,2500,4163,9525,14302,36745.0,38495,39973,62063.0,63229.0,63380,69428,85839.0,104371.0
14621,6459,US,127876,34.7691666667,-78.0069444444,Census,Town,NC,"Teachey, North Carolina",0,0,0,0,0,0,0,0,0,56,52,0,154,164,140.0,228,226,187.0,219.0,373,244,245.0,376.0
14664,7207,US,127871,35.1547222222,-78.1047222222,Census,Town,NC,"Calypso, North Carolina",0,0,0,0,0,0,0,0,0,0,0,0,0,405,538.0,678,688,633.0,462.0,689,481,410.0,538.0
14692,5710,US,128178,34.4761111111,-79.0363888889,Census,Town,NC,"Proctorville, North Carolina",0,0,0,0,0,0,0,0,0,0,0,0,0,204,185.0,209,232,188.0,157.0,205,168,133.0,117.0
14709,7141,US,128032,35.8105555556,-76.8977777778,Census,Town,NC,"Jamesville, North Carolina",0,0,0,0,0,0,0,46,150,299,346,235,398,389,344.0,499,529,538.0,533.0,604,612,502.0,491.0
14711,15886,US,128327,35.6983333333,-78.6227777778,Census,Town,NC,"Garner, North Carolina",0,0,0,0,0,0,0,0,0,0,0,0,284,376,476.0,768,1180,3451.0,4923.0,10073,14967,17757.0,25745.0
14753,9157,US,127945,35.5086111111,-78.7375,Census,Town,NC,"Angier, North Carolina",0,0,0,0,0,0,0,0,0,0,0,0,221,374,760.0,1028,1182,1249.0,1431.0,1709,2235,3419.0,4350.0
14755,13533,US,127645,34.9666666667,-80.0666666667,Census,Town,NC,"Wadesboro, North Carolina",0,0,0,0,0,0,460,0,480,800,1198,1546,2376,2648,3124.0,3587,3408,3744.0,3977.0,4206,3645,3552.0,5813.0
14788,46498,US,128138,35.6016666667,-77.3725,Census,City,NC,"Greenville, North Carolina",0,0,0,0,0,0,1893,828,601,912,1937,2565,4101,5772,9194.0,12674,16724,22860.0,29063.0,35740,44972,60476.0,84554.0
14810,8609,US,127756,34.6944444444,-77.0591666667,Census,Town,NC,"Cape Carteret, North Carolina",0,0,0,0,0,0,0,0,0,0,0,0,0,0,0.0,0,0,52.0,616.0,944,1008,1214.0,1917.0
14818,10416,US,128210,35.3311111111,-81.87,Census,Town,NC,"Forest City, North Carolina",0,0,0,0,0,0,0,0,0,110,419,1090,1592,2312,4069.0,5035,4971,6556.0,7179.0,7688,7475,7549.0,7476.0
14848,18947,US,93251,35.4,-81.92,Census,US County,NC,"Rutherford County, North Carolina",7808,10753,13202,15351,17557,19202,13550,11573,13121,15198,18770,25101,28385,31426,40452.0,45577,46356,45091.0,47337.0,53787,56918,62899.0,67810.0
14850,7968,US,127700,33.8991666667,-78.5780555556,Census,Town,NC,"Carolina Shores, North Carolina",0,0,0,0,0,0,0,0,0,0,0,0,0,0,0.0,0,0,0.0,0.0,0,0,1482.0,3048.0
14983,6947,US,127879,35.8172222222,-77.4580555556,Census,Town,NC,"Conetoe, North Carolina",0,0,0,0,0,0,0,0,0,0,88,132,158,160,196.0,194,172,147.0,160.0,215,292,365.0,294.0
15049,4453,US,3391066,35.485,-80.2883333333,Census,Unknown,NC,"Misenheimer, North Carolina",0,0,0,0,0,0,0,0,0,0,0,0,0,0,0.0,0,0,0.0,0.0,0,0,0.0,728.0
15088,17339,US,150850,35.8255555556,-78.3166666667,Census,,NC,"Zebulon, North Carolina",0,0,0,0,0,0,0,0,0,0,0,0,482,953,860.0,1070,1378,1534.0,1839.0,2055,3173,4046.0,4433.0
15110,29223,US,93245,36.5080555556,-80.8333333333,Census,US County,NC,"Surry County, North Carolina",7192,9505,10366,12320,14504,15079,18443,10380,11252,15302,19281,25515,29705,32464,39749.0,41783,45593,48205.0,51415.0,59449,61704,71219.0,73673.0
15187,9323,US,127731,35.6363888889,-82.5825,Census,Town,NC,"Woodfin, North Carolina",0,0,0,0,0,0,0,0,0,0,0,0,0,0,0.0,0,0,0.0,0.0,3260,2736,3162.0,6123.0
15188,15255,US,904774,36.0255555556,-75.67,Census,Town,NC,"Duck, North Carolina",0,0,0,0,0,0,0,0,0,0,0,0,0,0,0.0,0,0,0.0,0.0,0,0,0.0,369.0
15199,20599,US,127985,35.5844444444,-80.8202777778,Census,Town,NC,"Mooresville, North Carolina",0,0,0,0,0,0,0,0,0,508,886,1533,3400,4315,5619.0,6682,7121,6918.0,8808.0,8575,9317,18823.0,32711.0
15263,7073,US,128004,35.5777777778,-78.3558333333,Census,Town,NC,"Wilson's Mills, North Carolina",0,0,0,0,0,0,0,0,0,0,0,0,0,0,350.0,0,0,0.0,0.0,0,0,1291.0,2277.0
15315,19908,US,93327,35.14,-84.06,Census,US County,NC,"Cherokee County, North Carolina",0,0,0,0,0,3427,6838,9166,8080,8182,9976,11860,14136,15242,16151.0,18813,18294,16335.0,16330.0,18933,20170,24298.0,27444.0
15334,19684,US,93283,35.86,-82.71,Census,US County,NC,"Madison County, North Carolina",0,0,0,0,0,0,0,5908,8192,12810,17805,20644,20132,20083,20306.0,22522,20522,17217.0,16003.0,16827,16953,19635.0,20764.0
15340,7883,US,128250,35.4047222222,-80.1158333333,Census,Town,NC,"Badin, North Carolina",0,0,0,0,0,0,0,0,0,0,0,0,0,0,0.0,0,2126,1905.0,1626.0,1514,1481,1154.0,1974.0
15370,22230,US,150847,35.4911111111,-80.8327777778,Census,Town,NC,"Davidson, North Carolina",0,0,0,0,0,0,0,0,0,391,481,904,1056,1156,1445.0,1550,2423,2573.0,2931.0,3241,4046,7139.0,10944.0
15385,9783,US,128148,35.8527777778,-79.5719444444,Census,Town,NC,"Liberty, North Carolina",0,0,0,0,0,0,0,0,0,0,366,304,474,636,873.0,922,1342,1438.0,2167.0,1997,2047,2661.0,2656.0
15412,10901,US,127889,36.0252777778,-80.3863888889,Census,Village,NC,"Clemmons, North Carolina",0,0,0,0,0,0,0,0,0,0,0,0,0,0,0.0,0,0,0.0,0.0,0,6020,13827.0,18627.0
15460,10385,US,93264,35.15,-76.67,Census,US County,NC,"Pamlico County, North Carolina",0,0,0,0,0,0,0,0,0,6323,7146,8045,9966,9060,9299.0,9706,9993,9850.0,9467.0,10398,11372,12934.0,13144.0
15480,16564,US,150856,36.2577777778,-80.8513888889,Census,Town,NC,"Elkin, North Carolina",0,0,0,0,0,0,0,0,0,137,288,860,886,1195,2357.0,2734,2842,2868.0,2899.0,2858,3790,4109.0,4001.0
15526,18501,US,150839,36.1161111111,-80.0819444444,Census,Town,NC,"Kernersville, North Carolina",0,0,0,0,0,0,0,0,0,585,900,652,1128,1219,1754.0,2103,2396,2942.0,4815.0,5875,10836,17126.0,23123.0
15618,7096,US,128156,35.0722222222,-79.7616666667,Census,Town,NC,"Ellerbe, North Carolina",0,0,0,0,0,0,0,0,0,0,0,0,0,473,615.0,693,773,843.0,913.0,1129,1132,1021.0,1054.0
15626,15286,US,128159,34.8880555556,-79.7061111111,Census,City,NC,"Hamlet, North Carolina",0,0,0,0,0,0,0,0,0,0,0,639,2173,3808,4801.0,5111,5061,4460.0,4627.0,4720,6196,6018.0,6495.0
15633,7221,US,128066,35.7802777778,-78.1155555556,Census,Town,NC,"Bailey, North Carolina",0,0,0,0,0,0,0,0,0,0,0,0,195,518,631.0,645,743,795.0,724.0,685,553,670.0,569.0
15681,32382,US,93347,36.43,-81.5,Census,US County,NC,"Ashe County, North Carolina",0,2783,3694,4335,6987,7467,8777,7956,9573,14437,15628,19581,19074,21001,21019.0,22664,21878,19768.0,19571.0,22325,22209,24384.0,27281.0
15742,13125,US,127829,34.33,-78.7044444444,Census,City,NC,"Whiteville, North Carolina",0,0,0,0,0,0,0,0,0,0,372,634,1368,1604,2203.0,3011,4238,4683.0,4195.0,5565,5078,5148.0,5394.0
15830,7745,US,127655,35.3013888889,-76.7894444444,Census,Town,NC,"Aurora, North Carolina",0,0,0,0,0,0,0,0,0,81,251,314,440,524,429.0,492,525,449.0,620.0,698,654,583.0,520.0
15846,6751,US,128280,35.0855555556,-80.6341666667,Census,Village,NC,"Lake Park, North Carolina",0,0,0,0,0,0,0,0,0,0,0,0,0,0,0.0,0,0,0.0,0.0,0,0,2093.0,3422.0
15857,29338,US,127900,35.2444444444,-81.0355555556,Census,City,NC,"Belmont, North Carolina",0,0,0,0,0,0,0,0,0,0,0,145,1176,2941,4121.0,4356,5330,5007.0,5054.0,4607,8434,8705.0,10076.0
15963,6839,US,128403,35.6061111111,-77.8211111111,Census,Town,NC,"Stantonsburg, North Carolina",0,0,0,0,0,0,0,0,0,72,0,0,204,424,607.0,595,627,897.0,869.0,920,782,726.0,784.0
16010,14587,US,150813,36.1025,-79.5391666667,Census,Town,NC,"Gibsonville, North Carolina",0,0,0,0,0,0,0,0,0,111,0,521,1162,1302,1605.0,1753,1866,1784.0,2019.0,2865,3441,4372.0,6410.0
16046,18356,US,128273,35.4269444444,-83.4477777778,Census,Town,NC,"Bryson City, North Carolina",0,0,0,0,0,0,0,0,0,0,0,417,612,882,1806.0,1612,1499,1084.0,1290.0,1556,1145,1411.0,1424.0
16053,8489,US,128413,36.1327777778,-80.6608333333,Census,Town,NC,"Yadkinville, North Carolina",0,0,0,0,0,0,0,0,0,120,175,292,432,445,590.0,734,820,1644.0,2232.0,2216,2525,2818.0,2959.0
16174,4524,US,20396744,35.2663888889,-80.3622222222,Census,Town,NC,"Red Cross, North Carolina",0,0,0,0,0,0,0,0,0,0,0,0,0,0,0.0,0,0,0.0,0.0,0,0,0.0,742.0
16184,40643,US,93346,36.08,-81.92,Census,US County,NC,"Avery County, North Carolina",0,0,0,0,0,0,0,0,0,0,0,0,0,10335,11803.0,13561,13352,12009.0,12655.0,14409,14867,17167.0,17797.0
16195,6837,US,128261,35.4716666667,-80.2563888889,Census,Town,NC,"Richfield, North Carolina",0,0,0,0,0,0,0,0,0,0,0,73,210,177,221.0,266,237,293.0,306.0,373,535,515.0,613.0
16221,24194,US,93301,36.08,-79.79,Census,US County,NC,"Guilford County, North Carolina",7300,9442,11420,14511,18737,19175,19754,20056,21736,23585,28052,39074,60497,79272,133010.0,153916,191057,246520.0,288590.0,317154,347420,421048.0,488406.0
16227,23762,US,128018,35.1811111111,-83.3816666667,Census,Town,NC,"Franklin, North Carolina",0,0,0,0,0,0,0,0,0,207,281,335,379,773,1094.0,1249,1975,2173.0,2336.0,2640,2873,3490.0,3845.0
16308,12667,US,93295,36.36,-76.98,Census,US County,NC,"Hertford County, North Carolina",5949,6701,6052,7712,8537,7484,8142,9504,9273,11843,13851,14294,15436,16294,17542.0,19352,21453,22718.0,23529.0,23368,22523,22601.0,24669.0
16342,9930,US,128047,36.0138888889,-82.1558333333,Census,Town,NC,"Bakersville, North Carolina",0,0,0,0,0,0,0,0,0,0,0,511,416,332,426.0,437,428,393.0,409.0,373,332,357.0,464.0
16366,11586,US,127682,34.7322222222,-78.7922222222,Census,Town,NC,"Tar Heel, North Carolina",0,0,0,0,0,0,0,0,0,0,0,0,0,0,0.0,0,0,0.0,87.0,118,115,70.0,117.0
16382,6377,US,127806,35.2997222222,-81.7005555556,Census,Town,NC,"Mooresboro, North Carolina",0,0,0,0,0,0,0,0,0,0,197,144,0,228,270.0,0,0,0.0,0.0,405,294,314.0,311.0
16393,7407,US,127709,33.97703,-78.392517,Census,"&quot;GR1&quot;&gt;publisher=[[United States Census Bureau|accessdate=2011-04-23|date=2011-02-12|title=US Gazetteer files: 2010, 2000, and 1990}}",NC,"Shallotte, North Carolina",0,0,0,0,0,0,0,0,0,0,0,149,139,174,214.0,381,493,480.0,597.0,680,965,1381.0,3675.0
16458,8525,US,127661,35.5430555556,-76.6233333333,Census,Town,NC,"Belhaven, North Carolina",0,0,0,0,0,0,0,0,0,0,0,383,2863,1816,2458.0,2360,2528,2386.0,2259.0,2430,2269,1968.0,1688.0
16518,7006,US,128069,35.7897222222,-78.2033333333,Census,Town,NC,"Middlesex, North Carolina",0,0,0,0,0,0,0,0,0,0,0,0,467,697,559.0,545,446,588.0,729.0,837,730,838.0,822.0
16553,45681,US,128145,35.2088888889,-82.2388888889,Census,Town,NC,"Tryon, North Carolina",0,0,0,0,0,0,0,0,0,0,0,324,700,1067,1670.0,2043,1985,2223.0,1951.0,1796,1680,1760.0,1646.0
16613,24778,US,93318,36.36,-75.94,Census,US County,NC,"Currituck County, North Carolina",5220,6928,6985,8098,7655,6703,7236,7415,5131,6476,6747,6529,7693,7268,6710.0,6709,6201,6601.0,6976.0,11089,13736,18190.0,23547.0
16620,13056,US,128001,35.5369444444,-78.2847222222,Census,Town,NC,"Selma, North Carolina",0,0,0,0,0,0,0,0,0,256,527,816,1331,1601,1857.0,2007,2639,3102.0,4356.0,4762,4600,5914.0,6073.0
16648,18824,US,93285,,,Census,US County,NC,"Lincoln County, North Carolina",9246,12660,16359,18147,22455,25160,7746,8195,9573,11061,12586,15498,17132,17862,22872.0,24187,27459,28814.0,32682.0,42372,50319,63780.0,78265.0
16657,4695,US,927522,35.3883333333,-82.5666666667,Census,town located,NC,"Mills River, North Carolina",0,0,0,0,0,0,0,0,0,0,0,0,0,0,0.0,0,0,0.0,0.0,0,0,0.0,6802.0
16674,6675,US,128228,35.2466666667,-78.3569444444,Census,Town,NC,"Newton Grove, North Carolina",0,0,0,0,0,0,0,0,0,61,63,75,73,125,150.0,339,374,477.0,546.0,564,511,606.0,569.0
16704,12361,US,128330,35.9238888889,-78.4611111111,Census,Town,NC,"Rolesville, North Carolina",0,0,0,0,0,0,0,0,0,115,150,155,170,0,0.0,0,288,358.0,533.0,381,572,907.0,3786.0
16742,8750,US,128136,35.5941666667,-77.5872222222,Census,Town,NC,"Farmville, North Carolina",0,0,0,0,0,0,0,0,0,111,140,262,816,1780,2056.0,2980,2942,3997.0,4424.0,4707,4392,4302.0,4654.0
16756,12306,US,127753,34.7005555556,-76.7408333333,Census,Town,NC,"Atlantic Beach, North Carolina",0,0,0,0,0,0,0,0,0,0,0,0,0,0,0.0,0,49,76.0,300.0,941,1938,1781.0,1495.0
16774,7081,US,127931,36.2363888889,-79.9825,Census,Town,NC,"Stokesdale, North Carolina",0,0,0,0,0,0,0,0,0,0,0,0,159,179,238.0,0,0,0.0,0.0,0,2134,3267.0,5047.0
16780,14757,US,150814,36.0958333333,-79.2708333333,Census,City,NC,"Mebane, North Carolina",0,0,0,0,0,0,0,0,0,0,0,218,693,1351,1568.0,2060,2068,2364.0,2573.0,2782,4754,7284.0,11393.0
16801,27935,US,127627,36.0897222222,-79.4455555556,Census,City,NC,"Burlington, North Carolina",0,0,0,0,0,0,0,0,0,817,1716,3692,4808,5952,9737.0,12198,24560,33199.0,35930.0,37266,39498,44917.0,50042.0
16839,22277,US,93246,36.41,-80.23,Census,US County,NC,"Stokes County, North Carolina",8423,11026,11645,14033,16196,16265,9206,10402,11208,15353,17199,19866,20151,20575,22290.0,22656,21520,22314.0,23782.0,33086,37223,44712.0,47401.0
16921,15812,US,128041,35.4094444444,-80.8636111111,Census,Suburban Town,NC,"Huntersville, North Carolina",0,0,0,0,0,0,0,0,0,0,431,533,591,833,800.0,763,916,1004.0,1538.0,1294,3014,24960.0,46773.0
17008,15451,US,127986,35.7866666667,-80.8786111111,Census,City,NC,"Statesville, North Carolina",0,0,0,0,0,0,215,320,683,1062,2318,3141,4599,7895,10490.0,11440,16901,19844.0,20007.0,18622,17567,23320.0,24532.0
17016,7298,US,128064,35.2563888889,-79.2808333333,Census,Town,NC,"Vass, North Carolina",0,0,0,0,0,0,0,0,0,0,0,0,273,407,602.0,728,757,767.0,885.0,828,670,750.0,720.0
17017,7175,US,128055,35.3261111111,-79.2530555556,Census,Town,NC,"Cameron, North Carolina",0,0,0,0,0,0,0,0,0,117,236,218,259,241,287.0,311,284,298.0,204.0,225,215,151.0,285.0
17071,6602,US,127683,34.6322222222,-78.4980555556,Census,Town,NC,"White Lake, North Carolina",0,0,0,0,0,0,0,0,0,0,0,0,0,0,0.0,0,0,130.0,232.0,968,390,529.0,802.0
17124,15443,US,128274,35.2416666667,-82.7286111111,Census,City,NC,"Brevard, North Carolina",0,0,0,0,0,0,0,0,0,223,327,584,919,1658,2339.0,3061,3908,4857.0,5243.0,5323,5388,6789.0,7609.0
17163,9622,US,128165,34.4980555556,-79.1147222222,Census,Town,NC,"Fairmont, North Carolina",0,0,0,0,0,0,0,0,0,0,0,432,730,1000,1314.0,1993,2319,2286.0,2827.0,2658,2489,2604.0,2663.0
17182,13133,US,93351,36.49,-81.13,Census,US County,NC,"Alleghany County, North Carolina",0,0,0,0,0,0,0,3590,3691,5486,6523,7759,7745,7403,7186.0,8341,8155,7734.0,8134.0,9587,9590,10677.0,11155.0
17358,29465,US,128187,36.5063888889,-79.745,Census,City,NC,"Eden, North Carolina",0,0,0,0,0,0,0,0,0,0,0,0,0,0,0.0,0,0,3382.0,15871.0,15672,15238,15908.0,15527.0
17371,9518,US,128071,35.9694444444,-77.9613888889,Census,City,NC,"Nashville, North Carolina",0,0,0,0,0,0,0,0,0,212,401,479,750,939,1137.0,1171,1302,1423.0,1670.0,3033,3617,4309.0,5352.0
17443,8581,US,127949,35.3227777778,-78.6719444444,Census,Town,NC,"Erwin, North Carolina",0,0,0,0,0,0,0,0,0,0,0,0,0,0,0.0,0,3344,3183.0,2852.0,2828,4061,4537.0,4405.0
17466,25158,US,128114,36.0705555556,-79.1041666667,Census,Town,NC,"Hillsborough, North Carolina",0,474,0,0,0,0,582,751,809,781,662,707,857,1180,1232.0,1311,1329,1349.0,1444.0,3019,4263,5446.0,6087.0
17475,20141,US,128106,34.7597222222,-77.4097222222,Census,City,NC,"Jacksonville, North Carolina",0,0,0,0,0,0,0,0,60,94,170,309,505,656,783.0,873,3960,13491.0,16289.0,18237,30013,66715.0,70145.0
17490,7631,US,128117,35.1441666667,-76.7708333333,Census,Town,NC,"Bayboro, North Carolina",0,0,0,0,0,0,0,0,0,0,252,292,370,349,468.0,428,453,545.0,665.0,759,733,741.0,1263.0
17491,2344,US,11805575,,,Census,town,NC,"Fairview, Union County, North Carolina",0,0,0,0,0,0,0,0,0,0,0,0,0,0,0.0,0,0,0.0,0.0,0,1830,2495.0,3324.0
17583,9917,US,127674,35.9980555556,-76.9488888889,Census,Town,NC,"Windsor, North Carolina",0,0,0,0,0,0,0,315,427,0,522,597,684,1210,1425.0,1747,1781,1813.0,2199.0,2126,2056,2283.0,3630.0
17601,28257,US,150848,35.0541666667,-83.2022222222,Census,Town,NC,"Highlands, North Carolina",0,0,0,0,0,0,0,0,0,82,0,233,249,267,443.0,569,515,597.0,583.0,653,948,909.0,924.0
17608,8830,US,150819,35.7261111111,-81.3838888889,Census,Town,NC,"Long View, North Carolina",0,0,0,0,0,0,0,0,0,0,0,0,243,755,1262.0,1489,2291,2997.0,3360.0,3587,3229,4722.0,4871.0
17624,8845,US,93227,35.84,-76.56,Census,US County,NC,"Washington County, North Carolina",0,2422,3464,3986,4552,4525,5664,6357,6516,8928,10200,10608,11062,11429,11603.0,12323,13180,13488.0,14038.0,14801,13997,13723.0,13228.0
17664,33460,US,93255,,,Census,US County,NC,"Robeson County, North Carolina",5343,6839,7528,8204,9433,10370,12826,15489,16262,23880,31483,40371,51945,54674,66512.0,76860,87769,89102.0,84842.0,101610,105179,123339.0,134168.0
17699,7215,US,127964,35.3141666667,-82.4972222222,Census,Town,NC,"Laurel Park, North Carolina",0,0,0,0,0,0,0,0,0,0,0,0,0,0,127.0,171,302,421.0,581.0,764,1322,1835.0,2180.0
17702,12176,US,128051,35.2158333333,-80.0052777778,Census,Town,NC,"Mount Gilead, North Carolina",0,0,0,0,0,0,0,0,0,0,0,395,723,975,1011.0,915,1201,1229.0,1286.0,1423,1336,1389.0,1181.0
17718,6793,US,127982,35.9616666667,-80.7738888889,Census,Town,NC,"Harmony, North Carolina",0,0,0,0,0,0,0,0,0,0,0,0,0,0,337.0,348,374,322.0,377.0,470,431,526.0,531.0
17791,8364,US,150816,36.2063888889,-81.8830555556,Census,Town,NC,"Beech Mountain, North Carolina",0,0,0,0,0,0,0,0,0,0,0,0,0,0,0.0,0,0,0.0,0.0,0,239,310.0,320.0
17969,20912,US,128268,36.5,-80.6166666667,Census,City,NC,"Mount Airy, North Carolina",0,0,0,0,0,0,0,0,0,519,1768,2680,3844,4752,6045.0,6286,7192,7055.0,7325.0,6862,7156,8484.0,10388.0
17998,8481,US,127647,36.4991666667,-81.5097222222,Census,Town,NC,"Lansing, North Carolina",0,0,0,0,0,0,0,0,0,0,0,0,0,0,0.0,0,0,278.0,283.0,194,171,151.0,158.0
18065,6604,US,127666,35.5336111111,-77.0322222222,Census,Town,NC,"Washington Park, North Carolina",0,0,0,0,0,0,0,0,0,0,0,0,0,0,193.0,295,421,574.0,517.0,514,403,440.0,451.0
18068,8246,US,127939,36.1305555556,-77.4208333333,Census,Town,NC,"Scotland Neck, North Carolina",0,0,0,0,0,0,0,0,0,482,778,1348,1726,2061,2339.0,2559,2730,2974.0,2869.0,2834,2575,2362.0,2059.0
18124,20755,US,127790,36.0619444444,-76.6058333333,Census,Town,NC,"Edenton, North Carolina",1575,0,0,0,0,0,1607,1504,1243,1382,2205,3046,2789,2777,3563.0,3835,4468,4458.0,4956.0,5357,5268,5394.0,5004.0
18152,10615,US,127781,35.665,-81.2244444444,Census,City,NC,"Newton, North Carolina",0,0,0,0,0,0,84,291,323,583,1038,1583,2316,3021,4394.0,5407,6039,6658.0,7857.0,7624,9304,12560.0,12968.0
18228,19677,US,128008,35.4758333333,-79.1755555556,Census,City,NC,"Sanford, North Carolina",0,0,0,0,0,0,0,0,0,236,367,1044,2282,2977,4253.0,4960,10013,12253.0,11716.0,14773,14475,23220.0,28094.0
18247,13396,US,93343,36.06,-76.96,Census,US County,NC,"Bertie County, North Carolina",12462,11249,11218,10805,12262,12175,12851,14310,12950,16399,19176,20538,23039,23993,25844.0,26201,26439,24350.0,20528.0,21024,20388,19773.0,21282.0
18311,6792,US,128034,35.8172222222,-77.3122222222,Census,Census-Designated Place,NC,"Parmele, North Carolina",0,0,0,0,0,0,0,0,0,0,0,336,272,355,341.0,417,406,323.0,373.0,484,321,290.0,278.0
18319,7115,US,128007,35.0636111111,-77.3561111111,Census,Town,NC,"Trenton, North Carolina",0,0,98,0,0,0,0,0,0,149,207,338,331,488,500.0,431,469,404.0,539.0,294,248,206.0,287.0
18328,7577,US,15027681,35.6919444444,-78.3727777778,Census,Town,NC,"Archer Lodge, North Carolina",0,0,0,0,0,0,0,0,0,0,0,0,0,0,0.0,0,0,0.0,711.0,872,795,795.0,4292.0
18350,7405,US,127631,36.1236111111,-79.3444444444,Census,Town,NC,"Green Level, North Carolina",0,0,0,0,0,0,0,0,0,0,0,0,0,0,0.0,0,0,0.0,0.0,0,0,2042.0,2100.0
18355,8595,US,128020,35.8286111111,-82.5477777778,Census,Town,NC,"Mars Hill, North Carolina",0,0,0,0,0,0,0,0,0,0,0,289,301,364,455.0,517,1404,1574.0,1623.0,2126,1611,1764.0,1869.0
18377,11639,US,128048,35.9136111111,-82.07,Census,Town,NC,"Spruce Pine, North Carolina",0,0,0,0,0,0,0,0,0,0,0,0,0,717,1546.0,1968,2280,2504.0,2333.0,2282,2010,2030.0,2175.0
18394,7008,US,128262,35.2327777778,-80.4302777778,Census,Town,NC,"Stanfield, North Carolina",0,0,0,0,0,0,0,0,0,0,0,0,0,0,0.0,0,0,471.0,458.0,463,517,1113.0,1486.0
18407,10037,US,127920,36.2005555556,-78.7236111111,Census,Town,NC,"Stem, North Carolina",0,0,0,0,0,0,0,0,0,0,0,0,0,245,256.0,218,217,221.0,242.0,222,249,229.0,463.0
18421,12304,US,128414,35.9186111111,-82.2975,Census,Town,NC,"Burnsville, North Carolina",0,0,0,0,0,0,0,0,0,0,0,207,422,0,866.0,997,1341,1388.0,1348.0,1452,1482,1623.0,1693.0
18481,6351,US,127802,35.3588888889,-81.6175,Census,Town,NC,"Kingstown, North Carolina",0,0,0,0,0,0,0,0,0,0,0,0,0,0,0.0,0,0,0.0,0.0,0,956,845.0,681.0
18488,8861,US,127932,36.1991666667,-79.8858333333,Census,Town,NC,"Summerfield, North Carolina",0,0,0,0,0,0,0,0,0,0,0,0,0,0,0.0,0,0,0.0,0.0,1680,2051,7018.0,10232.0
18512,9120,US,127826,34.315,-78.5086111111,Census,Town,NC,"Lake Waccamaw, North Carolina",0,0,0,0,0,0,0,0,0,0,0,0,0,237,405.0,429,575,780.0,924.0,1133,954,1411.0,1480.0
18547,54768,US,93354,,,Census,US County,NC,"Alamance County, North Carolina",0,0,0,0,0,0,11444,11852,11874,14613,18271,25665,28712,32718,42140.0,57427,71220,85674.0,96362.0,99319,108213,130800.0,151131.0
18731,15163,US,128177,34.6819444444,-79.1958333333,Census,Town,NC,"Pembroke, North Carolina",0,0,0,0,0,0,0,0,0,0,0,0,258,829,524.0,783,1212,1372.0,1982.0,2698,2241,2399.0,2973.0
18746,5852,US,128170,34.465,-79.01,Census,Town,NC,"Orrum, North Carolina",0,0,0,0,0,0,0,0,0,0,0,0,214,86,209.0,173,162,139.0,162.0,167,103,79.0,91.0
18785,5811,US,128129,34.6425,-77.9625,Census,Town,NC,"Watha, North Carolina",0,0,0,0,0,0,0,0,0,0,0,0,169,181,227.0,214,222,174.0,181.0,196,99,151.0,190.0
18792,7750,US,127913,35.3583333333,-81.0969444444,Census,Town,NC,"Stanley, North Carolina",0,0,0,0,0,0,0,0,0,0,0,441,321,584,1084.0,1036,1644,1980.0,2336.0,2341,2823,3053.0,3556.0
19126,16183,US,127665,35.5536111111,-77.0519444444,Census,City,NC,"Washington, North Carolina",0,0,0,0,0,0,2015,1599,2094,2462,3545,4842,6211,6314,7035.0,8569,9698,9939.0,8961.0,8418,9075,9583.0,9744.0
19130,7572,US,127643,34.9927777778,-80.2647222222,Census,Town,NC,"Peachland, North Carolina",0,0,0,0,0,0,0,0,0,0,58,156,232,196,203.0,390,485,563.0,556.0,506,384,554.0,437.0
19136,10586,US,93300,36.26,-77.66,Census,US County,NC,"Halifax County, North Carolina",14310,13945,15620,17237,17739,16865,16589,19442,20408,30300,28908,30793,37646,43766,53246.0,56512,58377,58956.0,53884.0,55286,55516,57370.0,54691.0
19159,8533,US,150840,36.2736111111,-80.3533333333,Census,City,NC,"King, North Carolina",0,0,0,0,0,0,0,0,0,0,0,0,0,0,0.0,0,0,0.0,0.0,0,4059,5952.0,6904.0
19165,8083,US,128356,35.5416666667,-77.8791666667,Census,Town,NC,"Eureka, North Carolina",0,0,0,0,0,0,0,0,0,0,0,123,162,187,198.0,194,192,246.0,263.0,303,282,244.0,197.0
19215,7845,US,127714,33.9408333333,-78.1044444444,Census,Town,NC,"St. James, North Carolina",0,0,0,0,0,0,0,0,0,0,0,0,0,0,0.0,0,0,0.0,0.0,0,0,804.0,3165.0
19311,8729,US,127646,36.42,-81.4688888889,Census,Town,NC,"Jefferson, North Carolina",0,0,0,0,0,0,0,128,0,196,413,230,184,196,266.0,304,359,814.0,943.0,1086,1300,1422.0,1611.0
19492,27400,US,93306,36.44,-76.7,Census,US County,NC,"Gates County, North Carolina",5386,5881,5965,6837,7866,8161,8426,8443,7724,8897,10252,10413,10455,10537,10551.0,10060,9555,9254.0,8524.0,8875,9305,10516.0,12197.0
19519,9999,US,127785,35.5925,-79.3297222222,Census,Town,NC,"Goldston, North Carolina",0,0,0,0,0,0,0,0,0,0,0,0,240,289,312.0,416,372,374.0,364.0,353,299,319.0,268.0
19580,9165,US,4179839,35.9533333333,-80.2180555556,Census,Town,NC,"Midway, North Carolina",0,0,0,0,0,0,0,0,0,0,0,0,0,0,0.0,0,0,0.0,0.0,0,0,0.0,4679.0
19616,8207,US,128364,35.3094444444,-77.8675,Census,Village,NC,"Walnut Creek, North Carolina",0,0,0,0,0,0,0,0,0,0,0,0,0,0,0.0,0,0,0.0,0.0,343,623,859.0,835.0
19683,7127,US,127807,35.2305555556,-81.5177777778,Census,Town,NC,"Patterson Springs, North Carolina",0,0,0,0,0,0,0,0,0,0,0,0,0,0,0.0,0,0,0.0,0.0,731,690,620.0,622.0
19765,6474,US,127799,35.1955555556,-81.5347222222,Census,Town,NC,"Earl, North Carolina",0,0,0,0,0,0,0,0,0,0,0,0,0,0,0.0,0,0,0.0,0.0,206,230,234.0,260.0
19794,23261,US,128332,35.9733333333,-78.5188888889,Census,Town,NC,"Wake Forest, North Carolina",0,0,0,0,0,0,0,0,0,456,858,823,1443,1425,1536.0,1562,3704,2664.0,3148.0,3780,5769,12588.0,30117.0
19858,13822,US,127990,35.3697222222,-83.2511111111,Census,Town,NC,"Dillsboro, North Carolina",0,0,0,0,0,0,0,0,0,0,0,279,277,228,284.0,290,198,140.0,215.0,179,95,205.0,232.0
19937,9357,US,150830,35.1158333333,-78.1402777778,Census,Town,NC,"Faison, North Carolina",0,0,0,0,0,0,0,0,0,0,256,308,519,477,589.0,751,768,666.0,598.0,636,701,744.0,961.0
19938,12568,US,2262496,35.195,-78.0675,Census,Town,NC,"Mount Olive, North Carolina",0,0,0,0,0,0,0,0,0,0,393,617,1071,2297,2685.0,2929,3732,4673.0,4914.0,4876,4582,4567.0,4589.0
20017,7802,US,127952,35.5330555556,-82.9116666667,Census,Town,NC,"Clyde, North Carolina",0,0,0,0,0,0,0,0,0,0,90,244,344,363,458.0,516,598,680.0,814.0,1008,1041,1324.0,1223.0
20052,9448,US,127638,36.5055555556,-81.1216666667,Census,Town,NC,"Sparta, North Carolina",0,0,0,0,0,0,0,0,0,0,95,501,199,159,466.0,648,620,1047.0,1304.0,1687,1957,1817.0,1770.0
20103,11654,US,128212,35.4447222222,-82.1911111111,Census,Town,NC,"Lake Lure, North Carolina",0,0,0,0,0,0,0,0,0,0,0,0,0,0,204.0,212,174,233.0,456.0,488,691,1027.0,1192.0
20106,8136,US,127817,35.4175,-81.6427777778,Census,City,NC,"Polkville, North Carolina",0,0,0,0,0,0,0,0,0,0,0,0,0,0,0.0,0,0,0.0,0.0,528,1514,535.0,545.0
20156,21273,US,93243,35.2,-82.8,Census,US County,NC,"Transylvania County, North Carolina",0,0,0,0,0,0,0,0,3536,5340,5881,6620,7191,9303,9589.0,12241,15194,16372.0,19713.0,23417,25520,29334.0,33090.0
20178,6951,US,128115,35.1430555556,-76.8152777778,Census,Town,NC,"Alliance, North Carolina",0,0,0,0,0,0,0,0,0,0,0,0,0,0,0.0,0,0,0.0,577.0,616,583,781.0,776.0
20203,6560,US,128152,35.7947222222,-79.5511111111,Census,Town,NC,"Staley, North Carolina",0,0,0,0,0,0,0,0,0,0,0,0,0,157,241.0,255,236,260.0,239.0,204,204,347.0,393.0
20214,6783,US,128065,35.2555555556,-79.3708333333,Census,Village,NC,"Whispering Pines, North Carolina",0,0,0,0,0,0,0,0,0,0,0,0,0,0,0.0,0,0,0.0,362.0,1160,1243,2090.0,2928.0
20218,37994,US,93328,35.7,-79.26,Census,US County,NC,"Chatham County, North Carolina",9161,11861,12977,12661,15405,16242,18449,19101,19723,23453,25413,23912,22635,23814,24177.0,24726,25392,26785.0,29554.0,33415,38759,49329.0,63505.0
20220,29291,US,93323,35.34,-81.56,Census,US County,NC,"Cleveland County, North Carolina",0,0,0,0,0,0,10396,12348,12696,16571,20394,25078,29494,34272,51914.0,58055,64357,66048.0,72556.0,83435,84714,96287.0,98078.0
20369,8675,US,128189,36.4141666667,-79.9708333333,Census,Town,NC,"Mayodan, North Carolina",0,0,0,0,0,0,0,0,0,0,0,904,874,1886,1948.0,2323,2246,2366.0,2875.0,2627,2471,2417.0,2478.0
20388,6438,US,128236,34.7602777778,-79.6072222222,Census,Town,NC,"Gibson, North Carolina",0,0,0,0,0,0,0,0,0,0,0,0,0,264,417.0,435,609,501.0,502.0,533,532,584.0,540.0
20405,8247,US,127721,35.5377777778,-82.54,Census,Town,NC,"Biltmore Forest, North Carolina",0,0,0,0,0,0,0,0,0,0,0,71,173,0,313.0,476,657,1004.0,1298.0,1499,1327,1440.0,1343.0
20407,7068,US,127654,36.1244444444,-81.8755555556,Census,Village,NC,"Sugar Mountain, North Carolina",0,0,0,0,0,0,0,0,0,0,0,0,0,0,0.0,0,0,0.0,0.0,0,132,226.0,198.0
20428,11545,US,93313,36.04,-78.87,Census,US County,NC,"Durham County, North Carolina",0,0,0,0,0,0,0,0,0,0,18041,26233,35276,42219,67196.0,80244,101639,111995.0,132681.0,152785,181835,223314.0,267587.0
20534,11938,US,128397,36.1425,-81.1625,Census,Town,NC,"Wilkesboro, North Carolina",0,0,0,0,0,0,0,0,0,200,336,634,799,814,1042.0,1309,1370,1568.0,2038.0,2335,2573,3159.0,3413.0
20580,19796,US,93289,35.52,-78.37,Census,US County,NC,"Johnston County, North Carolina",5691,6301,6867,9607,10938,10599,13726,15656,16897,23461,27239,32250,41401,48998,57621.0,63798,65906,62936.0,61737.0,70599,81306,121965.0,168878.0
20587,13257,US,127649,36.1594444444,-81.8716666667,Census,Town,NC,"Banner Elk, North Carolina",0,0,0,0,0,0,0,0,0,0,0,0,0,264,340.0,0,0,0.0,754.0,1087,933,811.0,1028.0
20639,35245,US,127741,35.4044444444,-80.6005555556,Census,Satellite city,NC,"Concord, North Carolina",0,0,0,0,0,0,0,0,878,1264,4339,7910,8715,9903,11820.0,15572,16486,17799.0,18464.0,16942,27347,55977.0,79066.0
20678,6401,US,127804,35.415,-81.5622222222,Census,Town,NC,"Lawndale, North Carolina",0,0,0,0,0,0,0,0,0,0,0,0,568,774,728.0,1006,964,723.0,544.0,469,573,642.0,606.0
20703,11578,US,93314,34.94,-77.93,Census,US County,NC,"Duplin County, North Carolina",5663,6796,7863,9744,11291,11182,13514,15784,15542,18773,18690,22405,25442,30223,35103.0,39739,41074,40270.0,38015.0,40952,39995,49063.0,58505.0
20722,33594,US,93316,,,Census,US County,NC,"Davidson County, North Carolina",0,0,0,0,13389,14606,15320,16601,17414,20333,21702,23403,29404,35201,47865.0,53377,62244,79493.0,95627.0,113162,126677,147246.0,162878.0
20751,7835,US,150854,34.4280555556,-77.5433333333,Census,Town,NC,"Surf City, North Carolina",0,0,0,0,0,0,0,0,0,0,0,0,0,0,0.0,0,0,0.0,166.0,421,970,1393.0,1853.0
20759,29675,US,128009,35.2705555556,-77.585,Census,City,NC,"Kinston, North Carolina",0,0,0,0,0,0,455,1333,1103,1216,1726,4106,6995,9771,11362.0,15388,18336,24819.0,23020.0,25234,25295,23688.0,21677.0
20848,9392,US,127899,36.0252777778,-78.4772222222,Census,Town,NC,"Youngsville, North Carolina",0,0,0,0,0,0,0,0,0,117,205,345,431,414,395.0,553,619,596.0,555.0,486,424,651.0,1157.0
20882,7939,US,128281,34.9883333333,-80.3677777778,Census,Town,NC,"Marshville, North Carolina",0,0,0,0,0,0,0,0,0,0,0,349,499,828,933.0,1007,1258,1360.0,1405.0,2011,2020,2360.0,2402.0
21058,7587,US,150827,35.1925,-78.6486111111,Census,Town,NC,"Falcon, North Carolina",0,0,0,0,0,0,0,0,0,0,0,0,0,200,279.0,206,245,235.0,357.0,339,216,328.0,258.0
21059,6861,US,127670,36.1808333333,-77.2216666667,Census,Town,NC,"Kelford, North Carolina",0,0,0,0,0,0,0,0,0,0,0,167,316,223,458.0,456,405,362.0,295.0,254,204,245.0,251.0
21078,7052,US,127705,34.3094444444,-78.1527777778,Census,City,NC,"Northwest, North Carolina",0,0,0,0,0,0,0,0,0,0,0,0,0,0,0.0,0,0,0.0,0.0,0,0,671.0,735.0
21151,9752,US,58420,36.0769444444,-75.7047222222,Census,Town,NC,"Kitty Hawk, North Carolina",0,0,0,0,0,0,0,0,0,0,0,0,0,0,0.0,0,0,0.0,0.0,0,1937,2991.0,3272.0
21176,8122,US,127773,35.7138888889,-81.1505555556,Census,City,NC,"Claremont, North Carolina",0,0,0,0,0,0,0,0,0,0,0,160,297,435,368.0,467,669,728.0,788.0,880,980,1038.0,1352.0
21344,6957,US,127841,35.0833333333,-77.0913888889,Census,Town,NC,"Trent Woods, North Carolina",0,0,0,0,0,0,0,0,0,0,0,0,0,0,0.0,0,0,517.0,719.0,1177,2366,4192.0,4155.0
21374,8491,US,128230,34.9525,-78.5105555556,Census,Town,NC,"Roseboro, North Carolina",0,0,0,0,0,0,0,0,0,0,0,63,183,749,768.0,939,1241,1354.0,1235.0,1227,1441,1267.0,1191.0
21456,7006,US,128137,35.6736111111,-77.6388888889,Census,Town,NC,"Fountain, North Carolina",0,0,0,0,0,0,0,0,0,0,0,0,189,243,360.0,483,451,496.0,434.0,424,445,533.0,427.0
21483,38152,US,150825,35.7788888889,-78.8002777778,Census,Unknown,NC,"Cary, North Carolina",0,0,0,0,0,0,0,0,0,316,423,333,383,645,909.0,1141,1446,3356.0,7686.0,21763,43858,94536.0,135234.0
21489,7528,US,127733,35.7572222222,-81.6066666667,Census,Town,NC,"Drexel, North Carolina",0,0,0,0,0,0,0,0,0,0,0,0,0,392,781.0,681,988,1146.0,1431.0,1392,1746,1938.0,1858.0
21549,18946,US,128015,35.4741666667,-81.2427777778,Census,City,NC,"Lincolnton, North Carolina",0,0,0,0,0,0,0,848,886,708,957,828,2413,3300,3781.0,4525,5423,5699.0,5293.0,4879,6847,9965.0,10486.0
21567,36554,US,98532,35.9383333333,-77.7905555556,Census,City,NC,"Rocky Mount, North Carolina",0,0,0,0,0,0,0,0,357,552,816,2937,8051,12742,21412.0,25568,27697,32147.0,34284.0,41283,48997,55893.0,57477.0
21622,19177,US,93286,35.24,-77.64,Census,US County,NC,"Lenoir County, North Carolina",0,4005,5572,6799,7723,7605,7828,10220,10434,15344,14879,18639,22769,29555,35716.0,41211,45953,55276.0,55204.0,59819,57274,59648.0,59495.0
21679,27913,US,128203,35.6683333333,-80.4786111111,Census,City,NC,"Salisbury, North Carolina",0,0,0,0,0,0,1086,2420,0,2723,4418,6277,7153,13884,16951.0,19037,20102,21297.0,22515.0,22677,23087,26462.0,33662.0
21683,12613,US,127923,35.45,-77.6666666667,Census,Town,NC,"Snow Hill, North Carolina",0,0,0,0,0,0,0,0,320,332,283,405,450,700,826.0,928,946,1043.0,1359.0,1374,1378,1514.0,1595.0
21724,10308,US,127906,35.3969444444,-81.2044444444,Census,Town,NC,"High Shoals, North Carolina",0,0,0,0,0,0,0,0,0,0,0,0,0,0,0.0,0,0,0.0,0.0,586,605,729.0,696.0
21746,13303,US,93220,35.9,-82.31,Census,US County,NC,"Yancey County, North Carolina",0,0,0,0,0,5962,8205,8655,5909,7694,9490,11464,12072,15093,14486.0,17202,16306,14008.0,12629.0,14934,15419,17774.0,17818.0
21773,16003,US,127938,36.4544444444,-77.6547222222,Census,City,NC,"Roanoke Rapids, North Carolina",0,0,0,0,0,0,0,0,0,0,0,1009,1670,3369,3403.0,8545,8156,13320.0,13508.0,14702,15722,16957.0,15754.0
21780,7947,US,150836,35.8663888889,-77.8308333333,Census,Town,NC,"Sharpsburg, North Carolina",0,0,0,0,0,0,0,0,0,0,0,0,121,334,275.0,345,415,490.0,789.0,997,1536,2421.0,2024.0
21797,7158,US,127745,35.9447222222,-81.4641666667,Census,Village,NC,"Cedar Rock, North Carolina",0,0,0,0,0,0,0,0,0,0,0,0,0,0,0.0,0,0,0.0,0.0,0,0,315.0,300.0
21855,9196,US,127891,36.2322222222,-80.2936111111,Census,Town,NC,"Rural Hall, North Carolina",0,0,0,0,0,0,0,0,0,0,0,0,0,0,0.0,0,0,0.0,0.0,1336,1652,2464.0,2937.0
21901,8598,US,128358,35.5430555556,-77.9747222222,Census,Town,NC,"Fremont, North Carolina",0,0,0,0,0,0,0,0,0,246,377,435,951,1294,1316.0,1264,1395,1609.0,1596.0,1736,1710,1463.0,1255.0
21942,14155,US,5038382,35.1517416667,-80.8229333333,Census,Edge city,NC,SouthPark (Charlotte neighborhood),0,0,0,0,0,0,0,0,0,0,0,0,0,0,0.0,0,0,0.0,0.0,0,0,15321.0,16549.0
21961,18050,US,127701,33.9036111111,-78.0605555556,Census,Seaside town,NC,"Caswell Beach, North Carolina",0,0,0,0,0,0,0,0,0,0,0,0,0,0,0.0,0,0,0.0,0.0,110,175,370.0,398.0
21970,7478,US,127832,35.1225,-77.0213888889,Census,Town,NC,"Bridgeton, North Carolina",0,0,0,0,0,0,0,0,0,0,0,0,348,548,721.0,616,805,638.0,520.0,461,453,328.0,454.0
21979,11909,US,127788,35.2,-83.8263888889,Census,Town,NC,"Andrews, North Carolina",0,0,0,0,0,0,0,0,0,0,0,0,936,1634,1748.0,1520,1397,1404.0,1384.0,1621,2551,1602.0,1781.0
22134,28071,US,127865,35.8166666667,-80.2586111111,Census,City,NC,"Lexington, North Carolina",0,0,0,0,0,0,0,0,475,475,626,1440,4163,5234,9652.0,10550,13571,16093.0,17205.0,15711,16581,19953.0,18931.0
22139,30777,US,93279,35.68,-82.05,Census,US County,NC,"McDowell County, North Carolina",0,0,0,0,0,0,6246,7120,7592,9836,10939,12567,13538,16763,20336.0,22996,25720,26742.0,30648.0,35135,35681,42151.0,44996.0
22230,24411,US,128329,35.7905555556,-78.4919444444,Census,Town,NC,"Knightdale, North Carolina",0,0,0,0,0,0,0,0,0,0,0,0,0,0,243.0,352,461,622.0,815.0,985,1884,5958.0,11401.0
22259,8794,US,150833,34.7372222222,-77.9947222222,Census,Town,NC,"Wallace, North Carolina",0,0,0,0,0,0,0,0,0,0,119,218,444,648,734.0,1050,1622,2285.0,2905.0,2903,2939,3344.0,3880.0
22272,11063,US,93379,35.0858333333,-80.8880555556,Census,Suburban Town,NC,"Pineville, North Carolina",0,0,0,0,0,0,0,0,0,0,0,585,688,650,1108.0,1144,1373,1514.0,1948.0,1525,2970,3449.0,7479.0
22306,23236,US,93321,35.1091666667,-77.0691666667,Census,US County,NC,"Craven County, North Carolina",10474,10245,12676,13394,13734,13438,14709,16268,20516,19729,20533,24160,25594,29048,30665.0,31298,48823,58773.0,62554.0,71043,81613,91436.0,103505.0
22320,12199,US,128194,36.4016666667,-79.7436111111,Census,Town,NC,"Wentworth, North Carolina",0,0,0,0,0,0,0,0,0,0,0,0,0,0,0.0,0,0,0.0,0.0,0,0,2779.0,2807.0
22323,23491,US,127749,35.9083333333,-81.53,Census,City,NC,"Lenoir, North Carolina",0,0,0,0,0,0,0,0,446,422,673,1296,3364,3718,6532.0,7598,7888,10257.0,14705.0,13748,14192,16793.0,18228.0
22373,8928,US,127951,35.5347222222,-82.8375,Census,Town,NC,"Canton, North Carolina",0,0,0,0,0,0,0,0,0,0,0,230,1393,2584,5117.0,5037,4906,5068.0,5158.0,4631,3790,4029.0,4227.0
22378,9113,US,127855,35.1616666667,-78.7330555556,Census,Town,NC,"Wade, North Carolina",0,0,0,0,0,0,0,0,0,0,0,0,0,190,362.0,0,0,0.0,315.0,474,238,480.0,556.0
22403,8978,US,127873,34.9622222222,-77.9655555556,Census,Town,NC,"Kenansville, North Carolina",0,0,0,0,0,0,0,0,0,376,291,271,270,302,450.0,571,674,724.0,762.0,931,856,1149.0,855.0
22442,10122,US,128112,34.6933333333,-77.1272222222,Census,Town,NC,"Swansboro, North Carolina",0,0,0,0,0,0,801,0,141,128,233,265,390,420,394.0,454,559,1104.0,1207.0,976,1165,1426.0,2663.0
22472,7568,US,127669,36.2011111111,-76.7680555556,Census,Town,NC,"Colerain, North Carolina",0,0,0,0,0,0,0,0,0,94,0,0,169,215,229.0,307,367,340.0,373.0,284,139,221.0,204.0
22532,11976,US,93303,35.49,-77.68,Census,US County,NC,"Greene County, North Carolina",0,4218,4867,4533,6413,6595,6619,7925,8687,10037,10039,12038,13083,16212,18656.0,18548,18024,16741.0,14967.0,16117,15384,18974.0,21362.0
22533,10808,US,127766,34.7877777778,-76.8666666667,Census,Town,NC,"Newport, North Carolina",0,0,0,0,0,0,0,0,121,165,218,328,321,404,481.0,480,676,861.0,1735.0,1883,2516,3349.0,4150.0
22599,7875,US,128410,36.2333333333,-80.7077777778,Census,Town,NC,"Boonville, North Carolina",0,0,0,0,0,0,0,0,0,46,0,183,282,162,394.0,405,502,539.0,687.0,1028,1009,1138.0,1222.0
22622,22702,US,93322,34.26,-78.67,Census,US County,NC,"Columbus County, North Carolina",0,0,3022,3912,4141,3941,5909,8597,8474,14439,17856,21274,28020,30124,37720.0,45663,50621,48973.0,46937.0,51037,49587,54749.0,58098.0
22676,21423,US,127818,35.2883333333,-81.5377777778,Census,City,NC,"Shelby, North Carolina",0,0,0,0,0,0,0,0,0,990,1394,1874,3127,3609,10789.0,14037,15508,17698.0,16328.0,15310,14669,19477.0,20323.0
22699,7461,US,127914,36.4044444444,-76.7583333333,Census,Town,NC,"Gatesville, North Carolina",0,0,0,0,0,0,0,0,156,187,232,200,203,0,320.0,297,323,460.0,338.0,363,308,281.0,321.0
22730,6803,US,128396,36.2197222222,-80.9425,Census,Town,NC,"Ronda, North Carolina",0,0,0,0,0,0,0,0,0,0,0,0,0,0,344.0,379,545,510.0,465.0,457,367,460.0,417.0
22731,11062,US,128024,35.9441666667,-77.2077777778,Census,Town,NC,"Hamilton, North Carolina",0,0,0,0,0,0,0,242,200,369,781,493,452,474,508.0,524,514,565.0,579.0,638,544,516.0,408.0
22766,8816,US,127703,34.2363888889,-78.0197222222,Census,Town,NC,"Leland, North Carolina",0,0,0,0,0,0,0,0,0,0,0,0,0,0,0.0,0,0,0.0,0.0,0,1801,1938.0,13527.0
22810,6755,US,127921,36.4469444444,-78.5688888889,Census,Town,NC,"Stovall, North Carolina",0,0,0,0,0,0,0,0,0,0,0,0,305,414,415.0,415,410,570.0,405.0,417,409,376.0,418.0
22857,9921,US,127883,35.8869444444,-77.5205555556,Census,Town,NC,"Princeville, North Carolina",0,0,0,0,0,0,0,0,0,0,428,552,627,562,614.0,818,919,797.0,654.0,1508,1652,940.0,2082.0
22896,8284,US,127743,35.4036111111,-80.4355555556,Census,Town,NC,"Mount Pleasant, North Carolina",0,0,0,0,0,0,0,0,0,314,375,444,753,770,838.0,1017,1019,1041.0,1174.0,1210,1027,1259.0,1652.0
22908,7518,US,128199,35.5866666667,-80.4611111111,Census,Town,NC,"Faith, North Carolina",0,0,0,0,0,0,0,0,0,0,0,0,352,348,431.0,449,490,494.0,506.0,552,553,695.0,807.0
22925,94261,US,77884,36.08,-79.8194444444,Census,City,NC,"Greensboro, North Carolina",0,0,0,0,0,0,0,0,497,2105,3317,10035,15895,19861,53569.0,59319,74389,119574.0,144076.0,155642,183894,223891.0,269666.0
22947,8058,US,128144,35.2505555556,-82.2022222222,Census,Town,NC,"Columbus, North Carolina",0,0,0,0,0,0,0,0,0,71,0,334,122,168,340.0,390,486,725.0,731.0,727,812,992.0,999.0
22963,25443,US,93241,34.99,-80.53,Census,US County,NC,"Union County, North Carolina",0,0,0,0,0,0,10051,11202,12217,18056,21259,27156,33277,36029,40979.0,39097,42034,44670.0,54714.0,70380,84211,123677.0,201292.0
22964,18183,US,127857,35.9047222222,-75.6694444444,Census,Town,NC,"Manteo, North Carolina",0,0,0,0,0,0,0,0,0,0,0,0,0,0,0.0,571,635,587.0,547.0,902,991,1052.0,1434.0
23102,8545,US,3365448,36.01,-80.1394444444,Census,Town,NC,"Wallburg, North Carolina",0,0,0,0,0,0,0,0,0,0,0,0,0,0,0.0,0,0,0.0,0.0,0,0,0.0,3047.0
23108,13282,US,127995,35.6472222222,-78.4580555556,Census,Town,NC,"Clayton, North Carolina",0,0,0,0,0,0,0,0,0,352,478,754,1441,1423,1533.0,1711,2229,3302.0,3103.0,4091,4756,6973.0,16116.0
23116,10342,US,128120,35.0311111111,-76.6877777778,Census,Town,NC,"Oriental, North Carolina",0,0,0,0,0,0,0,0,0,0,0,300,645,607,601.0,535,590,522.0,445.0,536,786,875.0,900.0
23248,50869,US,93230,35.79,-78.65,Census,US County,NC,"Wake County, North Carolina",10192,13437,17096,20102,20398,21118,24888,28627,35617,47939,49207,54626,63229,75155,94757.0,109544,136450,169082.0,228453.0,301327,423380,627846.0,900993.0
23265,7494,US,127644,35.0038888889,-80.2013888889,Census,Town,NC,"Polkton, North Carolina",0,0,0,0,0,0,0,0,0,183,247,276,287,575,534.0,521,459,530.0,845.0,762,662,1195.0,3375.0
23313,9455,US,127950,35.3986111111,-78.8136111111,Census,Town,NC,"Lillington, North Carolina",0,0,0,0,0,0,0,0,0,98,0,65,380,593,752.0,914,1061,1242.0,1155.0,1948,2048,2915.0,3194.0
23465,7241,US,128043,35.180189,-80.664432,Census,Suburban Town,NC,"Mint Hill, North Carolina",0,0,0,0,0,0,0,0,0,0,0,192,194,0,0.0,0,0,0.0,0.0,7915,11567,14922.0,22722.0
23566,7261,US,128270,36.3844444444,-80.4691666667,Census,Town,NC,"Pilot Mountain, North Carolina",0,0,0,0,0,0,0,0,0,0,0,710,652,707,1010.0,925,1092,1310.0,1309.0,1090,1181,1281.0,1477.0
23572,7944,US,127734,35.7277777778,-81.7822222222,Census,Town,NC,"Glen Alpine, North Carolina",0,0,0,0,0,0,0,0,0,0,252,137,308,346,529.0,665,695,734.0,797.0,645,563,1090.0,1517.0
23621,57897,US,127846,35.0525,-78.8780555556,Census,City,NC,"Fayetteville, North Carolina",1536,0,0,3532,2868,4285,4646,4790,4660,3485,4222,4670,7045,8877,13049.0,17428,34715,47106.0,53510.0,59507,75695,121015.0,200564.0
23681,8813,US,127747,35.8002777778,-81.4330555556,Census,Town,NC,"Granite Falls, North Carolina",0,0,0,0,0,0,0,0,0,0,207,277,381,1101,2147.0,1873,2286,2644.0,2388.0,2580,3253,4612.0,4722.0
23693,7225,US,128005,34.9044444444,-77.2288888889,Census,Town,NC,"Maysville, North Carolina",0,0,0,0,0,0,0,0,0,0,0,98,345,536,797.0,732,818,892.0,912.0,877,892,1002.0,1019.0
23707,21249,US,93275,35.31,-79.48,Census,US County,NC,"Moore County, North Carolina",3870,4767,6367,7128,7745,7988,9342,11427,12040,16821,20479,23622,17010,21388,28215.0,30969,33129,36733.0,39048.0,50505,59013,74769.0,88247.0
23910,7973,US,127853,35.0141666667,-78.6972222222,Census,Town,NC,"Stedman, North Carolina",0,0,0,0,0,0,0,0,0,0,0,0,0,121,289.0,356,424,458.0,505.0,723,577,664.0,1028.0
23970,85649,US,150834,35.9886111111,-78.9072222222,Census,City,NC,"Durham, North Carolina",0,0,0,0,0,0,0,0,0,2041,5485,6679,18241,21719,52037.0,60195,71311,78302.0,95438.0,101149,136611,187035.0,228330.0
24046,14514,US,127861,35.9319444444,-75.615,Census,Town,NC,"Nags Head, North Carolina",0,0,0,0,0,0,0,0,0,0,0,0,0,0,0.0,0,0,0.0,414.0,1020,1838,2700.0,2757.0
24092,18244,US,150844,35.2377777778,-82.3469444444,Census,City,NC,"Saluda, North Carolina",0,0,0,0,0,0,0,0,0,0,0,211,235,549,558.0,539,547,570.0,546.0,607,488,575.0,713.0
24147,6816,US,128282,34.9852777778,-80.8166666667,Census,Village,NC,"Marvin, North Carolina",0,0,0,0,0,0,0,0,0,0,0,0,0,0,0.0,0,0,0.0,0.0,0,0,1039.0,5579.0
24213,7529,US,128172,34.9027777778,-79.0105555556,Census,Town,NC,"Parkton, North Carolina",0,0,0,0,0,0,0,0,0,0,0,0,219,382,436.0,441,527,906.0,550.0,564,367,428.0,436.0
24243,22539,US,127902,35.3811111111,-81.3791666667,Census,City,NC,"Cherryville, North Carolina",0,0,0,0,0,0,0,0,0,0,0,1008,1153,1884,2756.0,3225,3492,3607.0,5258.0,4844,4756,5361.0,5760.0
24252,23714,US,93287,35.48,-79.17,Census,US County,NC,"Lee County, North Carolina",0,0,0,0,0,0,0,0,0,0,0,0,11376,13400,16996.0,18743,23522,26561.0,30467.0,36718,41374,49040.0,57866.0
24259,8609,US,127768,34.6958333333,-76.8177777778,Census,Town,NC,"Pine Knoll Shores, North Carolina",0,0,0,0,0,0,0,0,0,0,0,0,0,0,0.0,0,0,0.0,0.0,646,1360,1524.0,1339.0
24402,7446,US,127767,34.7269444444,-77.0783333333,Census,Town,NC,"Peletier, North Carolina",0,0,0,0,0,0,0,0,0,0,0,0,0,0,0.0,0,0,0.0,0.0,0,0,487.0,644.0
24414,31918,US,127789,35.0897222222,-84.03,Census,Town,NC,"Murphy, North Carolina",0,0,0,0,0,0,0,0,175,170,803,604,977,1314,1612.0,1873,2433,2235.0,2082.0,2070,1575,1568.0,1627.0
24417,8552,US,127772,35.7097222222,-81.0758333333,Census,Town,NC,"Catawba, North Carolina",0,0,0,0,0,0,0,0,0,142,196,169,222,250,340.0,402,506,504.0,565.0,509,467,698.0,603.0
24436,7528,US,128335,36.4447222222,-78.1941666667,Census,Town,NC,"Norlina, North Carolina",0,0,0,0,0,0,0,0,0,0,0,0,0,673,761.0,794,874,927.0,969.0,901,996,1107.0,1118.0
24450,39316,US,93290,35.29,-83.14,Census,US County,NC,"Jackson County, North Carolina",0,0,0,0,0,0,0,5515,6683,7343,9512,11853,12998,13396,17519.0,19366,19261,17780.0,21593.0,25811,26846,33121.0,40271.0
24506,9361,US,127698,34.0691666667,-78.1477777778,Census,Town,NC,"Bolivia, North Carolina",0,0,0,0,0,0,0,0,0,0,0,0,0,199,156.0,203,215,201.0,185.0,252,228,148.0,143.0
24574,9470,US,128264,36.4094444444,-80.2088888889,Census,City,NC,"Danbury, North Carolina",0,0,0,0,0,0,0,0,0,144,0,0,0,0,0.0,0,0,175.0,152.0,140,119,108.0,189.0
24655,8161,US,127634,36.0266666667,-79.3547222222,Census,Town,NC,"Swepsonville, North Carolina",0,0,0,0,0,0,0,0,0,0,326,441,0,0,0.0,0,0,0.0,0.0,0,1195,922.0,1154.0
24706,11811,US,127762,34.6669444444,-77.0136111111,Census,Town,NC,"Emerald Isle, North Carolina",0,0,0,0,0,0,0,0,0,0,0,0,0,0,0.0,0,0,14.0,122.0,865,2434,3488.0,3655.0
24708,21921,US,150829,35.8858333333,-80.0772222222,Census,City,NC,"Thomasville, North Carolina",0,0,0,0,0,0,0,308,214,450,590,751,3877,5676,10090.0,11041,11154,15190.0,15230.0,14144,15915,19788.0,26757.0
24739,7150,US,127824,34.3225,-78.8258333333,Census,Town,NC,"Chadbourn, North Carolina",0,0,0,0,0,0,0,0,0,0,156,243,1242,1121,1311.0,1576,2103,2323.0,2213.0,1975,2005,2129.0,1856.0
24752,11101,US,127707,33.8875,-78.4363888889,Census,Seaside town,NC,"Ocean Isle Beach, North Carolina",0,0,0,0,0,0,0,0,0,0,0,0,0,0,0.0,0,0,5.0,78.0,143,523,426.0,550.0
24854,27405,US,93299,35.37,-78.86,Census,US County,NC,"Harnett County, North Carolina",0,0,0,0,0,0,0,8039,8895,10862,13700,15988,22174,28313,37911.0,44239,47605,48236.0,49667.0,59570,67822,91025.0,114678.0
24859,7911,US,128097,36.2733333333,-77.2841666667,Census,Town,NC,"Rich Square, North Carolina",0,0,0,0,0,0,0,0,0,63,643,232,367,475,800.0,942,971,1134.0,1254.0,1057,1058,931.0,958.0
24940,9506,US,128036,35.8513888889,-77.0625,Census,Town,NC,"Williamston, North Carolina",0,0,0,0,0,0,0,616,520,482,751,912,1574,1800,2781.0,3966,4975,6924.0,6570.0,6159,5503,5843.0,5511.0
24970,21666,US,150822,36.1297222222,-81.6725,Census,Town,NC,"Blowing Rock, North Carolina",0,0,0,0,0,0,0,0,0,0,0,331,261,338,503.0,654,661,711.0,801.0,1337,1257,1418.0,1241.0
24987,10676,US,127935,36.3283333333,-77.5908333333,Census,Town,NC,"Halifax, North Carolina",0,0,0,0,0,0,0,192,429,376,361,306,314,299,321.0,374,346,370.0,335.0,253,327,344.0,234.0
24990,10875,US,11496457,35.17537,-80.800405,Census,Neighborhood,NC,Cotswold (Charlotte neighborhood),0,0,0,0,0,0,0,0,0,0,0,0,0,0,0.0,0,0,0.0,0.0,0,0,4088.0,4437.0
24992,7713,US,128149,35.7336111111,-79.6538888889,Census,Town,NC,"Ramseur, North Carolina",0,0,0,0,0,0,0,0,0,0,0,769,1022,1014,1220.0,1220,1134,1258.0,1328.0,1162,1186,1588.0,1692.0
25027,9060,US,128126,34.3702777778,-77.6258333333,Census,Town,NC,"Topsail Beach, North Carolina",0,0,0,0,0,0,0,0,0,0,0,0,0,0,0.0,0,0,0.0,108.0,264,346,471.0,368.0
25043,10349,US,127895,35.9580555556,-78.2519444444,Census,Town,NC,"Bunn, North Carolina",0,0,0,0,0,0,0,0,0,0,0,0,0,150,243.0,248,255,332.0,284.0,505,364,357.0,344.0
25072,6532,US,128339,35.8758333333,-76.615,Census,Town,NC,"Roper, North Carolina",0,0,0,0,0,0,0,0,0,0,0,0,819,1043,660.0,716,793,771.0,649.0,795,669,613.0,611.0
25078,13003,US,127787,35.7261111111,-79.4630555556,Census,Town,NC,"Siler City, North Carolina",0,0,0,0,0,0,0,0,0,0,254,440,895,1253,1730.0,2197,2501,4455.0,4689.0,4446,4808,6966.0,7887.0
25091,9830,US,127967,36.2863888889,-76.9863888889,Census,Town,NC,"Ahoskie, North Carolina",0,0,0,0,0,0,0,0,0,0,0,302,924,1429,1940.0,2313,3579,4583.0,5105.0,4887,4391,4523.0,5039.0
25132,10538,US,128010,35.3086111111,-77.7922222222,Census,Town,NC,"La Grange, North Carolina",0,0,0,0,0,0,0,0,0,522,775,853,1007,1399,1500.0,1647,1852,2133.0,2679.0,3147,2805,2844.0,2873.0
25137,6441,US,128213,35.3833333333,-81.9433333333,Census,Town,NC,"Ruth, North Carolina",0,0,0,0,0,0,0,0,0,0,0,0,205,175,297.0,318,324,529.0,360.0,381,366,329.0,440.0
25166,6760,US,127872,34.8213888889,-77.9272222222,Census,Town,NC,"Greenevers, North Carolina",0,0,0,0,0,0,0,0,0,0,0,0,0,0,0.0,0,0,0.0,424.0,477,512,560.0,634.0
25271,12554,US,93341,34.04,-78.22,Census,US County,NC,"Brunswick County, North Carolina",3071,4110,4778,5480,6516,6255,7272,8406,7754,9389,10900,12657,14432,14876,15818.0,17125,19238,20278.0,24223.0,35777,50985,73143.0,107431.0
25351,7436,US,128220,34.7877777778,-78.3947222222,Census,Town,NC,"Garland, North Carolina",0,0,0,0,0,0,0,0,0,0,0,0,0,301,509.0,484,539,642.0,656.0,885,746,808.0,625.0
25358,6731,US,127987,35.7030555556,-80.8922222222,Census,Town,NC,"Troutman, North Carolina",0,0,0,0,0,0,0,0,0,71,0,0,230,342,432.0,566,613,648.0,797.0,1360,1493,1592.0,2383.0
25369,24664,US,128298,35.5919444444,-78.7886111111,Census,"&quot;GR1&quot;&gt;publisher=[[United States Census Bureau|accessdate=2011-04-23|date=2011-02-12|title=US Gazetteer files: 2010, 2000, and 1990}}",NC,"Fuquay-Varina, North Carolina",0,0,0,0,0,0,0,0,0,0,0,0,127,555,963.0,1323,1992,3389.0,3576.0,3110,4562,7898.0,17937.0
25373,6315,US,38779256,35.4355555556,-83.8191666667,Census,Town,NC,"Fontana Dam, North Carolina",0,0,0,0,0,0,0,0,0,0,0,0,0,0,0.0,0,0,0.0,0.0,0,0,0.0,0.0
25399,5822,US,128182,34.8130555556,-79.0805555556,Census,Town,NC,"Rennert, North Carolina",0,0,0,0,0,0,0,0,0,0,0,133,179,292,212.0,0,0,0.0,0.0,178,217,283.0,383.0
25428,9848,US,128200,35.6127777778,-80.4444444444,Census,Town,NC,"Granite Quarry, North Carolina",0,0,0,0,0,0,0,0,0,0,0,0,363,466,507.0,555,591,1059.0,1344.0,1294,1646,2175.0,2930.0
25467,5531,US,128161,35.1702777778,-79.7222222222,Census,Town,NC,"Norman, North Carolina",0,0,0,0,0,0,0,0,0,0,0,0,0,0,240.0,327,300,220.0,157.0,252,105,72.0,138.0
25613,14622,US,127730,35.6958333333,-82.5583333333,Census,Town,NC,"Weaverville, North Carolina",0,0,0,0,0,0,0,0,0,147,216,329,442,606,848.0,880,1111,1041.0,1280.0,1495,2107,2416.0,3120.0
25631,7998,US,127651,36.1583333333,-81.9811111111,Census,Town,NC,"Elk Park, North Carolina",0,0,0,0,0,0,0,0,0,0,313,498,377,452,488.0,467,545,460.0,503.0,535,486,459.0,452.0
25646,8565,US,127993,35.3452777778,-83.2133333333,Census,Town,NC,"Webster, North Carolina",0,0,0,0,0,0,0,0,0,107,209,0,227,74,134.0,84,142,166.0,181.0,200,410,486.0,363.0
25669,27687,US,128404,35.7311111111,-77.9236111111,Census,City,NC,"Wilson, North Carolina",0,0,0,0,0,0,0,960,1036,1475,2126,3525,6717,10612,12613.0,19234,23010,28753.0,29347.0,34424,36930,44405.0,49167.0
25694,11741,US,127715,33.8686111111,-78.5069444444,Census,Seaside town,NC,"Sunset Beach, North Carolina",0,0,0,0,0,0,0,0,0,0,0,0,0,0,0.0,0,0,0.0,108.0,304,311,1824.0,3572.0
25769,9745,US,128067,36.0813888889,-78.0586111111,Census,Town,NC,"Castalia, North Carolina",0,0,0,0,0,0,0,0,0,133,159,163,219,263,292.0,341,421,267.0,265.0,358,261,340.0,268.0
25792,21797,US,128412,36.2355555556,-80.8422222222,Census,Town,NC,"Jonesville, North Carolina",0,0,0,0,0,0,0,0,0,220,0,0,621,787,1306.0,1733,1768,1895.0,1659.0,1752,1549,1464.0,2285.0
26011,14362,US,127836,34.8827777778,-76.9091666667,Census,City,NC,"Havelock, North Carolina",0,0,0,0,0,0,0,0,0,0,0,0,0,0,0.0,0,0,2433.0,3012.0,17718,20268,22442.0,20735.0
26022,49269,US,93224,36.2,-81.17,Census,US County,NC,"Wilkes County, North Carolina",8157,7247,9054,9967,11968,12577,12099,14749,15539,19181,22675,26872,30282,32644,36162.0,43003,45243,45269.0,49524.0,58657,59393,65352.0,69340.0
26039,23847,US,127955,35.4833333333,-82.9944444444,Census,Town,NC,"Waynesville, North Carolina",0,0,0,0,0,0,0,0,0,225,455,1307,2008,1942,2414.0,2940,5295,6159.0,6488.0,6765,6758,9232.0,9869.0
26162,17454,US,127926,35.9983333333,-79.9358333333,Census,Town,NC,"Jamestown, North Carolina",0,0,0,0,0,0,0,0,0,90,0,0,0,0,0.0,0,748,1247.0,1297.0,2148,2600,3088.0,3382.0
26188,8730,US,127916,35.3227777778,-83.8077777778,Census,Town,NC,"Robbinsville, North Carolina",0,0,0,0,0,0,0,0,0,47,0,0,122,119,345.0,399,515,587.0,777.0,814,709,747.0,620.0
26204,6994,US,127821,34.32,-78.405,Census,Town,NC,"Bolton, North Carolina",0,0,0,0,0,0,0,0,0,0,0,0,0,699,976.0,760,606,617.0,534.0,563,531,494.0,691.0
26213,9315,US,128103,36.3291666667,-77.2172222222,Census,Town,NC,"Woodland, North Carolina",0,0,0,0,0,0,0,0,0,0,247,242,312,400,501.0,486,590,651.0,744.0,861,760,833.0,809.0
26259,7541,US,127677,34.4894444444,-78.6566666667,Census,Town,NC,"Clarkton, North Carolina",0,0,0,0,0,0,0,0,0,0,0,0,276,368,458.0,484,589,662.0,662.0,664,739,705.0,837.0
26287,6363,US,127827,34.3661111111,-78.3047222222,Census,Town,NC,"Sandyfield, North Carolina",0,0,0,0,0,0,0,0,0,0,0,0,0,0,0.0,0,0,0.0,0.0,0,0,340.0,447.0
26298,8319,US,128275,35.1447222222,-82.8227777778,Census,Town,NC,"Rosman, North Carolina",0,0,0,0,0,0,0,0,0,0,0,0,145,527,484.0,529,535,419.0,407.0,512,385,490.0,576.0
26327,26576,US,127685,33.8672222222,-78.0066666667,Census,Village,NC,"Bald Head Island, North Carolina",0,0,0,0,0,0,0,0,0,0,0,0,0,0,0.0,0,0,0.0,0.0,0,78,173.0,158.0
26356,21628,US,4512,36.2113888889,-81.6686111111,Census,town located,NC,"Boone, North Carolina",0,0,0,0,0,0,0,0,0,167,144,155,179,374,1295.0,1788,2973,3686.0,8754.0,10191,12915,13472.0,17122.0
26396,7655,US,128139,35.5633333333,-77.1908333333,Census,Town,NC,"Grimesland, North Carolina",0,0,0,0,0,0,0,0,0,0,0,277,330,463,377.0,405,414,362.0,394.0,453,469,440.0,441.0
26502,7956,US,128188,36.3869444444,-79.9691666667,Census,Town,NC,"Madison, North Carolina",0,0,0,0,0,0,0,0,295,361,450,813,1033,1247,1497.0,1683,1789,1912.0,2018.0,2806,2371,2262.0,2246.0
26513,7632,US,127868,35.8144444444,-80.5561111111,Census,Town,NC,"Cooleemee, North Carolina",0,0,0,0,0,0,0,0,0,0,0,0,0,0,0.0,0,0,0.0,0.0,0,971,905.0,960.0
26585,21457,US,127901,35.2841666667,-81.2827777778,Census,City,NC,"Bessemer City, North Carolina",0,0,0,0,0,0,0,0,0,68,0,1100,1529,2176,3739.0,3567,3961,4017.0,4991.0,4787,4698,5119.0,5340.0
26658,39138,US,93278,35.25,-80.83,Census,US County,NC,"Mecklenburg County, North Carolina",11395,10439,14272,16895,20073,18273,13914,17374,24299,34175,42673,55268,67031,80695,127971.0,151826,197052,272111.0,354656.0,404270,511433,695454.0,919628.0
26661,7610,US,127686,34.2313888889,-77.9922222222,Census,Town,NC,"Belville, North Carolina",0,0,0,0,0,0,0,0,0,0,0,0,0,0,0.0,0,0,0.0,0.0,102,66,285.0,1936.0
26741,6598,US,127667,36.1130555556,-76.9405555556,Census,Town,NC,"Askewville, North Carolina",0,0,0,0,0,0,0,0,0,0,0,0,0,0,0.0,0,0,195.0,247.0,227,201,180.0,241.0
26792,7672,US,127761,34.6855555556,-77.0825,Census,Town,NC,"Cedar Point, North Carolina",0,0,0,0,0,0,0,0,0,0,0,0,0,0,0.0,0,0,0.0,0.0,0,628,929.0,1279.0
26870,8352,US,127954,35.5144444444,-83.0669444444,Census,Town,NC,"Maggie Valley, North Carolina",0,0,0,0,0,0,0,0,0,0,0,0,0,0,0.0,0,0,0.0,0.0,202,185,607.0,1150.0
26926,7954,US,150849,35.5930555556,-78.1272222222,Census,Town,NC,"Kenly, North Carolina",0,0,0,0,0,0,0,0,0,0,137,260,726,827,965.0,1095,1129,1147.0,1370.0,1433,1549,1569.0,1339.0
26943,7328,US,128101,36.4894444444,-77.4391666667,Census,Town,NC,"Seaboard, North Carolina",0,0,0,0,0,0,0,0,0,167,201,287,280,0,534.0,562,745,624.0,611.0,687,791,695.0,632.0
26961,97887,US,57447,35.2269444444,-80.8433333333,Census,City,NC,"Charlotte, North Carolina",0,0,0,0,0,0,1065,2265,4473,7094,11557,18091,34014,46338,82675.0,100899,134042,201564.0,241420.0,315474,395934,540828.0,731424.0
27013,8041,US,127875,34.8258333333,-78.0258333333,Census,Town,NC,"Rose Hill, North Carolina",0,0,0,0,0,0,0,0,0,0,0,0,364,516,554.0,727,896,1292.0,1448.0,1508,1287,1330.0,1626.0
27016,7217,US,127862,36.1244444444,-75.7325,Census,Town,NC,"Southern Shores, North Carolina",0,0,0,0,0,0,0,0,0,0,0,0,0,0,0.0,0,0,0.0,0.0,395,617,2201.0,2714.0
27056,7873,US,128054,35.13175,-79.4270277778,Census,Town,NC,"Aberdeen, North Carolina",0,0,0,0,0,0,0,0,0,0,227,559,794,858,1382.0,1076,1603,1531.0,1592.0,1945,2700,3400.0,6350.0
27072,11697,US,128062,35.1819444444,-79.3983333333,Census,Town,NC,"Southern Pines, North Carolina",0,0,0,0,0,0,0,0,0,0,0,517,542,743,2524.0,3225,4272,5198.0,5937.0,8620,9129,10918.0,12334.0
27101,11111,US,93288,35.01,-77.37,Census,US County,NC,"Jones County, North Carolina",4796,4339,4968,5216,5608,4945,5038,5730,5002,7491,7403,8226,8721,9912,10428.0,10926,11004,11005.0,9779.0,9705,9414,10381.0,10153.0
27152,77293,US,128089,34.2233333333,-77.9122222222,Census,City,NC,"Wilmington, North Carolina",0,1689,0,2633,3791,5335,7264,9552,13446,17350,20056,20976,25748,33372,32270.0,33407,45043,44013.0,46169.0,44000,55530,75838.0,106476.0
27153,6680,US,128166,34.8902777778,-79.0705555556,Census,Town,NC,"Lumber Bridge, North Carolina",0,0,0,0,0,0,0,0,0,0,0,181,165,202,214.0,196,154,100.0,117.0,171,109,118.0,94.0
27157,20167,US,93353,35.92,-81.18,Census,US County,NC,"Alexander County, North Carolina",0,0,0,0,0,0,5220,6022,6868,8355,9430,10960,11592,12212,12922.0,13454,14554,15625.0,19466.0,24999,27544,33603.0,37198.0
27274,6174,US,128201,35.5463888889,-80.6105555556,Census,Town,NC,"Landis, North Carolina",0,0,0,0,0,0,0,0,0,0,0,0,437,972,1388.0,1650,1827,1763.0,2297.0,2092,2333,2996.0,3109.0
27278,33408,US,127847,35.1391666667,-78.9991666667,Census,Military Installation,NC,Fort Bragg,0,0,0,0,0,0,0,0,0,0,0,0,0,0,0.0,0,0,0.0,46995.0,37834,34744,29183.0,39457.0
27349,21845,US,93257,35.71,-79.81,Census,US County,NC,"Randolph County, North Carolina",7318,9234,10112,11331,12406,12875,15832,16793,17551,20836,25195,28232,29491,30856,36259.0,44554,50804,61497.0,76358.0,91728,106546,130454.0,141752.0
27423,26665,US,93337,,,Census,US County,NC,"Burke County, North Carolina",8106,9929,11007,13411,17888,15799,7772,9237,9777,12809,14939,17699,21408,23297,29410.0,38615,45518,52701.0,60364.0,72504,75744,89148.0,90912.0
27509,10992,US,127625,36.0277777778,-79.4888888889,Census,Village,NC,"Alamance, North Carolina",0,0,0,0,0,0,0,0,0,0,0,0,0,0,0.0,0,0,0.0,0.0,320,258,310.0,951.0
27521,20070,US,93268,36.42,-77.4,Census,US County,NC,"Northampton County, North Carolina",9992,12353,13082,13242,13391,13369,13335,13372,14749,20032,21242,21150,22323,23184,27161.0,28299,28432,26811.0,24009.0,22584,20798,22086.0,22099.0
27619,9340,US,127769,36.5366666667,-79.2080555556,Census,Town,NC,"Milton, North Carolina",0,0,0,0,0,0,0,0,0,613,705,490,419,375,314.0,329,317,235.0,235.0,235,185,132.0,166.0
27688,13822,US,128411,36.2175,-80.5091666667,Census,Town,NC,"East Bend, North Carolina",0,0,0,0,0,0,0,0,0,0,0,444,522,508,470.0,494,475,446.0,485.0,602,619,659.0,612.0
27693,17365,US,127754,34.7166666667,-76.65,Census,Town,NC,"Beaufort, North Carolina",0,437,0,0,0,0,1661,1610,2430,2009,2007,2195,2483,2968,2957.0,3272,3212,2922.0,3368.0,3826,3808,3771.0,4039.0
