,article_length,country,id,lat,lon,other_years,poptype,settlement_type,state,title,y1790,y1800,y1810,y1820,y1830,y1840,y1850,y1860,y1870,y1880,y1890,y1900,y1910,y1920,y1930,y1940,y1950,y1960,y1970,y1980,y1990,y2000,y2010
44,8593,US,128495,46.9491666667,-96.8025,,Census,City,ND,"North River, North Dakota",0,0,0,0,0,0,0,0,0,0,0,0,0,0,0.0,0,0,0.0,0.0,65.0,68.0,65.0,56.0
73,9698,US,128537,46.4841666667,-100.278888889,,Census,City,ND,"Hazelton, North Dakota",0,0,0,0,0,0,0,0,0,0,0,0,0,382,446.0,500,453,451.0,374.0,266.0,240.0,237.0,235.0
95,9633,US,128686,46.5869444444,-97.4925,,Census,City,ND,"Sheldon, North Dakota",0,0,0,0,0,0,0,0,0,0,258,318,358,321,327.0,281,267,221.0,192.0,173.0,149.0,135.0,116.0
270,13261,US,128641,46.8430555556,-101.411944444,,Census,Town,ND,"New Salem, North Dakota",0,0,0,0,0,0,0,0,0,0,0,229,621,711,804.0,875,942,986.0,943.0,1081.0,909.0,938.0,946.0
534,13816,US,128598,48.3452777778,-100.406111111,,Census,City,ND,"Towner, North Dakota",0,0,0,0,0,0,0,0,0,0,211,331,691,610,622.0,918,955,948.0,870.0,867.0,669.0,574.0,533.0
548,17284,US,128554,47.9083333333,-97.6277777778,,Census,City,ND,"Larimore, North Dakota",0,0,0,0,0,0,0,0,0,0,553,1235,1224,1089,979.0,1222,1374,1714.0,1469.0,1524.0,1464.0,1433.0,1346.0
589,13498,US,128696,46.5738888889,-96.8055555556,,Census,City,ND,"Christine, North Dakota",0,0,0,0,0,0,0,0,0,0,0,0,0,0,0.0,0,0,0.0,89.0,147.0,140.0,153.0,150.0
628,9191,US,128790,46.8638888889,-102.992222222,,Census,City,ND,"South Heart, North Dakota",0,0,0,0,0,0,0,0,0,0,0,0,0,0,0.0,0,0,0.0,132.0,294.0,322.0,307.0,301.0
825,13575,US,150859,46.6225,-97.6,,Census,City,ND,"Enderlin, North Dakota",0,0,0,0,0,0,0,0,0,0,0,636,1540,1919,1839.0,1593,1504,1596.0,1343.0,1151.0,997.0,947.0,886.0
878,9045,US,128645,48.0247222222,-101.960555556,,Census,City,ND,"Plaza, North Dakota",0,0,0,0,0,0,0,0,0,0,0,0,224,345,408.0,360,389,385.0,291.0,222.0,193.0,167.0,171.0
888,11621,US,128493,46.89,-97.0522222222,,Census,City,ND,"Mapleton, North Dakota",0,0,0,0,0,0,0,0,0,0,119,322,207,198,195.0,180,169,180.0,219.0,306.0,682.0,606.0,762.0
889,9208,US,128660,48.6877777778,-97.6672222222,,Census,City,ND,"Canton City, North Dakota",0,0,0,0,0,0,0,0,0,0,0,98,115,101,125.0,148,139,130.0,81.0,68.0,64.0,42.0,45.0
1113,9115,US,128694,46.2675,-97.0002777778,,Census,City,ND,"Barney, North Dakota",0,0,0,0,0,0,0,0,0,0,0,0,0,0,0.0,0,0,115.0,81.0,70.0,79.0,69.0,52.0
1244,14784,US,128602,46.035,-99.3736111111,,Census,City,ND,"Ashley, North Dakota",0,0,0,0,0,0,0,0,0,0,0,0,682,1009,1033.0,1345,1423,1419.0,1236.0,1192.0,1052.0,882.0,749.0
1264,8631,US,128416,45.9736111111,-102.471944444,,Census,City,ND,"Haynes, North Dakota",0,0,0,0,0,0,0,0,0,0,0,0,0,113,167.0,210,145,111.0,53.0,58.0,37.0,19.0,23.0
1289,3253,US,12827126,48.3463888889,-101.934166667,,Census,Unknown,ND,"Tagus, North Dakota",0,0,0,0,0,0,0,0,0,0,0,0,105,133,136.0,140,101,72.0,14.0,0.0,0.0,0.0,0.0
1423,9016,US,128692,48.7294444444,-101.826944444,,Census,City,ND,"Tolley, North Dakota",0,0,0,0,0,0,0,0,0,0,0,0,250,325,225.0,177,248,189.0,163.0,103.0,79.0,63.0,47.0
1429,12491,US,128491,46.6480555556,-97.0163888889,,Census,City,ND,"Kindred, North Dakota",0,0,0,0,0,0,0,0,0,0,0,0,0,334,429.0,450,504,580.0,495.0,568.0,569.0,614.0,692.0
1587,11975,US,128462,46.2341666667,-103.654722222,,Census,City,ND,"Rhame, North Dakota",0,0,0,0,0,0,0,0,0,0,0,0,0,302,356.0,283,340,254.0,206.0,222.0,186.0,189.0,169.0
1604,10653,US,150857,46.9233333333,-97.675,,Census,City,ND,"Tower City, North Dakota",0,0,0,0,0,0,0,0,0,159,309,468,452,447,435.0,364,292,300.0,289.0,293.0,233.0,252.0,253.0
1629,9704,US,128847,47.8577777778,-101.502222222,,Census,City,ND,"Douglas, North Dakota",0,0,0,0,0,0,0,0,0,0,0,0,171,284,288.0,313,236,210.0,144.0,112.0,93.0,64.0,64.0
1746,21432,US,93167,46.45,-103.46,,Census,US County,ND,"Slope County, North Dakota",0,0,0,0,0,0,0,0,0,0,0,0,0,4940,4150.0,2932,2315,1893.0,1484.0,1157.0,907.0,767.0,727.0
1835,11019,US,128425,46.6536111111,-98.1905555556,,Census,City,ND,"Litchville, North Dakota",0,0,0,0,0,0,0,0,0,0,0,0,484,528,410.0,430,408,345.0,294.0,251.0,205.0,191.0,172.0
1877,9782,US,128631,47.3194444444,-101.3825,,Census,City,ND,"Stanton, North Dakota",0,0,0,0,0,0,0,0,0,0,0,0,0,325,358.0,370,571,409.0,517.0,623.0,517.0,345.0,366.0
1954,9930,US,128856,47.4702777778,-99.7086111111,,Census,City,ND,"Bowdon, North Dakota",0,0,0,0,0,0,0,0,0,0,0,0,302,306,303.0,348,348,259.0,229.0,220.0,196.0,139.0,131.0
1965,1949,US,46591361,48.7391666667,-99.9316666667,,Census,Unincorporated Community,ND,"Thorne, North Dakota",0,0,0,0,0,0,0,0,0,0,0,0,105,78,38.0,45,37,0.0,0.0,0.0,0.0,0.0,0.0
1999,8938,US,128603,45.9972222222,-99.5497222222,,Census,City,ND,"Venturia, North Dakota",0,0,0,0,0,0,0,0,0,0,0,0,0,207,233.0,257,190,148.0,77.0,40.0,30.0,23.0,10.0
2054,10510,US,128531,47.3533333333,-102.336666667,,Census,City,ND,"Halliday, North Dakota",0,0,0,0,0,0,0,0,0,0,0,0,0,289,305.0,395,477,509.0,413.0,355.0,288.0,227.0,188.0
2072,6778,US,128610,47.9822222222,-102.578888889,,Census,Cdp,ND,"Four Bears Village, North Dakota",0,0,0,0,0,0,0,0,0,0,0,0,0,0,0.0,0,0,0.0,0.0,0.0,309.0,364.0,517.0
2123,10824,US,128827,48.4213888889,-98.0741666667,,Census,City,ND,"Adams, North Dakota",0,0,0,0,0,0,0,0,0,0,0,0,338,404,345.0,355,411,360.0,284.0,303.0,248.0,203.0,127.0
2139,6071,US,27835770,47.4483333333,-97.6547222222,,Census,Township,ND,"Finley Township, Steele County, North Dakota",0,0,0,0,0,0,0,0,0,0,92,350,267,275,283.0,211,151,150.0,79.0,81.0,65.0,64.0,0.0
2259,24022,US,93206,47.36,-102.62,,Census,US County,ND,"Dunn County, North Dakota",0,0,0,0,0,0,0,0,0,0,159,0,5302,8828,9566.0,8376,7212,6350.0,4895.0,4627.0,4005.0,3600.0,3536.0
2393,25638,US,93146,48.35,-103.48,,Census,US County,ND,"Williams County, North Dakota",0,0,0,0,0,0,0,0,0,14,109,1530,14234,17980,19553.0,16315,16442,22051.0,19301.0,22237.0,21129.0,19761.0,22398.0
2468,13340,US,128647,48.3147222222,-102.388333333,,Census,City,ND,"Stanley, North Dakota",0,0,0,0,0,0,0,0,0,0,0,0,518,591,936.0,1058,1486,1795.0,1581.0,1631.0,1371.0,1279.0,1458.0
2778,11070,US,128547,47.9216666667,-97.3641666667,,Census,City,ND,"Emerado, North Dakota",0,0,0,0,0,0,0,0,0,0,0,0,0,0,0.0,0,0,328.0,515.0,596.0,483.0,510.0,414.0
2794,10577,US,128497,47.1580555556,-97.5702777778,,Census,City,ND,"Page, North Dakota",0,0,0,0,0,0,0,0,0,0,0,0,479,452,443.0,428,482,432.0,367.0,329.0,266.0,225.0,232.0
2827,9278,US,128590,48.0027777778,-100.716666667,,Census,City,ND,"Bergen, North Dakota",0,0,0,0,0,0,0,0,0,0,0,0,0,0,98.0,67,51,52.0,24.0,24.0,15.0,11.0,7.0
2893,10390,US,128453,48.6275,-101.376666667,,Census,City,ND,"Lansford, North Dakota",0,0,0,0,0,0,0,0,0,0,0,0,456,337,353.0,300,352,382.0,296.0,294.0,249.0,253.0,245.0
3034,8771,US,128457,48.9102777778,-100.680833333,,Census,City,ND,"Souris, North Dakota",0,0,0,0,0,0,0,0,0,0,0,0,267,269,248.0,259,206,213.0,151.0,122.0,97.0,83.0,58.0
3318,10544,US,128530,47.3533333333,-102.622777778,,Census,City,ND,"Dunn Center, North Dakota",0,0,0,0,0,0,0,0,0,0,0,0,0,247,276.0,238,246,250.0,107.0,170.0,128.0,122.0,146.0
3389,6284,US,27824466,,,,Census,Township,ND,"Sherbrooke Township, Steele County, North Dakota",0,0,0,0,0,0,0,0,0,0,152,250,303,217,263.0,233,184,157.0,112.0,85.0,59.0,62.0,0.0
3392,22945,US,93169,47.58,-100.34,,Census,US County,ND,"Sheridan County, North Dakota",0,0,0,0,0,0,0,0,0,0,0,0,8103,7935,7373.0,6616,5253,4350.0,3232.0,2819.0,2148.0,1710.0,1321.0
3395,10681,US,128666,48.9836111111,-97.5508333333,,Census,City,ND,"Neche, North Dakota",0,0,0,0,0,0,0,0,0,0,314,682,528,528,502.0,565,615,545.0,451.0,471.0,434.0,437.0,371.0
3409,23862,US,93213,46.11,-103.52,,Census,US County,ND,"Bowman County, North Dakota",0,0,0,0,0,0,0,0,0,0,0,0,4668,4768,5119.0,3860,4001,4154.0,3901.0,4229.0,3596.0,3242.0,3151.0
3472,10030,US,128759,48.6633333333,-99.8441666667,,Census,City,ND,"Rolette, North Dakota",0,0,0,0,0,0,0,0,0,0,0,0,408,409,428.0,460,451,524.0,579.0,667.0,623.0,538.0,594.0
3623,8586,US,128504,48.8511111111,-98.9375,,Census,City,ND,"Calvin, North Dakota",0,0,0,0,0,0,0,0,0,0,0,0,0,0,0.0,0,152,104.0,78.0,61.0,27.0,26.0,20.0
3763,3733,US,36379020,47.8533333333,-104.039722222,,Census,Census-designated place &amp; unincorporated community,ND,"East Fairview, North Dakota",0,0,0,0,0,0,0,0,0,0,0,0,0,175,155.0,0,0,0.0,0.0,0.0,0.0,0.0,76.0
3807,11813,US,128595,48.2666666667,-100.843333333,,Census,City,ND,"Granville, North Dakota",0,0,0,0,0,0,0,0,0,0,0,0,455,394,450.0,443,404,400.0,282.0,281.0,236.0,286.0,241.0
3820,10986,US,128840,48.3955555556,-97.7452777778,,Census,City,ND,"Park River, North Dakota",0,0,0,0,0,0,0,0,0,0,534,1088,1008,1114,1131.0,1408,1692,1813.0,1680.0,1844.0,1725.0,1535.0,1403.0
3822,35026,US,128870,48.1563888889,-103.628055556,,Census,City,ND,"Williston, North Dakota",0,0,0,0,0,0,0,0,0,0,295,763,3124,4178,5106.0,5790,7398,11866.0,11230.0,13336.0,13136.0,12512.0,14716.0
3870,9383,US,128439,48.3419444444,-99.6925,,Census,City,ND,"Knox, North Dakota",0,0,0,0,0,0,0,0,0,0,0,0,330,173,177.0,189,190,122.0,104.0,69.0,45.0,59.0,25.0
3883,9327,US,128831,48.4894444444,-98.2319444444,,Census,City,ND,"Fairdale, North Dakota",0,0,0,0,0,0,0,0,0,0,0,0,140,192,171.0,187,131,126.0,102.0,97.0,76.0,51.0,38.0
3916,12524,US,128417,46.0008333333,-102.633333333,,Census,City,ND,"Hettinger, North Dakota",0,0,0,0,0,0,0,0,0,0,0,0,766,817,1292.0,1138,1762,1769.0,1655.0,1739.0,1574.0,1307.0,1226.0
4105,10133,US,128445,48.3122222222,-99.5741666667,,Census,City,ND,"York, North Dakota",0,0,0,0,0,0,0,0,0,0,0,0,0,0,0.0,0,0,148.0,102.0,69.0,35.0,26.0,23.0
4248,47895,US,128500,46.8716666667,-96.895,,Census,City,ND,"West Fargo, North Dakota",0,0,0,0,0,0,0,0,0,0,0,0,0,0,0.0,707,1632,3328.0,5161.0,10099.0,12287.0,14940.0,25830.0
4308,23883,US,93176,48.25,-98.72,,Census,US County,ND,"Ramsey County, North Dakota",0,0,0,0,0,0,0,0,0,281,4418,9198,15199,15427,16252.0,15626,14373,13443.0,12915.0,13048.0,12681.0,12066.0,11451.0
4339,8833,US,128630,47.5119444444,-101.456666667,,Census,City,ND,"Pick City, North Dakota",0,0,0,0,0,0,0,0,0,0,0,0,0,0,0.0,0,294,101.0,119.0,182.0,203.0,166.0,123.0
4487,30065,US,93159,48.22,-101.55,,Census,US County,ND,"Ward County, North Dakota",0,0,0,0,0,0,0,0,0,0,1681,7961,25221,28811,33597.0,31981,34782,47072.0,58560.0,58392.0,57921.0,58975.0,61675.0
4561,9177,US,150861,48.9452777778,-98.9969444444,,Census,City,ND,"Sarles, North Dakota",0,0,0,0,0,0,0,0,0,0,0,0,346,348,383.0,302,285,225.0,148.0,111.0,86.0,25.0,28.0
4578,6858,US,128776,46.249361,-100.638672,,Census,Cdp,ND,"Cannon Ball, North Dakota",0,0,0,0,0,0,0,0,0,0,0,0,0,0,0.0,0,0,0.0,0.0,0.0,702.0,864.0,875.0
4750,25512,US,93160,48.37,-97.72,,Census,US County,ND,"Walsh County, North Dakota",0,0,0,0,0,0,0,0,0,0,16587,20288,19491,19087,20047.0,20747,18859,17997.0,16251.0,15371.0,13840.0,12389.0,11119.0
4767,10687,US,128862,47.4647222222,-99.3988888889,,Census,City,ND,"Sykeston, North Dakota",0,0,0,0,0,0,0,0,0,0,0,0,276,367,327.0,273,272,236.0,232.0,193.0,167.0,153.0,117.0
4779,11020,US,128671,48.1672222222,-100.036666667,,Census,City,ND,"Balta, North Dakota",0,0,0,0,0,0,0,0,0,0,0,0,0,0,0.0,263,196,165.0,133.0,139.0,79.0,73.0,65.0
4841,64438,US,128851,48.2330555556,-101.292222222,,Census,City,ND,"Minot, North Dakota",0,0,0,0,0,0,0,0,0,0,575,1277,6188,10476,16099.0,16577,22032,30604.0,32290.0,32843.0,34544.0,36567.0,40888.0
4979,9672,US,128415,46.0644444444,-102.788888889,,Census,City,ND,"Bucyrus, North Dakota",0,0,0,0,0,0,0,0,0,0,0,0,0,113,124.0,117,111,60.0,42.0,32.0,22.0,26.0,27.0
5105,9415,US,128571,47.1188888889,-99.52,,Census,City,ND,"Pettibone, North Dakota",0,0,0,0,0,0,0,0,0,0,0,0,0,0,0.0,0,0,205.0,173.0,127.0,93.0,88.0,70.0
5111,10073,US,128844,48.4422222222,-101.714722222,,Census,City,ND,"Carpio, North Dakota",0,0,0,0,0,0,0,0,0,0,0,0,257,244,344.0,322,194,199.0,215.0,244.0,178.0,148.0,157.0
5166,9966,US,128620,47.4997222222,-101.37,,Census,City,ND,"Riverdale, North Dakota",0,0,0,0,0,0,0,0,0,0,0,0,0,0,0.0,0,0,0.0,0.0,0.0,283.0,273.0,205.0
5318,12407,US,23725399,48.6811111111,-100.151111111,,Census,City,ND,"Overly, North Dakota",0,0,0,0,0,0,0,0,0,0,0,0,182,193,154.0,125,90,65.0,28.0,25.0,25.0,19.0,18.0
5341,10826,US,128662,48.5966666667,-97.6705555556,,Census,City,ND,"Crystal, North Dakota",0,0,0,0,0,0,0,0,0,0,0,385,376,349,314.0,428,429,372.0,272.0,256.0,199.0,167.0,138.0
5466,9309,US,128704,46.2680555556,-96.8752777778,,Census,City,ND,"Mooreton, North Dakota",0,0,0,0,0,0,0,0,0,0,0,0,0,123,147.0,146,161,164.0,158.0,216.0,193.0,204.0,197.0
5495,11679,US,128659,48.8811111111,-97.4725,,Census,City,ND,"Bathgate, North Dakota",0,0,0,0,0,0,0,0,0,0,377,641,328,352,292.0,312,209,175.0,133.0,67.0,75.0,66.0,43.0
5611,14424,US,128685,46.4391666667,-97.6836111111,,Census,City,ND,"Lisbon, North Dakota",0,0,0,0,0,0,0,0,0,0,935,1046,1758,1855,1650.0,1997,2031,2093.0,2090.0,2283.0,2177.0,2292.0,2154.0
5694,120259,US,21651,,,,Census,US State,ND,North Dakota,0,0,0,0,0,0,0,0,2405,36909,190983,319146,577056,646872,680845.0,641935,619636,632446.0,617761.0,652717.0,638800.0,642200.0,672591.0
5722,11935,US,128440,48.2894444444,-99.4388888889,,Census,City,ND,"Leeds, North Dakota",0,0,0,0,0,0,0,0,0,0,0,349,682,704,725.0,782,778,797.0,626.0,678.0,542.0,464.0,427.0
5880,10111,US,19838872,48.0055555556,-98.8336111111,,Census,Township,ND,"Mission Township, Benson County, North Dakota",0,0,0,0,0,0,0,0,0,0,0,0,72,423,445.0,600,587,582.0,691.0,857.0,1044.0,1077.0,0.0
5971,10494,US,128481,46.9202777778,-97.5508333333,,Census,City,ND,"Buffalo, North Dakota",0,0,0,0,0,0,0,0,0,0,177,213,241,268,242.0,245,261,234.0,241.0,226.0,204.0,209.0,188.0
6047,5130,US,54539430,48.6713888889,-100.901666667,,Census,Unincorporated community,ND,"Russell, North Dakota",0,0,0,0,0,0,0,0,0,0,0,0,161,119,94.0,70,51,25.0,14.0,18.0,14.0,0.0,0.0
6086,8548,US,128520,46.1725,-98.5938888889,,Census,City,ND,"Monango, North Dakota",0,0,0,0,0,0,0,0,0,0,0,0,238,231,211.0,175,138,133.0,112.0,59.0,53.0,28.0,36.0
6148,11741,US,128418,46.1069444444,-102.9425,,Census,City,ND,"Reeder, North Dakota",0,0,0,0,0,0,0,0,0,0,0,0,198,258,395.0,263,339,321.0,306.0,355.0,252.0,181.0,162.0
6163,9403,US,128863,48.58,-103.469444444,,Census,City,ND,"Alamo, North Dakota",0,0,0,0,0,0,0,0,0,0,0,0,0,0,211.0,214,192,182.0,124.0,122.0,69.0,51.0,57.0
6227,12271,US,128557,47.7347222222,-97.5688888889,,Census,City,ND,"Northwood, North Dakota",0,0,0,0,0,0,0,0,0,0,268,697,769,935,971.0,1068,1182,1195.0,1189.0,1240.0,1166.0,959.0,945.0
6250,14551,US,128544,46.9158333333,-104.004444444,,Census,City,ND,"Beach, North Dakota",0,0,0,0,0,0,0,0,0,0,0,0,1003,1106,1263.0,1178,1461,1460.0,1408.0,1381.0,1205.0,1116.0,1019.0
6302,25999,US,93195,46.47,-98.53,,Census,US County,ND,"LaMoure County, North Dakota",0,0,0,0,0,0,0,0,0,20,3187,6048,10724,11564,11517.0,10298,9498,8705.0,7117.0,6473.0,5383.0,4701.0,4139.0
6367,9470,US,128766,46.2261111111,-97.6619444444,,Census,City,ND,"Gwinner, North Dakota",0,0,0,0,0,0,0,0,0,0,0,0,0,0,0.0,0,197,242.0,623.0,725.0,585.0,717.0,753.0
6380,24534,US,93205,47.72,-98.9,,Census,US County,ND,"Eddy County, North Dakota",0,0,0,0,0,0,0,0,0,0,1377,3330,4800,6493,6346.0,5741,5372,4936.0,4103.0,3554.0,2951.0,2757.0,2385.0
6455,9859,US,128517,45.9441666667,-98.7830555556,,Census,City,ND,"Forbes, North Dakota",0,0,0,0,0,0,0,0,0,0,0,0,221,293,265.0,268,204,138.0,88.0,84.0,72.0,64.0,53.0
6540,11444,US,128511,48.6694444444,-98.8355555556,,Census,City,ND,"Munich, North Dakota",0,0,0,0,0,0,0,0,0,0,0,0,0,248,260.0,216,248,213.0,249.0,300.0,310.0,268.0,210.0
6617,8816,US,128643,48.3394444444,-102.229722222,,Census,City,ND,"Palermo, North Dakota",0,0,0,0,0,0,0,0,0,0,0,0,177,179,205.0,178,150,188.0,146.0,97.0,95.0,77.0,74.0
6767,10743,US,128623,47.5194444444,-100.890833333,,Census,City,ND,"Turtle Lake, North Dakota",0,0,0,0,0,0,0,0,0,0,0,0,0,395,579.0,632,839,792.0,712.0,802.0,681.0,580.0,581.0
6794,11175,US,128669,48.6197222222,-97.4466666667,,Census,City,ND,"St. Thomas, North Dakota",0,0,0,0,0,0,0,0,0,0,477,661,513,500,595.0,503,566,660.0,508.0,528.0,444.0,447.0,331.0
6815,26272,US,93191,46.12,-99.44,,Census,US County,ND,"McIntosh County, North Dakota",0,0,0,0,0,0,0,0,0,0,3248,4818,7251,9010,9621.0,8984,7590,6702.0,5545.0,4800.0,4021.0,3390.0,2809.0
6938,8441,US,128816,48.7155555556,-99.4583333333,,Census,City,ND,"Perth, North Dakota",0,0,0,0,0,0,0,0,0,0,0,0,221,218,153.0,145,124,73.0,44.0,20.0,22.0,13.0,9.0
6978,17064,US,128778,46.0419444444,-100.924722222,,Census,City,ND,"Selfridge, North Dakota",0,0,0,0,0,0,0,0,0,0,0,0,25,153,351.0,329,343,371.0,346.0,273.0,242.0,223.0,160.0
7083,10734,US,128654,48.0244444444,-98.1219444444,,Census,City,ND,"Michigan City, North Dakota",0,0,0,0,0,0,0,0,0,0,0,309,449,491,433.0,491,486,451.0,478.0,502.0,413.0,345.0,294.0
7109,15743,US,128835,48.4161111111,-97.4105555556,,Census,City,ND,"Grafton, North Dakota",0,0,0,0,0,0,0,0,0,0,1594,2378,2229,2512,3136.0,4070,4901,5885.0,5946.0,5293.0,4840.0,4516.0,4284.0
7195,11166,US,128629,47.2969444444,-101.623611111,,Census,City,ND,"Hazen, North Dakota",0,0,0,0,0,0,0,0,0,0,0,0,0,520,689.0,662,1230,1222.0,1240.0,2365.0,2818.0,2457.0,2411.0
7196,9612,US,128486,46.8002777778,-96.8333333333,,Census,City,ND,"Frontier, North Dakota",0,0,0,0,0,0,0,0,0,0,0,0,0,0,0.0,0,0,0.0,0.0,160.0,218.0,273.0,214.0
7260,9342,US,128798,46.8908333333,-99.1191666667,,Census,City,ND,"Cleveland, North Dakota",0,0,0,0,0,0,0,0,0,0,0,0,0,341,273.0,246,181,169.0,128.0,130.0,121.0,112.0,83.0
7289,15227,US,128508,48.7616666667,-98.3716666667,,Census,City,ND,"Langdon, North Dakota",0,0,0,0,0,0,0,0,0,0,291,1188,1214,1228,1221.0,1546,1838,2151.0,2182.0,2335.0,2241.0,2101.0,1878.0
7368,10987,US,128458,48.9108333333,-101.02,,Census,City,ND,"Westhope, North Dakota",0,0,0,0,0,0,0,0,0,0,0,0,592,439,521.0,460,575,824.0,705.0,741.0,578.0,533.0,429.0
7370,11580,US,128650,48.0416666667,-98.3444444444,,Census,City,ND,"Lakota, North Dakota",0,0,0,0,0,0,0,0,0,0,227,576,1023,959,860.0,907,1032,1066.0,964.0,963.0,898.0,781.0,672.0
7421,10974,US,128809,46.6577777778,-99.3577777778,,Census,City,ND,"Streeter, North Dakota",0,0,0,0,0,0,0,0,0,0,0,0,0,640,711.0,647,602,491.0,324.0,264.0,161.0,172.0,170.0
7467,9368,US,128513,48.6688888889,-98.1486111111,,Census,City,ND,"Osnabrock, North Dakota",0,0,0,0,0,0,0,0,0,0,0,0,253,310,244.0,269,284,289.0,255.0,222.0,214.0,174.0,134.0
7734,16866,US,128777,46.085,-100.630277778,,Census,City,ND,"Fort Yates, North Dakota",0,0,0,0,0,0,0,0,0,446,511,0,0,0,0.0,0,0,0.0,1153.0,771.0,183.0,228.0,184.0
7738,9195,US,128428,47.2061111111,-97.7944444444,,Census,City,ND,"Pillsbury, North Dakota",0,0,0,0,0,0,0,0,0,0,0,0,0,142,260.0,161,119,76.0,50.0,46.0,31.0,24.0,12.0
7792,12367,US,128865,48.6180555556,-103.936666667,,Census,City,ND,"Grenora, North Dakota",0,0,0,0,0,0,0,0,0,0,0,0,0,358,487.0,425,525,448.0,401.0,362.0,261.0,202.0,244.0
7885,11986,US,128476,47.0038888889,-97.22,,Census,City,ND,"Amenia, North Dakota",0,0,0,0,0,0,0,0,0,0,0,0,0,0,90.0,104,127,117.0,80.0,93.0,82.0,89.0,94.0
7941,9499,US,128584,46.3652777778,-98.0713888889,,Census,City,ND,"Verona, North Dakota",0,0,0,0,0,0,0,0,0,0,0,0,235,258,222.0,201,189,162.0,140.0,126.0,103.0,108.0,85.0
8186,13555,US,128564,47.4447222222,-98.1238888889,,Census,City,ND,"Cooperstown, North Dakota",0,0,0,0,0,0,0,0,0,0,368,648,1019,1112,1053.0,1077,1189,1424.0,1485.0,1308.0,1247.0,1053.0,984.0
8234,10665,US,128588,47.9511111111,-100.533611111,,Census,City,ND,"Balfour, North Dakota",0,0,0,0,0,0,0,0,0,0,0,0,399,322,197.0,193,162,159.0,93.0,51.0,33.0,20.0,26.0
8316,11161,US,128794,47.3227777778,-97.7208333333,,Census,City,ND,"Hope, North Dakota",0,0,0,0,0,0,0,0,0,0,238,606,909,699,535.0,474,470,390.0,364.0,406.0,281.0,303.0,258.0
8338,26042,US,93173,46.27,-96.95,,Census,US County,ND,"Richland County, North Dakota",0,0,0,0,0,0,0,0,0,3597,10751,17387,19659,20887,21008.0,20519,19865,18824.0,18089.0,19207.0,18148.0,17998.0,16321.0
8356,9356,US,128576,46.3783333333,-98.4877777778,,Census,City,ND,"Berlin, North Dakota",0,0,0,0,0,0,0,0,0,0,0,0,137,130,135.0,132,124,78.0,76.0,57.0,38.0,35.0,34.0
8382,9783,US,128762,48.9438888889,-99.7108333333,,Census,City,ND,"St. John, North Dakota",0,0,0,0,0,0,0,0,0,0,0,0,424,460,372.0,517,451,420.0,367.0,401.0,368.0,358.0,341.0
8490,19971,US,128534,47.8269444444,-99.1169444444,,Census,City,ND,"Sheyenne, North Dakota",0,0,0,0,0,0,0,0,0,0,0,0,0,0,417.0,431,469,423.0,362.0,307.0,272.0,318.0,204.0
8511,9826,US,128465,48.9,-102.783333333,,Census,City,ND,"Columbus, North Dakota",0,0,0,0,0,0,0,0,0,0,0,0,225,332,516.0,506,525,672.0,465.0,325.0,223.0,151.0,133.0
8545,10355,US,128768,46.2583333333,-97.4558333333,,Census,City,ND,"Milnor, North Dakota",0,0,0,0,0,0,0,0,0,0,279,322,641,680,564.0,677,674,658.0,645.0,716.0,651.0,711.0,653.0
8727,9112,US,128772,46.0527777778,-97.5066666667,,Census,City,ND,"Rutland, North Dakota",0,0,0,0,0,0,0,0,0,0,0,0,224,291,264.0,305,309,308.0,225.0,250.0,212.0,220.0,163.0
8747,11156,US,128539,46.1330555556,-100.160833333,,Census,City,ND,"Strasburg, North Dakota",0,0,0,0,0,0,0,0,0,0,0,0,273,653,695.0,994,733,612.0,642.0,623.0,553.0,549.0,409.0
8748,8823,US,128426,46.6777777778,-97.8127777778,,Census,City,ND,"Nome, North Dakota",0,0,0,0,0,0,0,0,0,0,0,0,218,267,218.0,277,217,145.0,103.0,67.0,82.0,70.0,62.0
8755,14498,US,128573,46.8561111111,-99.9166666667,,Census,City,ND,"Steele, North Dakota",0,0,0,0,0,0,0,0,0,0,133,185,500,550,519.0,721,762,847.0,696.0,796.0,762.0,761.0,715.0
8931,9170,US,128510,48.6263888889,-98.0416666667,,Census,City,ND,"Milton, North Dakota",0,0,0,0,0,0,0,0,0,0,202,384,410,393,329.0,310,322,264.0,198.0,195.0,133.0,85.0,58.0
8989,11245,US,128617,47.6527777778,-101.416666667,,Census,City,ND,"Garrison, North Dakota",0,0,0,0,0,0,0,0,0,0,0,0,406,714,1024.0,1117,1890,1794.0,1614.0,1830.0,1530.0,1318.0,1453.0
9029,11409,US,128665,48.6838888889,-97.865,,Census,City,ND,"Mountain, North Dakota",0,0,0,0,0,0,0,0,0,0,0,0,0,0,0.0,205,219,218.0,146.0,156.0,134.0,133.0,92.0
9047,10508,US,128707,46.2641666667,-97.1313888889,,Census,City,ND,"Wyndmere, North Dakota",0,0,0,0,0,0,0,0,0,0,0,0,439,570,521.0,499,627,644.0,516.0,550.0,501.0,533.0,429.0
9273,13764,US,128524,46.1372222222,-98.0897222222,,Census,City,ND,"Oakes, North Dakota",0,0,0,0,0,0,0,0,0,0,379,668,1499,1637,1709.0,1665,1774,1650.0,1742.0,2112.0,1775.0,1979.0,1856.0
9403,9998,US,128488,46.9794444444,-96.8825,,Census,City,ND,"Harwood, North Dakota",0,0,0,0,0,0,0,0,0,0,0,0,0,0,0.0,0,0,0.0,0.0,326.0,590.0,607.0,718.0
9517,9582,US,128655,47.7913888889,-98.3286111111,,Census,City,ND,"Pekin, North Dakota",0,0,0,0,0,0,0,0,0,0,0,0,0,197,210.0,229,221,180.0,120.0,101.0,101.0,80.0,70.0
9636,10974,US,128583,46.6072222222,-98.3336111111,,Census,City,ND,"Marion, North Dakota",0,0,0,0,0,0,0,0,0,0,0,0,241,294,258.0,242,272,309.0,215.0,214.0,169.0,146.0,133.0
9645,10756,US,128837,48.5352777778,-97.6369444444,,Census,City,ND,"Hoople, North Dakota",0,0,0,0,0,0,0,0,0,0,0,174,175,250,325.0,346,447,334.0,330.0,350.0,310.0,292.0,242.0
9678,11852,US,128638,46.9019444444,-102.043611111,,Census,City,ND,"Hebron, North Dakota",0,0,0,0,0,0,0,0,0,0,0,0,597,1374,1348.0,1267,1412,1340.0,1103.0,1078.0,888.0,803.0,747.0
9857,10010,US,128451,48.8963888889,-100.911388889,,Census,City,ND,"Landa, North Dakota",0,0,0,0,0,0,0,0,0,0,0,0,0,0,140.0,149,132,110.0,61.0,62.0,38.0,28.0,38.0
10146,10265,US,128807,47.1644444444,-98.9094444444,,Census,City,ND,"Pingree, North Dakota",0,0,0,0,0,0,0,0,0,0,0,0,0,286,266.0,167,161,151.0,76.0,88.0,61.0,66.0,60.0
10249,17647,US,128672,48.3672222222,-99.9961111111,,Census,Town,ND,"Rugby, North Dakota",0,0,0,0,0,0,0,0,0,0,0,487,1630,1424,1512.0,2215,2907,2972.0,2889.0,3335.0,2909.0,2939.0,2876.0
10272,8121,US,128859,47.7613888889,-99.5138888889,,Census,City,ND,"Hamberg, North Dakota",0,0,0,0,0,0,0,0,0,0,0,0,0,0,187.0,164,124,64.0,51.0,41.0,19.0,28.0,21.0
10376,14539,US,128526,48.9125,-103.294722222,,Census,City,ND,"Crosby, North Dakota",0,0,0,0,0,0,0,0,0,0,0,0,206,1147,1271.0,1404,1689,1759.0,1545.0,1469.0,1312.0,1089.0,1070.0
10392,24419,US,93171,46.11,-97.63,,Census,US County,ND,"Sargent County, North Dakota",0,0,0,0,0,0,0,0,0,0,5076,6039,9202,9655,9298.0,8693,7616,6856.0,5937.0,5512.0,4549.0,4366.0,3829.0
10476,4248,US,2633498,48.0569444444,-97.7033333333,,Census,Township,ND,"Agnes Township, Grand Forks County, North Dakota",0,0,0,0,0,0,0,0,0,0,284,385,363,432,278.0,285,200,173.0,144.0,121.0,94.0,83.0,72.0
10485,12421,US,128860,47.77,-99.9311111111,,Census,City,ND,"Harvey, North Dakota",0,0,0,0,0,0,0,0,0,0,0,0,1443,1590,2157.0,1851,2337,2365.0,2361.0,2527.0,2263.0,1989.0,1783.0
10518,6739,US,36370209,48.5069444444,-100.176111111,,Census,Census-designated place &amp; unincorporated community,ND,"Barton, North Dakota",0,0,0,0,0,0,0,0,0,0,0,0,202,158,170.0,157,102,80.0,34.0,38.0,24.0,0.0,20.0
10709,10326,US,128580,46.525,-98.8980555556,,Census,City,ND,"Jud, North Dakota",0,0,0,0,0,0,0,0,0,0,0,0,99,178,140.0,202,175,156.0,110.0,118.0,84.0,76.0,72.0
10712,8851,US,128479,47.0419444444,-97.4919444444,,Census,City,ND,"Ayr, North Dakota",0,0,0,0,0,0,0,0,0,0,0,0,0,0,106.0,107,104,81.0,48.0,42.0,19.0,23.0,17.0
10785,9505,US,128535,46.5655555556,-100.089166667,,Census,City,ND,"Braddock, North Dakota",0,0,0,0,0,0,0,0,0,0,0,0,0,216,193.0,185,175,141.0,106.0,86.0,56.0,43.0,21.0
10791,12471,US,128690,48.765,-101.511111111,,Census,City,ND,"Mohall, North Dakota",0,0,0,0,0,0,0,0,0,0,0,0,493,651,676.0,687,1073,956.0,950.0,1049.0,931.0,812.0,783.0
10810,12997,US,128663,48.5611111111,-97.1794444444,,Census,City,ND,"Drayton, North Dakota",0,0,0,0,0,0,0,0,0,62,318,688,587,637,502.0,688,875,940.0,1095.0,1082.0,961.0,913.0,824.0
10888,30482,US,93197,46.4333333333,-102.433333333,,Census,US County,ND,"Hettinger County, North Dakota",0,0,0,0,0,0,0,0,0,0,0,0,6557,7685,8796.0,7457,7100,6317.0,5075.0,4275.0,3445.0,2715.0,2477.0
10978,11131,US,128649,47.68,-97.9891666667,,Census,City,ND,"Aneta, North Dakota",0,0,0,0,0,0,0,0,0,0,0,0,654,662,568.0,509,469,451.0,376.0,341.0,314.0,284.0,222.0
11056,1597,US,36430722,,,,Census,Populated place,ND,"Berwick, North Dakota",0,0,0,0,0,0,0,0,0,0,0,0,0,0,0.0,92,71,56.0,33.0,22.0,0.0,0.0,0.0
11103,9551,US,128861,47.4466666667,-99.9288888889,,Census,City,ND,"Hurdsfield, North Dakota",0,0,0,0,0,0,0,0,0,0,0,0,0,0,220.0,258,223,183.0,139.0,113.0,92.0,91.0,84.0
11150,9857,US,128519,46.0091666667,-98.1266666667,,Census,City,ND,"Ludden, North Dakota",0,0,0,0,0,0,0,0,0,0,0,0,109,132,164.0,150,96,59.0,44.0,47.0,41.0,29.0,23.0
11317,13248,US,128575,47.1438888889,-99.9955555556,,Census,City,ND,"Tuttle, North Dakota",0,0,0,0,0,0,0,0,0,0,0,0,0,321,383.0,357,368,255.0,216.0,202.0,160.0,106.0,80.0
11331,10188,US,128543,47.5758333333,-98.5894444444,,Census,City,ND,"McHenry, North Dakota",0,0,0,0,0,0,0,0,0,0,0,0,398,299,219.0,250,189,155.0,152.0,113.0,85.0,71.0,56.0
11391,24441,US,93203,47.46,-98.89,,Census,US County,ND,"Foster County, North Dakota",0,0,0,0,0,0,0,0,0,37,1210,3770,5313,6108,6353.0,5824,5337,5361.0,4832.0,4611.0,3983.0,3759.0,3343.0
11410,10736,US,128792,47.5127777778,-97.8369444444,,Census,City,ND,"Finley, North Dakota",0,0,0,0,0,0,0,0,0,0,0,0,516,599,587.0,677,671,808.0,809.0,718.0,543.0,515.0,445.0
11421,6839,US,8827221,47.2291666667,-102.769166667,,Census,Census-designated place,ND,"Manning, North Dakota",0,0,0,0,0,0,0,0,0,0,0,0,0,0,0.0,0,0,0.0,0.0,0.0,0.0,0.0,74.0
11543,11501,US,128555,48.0719444444,-97.1775,,Census,City,ND,"Manvel, North Dakota",0,0,0,0,0,0,0,0,0,0,0,0,0,0,183.0,209,278,313.0,265.0,308.0,333.0,370.0,360.0
11741,22768,US,93175,46.46,-97.66,,Census,US County,ND,"Ransom County, North Dakota",0,0,0,0,0,0,0,0,0,537,5393,6919,10345,11618,10983.0,10061,8876,8078.0,7102.0,6698.0,5921.0,5890.0,5457.0
11872,28254,US,93209,,,,Census,US County,ND,"Cavalier County, North Dakota",0,0,0,0,0,0,0,0,0,0,6471,12580,15659,15555,14554.0,13923,11840,10064.0,8213.0,7636.0,6064.0,4831.0,3993.0
11939,10001,US,128591,48.3952777778,-101.050833333,,Census,City,ND,"Deering, North Dakota",0,0,0,0,0,0,0,0,0,0,0,0,150,142,192.0,140,136,117.0,75.0,85.0,99.0,118.0,98.0
12128,10480,US,128826,47.5005555556,-97.3719444444,,Census,City,ND,"Portland, North Dakota",0,0,0,0,0,0,0,0,0,0,367,524,561,623,500.0,551,641,606.0,534.0,627.0,602.0,604.0,606.0
12229,9220,US,128676,48.0666666667,-98.6333333333,,Census,City,ND,"Crary, North Dakota",0,0,0,0,0,0,0,0,0,0,0,0,279,307,278.0,267,235,195.0,150.0,139.0,145.0,149.0,142.0
12246,23639,US,128677,48.1166666667,-98.8666666667,,Census,City,ND,"Devils Lake, North Dakota",0,0,0,0,0,0,0,0,0,0,846,1729,5157,5140,5451.0,6204,6427,6299.0,7078.0,7442.0,7782.0,7222.0,7141.0
12300,10419,US,128490,47.1902777778,-97.2166666667,,Census,City,ND,"Hunter, North Dakota",0,0,0,0,0,0,0,0,0,0,194,407,365,424,400.0,414,417,446.0,362.0,369.0,341.0,326.0,261.0
12308,8977,US,128867,48.2527777778,-103.4625,,Census,City,ND,"Springbrook, North Dakota",0,0,0,0,0,0,0,0,0,0,0,0,0,93,105.0,77,51,35.0,27.0,52.0,29.0,26.0,27.0
12336,13107,US,128765,46.1052777778,-97.6372222222,,Census,City,ND,"Forman, North Dakota",0,0,0,0,0,0,0,0,0,0,178,257,352,402,386.0,500,466,530.0,596.0,629.0,586.0,506.0,504.0
12420,9718,US,128556,47.9969444444,-97.8694444444,,Census,City,ND,"Niagara, North Dakota",0,0,0,0,0,0,0,0,0,0,0,392,157,199,207.0,179,163,157.0,115.0,76.0,73.0,57.0,53.0
12570,3991,US,2616829,46.7638888889,-97.1213888889,,Census,Township,ND,"Addison Township, Cass County, North Dakota",0,0,0,0,0,0,0,0,0,0,272,359,355,236,291.0,256,215,163.0,113.0,103.0,95.0,104.0,91.0
12631,11023,US,128528,48.8883333333,-103.009444444,,Census,City,ND,"Noonan, North Dakota",0,0,0,0,0,0,0,0,0,0,0,0,153,376,423.0,520,551,625.0,403.0,283.0,231.0,154.0,121.0
12682,11006,US,128581,46.3019444444,-98.9480555556,,Census,City,ND,"Kulm, North Dakota",0,0,0,0,0,0,0,0,0,0,0,463,645,725,742.0,734,707,664.0,625.0,570.0,514.0,422.0,354.0
12746,10216,US,64679,47.8811111111,-100.241944444,,Census,City,ND,"Anamoose, North Dakota",0,0,0,0,0,0,0,0,0,0,0,0,669,563,495.0,478,542,503.0,401.0,355.0,277.0,282.0,227.0
12772,48233,US,57846,46.8133333333,-100.778888889,,Census,City,ND,"Bismarck, North Dakota",0,0,0,0,0,0,0,0,0,1758,2186,3319,4913,7122,11090.0,15496,18541,27670.0,34703.0,44485.0,49256.0,55532.0,61272.0
12823,13915,US,128527,48.9111111111,-103.774166667,,Census,City,ND,"Fortuna, North Dakota",0,0,0,0,0,0,0,0,0,0,0,0,0,198,196.0,214,181,185.0,216.0,98.0,53.0,31.0,22.0
12869,11371,US,128559,46.4208333333,-101.566944444,,Census,City,ND,"Carson, North Dakota",0,0,0,0,0,0,0,0,0,0,0,0,0,277,356.0,473,493,501.0,466.0,469.0,383.0,319.0,293.0
12961,10047,US,128779,46.3877777778,-100.795833333,,Census,City,ND,"Solen, North Dakota",0,0,0,0,0,0,0,0,0,0,0,0,0,0,0.0,0,0,0.0,180.0,138.0,92.0,86.0,83.0
13021,10295,US,128469,48.8769444444,-102.5625,,Census,City,ND,"Lignite, North Dakota",0,0,0,0,0,0,0,0,0,0,0,0,0,214,217.0,235,230,355.0,354.0,332.0,242.0,174.0,155.0
13324,9128,US,128505,48.9730555556,-98.6905555556,,Census,City,ND,"Hannah, North Dakota",0,0,0,0,0,0,0,0,0,0,0,0,0,0,262.0,261,257,253.0,145.0,90.0,49.0,20.0,15.0
13343,9404,US,128664,48.8080555556,-97.4519444444,,Census,City,ND,"Hamilton, North Dakota",0,0,0,0,0,0,0,0,0,0,257,224,213,200,151.0,255,241,217.0,110.0,109.0,74.0,73.0,61.0
13401,9915,US,128431,47.2147222222,-97.9652777778,,Census,City,ND,"Sibley, North Dakota",0,0,0,0,0,0,0,0,0,0,0,0,0,0,0.0,0,0,22.0,20.0,21.0,41.0,46.0,30.0
13482,8568,US,128817,48.7833333333,-99.25,,Census,City,ND,"Rocklake, North Dakota",0,0,0,0,0,0,0,0,0,0,0,0,194,238,279.0,348,385,350.0,270.0,287.0,221.0,194.0,101.0
13570,9225,US,128611,47.73,-102.675555556,,Census,Census-designated place (cdp) &amp; unincorporated community,ND,"Mandaree, North Dakota",0,0,0,0,0,0,0,0,0,0,0,0,0,0,0.0,0,0,0.0,0.0,0.0,367.0,558.0,596.0
13577,8583,US,128821,47.3466666667,-97.41,,Census,City,ND,"Clifford, North Dakota",0,0,0,0,0,0,0,0,0,0,0,0,0,0,0.0,0,158,109.0,84.0,51.0,51.0,51.0,44.0
13716,8876,US,128480,46.7863888889,-96.7944444444,,Census,City,ND,"Briarwood, North Dakota",0,0,0,0,0,0,0,0,0,0,0,0,0,0,0.0,0,0,0.0,0.0,47.0,88.0,78.0,73.0
13746,25204,US,128781,46.2947222222,-103.923055556,,Census,City,ND,"Marmarth, North Dakota",0,0,0,0,0,0,0,0,0,0,0,0,790,1318,721.0,626,469,319.0,247.0,190.0,144.0,140.0,136.0
13808,12004,US,128569,46.4219444444,-102.557222222,,Census,City,ND,"Regent, North Dakota",0,0,0,0,0,0,0,0,0,0,0,0,0,262,308.0,261,405,388.0,344.0,297.0,268.0,211.0,160.0
13860,10221,US,128518,46.1627777778,-98.4277777778,,Census,City,ND,"Fullerton, North Dakota",0,0,0,0,0,0,0,0,0,0,0,0,206,202,206.0,184,206,181.0,110.0,107.0,94.0,85.0,54.0
13888,28136,US,93214,48.79,-100.84,,Census,US County,ND,"Bottineau County, North Dakota",0,0,0,0,0,0,0,0,0,0,2893,7532,17295,15109,14853.0,13253,12140,11315.0,9496.0,9239.0,8011.0,7149.0,6429.0
14059,11220,US,128499,46.9258333333,-96.8627777778,,Census,City,ND,"Reile's Acres, North Dakota",0,0,0,0,0,0,0,0,0,0,0,0,0,0,0.0,0,0,0.0,0.0,191.0,210.0,254.0,513.0
14064,12078,US,128596,48.0908333333,-100.620833333,,Census,City,ND,"Karlsruhe, North Dakota",0,0,0,0,0,0,0,0,0,0,0,0,0,0,258.0,289,282,221.0,172.0,164.0,143.0,119.0,82.0
14089,9251,US,128443,47.9225,-99.2052777778,,Census,City,ND,"Oberon, North Dakota",0,0,0,0,0,0,0,0,0,0,0,0,0,0,0.0,0,238,248.0,151.0,150.0,103.0,81.0,105.0
14510,8854,US,128436,47.9788888889,-99.0002777778,,Census,Cdp,ND,"Fort Totten, North Dakota",0,0,0,0,0,0,0,0,0,0,0,0,0,0,0.0,0,0,0.0,0.0,0.0,867.0,952.0,1243.0
14540,10579,US,128525,48.9541666667,-103.483055556,,Census,City,ND,"Ambrose, North Dakota",0,0,0,0,0,0,0,0,0,0,0,0,320,389,334.0,294,286,220.0,109.0,60.0,48.0,23.0,26.0
14756,13989,US,128632,47.2872222222,-101.923888889,,Census,City,ND,"Zap, North Dakota",0,0,0,0,0,0,0,0,0,0,0,0,0,257,406.0,574,425,339.0,271.0,511.0,287.0,231.0,237.0
14841,24029,US,128783,46.8836111111,-102.788888889,,Census,City,ND,"Dickinson, North Dakota",0,0,0,0,0,0,0,0,0,0,897,2076,3678,4122,5025.0,5839,7469,9971.0,12405.0,15974.0,16097.0,16010.0,17787.0
14906,24763,US,93211,46.98,-100.47,,Census,US County,ND,"Burleigh County, North Dakota",0,0,0,0,0,0,0,0,0,3246,4247,6081,13087,15578,19769.0,22736,25673,34016.0,40714.0,54811.0,60131.0,69416.0,81308.0
14967,10188,US,128868,48.3963888889,-102.9375,,Census,City,ND,"Tioga, North Dakota",0,0,0,0,0,0,0,0,0,0,0,0,203,320,435.0,385,456,2087.0,1667.0,1597.0,1278.0,1125.0,1230.0
15087,9527,US,128601,48.0197222222,-100.8425,,Census,City,ND,"Voltaire, North Dakota",0,0,0,0,0,0,0,0,0,0,0,0,0,0,61.0,101,72,70.0,54.0,65.0,63.0,51.0,40.0
15103,7357,US,128815,48.3925,-99.1941666667,,Census,Unincorporated community,ND,"Maza, North Dakota",0,0,0,0,0,0,0,0,0,0,0,0,0,0,70.0,66,82,31.0,20.0,21.0,12.0,5.0,0.0
15239,12577,US,128609,47.8080555556,-103.438611111,,Census,City,ND,"Arnegard, North Dakota",0,0,0,0,0,0,0,0,0,0,0,0,0,0,254.0,222,206,228.0,141.0,193.0,122.0,105.0,115.0
15342,9807,US,128589,48.4977777778,-100.609722222,,Census,City,ND,"Bantry, North Dakota",0,0,0,0,0,0,0,0,0,0,0,0,0,0,0.0,0,125,66.0,40.0,28.0,16.0,19.0,14.0
15379,8933,US,128512,48.5766666667,-98.3711111111,,Census,City,ND,"Nekoma, North Dakota",0,0,0,0,0,0,0,0,0,0,0,0,120,189,191.0,184,140,143.0,84.0,102.0,63.0,51.0,50.0
15540,10850,US,128708,48.8405555556,-99.7466666667,,Census,Cdp,ND,"Belcourt, North Dakota",0,0,0,0,0,0,0,0,0,0,0,0,0,0,0.0,0,0,0.0,0.0,1803.0,2458.0,2440.0,2078.0
15589,23872,US,93199,,,,Census,US County,ND,"Grant County, North Dakota",0,0,0,0,0,0,0,0,0,0,0,0,0,9553,10134.0,8264,7114,6248.0,5009.0,4274.0,3549.0,2841.0,2394.0
15703,9782,US,128678,48.4116666667,-98.4552777778,,Census,City,ND,"Edmore, North Dakota",0,0,0,0,0,0,0,0,0,0,0,0,344,501,396.0,453,458,405.0,398.0,416.0,329.0,256.0,182.0
15747,14959,US,128613,47.8025,-103.280555556,,Census,City,ND,"Watford City, North Dakota",0,0,0,0,0,0,0,0,0,0,0,0,0,260,769.0,1023,1371,1865.0,1768.0,2119.0,1784.0,1435.0,1744.0
15748,8638,US,128429,47.0719444444,-98.2011111111,,Census,City,ND,"Rogers, North Dakota",0,0,0,0,0,0,0,0,0,0,0,0,0,173,169.0,174,150,119.0,96.0,68.0,69.0,61.0,46.0
15944,9474,US,128857,47.5538888889,-99.4113888889,,Census,City,ND,"Cathay, North Dakota",0,0,0,0,0,0,0,0,0,0,0,0,225,185,235.0,189,209,110.0,110.0,66.0,54.0,56.0,43.0
15953,25862,US,93172,48.9980555556,-99.8788888889,,Census,US County,ND,"Rolette County, North Dakota",0,0,0,0,0,0,0,0,0,0,2427,7995,9558,10061,10760.0,12583,11102,10641.0,11549.0,12177.0,12772.0,13674.0,13937.0
16235,10176,US,128646,48.3130555556,-102.543333333,,Census,City,ND,"Ross, North Dakota",0,0,0,0,0,0,0,0,0,0,0,0,0,0,0.0,0,0,167.0,125.0,104.0,61.0,48.0,97.0
16377,9418,US,128833,48.2180555556,-97.4686111111,,Census,City,ND,"Forest River, North Dakota",0,0,0,0,0,0,0,0,0,0,0,252,233,226,198.0,207,236,191.0,169.0,152.0,148.0,154.0,125.0
16516,12162,US,128516,46.0030555556,-98.5230555556,,Census,City,ND,"Ellendale, North Dakota",0,0,0,0,0,0,0,0,0,0,761,750,1389,1334,1264.0,1517,1759,1800.0,1517.0,1967.0,1798.0,1559.0,1394.0
16518,9596,US,128599,48.5811111111,-100.726944444,,Census,City,ND,"Upham, North Dakota",0,0,0,0,0,0,0,0,0,0,0,0,296,196,257.0,243,403,333.0,272.0,227.0,205.0,155.0,130.0
16636,8916,US,128813,48.6280555556,-99.0980555556,,Census,City,ND,"Egeland, North Dakota",0,0,0,0,0,0,0,0,0,0,0,0,266,306,333.0,275,248,190.0,96.0,112.0,103.0,49.0,28.0
16688,9651,US,128828,48.2055555556,-97.34,,Census,City,ND,"Ardoch, North Dakota",0,0,0,0,0,0,0,0,0,0,214,298,271,153,110.0,119,137,106.0,70.0,78.0,49.0,61.0,67.0
16787,24395,US,93202,46.94,-103.84,,Census,US County,ND,"Golden Valley County, North Dakota",0,0,0,0,0,0,0,0,0,0,0,0,0,4832,4122.0,3498,3499,3100.0,2611.0,2391.0,2108.0,1924.0,1680.0
16796,21711,US,93168,46.11,-101.05,,Census,US County,ND,"Sioux County, North Dakota",0,0,0,0,0,0,0,0,0,0,0,0,0,3308,4687.0,4419,3696,3662.0,3632.0,3620.0,3761.0,4044.0,4153.0
16833,6810,US,28109342,48.6833333333,-101.350555556,,Census,Township,ND,"Blaine Township, Bottineau County, North Dakota",0,0,0,0,0,0,0,0,0,0,0,0,245,0,0.0,0,0,0.0,0.0,0.0,0.0,30.0,0.0
16864,8913,US,128767,45.9508333333,-97.6188888889,,Census,City,ND,"Havana, North Dakota",0,0,0,0,0,0,0,0,0,0,0,0,387,319,271.0,305,267,206.0,156.0,148.0,124.0,94.0,71.0
16868,8313,US,128496,46.6744444444,-96.8036111111,,Census,City,ND,"Oxbow, North Dakota",0,0,0,0,0,0,0,0,0,0,0,0,0,0,0.0,0,0,0.0,0.0,0.0,100.0,248.0,305.0
16893,8146,US,128673,48.4980555556,-99.7055555556,,Census,City,ND,"Wolford, North Dakota",0,0,0,0,0,0,0,0,0,0,0,0,0,0,0.0,206,140,136.0,81.0,76.0,56.0,50.0,36.0
16945,23412,US,93181,47.92,-98.19,,Census,US County,ND,"Nelson County, North Dakota",0,0,0,0,0,0,0,0,0,0,4293,7316,10140,10362,10203.0,9129,8090,7034.0,5776.0,5233.0,4410.0,3715.0,3126.0
16950,9196,US,128503,48.63,-98.935,,Census,City,ND,"Calio, North Dakota",0,0,0,0,0,0,0,0,0,0,0,0,0,132,152.0,98,102,101.0,75.0,60.0,43.0,24.0,22.0
16952,9485,US,128546,46.9186111111,-103.838888889,,Census,City,ND,"Sentinel Butte, North Dakota",0,0,0,0,0,0,0,0,0,0,0,0,0,292,219.0,256,229,160.0,125.0,86.0,79.0,62.0,56.0
16954,60447,US,128485,46.8772222222,-96.7894444444,,Census,City,ND,"Fargo, North Dakota",0,0,0,0,0,0,0,0,0,2693,5664,9589,14331,21961,28619.0,32580,38256,46662.0,53365.0,61383.0,74111.0,90599.0,105549.0
17087,9030,US,128682,48.4522222222,-98.8780555556,,Census,City,ND,"Starkweather, North Dakota",0,0,0,0,0,0,0,0,0,0,0,0,246,302,312.0,295,229,223.0,193.0,210.0,197.0,157.0,117.0
17101,10336,US,128698,46.3041666667,-96.7391666667,,Census,City,ND,"Dwight, North Dakota",0,0,0,0,0,0,0,0,0,0,0,0,0,139,104.0,168,129,101.0,93.0,72.0,83.0,75.0,82.0
17144,28946,US,93218,46.93,-98.07,,Census,US County,ND,"Barnes County, North Dakota",0,0,0,0,0,0,0,0,0,1585,7045,13159,18066,18678,18804.0,17814,16884,16719.0,14669.0,13960.0,12545.0,11775.0,11066.0
17146,9813,US,128832,48.2169444444,-97.7933333333,,Census,City,ND,"Fordville, North Dakota",0,0,0,0,0,0,0,0,0,0,0,0,0,320,442.0,439,376,367.0,361.0,326.0,299.0,266.0,212.0
17216,28069,US,93164,46.98,-98.96,,Census,US County,ND,"Stutsman County, North Dakota",0,0,0,0,0,0,0,0,0,1007,5266,9143,18189,24575,26100.0,23495,24158,25137.0,23550.0,24154.0,22241.0,21908.0,21100.0
17240,9828,US,128454,48.7222222222,-101.142222222,,Census,City,ND,"Maxbass, North Dakota",0,0,0,0,0,0,0,0,0,0,0,0,240,147,217.0,215,259,218.0,174.0,141.0,123.0,91.0,84.0
17436,8833,US,128829,48.2338888889,-97.6747222222,,Census,City,ND,"Conway, North Dakota",0,0,0,0,0,0,0,0,0,0,0,216,184,148,100.0,120,107,67.0,57.0,33.0,24.0,23.0,23.0
17550,11326,US,128558,47.7758333333,-97.1066666667,,Census,City,ND,"Thompson, North Dakota",0,0,0,0,0,0,0,0,0,0,0,0,0,0,273.0,276,270,290.0,291.0,785.0,930.0,1006.0,986.0
17770,6920,US,28038341,48.8833333333,-101.117222222,,Census,Township,ND,"Bentinck Township, Bottineau County, North Dakota",0,0,0,0,0,0,0,0,0,0,0,113,197,152,134.0,133,143,74.0,62.0,85.0,52.0,32.0,0.0
17771,12637,US,128818,47.6033333333,-97.0997222222,,Census,City,ND,"Buxton, North Dakota",0,0,0,0,0,0,0,0,0,0,0,0,0,0,410.0,404,387,321.0,235.0,336.0,343.0,350.0,323.0
17828,23634,US,93174,48.71,-101.66,,Census,US County,ND,"Renville County, North Dakota",0,0,0,0,0,0,0,0,0,0,0,0,7840,7776,7263.0,5533,5405,4698.0,3828.0,3608.0,3160.0,2610.0,2470.0
17854,22047,US,93165,47.46,-97.72,,Census,US County,ND,"Steele County, North Dakota",0,0,0,0,0,0,0,0,0,0,3777,5888,7616,7401,6972.0,6193,5145,4719.0,3749.0,3106.0,2420.0,2258.0,1975.0
17953,13359,US,128691,48.9613888889,-101.631944444,,Census,City,ND,"Sherwood, North Dakota",0,0,0,0,0,0,0,0,0,0,0,0,328,423,455.0,390,421,360.0,369.0,294.0,286.0,255.0,242.0
18051,35774,US,93178,48.77,-97.55,,Census,US County,ND,"Pembina County, North Dakota",0,0,0,0,0,0,0,0,1213,4862,14334,17869,14749,15177,14757.0,15671,13990,12946.0,10728.0,10399.0,9238.0,8585.0,7413.0
18072,8709,US,128679,48.5394444444,-98.655,,Census,City,ND,"Hampden, North Dakota",0,0,0,0,0,0,0,0,0,0,0,0,0,199,222.0,193,203,159.0,114.0,126.0,89.0,60.0,48.0
18120,9152,US,128674,48.2125,-98.3538888889,,Census,City,ND,"Brocket, North Dakota",0,0,0,0,0,0,0,0,0,0,0,0,186,240,276.0,291,212,153.0,95.0,74.0,81.0,65.0,57.0
18169,17868,US,128448,48.8333333333,-100.45,,Census,City,ND,"Bottineau, North Dakota",0,0,0,0,0,0,0,0,0,0,145,888,1331,1172,1322.0,1739,2268,2613.0,2760.0,2829.0,2598.0,2336.0,2211.0
18177,9355,US,128474,47.1408333333,-100.280555556,,Census,City,ND,"Wing, North Dakota",0,0,0,0,0,0,0,0,0,0,0,0,0,0,237.0,235,312,303.0,223.0,220.0,208.0,124.0,152.0
18191,11102,US,128532,47.37,-102.755,,Census,City,ND,"Killdeer, North Dakota",0,0,0,0,0,0,0,0,0,0,0,0,0,512,495.0,650,698,765.0,615.0,790.0,722.0,713.0,751.0
18300,23721,US,93212,48.79,-102.52,,Census,US County,ND,"Burke County, North Dakota",0,0,0,0,0,0,0,0,0,0,0,0,9064,9511,9998.0,7653,6621,5886.0,4739.0,3822.0,3002.0,2242.0,1968.0
18307,9149,US,128542,47.5505555556,-98.8044444444,,Census,City,ND,"Grace City, North Dakota",0,0,0,0,0,0,0,0,0,0,0,0,0,0,0.0,0,0,0.0,0.0,0.0,108.0,71.0,63.0
18346,6476,US,128612,47.8175,-103.543055556,,Census,Unincorporated community,ND,"Rawson, North Dakota",0,0,0,0,0,0,0,0,0,0,0,0,0,0,65.0,72,32,28.0,10.0,12.0,9.0,6.0,0.0
18359,9241,US,128810,47.1422222222,-99.3041666667,,Census,City,ND,"Woodworth, North Dakota",0,0,0,0,0,0,0,0,0,0,0,0,0,297,261.0,203,238,218.0,139.0,137.0,102.0,80.0,50.0
18385,9821,US,128797,47.0627777778,-98.8283333333,,Census,City,ND,"Buchanan, North Dakota",0,0,0,0,0,0,0,0,0,0,0,0,0,0,0.0,0,0,0.0,0.0,0.0,40.0,77.0,90.0
18449,12309,US,128848,48.675,-102.078611111,,Census,City,ND,"Kenmare, North Dakota",0,0,0,0,0,0,0,0,0,0,0,0,1437,1446,1494.0,1528,1712,1696.0,1515.0,1456.0,1214.0,1081.0,1096.0
18461,9233,US,128529,47.3058333333,-102.203611111,,Census,City,ND,"Dodge, North Dakota",0,0,0,0,0,0,0,0,0,0,0,0,0,172,204.0,234,251,226.0,121.0,199.0,135.0,125.0,87.0
18546,10986,US,128782,46.8861111111,-103.198611111,,Census,City,ND,"Belfield, North Dakota",0,0,0,0,0,0,0,0,0,0,0,0,0,526,653.0,870,1051,1064.0,1130.0,1274.0,887.0,866.0,800.0
18569,10024,US,128467,48.8980555556,-102.393888889,,Census,City,ND,"Flaxton, North Dakota",0,0,0,0,0,0,0,0,0,0,0,0,301,374,423.0,362,436,375.0,286.0,182.0,121.0,73.0,66.0
18574,11349,US,128839,48.2922222222,-97.3725,,Census,City,ND,"Minto, North Dakota",0,0,0,0,0,0,0,0,0,0,467,860,701,602,565.0,630,592,642.0,636.0,592.0,560.0,657.0,604.0
18818,15371,US,128825,47.4997222222,-97.3255555556,,Census,City,ND,"Mayville, North Dakota",0,0,0,0,0,0,0,0,0,0,657,1106,1070,1218,1199.0,1351,1790,2168.0,2554.0,2255.0,2092.0,1953.0,1858.0
18839,9540,US,128774,47.8266666667,-100.115,,Census,City,ND,"Martin, North Dakota",0,0,0,0,0,0,0,0,0,0,0,0,0,198,211.0,228,171,146.0,120.0,114.0,117.0,96.0,78.0
18912,10733,US,128784,46.8597222222,-102.565555556,,Census,City,ND,"Gladstone, North Dakota",0,0,0,0,0,0,0,0,0,0,0,0,0,0,0.0,278,224,185.0,222.0,317.0,224.0,248.0,239.0
18996,6618,US,40405164,47.955,-97.3866666667,,Census,Census-designated place,ND,Grand Forks Air Force Base (CDP),0,0,0,0,0,0,0,0,0,0,0,0,0,0,0.0,0,0,0.0,10474.0,9390.0,9343.0,4832.0,2367.0
19057,10255,US,128656,48.0102777778,-98.0008333333,,Census,City,ND,"Petersburg, North Dakota",0,0,0,0,0,0,0,0,0,0,0,0,353,367,310.0,285,318,272.0,266.0,230.0,219.0,195.0,192.0
19061,8836,US,128615,47.8375,-100.664722222,,Census,City,ND,"Butte, North Dakota",0,0,0,0,0,0,0,0,0,0,0,0,320,252,231.0,261,272,257.0,193.0,157.0,129.0,92.0,68.0
19150,8365,US,128808,47.0763888889,-98.5747222222,,Census,City,ND,"Spiritwood Lake, North Dakota",0,0,0,0,0,0,0,0,0,50,0,0,0,0,0.0,0,0,0.0,0.0,50.0,61.0,72.0,90.0
19163,24182,US,93177,48.25,-99.98,,Census,US County,ND,"Pierce County, North Dakota",0,0,0,0,0,0,0,0,0,0,905,4765,9740,9283,9074.0,9208,8326,7394.0,6323.0,6166.0,5052.0,4675.0,4357.0
19311,9400,US,128502,48.6275,-98.7058333333,,Census,City,ND,"Alsen, North Dakota",0,0,0,0,0,0,0,0,0,0,0,0,0,0,358.0,312,114,228.0,201.0,169.0,113.0,68.0,35.0
19354,9310,US,128541,47.455,-98.5666666667,,Census,City,ND,"Glenfield, North Dakota",0,0,0,0,0,0,0,0,0,0,0,0,0,0,0.0,0,0,129.0,127.0,164.0,118.0,134.0,91.0
19403,9276,US,128572,47.1430555556,-99.7791666667,,Census,City,ND,"Robinson, North Dakota",0,0,0,0,0,0,0,0,0,0,0,0,0,0,185.0,160,166,155.0,125.0,129.0,87.0,71.0,37.0
19482,9231,US,128853,47.9172222222,-101.673611111,,Census,City,ND,"Ryder, North Dakota",0,0,0,0,0,0,0,0,0,0,0,0,338,483,457.0,467,330,264.0,211.0,158.0,121.0,92.0,85.0
19485,13243,US,128446,46.9141666667,-103.525,,Census,City,ND,"Medora, North Dakota",0,0,0,0,0,0,0,0,0,0,0,0,0,0,0.0,0,0,133.0,129.0,94.0,101.0,100.0,112.0
19644,5966,US,11406038,48.2963888889,-103.2525,,Census,Ghost town,ND,"Wheelock, North Dakota",0,0,0,0,0,0,0,0,0,0,0,0,0,0,115.0,94,101,82.0,21.0,34.0,23.0,0.0,0.0
19646,10027,US,128472,46.7619444444,-100.702222222,,Census,City,ND,"Lincoln, North Dakota",0,0,0,0,0,0,0,0,0,0,0,0,0,0,0.0,0,0,0.0,0.0,656.0,1132.0,1730.0,2406.0
19725,10792,US,128701,46.0702777778,-96.9013888889,,Census,City,ND,"Hankinson, North Dakota",0,0,0,0,0,0,0,0,0,0,0,713,1503,1477,1400.0,1420,1409,1285.0,1125.0,1158.0,1038.0,1058.0,919.0
19813,10103,US,128838,48.3147222222,-97.9227777778,,Census,City,ND,"Lankin, North Dakota",0,0,0,0,0,0,0,0,0,0,0,0,341,334,267.0,283,287,303.0,221.0,175.0,152.0,131.0,98.0
19853,10175,US,128789,46.8847222222,-102.316111111,,Census,City,ND,"Richardton, North Dakota",0,0,0,0,0,0,0,0,0,0,0,0,647,626,710.0,682,721,792.0,799.0,699.0,625.0,619.0,529.0
19881,8687,US,128628,47.2916666667,-102.067777778,,Census,City,ND,"Golden Valley, North Dakota",0,0,0,0,0,0,0,0,0,0,0,0,0,369,294.0,400,339,286.0,235.0,287.0,239.0,183.0,182.0
20041,8750,US,128449,48.7002777778,-100.498611111,,Census,City,ND,"Gardena, North Dakota",0,0,0,0,0,0,0,0,0,0,0,0,119,99,120.0,125,116,113.0,84.0,66.0,41.0,38.0,29.0
20082,12673,US,128635,46.8144444444,-101.830833333,,Census,City,ND,"Glen Ullin, North Dakota",0,0,0,0,0,0,0,0,0,0,0,0,921,875,950.0,976,1324,1210.0,1070.0,1125.0,927.0,865.0,807.0
20201,10438,US,128463,46.1472222222,-103.144166667,,Census,City,ND,"Scranton, North Dakota",0,0,0,0,0,0,0,0,0,0,0,0,214,353,381.0,277,360,358.0,360.0,415.0,294.0,304.0,281.0
20273,24390,US,93198,47.46,-98.23,,Census,US County,ND,"Griggs County, North Dakota",0,0,0,0,0,0,0,0,0,0,2817,4744,6274,7402,6889.0,5818,5460,5023.0,4184.0,3714.0,3303.0,2754.0,2420.0
20297,9889,US,128864,48.2808333333,-103.358055556,,Census,City,ND,"Epping, North Dakota",0,0,0,0,0,0,0,0,0,0,0,0,0,116,183.0,154,158,151.0,140.0,104.0,64.0,79.0,100.0
20329,10325,US,128563,47.5608333333,-98.3466666667,,Census,City,ND,"Binford, North Dakota",0,0,0,0,0,0,0,0,0,0,0,0,275,393,317.0,311,309,261.0,242.0,293.0,233.0,201.0,183.0
20377,10048,US,128477,47.0516666667,-96.9355555556,,Census,City,ND,"Argusville, North Dakota",0,0,0,0,0,0,0,0,0,0,0,0,0,0,115.0,145,126,118.0,118.0,147.0,161.0,147.0,475.0
20581,25612,US,93208,46.11,-98.49,,Census,US County,ND,"Dickey County, North Dakota",0,0,0,0,0,0,0,0,0,0,5573,6061,9839,10499,10877.0,9696,9121,8147.0,6976.0,7207.0,6107.0,5757.0,5289.0
20931,10586,US,128442,48.0666666667,-99.25,,Census,City,ND,"Minnewaukan, North Dakota",0,0,0,0,0,0,0,0,0,0,0,432,510,564,480.0,521,443,420.0,496.0,461.0,401.0,318.0,224.0
20961,9308,US,128869,48.6302777778,-103.183333333,,Census,Small town,ND,"Wildrose, North Dakota",0,0,0,0,0,0,0,0,0,0,0,0,0,449,518.0,472,430,361.0,235.0,214.0,193.0,129.0,110.0
20996,12024,US,150858,47.1588888889,-100.785833333,,Census,City,ND,"Wilton, North Dakota",0,0,0,0,0,0,0,0,0,0,0,0,437,108,149.0,117,134,105.0,116.0,262.0,728.0,807.0,711.0
21027,10359,US,128687,48.5130555556,-101.220833333,,Census,City,ND,"Glenburn, North Dakota",0,0,0,0,0,0,0,0,0,0,0,0,268,228,263.0,190,281,363.0,381.0,454.0,439.0,374.0,380.0
21061,2100,US,38527357,48.0447222222,-98.4322222222,,Census,Unincorporated Community,ND,"Bartlett, North Dakota",0,0,0,0,0,0,0,0,0,0,0,0,120,98,67.0,78,61,39.0,19.0,0.0,0.0,0.0,0.0
21124,76381,US,128549,47.9252777778,-97.0325,,Census,City,ND,"Grand Forks, North Dakota",0,0,0,0,0,0,0,0,0,1705,4979,7682,12478,14010,17112.0,20228,26836,34451.0,39008.0,43765.0,49425.0,49321.0,52838.0
21214,31770,US,93210,46.93,-97.25,,Census,US County,ND,"Cass County, North Dakota",0,0,0,0,0,0,0,0,0,8998,19613,28625,33935,41477,48735.0,52849,58877,66947.0,73653.0,88247.0,102874.0,123138.0,149778.0
21319,13562,US,128670,48.9219444444,-97.9180555556,,Census,City,ND,"Walhalla, North Dakota",0,0,0,0,0,0,0,0,0,67,0,377,592,637,700.0,1138,1463,1432.0,1471.0,1429.0,1131.0,1057.0,996.0
21361,10738,US,128470,48.9955555556,-102.550555556,,Census,City,ND,"Portal, North Dakota",0,0,0,0,0,0,0,0,0,0,0,0,491,454,512.0,499,409,351.0,251.0,238.0,192.0,131.0,126.0
21380,9855,US,128841,48.3105555556,-97.7105555556,,Census,City,ND,"Pisek, North Dakota",0,0,0,0,0,0,0,0,0,0,0,132,312,300,225.0,242,215,176.0,154.0,156.0,130.0,96.0,106.0
21422,12116,US,128561,46.3588888889,-101.636111111,,Census,City,ND,"Leith, North Dakota",0,0,0,0,0,0,0,0,0,0,0,0,0,158,174.0,166,160,100.0,92.0,59.0,43.0,28.0,16.0
21436,16825,US,128830,48.4952777778,-97.8641666667,,Census,City,ND,"Edinburg, North Dakota",0,0,0,0,0,0,0,0,0,0,0,286,300,278,284.0,378,343,330.0,315.0,300.0,284.0,252.0,196.0
21503,22683,US,93187,47.3,-101.82,,Census,US County,ND,"Mercer County, North Dakota",0,0,0,0,0,0,0,0,0,0,428,1778,4747,8224,9516.0,9611,8686,6805.0,6175.0,9404.0,9808.0,8644.0,8424.0
21513,11038,US,128600,48.0580555556,-100.93,,Census,City,ND,"Velva, North Dakota",0,0,0,0,0,0,0,0,0,0,0,0,837,836,870.0,1017,1170,1330.0,1241.0,1101.0,968.0,1049.0,1084.0
21515,12109,US,128582,46.3586111111,-98.2936111111,,Census,City,ND,"LaMoure, North Dakota",0,0,0,0,0,0,0,0,0,0,309,457,929,1014,889.0,990,1010,1068.0,951.0,1077.0,970.0,944.0,889.0
21525,12994,US,128627,47.2680555556,-101.777222222,,Census,City,ND,"Beulah, North Dakota",0,0,0,0,0,0,0,0,0,0,0,0,0,552,913.0,942,1501,1318.0,1344.0,2908.0,3363.0,3152.0,3121.0
21594,8915,US,128514,48.8941666667,-98.6016666667,,Census,City,ND,"Wales, North Dakota",0,0,0,0,0,0,0,0,0,0,0,0,0,0,0.0,0,235,151.0,116.0,74.0,48.0,30.0,31.0
21618,11474,US,128811,48.6258333333,-99.3797222222,,Census,City,ND,"Bisbee, North Dakota",0,0,0,0,0,0,0,0,0,0,0,0,444,500,531.0,393,365,388.0,305.0,257.0,227.0,167.0,126.0
21680,13877,US,128567,46.3736111111,-102.325,,Census,City,ND,"Mott, North Dakota",0,0,0,0,0,0,0,0,0,0,0,0,0,723,1036.0,1220,1583,1463.0,1368.0,1315.0,1019.0,808.0,721.0
21683,9593,US,128796,47.5986111111,-97.8961111111,,Census,City,ND,"Sharon, North Dakota",0,0,0,0,0,0,0,0,0,0,0,0,304,362,328.0,371,312,251.0,201.0,166.0,119.0,109.0,96.0
21961,9867,US,128553,48.1519444444,-97.6447222222,,Census,Village,ND,"Inkster, North Dakota",0,0,0,0,0,0,0,0,0,0,211,0,353,368,257.0,310,304,282.0,198.0,135.0,127.0,102.0,50.0
21969,14805,US,9178488,48.7063888889,-100.355,,Census,,ND,"Omemee, North Dakota",0,0,0,0,0,0,0,0,0,0,0,0,332,222,170.0,123,60,11.0,5.0,10.0,0.0,0.0,0.0
22066,10691,US,128594,47.9238888889,-100.371388889,,Census,City,ND,"Drake, North Dakota",0,0,0,0,0,0,0,0,0,0,0,0,348,517,644.0,654,831,752.0,636.0,479.0,361.0,322.0,275.0
22074,11552,US,128802,46.8947222222,-99.2980555556,,Census,City,ND,"Medina, North Dakota",0,0,0,0,0,0,0,0,0,0,0,0,343,415,407.0,500,564,545.0,488.0,521.0,387.0,335.0,308.0
22075,9165,US,128614,47.8305555556,-101.082777778,,Census,City,ND,"Benedict, North Dakota",0,0,0,0,0,0,0,0,0,0,0,0,0,195,145.0,167,127,129.0,72.0,68.0,52.0,53.0,66.0
22086,12596,US,128533,47.6805555556,-99.1361111111,,Census,City,ND,"New Rockford, North Dakota",0,0,0,0,0,0,0,0,0,0,0,0,0,2111,2195.0,2017,2185,2177.0,1969.0,1791.0,1604.0,1463.0,1391.0
22106,9892,US,128548,48.0836111111,-97.4675,,Census,City,ND,"Gilby, North Dakota",0,0,0,0,0,0,0,0,0,0,0,0,0,0,0.0,0,0,281.0,268.0,283.0,262.0,243.0,237.0
22278,9137,US,128764,46.1069444444,-97.7830555556,,Census,City,ND,"Cogswell, North Dakota",0,0,0,0,0,0,0,0,0,0,0,0,418,445,426.0,430,393,305.0,203.0,227.0,184.0,165.0,99.0
22344,12436,US,128625,47.2913888889,-101.027777778,,Census,City,ND,"Washburn, North Dakota",0,0,0,0,0,0,0,0,0,0,0,0,657,558,753.0,901,913,993.0,804.0,1767.0,1506.0,1389.0,1246.0
22653,9808,US,128478,47.1047222222,-97.2166666667,,Census,City,ND,"Arthur, North Dakota",0,0,0,0,0,0,0,0,0,0,0,0,0,0,322.0,335,380,325.0,412.0,445.0,400.0,402.0,337.0
22876,28302,US,93217,48.07,-99.36,,Census,US County,ND,"Benson County, North Dakota",0,0,0,0,0,0,0,0,0,0,2460,8320,12681,13095,13327.0,12629,10675,9435.0,8245.0,7944.0,7198.0,6964.0,6660.0
22897,11590,US,128855,48.2369444444,-101.133055556,,Census,City,ND,"Surrey, North Dakota",0,0,0,0,0,0,0,0,0,0,0,0,0,0,0.0,0,0,309.0,361.0,999.0,856.0,917.0,934.0
22914,14253,US,128642,47.9816666667,-102.484722222,,Census,City,ND,"New Town, North Dakota",0,0,0,0,0,0,0,0,0,0,0,0,0,0,0.0,0,0,1586.0,1428.0,1335.0,1388.0,1367.0,1925.0
22922,12969,US,128700,46.1533333333,-96.8030555556,,Census,City,ND,"Great Bend, North Dakota",0,0,0,0,0,0,0,0,0,0,0,0,191,142,169.0,198,169,164.0,86.0,113.0,108.0,118.0,60.0
22929,9077,US,128706,46.5477777778,-96.9386111111,,Census,City,ND,"Walcott, North Dakota",0,0,0,0,0,0,0,0,0,0,53,0,0,0,0.0,0,0,0.0,166.0,186.0,178.0,189.0,235.0
22939,28255,US,93166,46.81,-102.66,,Census,US County,ND,"Stark County, North Dakota",0,0,0,0,0,0,0,0,0,0,2304,7621,12504,13542,15340.0,15414,16137,18451.0,19613.0,23697.0,22832.0,22636.0,24199.0
23086,23198,US,128824,47.4038888889,-97.0605555556,,Census,City,ND,"Hillsboro, North Dakota",0,0,0,0,0,0,0,0,0,0,715,1172,1237,1183,1317.0,1338,1331,1278.0,1309.0,1600.0,1488.0,1563.0,1603.0
23117,25884,US,93207,48.81,-103.49,,Census,US County,ND,"Divide County, North Dakota",0,0,0,0,0,0,0,0,0,0,0,0,6015,9637,9636.0,7086,5967,5566.0,4564.0,3494.0,2899.0,2283.0,2071.0
23233,11454,US,128651,47.765,-98.1763888889,,Census,City,ND,"McVille, North Dakota",0,0,0,0,0,0,0,0,0,0,0,0,310,546,513.0,548,626,551.0,583.0,626.0,559.0,470.0,349.0
23246,13817,US,128760,48.8597222222,-99.6152777778,,Census,City,ND,"Rolla, North Dakota",0,0,0,0,0,0,0,0,0,0,255,400,587,675,852.0,1008,1176,1398.0,1458.0,1538.0,1371.0,1417.0,1280.0
23270,31167,US,93204,46.28,-100.24,,Census,US County,ND,"Emmons County, North Dakota",0,0,0,0,0,0,0,0,0,38,1971,4349,9796,11288,12467.0,11699,9715,8462.0,7200.0,5877.0,4830.0,4331.0,3550.0
23338,10132,US,128624,47.4561111111,-101.139722222,,Census,City,ND,"Underwood, North Dakota",0,0,0,0,0,0,0,0,0,0,0,0,422,453,488.0,613,1061,819.0,781.0,1329.0,976.0,812.0,778.0
23507,13184,US,128684,46.5211111111,-97.9291666667,,Census,City,ND,"Fort Ransom, North Dakota",0,0,0,0,0,0,0,0,0,0,0,0,0,0,0.0,0,0,0.0,0.0,99.0,111.0,70.0,77.0
23566,5320,US,128507,48.5825,-98.2294444444,,Census,Unincorporated community,ND,"Hove Mobile Park, North Dakota",0,0,0,0,0,0,0,0,0,0,0,0,0,0,0.0,0,0,0.0,0.0,3.0,2.0,2.0,0.0
23591,16116,US,128432,46.9247222222,-98.0055555556,,Census,City,ND,"Valley City, North Dakota",0,0,0,0,0,0,0,0,0,302,1089,2446,4606,4686,5268.0,5917,6851,7809.0,7843.0,7774.0,7163.0,6826.0,6585.0
23612,9945,US,128605,45.9716666667,-99.8311111111,,Census,City,ND,"Zeeland, North Dakota",0,0,0,0,0,0,0,0,0,0,0,0,193,323,419.0,489,484,427.0,313.0,253.0,197.0,141.0,86.0
23614,26967,US,93216,47.04,-103.37,,Census,US County,ND,"Billings County, North Dakota",0,0,0,0,0,0,0,0,0,1323,170,975,10186,3126,3140.0,2531,1777,1513.0,1198.0,1138.0,1108.0,888.0,783.0
23912,25408,US,93193,48.23,-100.64,,Census,US County,ND,"McHenry County, North Dakota",0,0,0,0,0,0,0,0,0,0,1584,5253,17627,15544,15439.0,14034,12556,11099.0,8977.0,7858.0,6528.0,5987.0,5395.0
23923,26256,US,93190,47.73,-103.39,,Census,US County,ND,"McKenzie County, North Dakota",0,0,0,0,0,0,0,0,0,0,0,0,5720,9544,9709.0,8426,6849,7296.0,6127.0,7132.0,6383.0,5737.0,6360.0
23967,10950,US,150862,47.6716666667,-97.1066666667,,Census,City,ND,"Reynolds, North Dakota",0,0,0,0,0,0,0,0,0,0,0,389,412,389,351.0,315,335,269.0,236.0,309.0,299.0,350.0,301.0
24037,10370,US,128427,46.9313888889,-97.7891666667,,Census,City,ND,"Oriska, North Dakota",0,0,0,0,0,0,0,0,0,0,0,0,0,300,183.0,217,135,148.0,128.0,125.0,103.0,128.0,118.0
24042,9604,US,150863,46.2827777778,-99.3522222222,,Census,City,ND,"Lehr, North Dakota",0,0,0,0,0,0,0,0,0,0,0,0,182,362,458.0,536,394,381.0,287.0,254.0,191.0,114.0,80.0
24050,8963,US,128585,46.3286111111,-99.0952777778,,Census,City,ND,"Fredonia, North Dakota",0,0,0,0,0,0,0,0,0,0,0,0,0,296,394.0,309,268,141.0,100.0,82.0,66.0,51.0,46.0
24066,10201,US,128492,46.6511111111,-97.2455555556,,Census,City,ND,"Leonard, North Dakota",0,0,0,0,0,0,0,0,0,0,0,0,0,0,0.0,0,0,232.0,221.0,289.0,310.0,255.0,223.0
24067,11055,US,128795,47.2516666667,-97.9355555556,,Census,City,ND,"Luverne, North Dakota",0,0,0,0,0,0,0,0,0,0,0,0,0,225,177.0,187,154,109.0,84.0,65.0,41.0,44.0,31.0
24157,10456,US,128801,47.3002777778,-98.7325,,Census,City,ND,"Kensal, North Dakota",0,0,0,0,0,0,0,0,0,0,0,0,456,415,420.0,356,376,334.0,263.0,210.0,191.0,161.0,163.0
24186,29495,US,93201,47.92,-97.45,,Census,US County,ND,"Grand Forks County, North Dakota",0,0,0,0,0,0,0,0,0,6248,18357,24459,27888,28795,31956.0,34518,39448,48677.0,61102.0,66100.0,70683.0,66109.0,66861.0
24188,13387,US,128618,47.8222222222,-101.295555556,,Census,City,ND,"Max, North Dakota",0,0,0,0,0,0,0,0,0,0,0,0,285,473,500.0,423,465,410.0,301.0,330.0,301.0,278.0,334.0
24260,8186,US,128498,46.8163888889,-96.8355555556,,Census,City,ND,"Prairie Rose, North Dakota",0,0,0,0,0,0,0,0,0,0,0,0,0,0,0.0,0,0,0.0,0.0,76.0,78.0,68.0,73.0
24271,10086,US,128616,47.5425,-101.223055556,,Census,City,ND,"Coleharbor, North Dakota",0,0,0,0,0,0,0,0,0,0,0,0,0,0,0.0,0,315,210.0,112.0,150.0,88.0,106.0,79.0
24289,10275,US,128703,46.1652777778,-96.9780555556,,Census,City,ND,"Mantador, North Dakota",0,0,0,0,0,0,0,0,0,0,0,0,0,0,0.0,0,138,98.0,95.0,76.0,77.0,71.0,64.0
24365,23100,US,128668,48.9663888889,-97.2452777778,,Census,City,ND,"Pembina, North Dakota",0,0,0,0,0,0,0,0,0,287,670,929,717,802,551.0,703,640,625.0,741.0,673.0,642.0,642.0,592.0
24567,22379,US,93179,47.11,-101.35,,Census,US County,ND,"Oliver County, North Dakota",0,0,0,0,0,0,0,0,0,0,464,990,3577,4425,4262.0,3859,3091,2610.0,2322.0,2495.0,2381.0,2065.0,1846.0
24702,9256,US,128421,46.6794444444,-97.9702777778,,Census,City,ND,"Kathryn, North Dakota",0,0,0,0,0,0,0,0,0,0,0,0,0,289,224.0,229,200,142.0,109.0,95.0,72.0,63.0,52.0
24808,11025,US,128433,47.1705555556,-98.46,,Census,City,ND,"Wimbledon, North Dakota",0,0,0,0,0,0,0,0,0,0,0,226,571,521,421.0,357,449,402.0,337.0,330.0,275.0,237.0,216.0
24981,9665,US,128566,47.3138888889,-98.1883333333,,Census,City,ND,"Hannaford, North Dakota",0,0,0,0,0,0,0,0,0,0,0,0,340,431,351.0,405,313,277.0,244.0,201.0,204.0,181.0,131.0
24983,11106,US,128419,47.1891666667,-98.2022222222,,Census,City,ND,"Dazey, North Dakota",0,0,0,0,0,0,0,0,0,0,0,0,265,293,251.0,215,196,226.0,128.0,143.0,129.0,91.0,104.0
25014,10094,US,128441,47.9611111111,-99.5294444444,,Census,City,ND,"Maddock, North Dakota",0,0,0,0,0,0,0,0,0,0,0,0,374,557,631.0,691,741,740.0,708.0,677.0,559.0,498.0,382.0
25127,15146,US,128423,47.1055555556,-98.3163888889,,Census,City,ND,"Leal, North Dakota",0,0,0,0,0,0,0,0,0,0,0,0,0,88,105.0,102,72,70.0,41.0,45.0,35.0,36.0,20.0
25160,9816,US,128471,48.5619444444,-102.646111111,,Census,City,ND,"Powers Lake, North Dakota",0,0,0,0,0,0,0,0,0,0,0,0,0,251,382.0,464,565,633.0,523.0,466.0,408.0,309.0,280.0
25161,24142,US,93158,47.58,-99.67,,Census,US County,ND,"Wells County, North Dakota",0,0,0,0,0,0,0,0,0,0,1212,8310,11814,12957,13285.0,11198,10417,9237.0,7847.0,6979.0,5864.0,5102.0,4207.0
25206,10608,US,128702,46.0747222222,-97.1497222222,,Census,City,ND,"Lidgerwood, North Dakota",0,0,0,0,0,0,0,0,0,0,0,585,1019,1065,1029.0,1042,1147,1081.0,1000.0,971.0,799.0,738.0,652.0
25219,11564,US,128634,46.455,-101.233055556,,Census,City,ND,"Flasher, North Dakota",0,0,0,0,0,0,0,0,0,0,0,0,0,287,346.0,387,413,515.0,467.0,410.0,317.0,285.0,232.0
25266,12723,US,128775,47.4841666667,-100.442222222,,Census,City,ND,"McClusky, North Dakota",0,0,0,0,0,0,0,0,0,0,0,0,517,646,719.0,924,850,751.0,664.0,658.0,492.0,415.0,380.0
25362,6683,US,128757,48.8605555556,-100.017777778,,Census,Cdp,ND,"East Dunseith, North Dakota",0,0,0,0,0,0,0,0,0,0,0,0,0,0,0.0,0,0,0.0,0.0,0.0,260.0,219.0,500.0
25501,9903,US,128675,48.2688888889,-99.1963888889,,Census,City,ND,"Churchs Ferry, North Dakota",0,0,0,0,0,0,0,0,0,0,0,264,457,353,295.0,244,223,161.0,139.0,139.0,118.0,77.0,12.0
25548,9404,US,128473,47.1572222222,-100.529444444,,Census,City,ND,"Regan, North Dakota",0,0,0,0,0,0,0,0,0,0,0,0,0,202,162.0,149,129,104.0,74.0,71.0,51.0,43.0,43.0
25565,9898,US,128570,46.8672222222,-99.7525,,Census,City,ND,"Dawson, North Dakota",0,0,0,0,0,0,0,0,0,0,0,0,0,298,306.0,263,280,206.0,131.0,144.0,78.0,75.0,61.0
25570,28319,US,93184,48.2,-102.37,,Census,US County,ND,"Mountrail County, North Dakota",0,0,0,0,0,0,0,0,0,0,0,0,8491,12140,13544.0,10482,9418,10077.0,8437.0,7679.0,7021.0,6631.0,7673.0
25580,12072,US,128489,46.7597222222,-96.9041666667,,Census,City,ND,"Horace, North Dakota",0,0,0,0,0,0,0,0,0,0,0,0,0,0,0.0,0,190,178.0,276.0,494.0,662.0,915.0,2430.0
25631,17049,US,128661,48.7952777778,-97.6233333333,,Census,City,ND,"Cavalier, North Dakota",0,0,0,0,0,0,0,0,0,0,0,671,652,819,850.0,1105,1459,1423.0,1381.0,1505.0,1508.0,1537.0,1302.0
25637,9455,US,128806,46.6997222222,-98.5875,,Census,City,ND,"Montpelier, North Dakota",0,0,0,0,0,0,0,0,0,0,0,0,0,186,165.0,133,105,97.0,116.0,96.0,82.0,103.0,87.0
25673,8669,US,128450,48.6911111111,-100.7075,,Census,City,ND,"Kramer, North Dakota",0,0,0,0,0,0,0,0,0,0,0,0,181,172,190.0,220,198,175.0,125.0,84.0,51.0,44.0,29.0
25767,9790,US,128791,46.9022222222,-102.422777778,,Census,City,ND,"Taylor, North Dakota",0,0,0,0,0,0,0,0,0,0,0,0,0,285,263.0,251,258,215.0,162.0,239.0,163.0,150.0,148.0
25789,9018,US,128455,48.7147222222,-100.912777778,,Census,City,ND,"Newburg, North Dakota",0,0,0,0,0,0,0,0,0,0,0,0,102,110,87.0,119,105,158.0,125.0,151.0,104.0,88.0,110.0
25923,13332,US,128460,46.1816666667,-103.400277778,,Census,City,ND,"Bowman, North Dakota",0,0,0,0,0,0,0,0,0,0,0,0,481,767,888.0,967,1382,1730.0,1762.0,2071.0,1741.0,1600.0,1650.0
25965,10184,US,128475,46.7627777778,-97.555,,Census,City,ND,"Alice, North Dakota",0,0,0,0,0,0,0,0,0,0,0,0,0,0,169.0,181,162,124.0,83.0,62.0,62.0,56.0,40.0
26128,9180,US,128758,48.6358333333,-99.6183333333,,Census,City,ND,"Mylo, North Dakota",0,0,0,0,0,0,0,0,0,0,0,0,98,140,134.0,89,110,103.0,51.0,31.0,20.0,19.0,20.0
26190,10686,US,128823,47.6388888889,-97.4577777778,,Census,City,ND,"Hatton, North Dakota",0,0,0,0,0,0,0,0,0,0,0,430,666,828,804.0,933,991,856.0,808.0,787.0,800.0,707.0,777.0
26380,23880,US,93196,46.98,-99.78,,Census,US County,ND,"Kidder County, North Dakota",0,0,0,0,0,0,0,0,0,89,1211,1754,5962,7798,8031.0,6692,6168,5386.0,4362.0,3833.0,3332.0,2753.0,2485.0
26419,9946,US,128633,46.7272222222,-101.506388889,,Census,City,ND,"Almont, North Dakota",0,0,0,0,0,0,0,0,0,0,0,0,0,0,0.0,232,190,190.0,109.0,146.0,117.0,89.0,122.0
26574,25475,US,128538,46.2683333333,-100.232222222,,Census,City,ND,"Linton, North Dakota",0,0,0,0,0,0,0,0,0,0,0,0,644,1011,1192.0,1602,1675,1826.0,1695.0,1561.0,1410.0,1321.0,1097.0
26622,9033,US,128459,48.6041666667,-100.294722222,,Census,City,ND,"Willow City, North Dakota",0,0,0,0,0,0,0,0,0,0,0,476,623,559,577.0,524,595,494.0,403.0,329.0,281.0,221.0,163.0
26812,10330,US,128483,46.7141666667,-97.0677777778,,Census,City,ND,"Davenport, North Dakota",0,0,0,0,0,0,0,0,0,0,437,426,226,214,205.0,147,150,143.0,147.0,195.0,218.0,261.0,252.0
26843,8934,US,128763,46.0747222222,-97.3866666667,,Census,City,ND,"Cayuga, North Dakota",0,0,0,0,0,0,0,0,0,0,0,0,175,182,219.0,196,178,195.0,116.0,75.0,60.0,61.0,27.0
26854,12777,US,128812,48.4886111111,-99.2044444444,,Census,City,ND,"Cando, North Dakota",0,0,0,0,0,0,0,0,0,0,200,1061,1332,1111,1164.0,1282,1530,1566.0,1512.0,1496.0,1564.0,1342.0,1115.0
26964,9912,US,128866,48.345,-103.166388889,,Census,City,ND,"Ray, North Dakota",0,0,0,0,0,0,0,0,0,0,0,0,436,563,621.0,579,721,1049.0,776.0,766.0,603.0,534.0,592.0
27081,27732,US,57252,46.09,-102.53,,Census,US County,ND,"Adams County, North Dakota",0,0,0,0,0,0,0,0,0,0,0,0,5407,5593,6343.0,4664,4910,4449.0,3832.0,3584.0,3174.0,2593.0,2343.0
27083,9350,US,128435,48.0341666667,-99.7641666667,,Census,City,ND,"Esmond, North Dakota",0,0,0,0,0,0,0,0,0,0,0,0,353,343,313.0,449,475,420.0,416.0,337.0,196.0,159.0,100.0
27088,9855,US,128814,48.9522222222,-99.3811111111,,Census,City,ND,"Hansboro, North Dakota",0,0,0,0,0,0,0,0,0,0,0,0,0,218,176.0,196,134,143.0,49.0,43.0,20.0,8.0,12.0
27178,12006,US,128578,46.3594444444,-98.7122222222,,Census,City,ND,"Edgeley, North Dakota",0,0,0,0,0,0,0,0,0,0,0,306,749,803,821.0,803,943,992.0,888.0,843.0,680.0,637.0,563.0
27223,9461,US,128688,48.6158333333,-101.5875,,Census,City,ND,"Grano, North Dakota",0,0,0,0,0,0,0,0,0,0,0,0,325,112,90.0,57,27,14.0,4.0,6.0,9.0,9.0,7.0
27310,17238,US,128640,46.8288888889,-100.891111111,,Census,City,ND,"Mandan, North Dakota",0,0,0,0,0,0,0,0,0,239,1328,1658,3873,4336,5037.0,6685,7298,10525.0,11093.0,15513.0,15177.0,16718.0,18331.0
27367,13001,US,128693,46.4472222222,-96.7294444444,,Census,City,ND,"Abercrombie, North Dakota",0,0,0,0,0,0,0,0,0,0,0,0,299,266,242.0,215,244,244.0,262.0,260.0,252.0,296.0,263.0
27473,8464,US,128626,47.6613888889,-101.845277778,,Census,Cdp,ND,"White Shield, North Dakota",0,0,0,0,0,0,0,0,0,0,0,0,0,0,0.0,0,0,0.0,0.0,0.0,274.0,348.0,336.0
27490,9702,US,128846,48.51,-101.885277778,,Census,City,ND,"Donnybrook, North Dakota",0,0,0,0,0,0,0,0,0,0,0,0,297,267,259.0,215,207,196.0,163.0,139.0,106.0,90.0,59.0
27622,9363,US,128799,47.2230555556,-98.5675,,Census,City,ND,"Courtenay, North Dakota",0,0,0,0,0,0,0,0,0,0,0,0,539,490,350.0,297,229,168.0,125.0,110.0,70.0,53.0,45.0
27790,29618,US,128800,46.9055555556,-98.7030555556,,Census,City,ND,"Jamestown, North Dakota",0,0,0,0,0,0,0,0,0,393,2296,2853,4358,6627,8187.0,8790,10697,15163.0,15385.0,16280.0,15571.0,15527.0,15427.0
27827,5215,US,19105318,48.6033333333,-103.803055556,,Census,Unincorporated community,ND,"Hanks, North Dakota",0,0,0,0,0,0,0,0,0,0,0,0,0,0,213.0,192,115,78.0,13.0,10.0,11.0,0.0,0.0
27871,14712,US,128447,48.9713888889,-101.281944444,,Census,City,ND,"Antler, North Dakota",0,0,0,0,0,0,0,0,0,0,0,0,342,265,318.0,254,217,210.0,135.0,101.0,74.0,47.0,27.0
28102,10875,US,128536,46.0283333333,-99.9986111111,,Census,City,ND,"Hague, North Dakota",0,0,0,0,0,0,0,0,0,0,0,0,183,315,364.0,442,328,197.0,146.0,127.0,109.0,91.0,71.0
28129,10018,US,128619,47.4905555556,-100.711388889,,Census,City,ND,"Mercer, North Dakota",0,0,0,0,0,0,0,0,0,0,0,0,0,0,0.0,0,214,154.0,132.0,134.0,104.0,86.0,94.0
28225,10536,US,128699,46.0544444444,-96.6016666667,,Census,City,ND,"Fairmount, North Dakota",0,0,0,0,0,0,0,0,0,0,91,284,387,706,611.0,705,660,503.0,412.0,480.0,427.0,406.0,367.0
28243,4984,US,27820699,46.8125,-100.828611111,,Census,Township,ND,"Captain's Landing Township, Morton County, North Dakota",0,0,0,0,0,0,0,0,0,0,0,0,0,0,0.0,0,0,0.0,0.0,8.0,138.0,153.0,0.0
28257,11508,US,128780,46.4830555556,-103.322222222,,Census,City,ND,"Amidon, North Dakota",0,0,0,0,0,0,0,0,0,0,0,0,0,145,141.0,102,82,84.0,54.0,43.0,24.0,26.0,20.0
28291,12702,US,128545,46.735,-103.986111111,,Census,City,ND,"Golva, North Dakota",0,0,0,0,0,0,0,0,0,0,0,0,0,0,0.0,0,174,162.0,104.0,101.0,101.0,106.0,61.0
28410,9648,US,128822,47.2694444444,-97.4086111111,,Census,City,ND,"Galesburg, North Dakota",0,0,0,0,0,0,0,0,0,0,0,0,0,0,0.0,0,169,166.0,134.0,165.0,161.0,157.0,108.0
28808,10941,US,28247571,46.1458333333,-96.8136111111,,Census,Township,ND,"Brandenburg Township, Richland County, North Dakota",0,0,0,0,0,0,0,0,0,0,422,552,369,352,372.0,332,268,248.0,206.0,160.0,127.0,142.0,0.0
28818,25545,US,93189,47.61,-101.32,,Census,US County,ND,"McLean County, North Dakota",0,0,0,0,0,0,0,0,0,0,860,4791,14496,17266,17991.0,16082,18824,14030.0,11251.0,12383.0,10457.0,9311.0,8962.0
28955,11699,US,128560,46.4036111111,-101.844722222,,Census,City,ND,"Elgin, North Dakota",0,0,0,0,0,0,0,0,0,0,0,0,0,429,505.0,583,882,944.0,839.0,930.0,765.0,659.0,642.0
29014,12135,US,128597,47.8588888889,-100.512222222,,Census,City,ND,"Kief, North Dakota",0,0,0,0,0,0,0,0,0,0,0,0,0,307,139.0,159,135,97.0,46.0,36.0,24.0,13.0,13.0
29130,15007,US,128464,48.8,-102.25,,Census,City,ND,"Bowbells, North Dakota",0,0,0,0,0,0,0,0,0,0,0,0,651,643,695.0,787,806,687.0,584.0,587.0,498.0,406.0,336.0
29340,9329,US,128850,47.9613888889,-101.805277778,,Census,City,ND,"Makoti, North Dakota",0,0,0,0,0,0,0,0,0,0,0,0,0,283,276.0,212,219,214.0,159.0,199.0,145.0,145.0,154.0
29355,24311,US,93161,47.45,-97.1833333333,,Census,US County,ND,"Traill County, North Dakota",0,0,0,0,0,0,0,0,0,4123,10217,13107,12545,12210,12600.0,12300,11359,10583.0,9571.0,9624.0,8752.0,8477.0,8121.0
29357,8072,US,128468,48.8894444444,-102.860555556,,Census,Census-designated place &amp; unincorporated community,ND,"Larson, North Dakota",0,0,0,0,0,0,0,0,0,0,0,0,0,114,89.0,79,59,62.0,35.0,21.0,26.0,17.0,12.0
29438,9474,US,128420,46.7622222222,-97.7927777778,,Census,City,ND,"Fingal, North Dakota",0,0,0,0,0,0,0,0,0,0,0,0,0,0,324.0,300,210,190.0,166.0,151.0,138.0,133.0,97.0
29671,11844,US,128756,48.8136111111,-100.061666667,,Census,City,ND,"Dunseith, North Dakota",0,0,0,0,0,0,0,0,0,0,0,0,473,374,484.0,719,713,1017.0,811.0,625.0,723.0,739.0,773.0
29766,13427,US,128644,47.9547222222,-102.134444444,,Census,City,ND,"Parshall, North Dakota",0,0,0,0,0,0,0,0,0,0,0,0,0,376,470.0,570,935,1216.0,1246.0,1059.0,943.0,981.0,903.0
29773,9258,US,128697,46.47,-96.8755555556,,Census,City,ND,"Colfax, North Dakota",0,0,0,0,0,0,0,0,0,0,0,0,0,0,0.0,0,0,98.0,70.0,101.0,80.0,91.0,121.0
29838,9565,US,128842,48.3161111111,-101.735833333,,Census,City,ND,"Berthold, North Dakota",0,0,0,0,0,0,0,0,0,0,0,0,454,498,511.0,428,459,431.0,398.0,485.0,409.0,466.0,454.0
29908,9043,US,128854,48.0888888889,-101.052777778,,Census,City,ND,"Sawyer, North Dakota",0,0,0,0,0,0,0,0,0,0,0,0,327,241,206.0,271,264,390.0,373.0,417.0,319.0,377.0,357.0
29960,19670,US,128843,48.2775,-101.427777778,,Census,City,ND,"Burlington, North Dakota",0,0,0,0,0,0,0,0,0,0,0,0,0,300,270.0,200,200,262.0,247.0,762.0,995.0,1096.0,1060.0
29997,11171,US,150860,47.2361111111,-97.0027777778,,Census,City,ND,"Grandin, North Dakota",0,0,0,0,0,0,0,0,0,0,0,0,0,0,172.0,158,156,147.0,187.0,210.0,213.0,181.0,173.0
30074,9567,US,128648,48.3811111111,-102.773055556,,Census,City,ND,"White Earth, North Dakota",0,0,0,0,0,0,0,0,0,0,0,0,264,247,240.0,272,218,208.0,128.0,98.0,73.0,63.0,80.0
30136,8994,US,128657,47.8266666667,-98.4391666667,,Census,City,ND,"Tolna, North Dakota",0,0,0,0,0,0,0,0,0,0,0,0,209,199,174.0,172,281,291.0,247.0,241.0,230.0,202.0,166.0
30218,8882,US,128683,46.4025,-97.8141666667,,Census,City,ND,"Elliott, North Dakota",0,0,0,0,0,0,0,0,0,0,0,0,0,0,106.0,118,87,62.0,50.0,44.0,32.0,44.0,25.0
30269,12186,US,128658,47.115,-101.300277778,,Census,City,ND,"Center, North Dakota",0,0,0,0,0,0,0,0,0,0,0,0,0,0,293.0,509,492,476.0,619.0,900.0,826.0,678.0,571.0
30287,9547,US,128434,48.1833333333,-99.3227777778,,Census,City,ND,"Brinsmade, North Dakota",0,0,0,0,0,0,0,0,0,0,0,0,203,191,199.0,206,136,110.0,36.0,54.0,21.0,29.0,35.0
30334,16958,US,128540,47.45,-99.1238888889,,Census,City,ND,"Carrington, North Dakota",0,0,0,0,0,0,0,0,0,0,0,0,1217,1420,1717.0,1850,2101,2438.0,2491.0,2641.0,2267.0,2268.0,2065.0
30378,9549,US,128430,46.9425,-98.2252777778,,Census,City,ND,"Sanborn, North Dakota",0,0,0,0,0,0,0,0,0,0,227,259,390,391,343.0,366,324,263.0,255.0,237.0,164.0,194.0,192.0
30386,23958,US,93163,48.69,-99.25,,Census,US County,ND,"Towner County, North Dakota",0,0,0,0,0,0,0,0,0,0,1450,6491,8963,8327,8393.0,7200,6360,5624.0,4645.0,4052.0,3627.0,2876.0,2246.0
30480,9302,US,128689,48.8672222222,-101.569444444,,Census,City,ND,"Loraine, North Dakota",0,0,0,0,0,0,0,0,0,0,0,0,0,74,92.0,74,70,54.0,33.0,21.0,15.0,19.0,9.0
30496,9303,US,128577,46.5363888889,-98.4697222222,,Census,City,ND,"Dickey, North Dakota",0,0,0,0,0,0,0,0,0,0,0,0,187,190,168.0,203,165,143.0,118.0,74.0,53.0,57.0,42.0
30582,23281,US,128705,46.27,-96.6105555556,,Census,City,ND,"Wahpeton, North Dakota",0,0,0,0,0,0,0,0,0,400,1510,2228,2467,3069,3176.0,3747,5125,5876.0,7076.0,9064.0,8751.0,8586.0,7766.0
30591,8789,US,128509,48.6377777778,-98.5252777778,,Census,City,ND,"Loma, North Dakota",0,0,0,0,0,0,0,0,0,0,0,0,0,0,293.0,256,53,20.0,85.0,39.0,27.0,21.0,16.0
30718,20427,US,128482,46.9,-97.2105555556,,Census,City,ND,"Casselton, North Dakota",0,0,0,0,0,0,0,0,0,360,840,1207,1553,1538,1253.0,1358,1373,1394.0,1485.0,1661.0,1601.0,1855.0,2329.0
30860,9721,US,128773,47.4761111111,-100.125,,Census,City,ND,"Goodrich, North Dakota",0,0,0,0,0,0,0,0,0,0,0,0,410,476,468.0,476,448,392.0,300.0,288.0,192.0,163.0,98.0
30867,28606,US,93186,46.72,-101.28,,Census,US County,ND,"Morton County, North Dakota",0,0,0,0,0,0,0,0,0,200,4728,8069,25289,18714,19647.0,20184,19295,20992.0,20310.0,25177.0,23700.0,25303.0,27471.0
30869,12689,US,128858,47.6497222222,-99.6261111111,,Census,City,ND,"Fessenden, North Dakota",0,0,0,0,0,0,0,0,0,0,0,0,713,731,738.0,902,917,920.0,815.0,761.0,655.0,625.0,479.0
30930,10416,US,128586,46.6272222222,-99.1433333333,,Census,City,ND,"Gackle, North Dakota",0,0,0,0,0,0,0,0,0,0,0,0,0,424,493.0,537,604,523.0,470.0,456.0,450.0,335.0,310.0
30939,12726,US,128587,46.5047222222,-99.7669444444,,Census,City,ND,"Napoleon, North Dakota",0,0,0,0,0,0,0,0,0,0,0,0,0,554,709.0,982,1070,1078.0,1036.0,1103.0,930.0,857.0,792.0
30964,10199,US,128574,46.8758333333,-99.6336111111,,Census,City,ND,"Tappen, North Dakota",0,0,0,0,0,0,0,0,0,0,0,0,0,182,208.0,323,379,326.0,294.0,271.0,239.0,210.0,197.0
30976,8461,US,128621,47.8377777778,-100.932777778,,Census,City,ND,"Ruso, North Dakota",0,0,0,0,0,0,0,0,0,0,0,0,141,120,104.0,65,37,31.0,15.0,12.0,8.0,6.0,4.0
31093,10917,US,128461,46.1183333333,-103.081111111,,Census,City,ND,"Gascoyne, North Dakota",0,0,0,0,0,0,0,0,0,0,0,0,0,60,97.0,48,76,50.0,34.0,23.0,22.0,23.0,16.0
31149,10399,US,128487,47.1463888889,-96.9672222222,,Census,City,ND,"Gardner, North Dakota",0,0,0,0,0,0,0,0,0,0,0,0,0,0,108.0,103,136,107.0,96.0,94.0,85.0,80.0,74.0
31220,10389,US,128845,48.2569444444,-101.563611111,,Census,City,ND,"Des Lacs, North Dakota",0,0,0,0,0,0,0,0,0,0,0,0,0,188,205.0,197,180,185.0,197.0,212.0,216.0,209.0,204.0
31233,6108,US,128761,48.79751,-99.867638,,Census,Census-designated place &amp; unincorporated community,ND,"Shell Valley, North Dakota",0,0,0,0,0,0,0,0,0,0,0,0,0,0,0.0,0,0,0.0,0.0,0.0,343.0,395.0,1197.0
31274,12549,US,128604,46.2575,-99.5569444444,,Census,City,ND,"Wishek, North Dakota",0,0,0,0,0,0,0,0,0,0,0,0,432,1003,1146.0,1112,1241,1290.0,1275.0,1345.0,1171.0,1122.0,1002.0
31294,10537,US,128606,47.8425,-103.642777778,,Census,City,ND,"Alexander, North Dakota",0,0,0,0,0,0,0,0,0,0,0,0,0,0,386.0,415,302,269.0,208.0,358.0,216.0,217.0,223.0
31310,9142,US,128680,48.3030555556,-98.3647222222,,Census,City,ND,"Lawton, North Dakota",0,0,0,0,0,0,0,0,0,0,0,0,0,227,233.0,210,211,159.0,123.0,101.0,63.0,42.0,30.0
31365,11164,US,128562,46.3730555556,-101.9475,,Census,City,ND,"New Leipzig, North Dakota",0,0,0,0,0,0,0,0,0,0,0,0,0,378,443.0,366,447,390.0,354.0,352.0,326.0,274.0,221.0
31396,9149,US,128444,47.8547222222,-98.7088888889,,Census,City,ND,"Warwick, North Dakota",0,0,0,0,0,0,0,0,0,0,0,0,0,290,249.0,224,155,204.0,168.0,108.0,80.0,75.0,65.0
31424,11519,US,128568,46.54,-102.865555556,,Census,City,ND,"New England, North Dakota",0,0,0,0,0,0,0,0,0,0,0,0,0,613,911.0,895,1117,1095.0,906.0,825.0,663.0,555.0,600.0
31517,24179,US,93194,46.45,-99.48,,Census,US County,ND,"Logan County, North Dakota",0,0,0,0,0,0,0,0,0,0,597,1625,6168,7723,8089.0,7561,6357,5369.0,4245.0,3493.0,2847.0,2308.0,1990.0
