,article_length,country,id,lat,lon,poptype,settlement_type,state,title,y1790,y1800,y1810,y1820,y1830,y1840,y1850,y1860,y1870,y1880,y1890,y1900,y1910,y1920,y1930,y1940,y1950,y1960,y1970,y1980,y1990,y2000,y2010
52,30400,US,125031,40.0191666667,-74.5227777778,Census,census-designated place,NJ,Fort Dix,0,0,0,0,0,0,0,0,0,0,0,0,0,0,0.0,0,0,0.0,26290.0,14297,10205,7464.0,7716.0
77,10665,US,125409,40.381014,-74.513355,Census,Census-designated place,NJ,"Dayton, New Jersey",0,0,0,0,0,0,0,0,0,0,0,0,0,0,0.0,0,0,0.0,0.0,0,4321,6235.0,7063.0
138,44328,US,125229,39.743216,-75.325579,Census,Township,NJ,"Woolwich Township, New Jersey",0,2768,3063,3113,3033,3676,3265,3478,3760,1974,2035,2291,1136,973,1196.0,1193,1343,1235.0,1147.0,1129,1459,3032.0,10200.0
174,46459,US,125165,40.882508,-74.304594,Census,Township,NJ,"Fairfield Township, Essex County, New Jersey",0,0,2235,2020,2004,2184,2377,2688,2727,3167,3638,1619,704,717,989.0,1392,1906,3310.0,6884.0,7987,7615,7063.0,7466.0
219,49964,US,136878,40.817097,-74.085024,Census,Borough,NJ,"East Rutherford, New Jersey",0,0,0,0,0,0,0,0,0,0,1438,2640,4275,5463,7080.0,7268,7438,7769.0,8536.0,7849,7902,8716.0,8913.0
235,9112,US,125770,41.242167,-74.486047,Census,Census-designated place,NJ,"Vernon Valley, New Jersey",0,0,0,0,0,0,0,0,0,0,0,0,0,0,0.0,0,0,0.0,0.0,0,1696,1737.0,1626.0
342,59019,US,125514,40.267,-74.099,Census,Borough,NJ,"Tinton Falls, New Jersey",0,0,0,0,0,0,0,0,0,0,0,0,0,0,0.0,0,3783,7313.0,8395.0,7740,12361,15053.0,17892.0
360,35340,US,125469,40.201391,-74.167839,Census,Borough,NJ,"Farmingdale, New Jersey",0,0,0,0,0,0,0,0,0,0,0,0,416,474,629.0,609,755,959.0,1148.0,1348,1462,1587.0,1329.0
391,39190,US,125683,39.450506,-75.457741,Census,Township,NJ,"Lower Alloways Creek Township, New Jersey",0,0,1182,1217,1223,1252,1423,1471,1483,1373,1308,1242,1252,1084,1063.0,1124,1307,1293.0,1400.0,1547,1858,1851.0,1770.0
501,9994,US,124952,39.594668,-74.888626,Census,Census-designated place,NJ,"Collings Lakes, New Jersey",0,0,0,0,0,0,0,0,0,0,0,0,0,0,0.0,0,0,0.0,0.0,0,2046,1726.0,1706.0
516,97431,US,125712,40.476872,-74.550447,Census,Township,NJ,"Franklin Township, Somerset County, New Jersey",2068,0,2539,3071,3352,3878,3062,3599,3912,3147,2478,2398,2395,2955,5675.0,5912,9601,19858.0,30389.0,31358,42780,50903.0,62300.0
551,85447,US,125454,40.560751,-74.292627,Census,Township,NJ,"Woodbridge Township, New Jersey",3520,0,4247,4226,3969,4821,5141,3987,3717,4099,4665,7631,8948,13423,25266.0,27191,35758,78846.0,98944.0,90074,93086,97203.0,99585.0
594,95057,US,125012,40.918309,-73.950521,Census,Borough,NJ,"Tenafly, New Jersey",0,0,0,0,0,0,0,0,0,1019,1046,1746,2756,3585,5669.0,7413,9651,14264.0,14827.0,13552,13326,13806.0,14488.0
649,44822,US,125123,39.258112,-74.726912,Census,Township,NJ,"Upper Township, New Jersey",0,0,1664,2107,1067,1217,1341,1552,1483,1702,1381,1351,1483,1272,1657.0,1675,1922,2539.0,3413.0,6713,10681,12115.0,12373.0
737,40269,US,125510,40.313433,-74.071686,Census,Township,NJ,"Shrewsbury Township, New Jersey",4673,0,3773,4824,4700,5917,3182,4132,3354,3842,4222,3842,3238,1944,1052.0,1347,1388,1204.0,1164.0,995,1098,1098.0,1141.0
758,42845,US,125032,39.958855,-74.802478,Census,Township,NJ,"Lumberton Township, New Jersey",0,0,0,0,0,0,0,1830,1718,1689,1799,1624,1768,1571,905.0,1007,1325,2833.0,3945.0,5236,6705,10461.0,12559.0
817,75077,US,125175,40.741612,-74.321282,Census,Township,NJ,"Millburn, New Jersey",0,0,0,0,0,0,0,1630,1675,1743,2437,2837,3720,4633,8602.0,11652,14560,18799.0,21089.0,19543,18630,19765.0,20149.0
827,41251,US,125006,40.910694,-74.082895,Census,Township,NJ,"Rochelle Park, New Jersey",0,0,0,0,0,0,0,0,0,1591,1829,1298,1480,2203,1768.0,2511,4483,6119.0,6380.0,5603,5587,5528.0,5530.0
841,48114,US,93449,39.8,-74.96,Census,US County,NJ,"Camden County, New Jersey",0,0,0,0,0,0,25422,34457,46193,62942,87687,107643,142029,190508,252312.0,255727,300743,392035.0,456291.0,471650,502824,508932.0,513657.0
845,10776,US,1305215,40.462445,-74.6744,Census,Census-designated place,NJ,"Belle Mead, New Jersey",0,0,0,0,0,0,0,0,0,0,0,0,0,0,0.0,0,0,0.0,0.0,0,0,0.0,216.0
904,1945,US,14076977,,,Census,Unknown,NJ,"Harrison Township, Hudson County, New Jersey",0,0,0,0,0,0,1114,2063,0,0,0,0,0,0,0.0,0,0,0.0,0.0,0,0,0.0,0.0
925,12614,US,125535,40.873494,-74.736828,Census,Census-designated place,NJ,"Budd Lake, New Jersey",0,0,0,0,0,0,0,0,0,0,0,0,0,0,0.0,0,0,1520.0,3168.0,6523,7272,8100.0,8968.0
937,8783,US,125148,39.47868,-75.13791,Census,Census-designated place,NJ,"Rosenhayn, New Jersey",0,0,0,0,0,0,0,0,0,0,0,0,0,0,0.0,0,0,0.0,0.0,0,1053,1099.0,1098.0
958,9384,US,125415,40.543794,-74.31292,Census,Census-designated place,NJ,"Fords, New Jersey",0,0,0,0,0,0,0,0,0,0,0,0,0,0,0.0,0,0,0.0,0.0,0,14392,15032.0,15187.0
1013,11618,US,125491,40.375327,-74.23281,Census,Census-designated place,NJ,"Morganville, New Jersey",0,0,0,0,0,0,0,0,0,0,0,0,0,0,0.0,0,0,0.0,0.0,0,9841,11255.0,5040.0
1057,44990,US,125048,40.035677,-74.955801,Census,Township,NJ,"Riverside Township, New Jersey",0,0,0,0,0,0,0,0,0,777,1340,2581,4011,6018,7061.0,7072,7199,8474.0,8591.0,7941,7974,7911.0,8079.0
1060,41710,US,125049,40.011932,-75.014735,Census,Borough,NJ,"Riverton, New Jersey",0,0,0,0,0,0,0,0,0,582,1075,1332,1778,2341,2483.0,2354,2761,3324.0,3412.0,3068,2775,2759.0,2779.0
1094,39094,US,125418,40.378025,-74.423066,Census,Borough,NJ,"Helmetta, New Jersey",0,0,0,0,0,0,0,0,0,0,0,447,661,687,801.0,667,580,779.0,955.0,955,1211,1825.0,2178.0
1149,50388,US,125350,40.669591,-74.890548,Census,Borough,NJ,"High Bridge, New Jersey",0,0,0,0,0,0,0,0,0,2209,1935,1377,1545,1795,1860.0,1781,1854,2148.0,2606.0,3435,3886,3776.0,3648.0
1150,64064,US,125234,40.742957,-74.152912,Census,Town,NJ,"Harrison, New Jersey",0,0,0,0,0,0,1344,2556,4129,6898,8328,10596,14498,15721,15601.0,14171,13490,11743.0,11811.0,12242,13425,14424.0,13620.0
1249,29660,US,125091,39.879666,-75.090948,Census,Borough,NJ,"Mount Ephraim, New Jersey",0,0,0,0,0,0,0,0,0,0,0,0,0,0,2319.0,2282,4449,5447.0,5625.0,4863,4517,4495.0,4676.0
1282,46401,US,125591,39.768515,-74.27688,Census,Township,NJ,"Barnegat Township, New Jersey",0,0,0,0,0,0,1759,1918,1923,1024,1063,955,982,803,1037.0,1045,1173,1270.0,1539.0,8702,12235,15270.0,20936.0
1287,59366,US,125708,40.567749,-74.53725,Census,Borough,NJ,"Bound Brook, New Jersey",0,0,0,0,0,0,0,0,556,934,1462,2622,3970,5906,7372.0,7616,8374,10263.0,10450.0,9710,9487,10155.0,10402.0
1316,64476,US,125154,40.795515,-74.16185,Census,Township,NJ,"Belleville, New Jersey",0,0,0,0,0,2466,3514,3969,3644,3004,3487,5987,9891,15660,26974.0,28167,32019,35005.0,37629.0,35367,34213,35928.0,35926.0
1349,37342,US,125092,39.901291,-75.079827,Census,Borough,NJ,"Oaklyn, New Jersey",0,0,0,0,0,0,0,0,0,0,0,0,653,1148,3843.0,3869,4889,4778.0,4626.0,4223,4430,4188.0,4038.0
1373,4227,US,3923672,,,Census,township,NJ,"Union Township, Bergen County, New Jersey",0,0,0,0,0,0,0,957,2057,3104,1560,1590,4076,0,0.0,0,0,0.0,0.0,0,0,0.0,0.0
1377,70205,US,125784,40.62523,-74.237823,Census,City,NJ,"Linden, New Jersey",0,0,0,0,0,0,0,0,1396,1889,2057,1021,2598,8368,21206.0,24115,30644,39931.0,41409.0,37836,36701,39394.0,40499.0
1378,52520,US,125000,40.832337,-74.015134,Census,Borough,NJ,"Ridgefield, New Jersey",0,0,0,0,0,0,0,0,0,0,0,584,966,1560,4671.0,5271,8312,10788.0,11308.0,10294,9996,10830.0,11032.0
1404,54608,US,136883,40.879797,-74.10825,Census,City,NJ,"Garfield, New Jersey",0,0,0,0,0,0,0,0,0,0,1028,3504,10213,19381,29739.0,28044,27550,29253.0,30797.0,26803,26727,29786.0,30487.0
1406,40441,US,125615,40.013119,-74.320356,Census,Borough,NJ,"Lakehurst, New Jersey",0,0,0,0,0,0,0,0,0,592,717,0,0,0,947.0,827,1518,2780.0,2641.0,2908,3078,2522.0,2654.0
1453,10512,US,125431,40.380345,-74.543237,Census,Census-designated place,NJ,"Monmouth Junction, New Jersey",0,0,0,0,0,0,0,0,0,0,0,0,0,0,0.0,0,0,0.0,0.0,2579,1570,2721.0,2887.0
1454,7949,US,125808,40.8647222222,-74.8969444444,Census,Former census-designated place,NJ,"Great Meadows-Vienna, New Jersey",0,0,0,0,0,0,0,0,0,0,0,0,0,0,0.0,0,0,0.0,0.0,0,1108,1264.0,0.0
1499,47235,US,125025,40.013024,-74.947423,Census,Township,NJ,"Delran Township, New Jersey",0,0,0,0,0,0,0,0,0,1760,2267,890,1031,1475,2015.0,1926,2447,5327.0,10065.0,14811,13178,15536.0,16896.0
1515,36438,US,125216,39.693596,-75.253779,Census,Township,NJ,"South Harrison Township, New Jersey",0,0,0,0,0,0,0,0,0,0,971,706,694,583,680.0,686,868,974.0,1226.0,1486,1919,2417.0,3162.0
1525,79013,US,125537,40.740686,-74.38448,Census,Borough,NJ,"Chatham Borough, New Jersey",0,0,0,0,0,0,0,0,0,738,780,1361,1874,2421,3869.0,4888,7391,9517.0,9566.0,8537,8007,8460.0,8962.0
1540,48819,US,125804,40.980156,-74.996849,Census,Township,NJ,"Blairstown, New Jersey",0,0,0,0,0,0,1405,1542,1379,1458,1662,1576,1718,1361,1416.0,1449,1571,1797.0,2189.0,4360,5331,5747.0,5967.0
1612,65538,US,125795,40.695266,-74.269078,Census,Township,NJ,"Union Township, Union County, New Jersey",0,0,1428,1567,1409,1482,1662,1812,2314,2418,2846,4315,3419,3962,16472.0,24730,38004,51499.0,53077.0,50184,50024,54405.0,56642.0
1679,7021,US,416739,40.8455555556,-74.695,Census,Unincorporated community,NJ,"Flanders, New Jersey",0,0,0,0,0,0,0,0,0,0,0,0,0,0,0.0,0,0,0.0,0.0,0,10528,12217.0,12568.0
1693,8601,US,125531,40.305904,-74.338899,Census,Census-designated place,NJ,"Yorketown, New Jersey",0,0,0,0,0,0,0,0,0,0,0,0,0,0,0.0,0,0,0.0,0.0,0,6313,6712.0,6535.0
1709,45401,US,125053,39.818276,-74.651454,Census,Township,NJ,"Tabernacle Township, New Jersey",0,0,0,0,0,0,0,0,0,0,0,0,487,431,460.0,490,1034,1621.0,2103.0,6236,7360,7170.0,6949.0
1720,50541,US,124977,40.9405555556,-73.9966666667,Census,Borough,NJ,"Dumont, New Jersey",0,0,0,0,0,0,0,0,0,0,0,643,1783,2537,5861.0,7556,13013,18882.0,20155.0,18334,17187,17503.0,17479.0
1755,8712,US,125143,39.326293,-75.03062,Census,Census-designated place,NJ,"Laurel Lake, New Jersey",0,0,0,0,0,0,0,0,0,0,0,0,0,0,0.0,0,0,0.0,0.0,0,0,2929.0,2989.0
1832,10586,US,125518,40.236816,-74.028865,Census,Census-designated place,NJ,"Wanamassa, New Jersey",0,0,0,0,0,0,0,0,0,0,0,0,0,0,0.0,0,0,0.0,0.0,0,4530,4551.0,4532.0
1892,92787,US,125378,40.262722,-74.798307,Census,Township,NJ,"Ewing Township, New Jersey",0,0,0,0,0,1017,1480,2079,2477,2412,3129,1333,1889,3475,6942.0,10146,16840,26628.0,32831.0,34842,34185,35707.0,35790.0
1968,77526,US,125129,38.988914,-74.819824,Census,City,NJ,"Wildwood, New Jersey",0,0,0,0,0,0,0,0,0,0,0,150,898,2790,5330.0,5150,5475,4690.0,4110.0,4913,4484,5436.0,5325.0
1998,46841,US,124965,39.310774,-74.526243,Census,Borough,NJ,"Longport, New Jersey",0,0,0,0,0,0,0,0,0,0,0,80,118,200,228.0,303,618,1077.0,1225.0,1249,1224,1054.0,895.0
2035,37934,US,125194,39.790519,-75.240592,Census,Township,NJ,"East Greenwich Township, New Jersey",0,0,0,0,0,0,0,0,0,0,1259,1323,1406,1483,2031.0,2121,2336,2722.0,3280.0,4144,5258,5430.0,9555.0
2048,3909,US,9946798,39.3746,-74.9638,Census,township,NJ,"Landis Township, New Jersey",0,0,0,0,0,0,0,0,7079,3486,3855,4721,6435,10402,14047.0,16525,21418,0.0,0.0,0,0,0.0,0.0
2061,59041,US,125714,40.497692,-74.670505,Census,Township,NJ,"Hillsborough Township, New Jersey",2201,0,2456,2885,2878,2863,3409,3488,3443,3248,2825,2439,2313,5124,2283.0,2645,3875,7584.0,11061.0,19061,28808,36634.0,38303.0
2098,47497,US,136902,40.850183,-74.087068,Census,Borough,NJ,"Wood-Ridge, New Jersey",0,0,0,0,0,0,0,0,0,348,575,582,1043,1923,5159.0,5739,6283,7964.0,8311.0,7929,7506,7644.0,7626.0
2145,35202,US,125142,39.438376,-75.281996,Census,Township,NJ,"Hopewell Township, Cumberland County, New Jersey",0,0,1987,1952,1953,2220,1480,1757,1857,1764,1743,1807,1818,1844,1764.0,2048,2460,3586.0,3970.0,4365,4215,4434.0,4571.0
2146,49233,US,125386,40.356361,-74.812002,Census,Township,NJ,"Hopewell Township, Mercer County, New Jersey",2320,0,2565,2881,3154,3205,3698,3900,4276,4462,4338,3360,3171,3249,3907.0,3738,4731,7818.0,10030.0,10893,11590,16105.0,17304.0
2174,52869,US,125524,40.201604,-74.012057,Census,Borough,NJ,"Bradley Beach, New Jersey",0,0,0,0,0,0,0,0,0,0,0,982,1807,2307,3306.0,3468,3911,4204.0,4163.0,4772,4475,4793.0,4298.0
2175,40165,US,125456,40.235945,-74.002417,Census,Borough,NJ,"Allenhurst, New Jersey",0,0,0,0,0,0,0,0,0,0,0,165,306,343,573.0,520,758,795.0,1012.0,912,759,718.0,496.0
2434,9882,US,125509,40.193067,-74.044461,Census,Census-designated place,NJ,"Shark River Hills, New Jersey",0,0,0,0,0,0,0,0,0,0,0,0,0,0,0.0,0,0,0.0,0.0,0,4228,3878.0,3697.0
2477,61936,US,125387,40.295887,-74.720093,Census,Township,NJ,"Lawrence Township, Mercer County, New Jersey",1032,0,1086,1354,1433,1556,1838,2024,2251,3174,1448,1555,2522,3686,6293.0,6522,8499,13665.0,19567.0,19724,25787,29159.0,33472.0
2514,46437,US,125447,40.486719,-74.279016,Census,City,NJ,"South Amboy, New Jersey",2626,0,3071,3406,3782,1825,2266,3652,4525,3648,4330,6349,7007,7897,8476.0,7802,8422,8422.0,9338.0,8322,7863,7913.0,8631.0
2589,64410,US,125015,40.989032,-74.031872,Census,Borough,NJ,"Westwood, New Jersey",0,0,0,0,0,0,0,0,0,0,0,828,1870,2597,4861.0,5388,6766,9046.0,11105.0,10714,10446,10999.0,10908.0
2591,36453,US,125066,39.807116,-74.924178,Census,Township,NJ,"Berlin Township, New Jersey",0,0,0,0,0,0,0,0,0,0,0,0,1611,2093,1537.0,1771,2013,3363.0,5692.0,5348,5466,5290.0,5357.0
2680,47802,US,125658,40.876235,-74.218886,Census,Township,NJ,"Little Falls, New Jersey",0,0,0,0,0,0,0,0,1282,1404,1890,2908,3750,5161,5161.0,5368,6405,9730.0,11727.0,11496,11294,10855.0,14432.0
2736,75790,US,125176,40.824415,-74.212352,Census,Township,NJ,"Montclair, New Jersey",0,0,0,0,0,0,0,0,2853,5147,8636,13962,21550,28810,42017.0,39807,43927,43129.0,44043.0,38321,37729,38977.0,37669.0
2737,54714,US,125003,40.926766,-74.037468,Census,Borough,NJ,"River Edge, New Jersey",0,0,0,0,0,0,0,0,0,0,0,561,736,1077,2210.0,3287,9204,13264.0,12850.0,11111,10603,10946.0,11340.0
2802,41553,US,125824,40.80865,-74.993421,Census,Township,NJ,"Oxford Township, New Jersey",0,0,2470,3089,3665,2855,1718,2350,2952,4594,4002,3695,3444,2035,1723.0,1548,1489,1657.0,1742.0,1659,1790,2307.0,2514.0
2810,49998,US,125376,40.258944,-74.532793,Census,Township,NJ,"East Windsor Township, New Jersey",0,0,1747,1710,1903,1989,2596,943,1036,916,881,894,941,733,922.0,845,1284,2298.0,11736.0,21041,22353,24919.0,27190.0
2823,8660,US,125496,40.438991,-74.118523,Census,Census-designated place,NJ,"North Middletown, New Jersey",0,0,0,0,0,0,0,0,0,0,0,0,0,0,0.0,0,0,0.0,0.0,0,3160,3165.0,0.0
2852,9505,US,125601,39.955606,-74.35323,Census,Census-designated place,NJ,"Crestwood Village, New Jersey",0,0,0,0,0,0,0,0,0,0,0,0,0,0,0.0,0,0,0.0,0.0,7965,8030,8392.0,7907.0
2958,33718,US,125457,40.178561,-74.590095,Census,Borough,NJ,"Allentown, New Jersey",0,0,0,0,0,0,0,0,0,0,0,695,634,634,706.0,766,931,1393.0,1603.0,1962,1828,1882.0,1828.0
2972,43125,US,124950,39.52917,-74.945205,Census,Borough,NJ,"Buena, New Jersey",0,0,0,0,0,0,0,0,0,0,0,0,0,0,0.0,0,2640,3243.0,3283.0,3642,4441,3873.0,4603.0
2981,34356,US,125699,39.529355,-75.392243,Census,Township,NJ,"Quinton Township, New Jersey",0,0,0,0,0,0,0,0,0,1390,1307,1280,1091,956,1166.0,1313,1821,2440.0,2567.0,2887,2511,2786.0,2666.0
3174,68867,US,125512,40.153,-74.028,Census,Borough,NJ,"Spring Lake, New Jersey",0,0,0,0,0,0,0,0,0,0,0,526,853,1009,1745.0,1650,2008,2922.0,3896.0,4215,3499,3567.0,2993.0
3185,55869,US,124969,39.342066,-74.482818,Census,City,NJ,"Ventnor City, New Jersey",0,0,0,0,0,0,0,0,0,0,0,0,491,2193,6674.0,7905,8158,8688.0,10385.0,11704,11005,12910.0,10650.0
3198,40035,US,125760,41.280864,-74.730427,Unknown,Township,NJ,"Montague Township, New Jersey",0,0,0,0,0,0,0,0,0,0,0,0,0,0,0.0,0,0,0.0,0.0,0,0,0.0,0.0
3278,34396,US,125136,39.459043,-75.131987,Census,Township,NJ,"Deerfield Township, New Jersey",0,0,1889,1903,2417,2621,927,1288,1518,1643,2614,3066,3311,3153,1513.0,1483,1758,2053.0,2464.0,2523,2933,2927.0,3119.0
3280,9630,US,125600,40.038163,-74.28575,Census,Census-designated place,NJ,"Cedar Glen West, New Jersey",0,0,0,0,0,0,0,0,0,0,0,0,0,0,0.0,0,0,0.0,0.0,0,1396,1376.0,1267.0
3286,44888,US,125594,39.576031,-74.251791,Census,Borough,NJ,"Beach Haven, New Jersey",0,0,0,0,0,0,0,0,0,0,0,239,272,329,715.0,746,1050,1041.0,1488.0,1714,1475,1278.0,1170.0
3326,39473,US,136863,39.371058,-74.554822,Census,City,NJ,"Northfield, New Jersey",0,0,0,0,0,0,0,0,0,0,0,0,866,1127,2804.0,2848,3498,5849.0,8646.0,7795,7305,7725.0,8624.0
3331,36032,US,125346,40.700353,-74.939603,Census,Borough,NJ,"Glen Gardner, New Jersey",0,0,0,0,0,0,0,0,0,0,0,0,0,818,554.0,536,654,787.0,874.0,834,1665,1902.0,1704.0
3355,11010,US,125497,40.261486,-74.02655,Census,Census-designated place,NJ,"Oakhurst, New Jersey",0,0,0,0,0,0,0,0,0,0,0,0,0,0,0.0,0,0,0.0,0.0,0,4130,4152.0,3995.0
3414,3671,US,9618208,39.8434,-74.0887,Census,borough,NJ,"Island Beach, New Jersey",0,0,0,0,0,0,0,0,0,0,0,0,0,0,0.0,31,13,11.0,0.0,0,0,0.0,0.0
3434,9243,US,125047,39.932053,-74.952749,Census,Census-designated place,NJ,"Ramblewood, New Jersey",0,0,0,0,0,0,0,0,0,0,0,0,0,0,0.0,0,0,0.0,5558.0,6475,6181,6003.0,5907.0
3462,41757,US,125366,40.405431,-74.974176,Census,Borough,NJ,"Stockton, New Jersey",0,0,0,0,0,0,0,0,0,0,0,590,605,519,556.0,478,488,520.0,619.0,643,629,560.0,538.0
3496,29483,US,2193870,40.350461,-74.659371,Census,Borough,NJ,"Borough of Princeton, New Jersey",0,0,0,0,0,0,0,0,2798,3209,3422,3899,5136,5917,6992.0,7719,12230,11890.0,12311.0,12035,12016,14203.0,12307.0
3568,36019,US,125742,40.974073,-74.802584,Census,Township,NJ,"Green Township, New Jersey",0,0,0,0,801,777,823,1023,868,727,636,627,888,454,539.0,540,596,854.0,1343.0,2450,2709,3220.0,3601.0
3584,7372,US,37080111,40.705109,-75.188281,Census,Census-designated place,NJ,"Delaware Park, New Jersey",0,0,0,0,0,0,0,0,0,0,0,0,0,0,0.0,0,0,0.0,0.0,0,0,0.0,1555.0
3596,74404,US,125774,40.676393,-74.425027,Census,Township,NJ,"Berkeley Heights, New Jersey",0,0,756,768,903,832,1216,1308,934,781,839,469,526,954,1899.0,2194,3466,8721.0,13078.0,12549,11980,13407.0,13183.0
3598,6552,US,38574136,40.93989,-74.717073,Census,Census-designated place,NJ,"Byram Center, New Jersey",0,0,0,0,0,0,0,0,0,0,0,0,0,0,0.0,0,0,0.0,0.0,0,0,0.0,90.0
3601,48996,US,125178,40.864496,-74.259989,Census,Borough,NJ,"North Caldwell, New Jersey",0,0,0,0,0,0,0,0,0,0,0,297,595,683,1492.0,1572,1781,4163.0,6733.0,5832,6706,7375.0,6183.0
3602,147312,US,125011,40.890317,-74.011478,Census,Township,NJ,"Teaneck, New Jersey",0,0,0,0,0,0,0,0,0,0,0,768,2082,4192,16513.0,25275,33772,42085.0,42355.0,39007,37825,39260.0,39776.0
3621,62729,US,125146,39.390094,-75.054797,Census,City,NJ,"Millville, New Jersey",0,0,1032,1010,1559,1771,2332,3932,6101,7660,10002,10583,12451,14691,14705.0,14806,16041,19096.0,21366.0,24815,25992,26847.0,28400.0
3634,74374,US,125655,40.862137,-74.160393,Census,City,NJ,"Clifton, New Jersey",0,0,0,0,0,0,0,0,0,0,0,0,11869,26470,46875.0,48827,64511,82084.0,82437.0,74388,71742,78672.0,84136.0
3700,13005,US,125422,40.413404,-74.562457,Census,Census-designated place,NJ,"Kendall Park, New Jersey",0,0,0,0,0,0,0,0,0,0,0,0,0,0,0.0,0,0,0.0,7412.0,7419,7127,9006.0,9339.0
3718,21379,US,125758,41.012138,-74.672558,Unknown,Census-designated place,NJ,"Lake Mohawk, New Jersey",0,0,0,0,0,0,0,0,0,0,0,0,0,0,0.0,0,0,0.0,0.0,0,0,0.0,0.0
3736,32690,US,125716,40.499817,-74.595876,Census,Borough,NJ,"Millstone, New Jersey",0,0,0,0,0,0,0,0,0,0,0,200,157,178,187.0,252,289,409.0,630.0,530,450,410.0,418.0
3776,37029,US,125065,39.792059,-74.936986,Census,Borough,NJ,"Berlin, New Jersey",0,0,0,0,0,0,0,0,0,0,0,0,0,0,1955.0,1753,2339,3578.0,4997.0,5786,5672,6149.0,7588.0
3808,63725,US,124972,40.968149,-73.91715,Census,Borough,NJ,"Alpine, New Jersey",0,0,0,0,0,0,0,0,0,0,0,268,377,350,521.0,626,644,921.0,1344.0,1549,1716,2183.0,1849.0
3876,40663,US,125344,40.531218,-75.051368,Census,Borough,NJ,"Frenchtown, New Jersey",0,0,0,0,0,0,0,0,912,1039,1023,1029,984,1104,1189.0,1238,1305,1340.0,1459.0,1573,1528,1488.0,1373.0
3899,37014,US,125372,40.379051,-74.887735,Census,Township,NJ,"West Amwell Township, New Jersey",0,0,0,0,0,0,1175,1089,1030,1039,866,839,866,735,788.0,975,1213,1683.0,2142.0,2299,2251,2383.0,3840.0
3912,77576,US,125239,40.75372,-74.120875,Census,Town,NJ,"Kearny, New Jersey",0,0,0,0,0,0,0,0,0,777,7064,10896,18659,26724,40716.0,39467,39952,37472.0,37585.0,35735,34874,40513.0,40684.0
3945,46921,US,125249,40.665036,-75.011935,Census,Township,NJ,"Bethlehem Township, New Jersey",1335,0,1728,2002,2032,2370,2746,1859,2211,2830,2308,1634,980,798,735.0,791,857,1090.0,1385.0,3045,3104,3820.0,3979.0
4053,72221,US,125084,39.895437,-75.034294,Census,Borough,NJ,"Haddonfield, New Jersey",0,0,0,0,0,0,944,0,1075,1480,2502,2776,4142,5646,8857.0,9742,10495,13201.0,13118.0,12337,11628,11669.0,11593.0
4068,33217,US,125735,41.030051,-74.727124,Census,Township,NJ,"Andover Township, New Jersey",0,0,0,0,0,0,0,0,1126,1150,1126,987,521,473,496.0,591,1052,2177.0,3040.0,4506,5438,6033.0,6319.0
4075,36753,US,125807,40.959486,-74.895154,Census,Township,NJ,"Frelinghuysen Township, New Jersey",0,0,0,0,0,0,1277,1297,1113,1042,879,797,1074,682,696.0,715,779,845.0,1118.0,1435,1779,2083.0,2230.0
4113,10446,US,29625900,40.806004,-75.001467,Census,Census-designated place,NJ,"Oxford (CDP), New Jersey",0,0,0,0,0,0,0,0,0,0,0,0,0,0,0.0,0,0,0.0,0.0,0,1767,2283.0,1090.0
4134,43729,US,125703,39.650178,-75.326233,Census,Borough,NJ,"Woodstown, New Jersey",0,0,0,0,0,0,0,0,0,490,1516,1371,1613,1589,1832.0,2027,2345,2942.0,3137.0,3250,3154,3136.0,3505.0
4136,52211,US,125356,40.368563,-74.943049,Census,City,NJ,"Lambertville, New Jersey",0,0,0,0,0,0,1417,2699,3842,4183,4142,4637,4657,4660,4518.0,4447,4477,4269.0,4359.0,4044,3927,3868.0,3906.0
4157,8404,US,136983,40.114713,-74.150158,Census,Census-designated place,NJ,"Ramtown, New Jersey",0,0,0,0,0,0,0,0,0,0,0,0,0,0,0.0,0,0,0.0,0.0,0,0,5932.0,6242.0
4204,8197,US,15921748,40.01181,-74.67116,Census,Census-designated place,NJ,"Juliustown, New Jersey",0,0,0,0,0,0,0,0,0,0,0,0,0,0,0.0,0,0,0.0,0.0,0,0,0.0,429.0
4208,30294,US,124958,39.353933,-74.775135,Census,City,NJ,"Estell Manor, New Jersey",0,0,0,0,0,0,0,0,0,0,0,0,0,0,423.0,406,381,496.0,539.0,848,1404,1585.0,1735.0
4227,85233,US,125038,39.995351,-74.786452,Census,Township,NJ,"Mount Holly, New Jersey",0,3559,4171,4833,5516,6813,3031,3322,4018,4630,5376,5168,5652,5901,6573.0,6892,8206,13271.0,12713.0,10818,10639,10728.0,9536.0
4295,62467,US,125558,40.913225,-74.354864,Census,Township,NJ,"Montville, New Jersey",0,0,0,0,0,0,0,0,1403,1270,1333,1908,1944,1515,2467.0,3207,4159,6772.0,11846.0,14290,15600,20839.0,21528.0
4307,35571,US,125029,40.136133,-74.729878,Census,Borough,NJ,"Fieldsboro, New Jersey",0,0,0,0,0,0,0,0,0,0,0,459,480,530,493.0,537,589,583.0,615.0,597,579,522.0,540.0
4313,57134,US,125499,40.21182,-74.006944,Census,Census-designated place,NJ,"Ocean Grove, New Jersey",0,0,0,0,0,0,0,0,0,620,2754,0,0,0,0.0,0,0,0.0,0.0,0,4818,4256.0,3342.0
4327,37239,US,124959,39.594537,-74.843972,Census,Borough,NJ,"Folsom, New Jersey",0,0,0,0,0,0,0,0,0,0,0,0,232,217,219.0,229,292,482.0,1767.0,1892,2181,1972.0,1885.0
4420,39995,US,125580,40.895786,-74.517431,Census,Borough,NJ,"Rockaway, New Jersey",0,0,0,0,0,0,0,0,0,0,0,1483,1902,2655,3132.0,3514,3812,5413.0,6383.0,6852,6243,6473.0,6438.0
4459,54160,US,125213,39.839975,-75.23996,Census,Borough,NJ,"Paulsboro, New Jersey",0,0,0,0,0,0,0,0,0,750,1131,0,2121,4352,7121.0,7011,7842,8121.0,8084.0,6944,6577,6160.0,6097.0
4490,33967,US,125088,39.817228,-74.98889,Census,Borough,NJ,"Lindenwold, New Jersey",0,0,0,0,0,0,0,0,0,0,0,0,0,0,2523.0,2552,3479,7335.0,12199.0,18196,18734,17414.0,17613.0
4495,39771,US,125713,40.603832,-74.483208,Census,Township,NJ,"Green Brook Township, New Jersey",0,0,0,0,0,0,0,0,0,3217,4250,654,886,1116,544.0,763,1155,3622.0,4302.0,4640,4460,5654.0,7203.0
4541,37788,US,125223,39.868922,-75.131584,Census,Borough,NJ,"Westville, New Jersey",0,0,0,0,0,0,0,0,0,0,0,0,0,2380,3462.0,3585,4731,4951.0,5170.0,4786,4573,4500.0,4288.0
4546,41532,US,125560,40.841134,-74.472877,Census,Borough,NJ,"Morris Plains, New Jersey",0,0,0,0,0,0,0,0,0,0,0,0,0,0,1713.0,2018,2707,4703.0,5540.0,5305,5219,5236.0,5532.0
4564,81621,US,124989,41.082746,-74.187451,Census,Township,NJ,"Mahwah, New Jersey",0,0,0,0,0,0,2274,2352,2632,2920,2373,2610,1881,2081,3536.0,3908,4880,7376.0,10800.0,12127,17905,24062.0,25890.0
4568,42620,US,125462,40.105062,-74.062755,Census,Borough,NJ,"Brielle, New Jersey",0,0,0,0,0,0,0,0,0,0,0,0,0,392,684.0,961,1328,2619.0,3594.0,4068,4406,4893.0,4774.0
4570,53760,US,125426,40.542445,-74.362767,Census,Borough,NJ,"Metuchen, New Jersey",0,0,0,0,0,0,0,0,0,0,770,770,2138,3334,5748.0,6557,9879,14041.0,16031.0,13762,12804,12840.0,13574.0
4584,11293,US,125389,40.2311111111,-74.6752777778,Census,Former census-designated place,NJ,"Mercerville-Hamilton Square, New Jersey",0,0,0,0,0,0,0,0,0,0,0,0,0,0,0.0,0,0,0.0,24465.0,25446,26873,26419.0,0.0
4608,52058,US,93438,40.28,-74.7,Census,US County,NJ,"Mercer County, New Jersey",0,0,0,0,0,21502,27992,37419,46386,58061,79978,95365,125657,159881,187143.0,197318,229781,266392.0,304116.0,307863,325824,350761.0,366513.0
4611,9468,US,7737246,40.453121,-74.576459,Census,Census-designated place,NJ,"Pleasant Plains, New Jersey",0,0,0,0,0,0,0,0,0,0,0,0,0,0,0.0,0,0,0.0,0.0,0,0,0.0,922.0
4635,73124,US,125710,40.593138,-74.604731,Census,Township,NJ,"Bridgewater Township, New Jersey",2578,0,2906,3147,3549,3986,4070,4947,2082,1912,1444,1601,1742,1934,3352.0,4934,8234,15789.0,30235.0,29175,32509,42940.0,44464.0
4646,36082,US,125765,40.912976,-74.702914,Census,Borough,NJ,"Stanhope, New Jersey",0,0,0,0,0,0,0,0,0,0,0,0,1031,1031,1089.0,1100,1351,1814.0,3040.0,3638,3393,3584.0,3610.0
4672,49121,US,125540,40.776312,-74.687645,Census,Township,NJ,"Chester Township, New Jersey",0,0,1175,1212,1334,1328,1334,1558,1743,2337,1625,1409,1251,1195,1453.0,874,1297,2107.0,4265.0,5198,5958,7282.0,7838.0
4675,8979,US,125441,40.333922,-74.566133,Census,Census-designated place,NJ,"Princeton Meadows, New Jersey",0,0,0,0,0,0,0,0,0,0,0,0,0,0,0.0,0,0,0.0,0.0,0,0,13436.0,13834.0
4778,38081,US,125570,40.920851,-74.640828,Census,Borough,NJ,"Mount Arlington, New Jersey",0,0,0,0,0,0,0,0,0,0,0,275,277,213,306.0,456,639,1246.0,3590.0,4251,3630,4663.0,5050.0
4805,71113,US,125018,40.149824,-74.707642,Census,City,NJ,"Bordentown, New Jersey",0,0,0,0,0,0,2725,1130,0,4258,4232,4110,4250,4371,4405.0,4223,5497,4974.0,4490.0,4441,4341,3969.0,3924.0
4823,45803,US,125233,40.792784,-74.004572,Census,Town,NJ,"Guttenberg, New Jersey",0,0,0,0,0,0,0,0,0,1206,1927,3825,5647,6726,6535.0,6200,5566,5118.0,5754.0,7340,8268,10807.0,11176.0
4846,62748,US,125016,41.025977,-74.061061,Census,Borough,NJ,"Woodcliff Lake, New Jersey",0,0,0,0,0,0,0,0,0,0,0,329,470,587,871.0,1037,1420,2742.0,5506.0,5644,5303,5745.0,5730.0
4861,36819,US,125754,41.120964,-74.564328,Unknown,Township,NJ,"Hardyston Township, New Jersey",0,0,0,0,0,0,0,0,0,0,0,0,0,0,0.0,0,0,0.0,0.0,0,0,0.0,0.0
4902,36241,US,125475,40.234313,-74.015939,Census,Borough,NJ,"Interlaken, New Jersey",0,0,0,0,0,0,0,0,0,0,0,0,0,0,545.0,787,833,1168.0,1182.0,1037,910,900.0,820.0
4936,33273,US,125579,40.995495,-74.315648,Census,Borough,NJ,"Riverdale, New Jersey",0,0,0,0,0,0,0,0,0,0,0,0,0,0,1052.0,1110,1352,2596.0,2729.0,2530,2370,2498.0,3559.0
4966,72012,US,125102,39.848539,-74.953498,Census,Township,NJ,"Voorhees Township, New Jersey",0,0,0,0,0,0,0,0,0,0,0,969,1174,1305,1405.0,1450,1823,3784.0,6214.0,12919,24559,28126.0,29131.0
4969,192056,US,21648,,,Census,US State,NJ,New Jersey,184139,211149,245562,277575,320823,373306,489555,672035,906096,1131116,1444933,1883669,2537167,3155900,4041334.0,4160165,4835329,6066782.0,7168164.0,7364823,7730188,8414350.0,8791894.0
4974,51121,US,124949,39.427291,-74.389617,Census,City,NJ,"Brigantine, New Jersey",0,0,0,0,0,0,0,0,0,0,0,99,67,12,357.0,403,1267,4201.0,6741.0,8318,11354,12594.0,9450.0
4988,9006,US,125687,39.538101,-75.176334,Census,Census-designated place,NJ,"Olivet, New Jersey",0,0,0,0,0,0,0,0,0,0,0,0,0,0,0.0,0,0,0.0,0.0,0,1315,1420.0,1408.0
5057,10896,US,125030,40.1169444444,-74.7947222222,Census,Former census-designated place,NJ,"Florence-Roebling, New Jersey",0,0,0,0,0,0,0,0,0,0,0,0,0,0,0.0,0,0,0.0,7551.0,7677,8564,8200.0,0.0
5065,36420,US,125817,40.86974,-74.938064,Census,Township,NJ,"Liberty Township, New Jersey",0,0,0,0,0,0,0,0,0,0,0,0,0,0,419.0,441,529,760.0,1229.0,1730,2493,2765.0,2942.0
5082,181963,US,67234,40.72422,-74.172574,Census,City,NJ,"Newark, New Jersey",0,0,8008,6507,10953,17290,38894,71941,105059,136508,181830,246070,347469,414524,442337.0,429760,438776,405220.0,381930.0,329248,275221,273546.0,277140.0
5085,81979,US,25436099,39.904611,-74.997,Census,Township,NJ,"Cherry Hill, New Jersey",0,0,0,0,0,0,2577,1602,1625,1481,1457,1679,1706,2331,5734.0,5811,10358,31522.0,64395.0,68785,69348,69965.0,71045.0
5152,51280,US,125476,40.448279,-74.145823,Census,Borough,NJ,"Keansburg, New Jersey",0,0,0,0,0,0,0,0,0,0,0,0,0,1321,2190.0,2904,5559,6854.0,9720.0,10613,11069,10732.0,10105.0
5173,21952,US,125067,39.799065,-75.063111,Census,Census-designated place,NJ,"Blackwood, New Jersey",0,0,0,0,0,0,0,0,0,0,0,0,0,0,0.0,0,0,0.0,0.0,5219,5120,4692.0,4545.0
5245,79883,US,125241,40.781958,-74.067649,Census,Town,NJ,"Secaucus, New Jersey",0,0,0,0,0,0,0,0,0,0,0,1625,4740,5423,8950.0,9754,9750,12154.0,13228.0,13719,14061,15931.0,16264.0
5248,37275,US,125663,40.963618,-74.185281,Census,Borough,NJ,"North Haledon, New Jersey",0,0,0,0,0,0,0,0,0,0,0,0,749,887,2157.0,2761,3550,6026.0,7614.0,8177,7987,7920.0,8417.0
5273,66118,US,125397,40.290253,-74.627673,Census,Township,NJ,"West Windsor Township, New Jersey",0,0,1714,1918,2129,1536,1596,1497,1428,1396,1329,1279,1342,1389,1711.0,2160,2519,4016.0,6431.0,8542,16021,21907.0,27165.0
5295,41292,US,125064,39.866356,-75.09467,Census,Borough,NJ,"Bellmawr, New Jersey",0,0,0,0,0,0,0,0,0,0,0,0,0,0,1123.0,1250,5213,11853.0,15618.0,13721,12603,11262.0,11583.0
5318,43196,US,125121,39.04167,-74.768777,Census,Borough,NJ,"Stone Harbor, New Jersey",0,0,0,0,0,0,0,0,0,0,0,0,0,159,363.0,383,670,834.0,1089.0,1187,1025,1128.0,866.0
5319,12622,US,4052417,39.494939,-74.478633,Census,Census-designated place,NJ,"Smithville, Atlantic County, New Jersey",0,0,0,0,0,0,0,0,0,0,0,0,0,0,0.0,0,0,0.0,0.0,0,0,0.0,7242.0
5383,8989,US,125622,40.037777,-74.168192,Census,Census-designated place,NJ,"Leisure Village East, New Jersey",0,0,0,0,0,0,0,0,0,0,0,0,0,0,0.0,0,0,0.0,0.0,0,1989,4597.0,4217.0
5416,15014,US,125401,40.584334,-74.271626,Census,Census-designated place,NJ,"Avenel, New Jersey",0,0,0,0,0,0,0,0,0,0,0,0,0,0,0.0,0,0,0.0,0.0,0,15504,17552.0,17011.0
5467,43256,US,125221,39.79056,-75.148161,Census,Borough,NJ,"Wenonah, New Jersey",0,0,0,0,0,0,0,0,0,166,383,498,645,918,1245.0,1311,1511,2100.0,2364.0,2303,2331,2317.0,2278.0
5511,12164,US,125119,39.019051,-74.87787,Census,Census-designated place,NJ,"Rio Grande, New Jersey",0,0,0,0,0,0,0,0,0,0,0,0,0,0,0.0,0,0,0.0,0.0,0,2505,2444.0,2670.0
5531,10376,US,4386220,40.496445,-74.565986,Census,Census-designated place,NJ,"East Millstone, New Jersey",0,0,0,0,0,0,0,0,0,432,475,447,356,427,364.0,387,0,0.0,0.0,0,0,0.0,579.0
5576,39954,US,93448,,,Census,US County,NJ,"Cape May County, New Jersey",2571,3066,3632,4265,4936,5324,6433,7130,8349,9765,11268,13201,19745,19460,29486.0,28919,37131,48555.0,59554.0,82266,95089,102326.0,97265.0
5614,51252,US,125541,40.888479,-74.488377,Census,Township,NJ,"Denville Township, New Jersey",0,0,0,0,0,0,0,0,0,0,0,0,0,1205,2162.0,3117,6055,10632.0,14045.0,14380,13812,15824.0,16635.0
5626,40647,US,124948,39.423563,-74.493025,Census,City,NJ,"Absecon, New Jersey",0,0,0,0,0,0,0,0,0,507,501,530,781,702,2158.0,2084,2355,4320.0,6094.0,6859,7298,7638.0,8411.0
5691,42595,US,125694,39.54265,-75.129901,Unknown,Township,NJ,"Pittsgrove Township, New Jersey",0,0,0,0,0,0,0,0,0,0,0,0,0,0,0.0,0,0,0.0,0.0,0,0,0.0,0.0
5709,42572,US,125571,40.865767,-74.743029,Census,Township,NJ,"Mount Olive Township, New Jersey",0,0,0,0,0,0,0,0,0,1982,1848,1221,1160,1008,1235.0,1526,2597,3807.0,10394.0,18748,21282,24193.0,28117.0
5785,12027,US,4212512,40.439868,-74.598319,Census,Census-designated place,NJ,"Griggstown, New Jersey",0,0,0,0,0,0,0,0,0,0,0,0,0,0,0.0,0,0,0.0,0.0,0,0,0.0,819.0
5795,36002,US,125557,40.878175,-74.60078,Census,Township,NJ,"Mine Hill Township, New Jersey",0,0,0,0,0,0,0,0,0,0,0,0,0,0,1422.0,1541,1951,3362.0,3557.0,3325,3333,3679.0,3651.0
5810,35137,US,125072,39.803179,-74.984209,Census,Borough,NJ,"Clementon, New Jersey",0,0,0,0,0,0,0,0,0,0,0,0,2794,3491,2605.0,2866,3191,3766.0,4492.0,5764,5601,4986.0,5000.0
5839,22828,US,3142592,40.534573,-74.572191,Census,Census-designated place,NJ,"Zarephath, New Jersey",0,0,0,0,0,0,0,0,0,0,0,0,0,0,0.0,0,0,0.0,0.0,0,0,0.0,37.0
5903,78190,US,125156,40.809128,-74.187155,Census,Township,NJ,"Bloomfield, New Jersey",0,0,0,3085,4309,2528,3385,4790,4580,5748,7708,9668,15070,22019,38077.0,41623,49307,51867.0,52029.0,47792,45061,47683.0,47315.0
5937,8824,US,125620,40.018055,-74.28963,Census,Census-designated place,NJ,"Leisure Knoll, New Jersey",0,0,0,0,0,0,0,0,0,0,0,0,0,0,0.0,0,0,0.0,0.0,0,2707,2467.0,2490.0
5958,5587,US,9371619,,,Census,township,NJ,"Centre Township, New Jersey",0,0,0,0,0,0,0,1305,1718,1538,1834,2192,3200,4004,0.0,0,0,0.0,0.0,0,0,0.0,0.0
6042,7976,US,125191,39.750105,-75.36482,Census,Census-designated place,NJ,"Beckett, New Jersey",0,0,0,0,0,0,0,0,0,0,0,0,0,0,0.0,0,0,0.0,0.0,0,3815,4726.0,4847.0
6060,101483,US,125001,40.981591,-74.113506,Census,Village,NJ,"Ridgewood, New Jersey",0,0,0,0,0,0,0,0,0,0,1047,2685,5416,7580,12188.0,14948,17481,25391.0,27547.0,25208,24152,24936.0,24958.0
6082,66987,US,93436,,,Census,US County,NJ,"Monmouth County, New Jersey",16918,19872,22150,25038,29233,32909,30313,39346,46195,55538,69128,82057,94734,104925,147209.0,161238,225327,334401.0,461849.0,503173,553124,615301.0,630380.0
6085,9049,US,125646,39.961716,-74.235938,Census,Census-designated place,NJ,"Silver Ridge, New Jersey",0,0,0,0,0,0,0,0,0,0,0,0,0,0,0.0,0,0,0.0,0.0,0,1138,1211.0,1133.0
6203,42637,US,125117,39.004328,-74.799458,Census,City,NJ,"North Wildwood, New Jersey",0,0,0,0,0,0,0,0,0,0,161,161,833,807,2049.0,1921,3158,3598.0,3914.0,4714,5017,4935.0,4041.0
6337,58557,US,125220,39.748424,-75.069092,Census,Township,NJ,"Washington Township, Gloucester County, New Jersey",0,0,0,0,0,1545,2114,1307,1567,1366,1155,1252,1396,1460,2068.0,2048,2496,4923.0,15741.0,27878,41960,47114.0,48559.0
6406,29596,US,125126,39.000598,-74.823573,Census,Borough,NJ,"West Wildwood, New Jersey",0,0,0,0,0,0,0,0,0,0,0,0,0,0,178.0,146,237,207.0,235.0,360,453,448.0,603.0
6520,166637,US,125484,40.342931,-74.257197,Census,Township,NJ,"Marlboro Township, New Jersey",0,0,0,0,0,0,1564,2083,2231,2193,1913,1747,1754,1710,1992.0,5015,6359,8038.0,12273.0,17560,27974,36398.0,40191.0
6538,31322,US,125089,39.856184,-75.036471,Census,Borough,NJ,"Magnolia, New Jersey",0,0,0,0,0,0,0,0,0,0,0,0,0,1245,1522.0,1552,1883,4199.0,5893.0,4881,4861,4409.0,4341.0
6602,10059,US,125128,39.0375,-74.8611111111,Census,Former census-designated place,NJ,"Whitesboro-Burleigh, New Jersey",0,0,0,0,0,0,0,0,0,0,0,0,0,0,0.0,0,0,0.0,0.0,0,2080,1836.0,0.0
6653,58087,US,125159,40.839244,-74.276999,Census,Borough,NJ,"Caldwell, New Jersey",0,0,0,0,0,0,0,0,0,0,0,1367,2236,3776,5144.0,4932,6270,6942.0,8677.0,7624,7549,7584.0,7822.0
6667,45974,US,125516,40.153659,-74.527536,Census,Township,NJ,"Upper Freehold Township, New Jersey",3442,0,3843,4541,4826,5026,2566,3198,3640,3236,2861,2112,2053,1737,1867.0,1839,2193,2363.0,2551.0,2750,3277,4282.0,6902.0
6689,134784,US,124997,40.947309,-74.070989,Census,Borough,NJ,"Paramus, New Jersey",0,0,0,0,0,0,0,0,0,0,0,889,779,1321,2649.0,3688,6268,23238.0,28381.0,26474,25067,25737.0,26342.0
6725,12467,US,136907,39.973499,-74.569492,Census,Census-designated place,NJ,"Browns Mills, New Jersey",0,0,0,0,0,0,0,0,0,0,0,0,0,0,0.0,0,0,0.0,7144.0,10568,11429,11257.0,11223.0
6744,47790,US,125705,40.673089,-74.686325,Census,Township,NJ,"Bedminster, New Jersey",1197,0,1312,1393,1453,1589,1826,1996,1881,1813,1749,1925,2375,1088,1374.0,1606,1613,2322.0,2597.0,2469,7086,8302.0,8165.0
6798,43608,US,125428,40.450239,-74.434786,Census,Borough,NJ,"Milltown, New Jersey",0,0,0,0,0,0,0,0,0,0,0,561,1584,2573,2994.0,3515,3786,5435.0,6470.0,7136,6968,7000.0,6893.0
6824,81002,US,84548,40.656391,-74.30483,Census,Township,NJ,"Cranford, New Jersey",0,0,0,0,0,0,0,0,0,1184,1717,2854,3641,6001,11126.0,12860,18602,26424.0,27391.0,24573,22633,22578.0,22625.0
6853,41480,US,125460,40.191418,-74.015105,Census,Borough,NJ,"Avon-by-the-Sea, New Jersey",0,0,0,0,0,0,0,0,0,0,0,0,426,647,1220.0,1211,1650,1707.0,2163.0,2337,2165,2244.0,1901.0
6858,80418,US,125153,39.465007,-74.997115,Census,City,NJ,"Vineland, New Jersey",0,0,0,0,0,0,0,0,7079,6005,7677,9091,11717,16834,21603.0,24439,29573,37685.0,47399.0,53753,54780,56271.0,60724.0
6896,12267,US,125633,39.600412,-74.211614,Census,Census-designated place,NJ,"North Beach Haven, New Jersey",0,0,0,0,0,0,0,0,0,0,0,0,0,0,0.0,0,0,0.0,0.0,2652,2413,2427.0,2235.0
6915,8082,US,125219,39.630558,-74.969218,Census,Census-designated place,NJ,"Victory Lakes, New Jersey",0,0,0,0,0,0,0,0,0,0,0,0,0,0,0.0,0,0,0.0,0.0,0,2160,2118.0,2111.0
6959,41958,US,125809,40.675626,-75.121504,Census,Township,NJ,"Greenwich Township, Warren County, New Jersey",0,0,2528,2335,4486,2902,3726,2541,2587,2554,825,909,904,1050,1141.0,1125,1217,1397.0,1482.0,1738,1899,4365.0,5712.0
7015,47517,US,124994,40.992252,-73.95091,Census,Borough,NJ,"Norwood, New Jersey",0,0,0,0,0,0,0,0,0,0,0,400,564,820,1358.0,1512,1792,2852.0,4398.0,4413,4858,5751.0,5711.0
7016,39993,US,93452,39.47,-74.64,Census,US County,NJ,"Atlantic County, New Jersey",0,0,0,0,0,8726,8961,11786,14093,18704,28836,46402,71894,83914,124823.0,124066,132399,160880.0,175043.0,194119,224327,252552.0,274549.0
7024,41644,US,125555,40.769739,-74.598813,Census,Borough,NJ,"Mendham Borough, New Jersey",0,0,0,0,0,0,0,0,0,0,0,0,1129,969,1278.0,1343,1724,2371.0,3729.0,4899,4890,5097.0,4981.0
7116,32772,US,125741,41.024675,-74.818224,Census,Township,NJ,"Fredon Township, New Jersey",0,0,0,0,0,0,0,0,0,0,0,0,457,269,412.0,478,584,804.0,1372.0,2281,2763,2860.0,3437.0
7125,14183,US,125635,39.741788,-74.280983,Census,Census-designated place,NJ,"Ocean Acres, New Jersey",0,0,0,0,0,0,0,0,0,0,0,0,0,0,0.0,0,0,0.0,0.0,4850,5587,13155.0,16142.0
7227,47781,US,124971,41.032669,-74.133826,Census,Borough,NJ,"Allendale, New Jersey",0,0,0,0,0,0,0,0,0,0,0,694,937,1165,1730.0,2058,2409,4092.0,6240.0,5901,5900,6699.0,6505.0
7259,10946,US,38170985,,,Census,Borough,NJ,"Vineland Borough, New Jersey",0,0,0,0,0,0,0,0,0,2519,3822,4370,5282,6432,7556.0,7914,8155,0.0,0.0,0,0,0.0,0.0
7284,38088,US,125342,40.569033,-74.931227,Census,Township,NJ,"Franklin Township, Hunterdon County, New Jersey",0,0,0,0,0,0,1454,1552,1342,1338,1287,1258,1099,980,1100.0,1211,1255,1777.0,2154.0,2294,2851,2990.0,3195.0
7290,49656,US,93433,39.87,-74.25,Census,US County,NJ,"Ocean County, New Jersey",0,0,0,0,0,0,10032,11176,13628,14455,15974,19747,21318,22155,33069.0,37706,56622,108241.0,208470.0,346038,433203,510916.0,576567.0
7305,78851,US,125056,40.02795,-74.886984,Census,Township,NJ,"Willingboro Township, New Jersey",0,495,619,787,782,900,1596,643,750,743,739,673,562,601,613.0,642,852,11861.0,43386.0,39912,36291,33008.0,31629.0
7306,9564,US,125621,40.043765,-74.186217,Census,Census-designated place,NJ,"Leisure Village, New Jersey",0,0,0,0,0,0,0,0,0,0,0,0,0,0,0.0,0,0,0.0,0.0,0,4295,4443.0,4400.0
7327,33965,US,125087,39.867196,-75.028807,Census,Borough,NJ,"Lawnside, New Jersey",0,0,0,0,0,0,0,0,0,0,0,0,0,0,1379.0,1270,1566,2155.0,2757.0,3042,2841,2692.0,2945.0
7356,72499,US,125179,40.820568,-74.156079,Census,Township,NJ,"Nutley, New Jersey",0,0,0,0,0,0,0,0,0,1617,2007,3682,6009,9421,20572.0,21954,26992,29513.0,31913.0,28998,27099,27362.0,28370.0
7365,15013,US,125632,40.065119,-74.52704,Census,Census-designated place,NJ,"New Egypt, New Jersey",0,0,0,0,0,0,0,0,0,632,556,0,0,0,0.0,0,0,0.0,0.0,0,2327,2519.0,2512.0
7377,112969,US,125433,40.486678,-74.444414,Census,City,NJ,"New Brunswick, New Jersey",0,0,0,0,0,5866,10019,11256,15058,17166,18603,20005,23388,32779,34555.0,33180,38811,40139.0,41885.0,41442,41711,48573.0,55181.0
7431,59595,US,124984,41.007127,-74.045119,Census,Borough,NJ,"Hillsdale, New Jersey",0,0,0,0,0,0,0,0,0,0,0,891,1072,1720,2959.0,3438,4127,8734.0,11768.0,10495,9750,10087.0,10219.0
7434,117526,US,29226889,39.994314,-74.166214,Census,Township,NJ,"Toms River, New Jersey",910,0,1882,1916,2898,2752,2385,2378,3044,2489,2609,2618,2452,2198,3970.0,5165,7707,17414.0,43751.0,64455,76371,89706.0,91239.0
7506,72731,US,124982,41.007529,-74.205652,Census,Borough,NJ,"Franklin Lakes, New Jersey",0,0,0,0,0,0,0,0,0,0,0,375,445,383,893.0,1203,2021,3316.0,7550.0,8769,9873,10422.0,10590.0
7520,45403,US,125396,40.224723,-74.594025,Census,Township,NJ,"Robbinsville Township, New Jersey",0,0,0,0,0,0,0,1279,1294,1281,1126,1157,1090,1161,1347.0,1365,1843,2156.0,3311.0,3487,5815,10275.0,13642.0
7529,36500,US,125111,39.206513,-74.818417,Census,Township,NJ,"Dennis Township, New Jersey",0,0,0,0,1513,1350,1604,1558,1640,1812,1707,2778,1751,1639,1615.0,1877,1981,2327.0,2635.0,3989,5574,6492.0,6467.0
7568,9717,US,125113,38.996931,-74.891122,Census,Census-designated place,NJ,"Erma, New Jersey",0,0,0,0,0,0,0,0,0,0,0,0,0,0,0.0,0,0,0.0,0.0,0,2045,2088.0,2134.0
7581,60938,US,93434,,,Census,US County,NJ,"Morris County, New Jersey",16216,17750,21828,21368,23666,25844,30158,34677,43137,50861,54101,65156,74704,82694,110445.0,125732,164371,261620.0,383454.0,407630,421353,470212.0,492276.0
7585,63425,US,125498,40.254412,-74.031937,Census,Township,NJ,"Ocean Township, Monmouth County, New Jersey",0,0,0,0,0,0,3768,4346,6189,2194,2978,4251,1377,1581,2892.0,4200,6734,11622.0,18643.0,23570,25058,26959.0,27291.0
7604,45613,US,136866,39.3888,-74.514263,Census,City,NJ,"Pleasantville, New Jersey",0,0,0,0,0,0,0,0,0,0,0,2182,4390,5887,11580.0,11050,11938,15172.0,14007.0,13435,16027,19012.0,20249.0
7645,36285,US,125010,40.864785,-74.0481,Census,Township,NJ,"South Hackensack, New Jersey",0,0,0,0,0,0,0,0,0,0,0,229,693,987,1294.0,1241,1503,1841.0,2412.0,2229,2106,2249.0,2378.0
7653,53880,US,125528,40.358927,-73.974343,Census,Borough,NJ,"Sea Bright, New Jersey",0,0,0,0,0,0,0,0,0,0,0,1198,1220,856,899.0,779,999,1138.0,1339.0,1812,1693,1818.0,1412.0
7694,8499,US,125402,40.399361,-74.29555,Census,Census-designated place,NJ,"Brownville, New Jersey",0,0,0,0,0,0,0,0,0,0,0,0,0,0,0.0,0,0,0.0,0.0,0,0,2660.0,2383.0
7853,43067,US,136871,39.534381,-74.476981,Census,City,NJ,"Port Republic, New Jersey",0,0,0,0,0,0,0,0,0,0,0,0,405,340,373.0,402,423,561.0,586.0,837,992,1037.0,1115.0
7900,51055,US,125766,41.074125,-74.868878,Census,Township,NJ,"Stillwater Township, New Jersey",0,0,0,0,1381,1476,1742,1816,1632,1502,1296,1108,796,671,706.0,679,816,1339.0,2158.0,3887,4253,4267.0,4099.0
7948,60650,US,125764,41.052354,-74.62788,Census,Township,NJ,"Sparta Township, New Jersey",0,0,0,0,0,0,1919,2062,2032,2274,1724,2070,1579,1017,1316.0,1729,3021,6717.0,10819.0,13333,15157,18080.0,19722.0
8030,42943,US,125525,40.249701,-73.997458,Census,Borough,NJ,"Deal, New Jersey",0,0,0,0,0,0,0,0,0,0,0,70,273,420,800.0,917,1064,1889.0,2401.0,1952,1179,1070.0,750.0
8062,37982,US,125192,39.663756,-75.077505,Census,Borough,NJ,"Clayton, New Jersey",0,0,0,0,0,0,0,2490,3674,1981,2299,1989,1926,1905,2351.0,2320,3023,4711.0,5193.0,6013,6155,7139.0,8179.0
8073,9024,US,125519,40.170665,-74.037579,Census,Census-designated place,NJ,"West Belmar, New Jersey",0,0,0,0,0,0,0,0,0,0,0,0,0,0,0.0,0,0,0.0,0.0,0,2498,2606.0,2493.0
8090,246260,US,102775,39.94,-75.105,Census,City,NJ,"Camden, New Jersey",0,0,0,0,0,3371,9479,14358,20045,41659,58313,75935,94538,116309,118700.0,117536,124555,117159.0,102551.0,84910,87492,79318.0,77344.0
8092,58948,US,125568,40.8856,-74.559163,Census,Town,NJ,"Dover, New Jersey",0,0,0,0,0,0,0,0,0,2958,0,5938,7468,9803,10031.0,10491,11174,13034.0,15039.0,14681,15115,18188.0,18157.0
8143,47058,US,125549,40.983803,-74.385388,Census,Borough,NJ,"Kinnelon, New Jersey",0,0,0,0,0,0,0,0,0,0,0,0,0,0,428.0,745,1350,4431.0,7600.0,7770,8470,9365.0,10248.0
8234,57738,US,125464,40.293934,-74.168299,Census,Township,NJ,"Colts Neck Township, New Jersey",0,0,0,0,0,0,1498,1692,1713,1743,1505,1410,1205,1074,1241.0,1177,1814,2177.0,5819.0,7888,8559,12331.0,10142.0
8270,62591,US,125161,40.858023,-74.229791,Census,Township,NJ,"Cedar Grove, New Jersey",0,0,0,0,0,0,0,0,0,0,0,2139,2409,3181,4793.0,5208,8022,14603.0,15582.0,12600,12053,12300.0,12411.0
8283,11170,US,17161374,40.527045,-74.56718,Census,Census-designated place,NJ,"Weston, New Jersey",0,0,0,0,0,0,0,0,0,0,0,0,0,0,0.0,0,0,0.0,0.0,0,0,0.0,1235.0
8320,6746,US,25013482,40.001605,-74.258977,Census,Census-designated place,NJ,"Pine Lake Park, New Jersey",0,0,0,0,0,0,0,0,0,0,0,0,0,0,0.0,0,0,0.0,0.0,0,0,0.0,8707.0
8401,90409,US,136889,40.863391,-73.988471,Census,Borough,NJ,"Leonia, New Jersey",0,0,0,0,0,0,0,0,0,0,0,804,1486,2979,5350.0,5763,7378,8384.0,8847.0,8027,8365,8914.0,8937.0
8423,7602,US,37080356,40.697399,-75.145302,Census,Census-designated place,NJ,"Lopatcong Overlook, New Jersey",0,0,0,0,0,0,0,0,0,0,0,0,0,0,0.0,0,0,0.0,0.0,0,0,0.0,734.0
8465,43464,US,125556,40.797859,-74.564186,Census,Township,NJ,"Mendham Township, New Jersey",0,0,1277,1326,1315,1378,1723,1660,1573,1526,1266,1600,792,699,1003.0,1079,1380,2256.0,3697.0,4488,4537,5400.0,5869.0
8471,96571,US,136898,40.820314,-74.106041,Census,Borough,NJ,"Rutherford, New Jersey",0,0,0,0,0,0,0,0,0,2299,2293,4411,7045,9497,14915.0,15466,17411,20473.0,20802.0,19068,17790,18110.0,18061.0
8549,52102,US,136901,41.063157,-74.099976,Census,Borough,NJ,"Upper Saddle River, New Jersey",0,0,0,0,0,0,0,0,0,0,0,326,273,251,347.0,510,706,3570.0,7949.0,7958,7198,7741.0,8208.0
8648,9288,US,3535705,39.561534,-75.34928,Census,Census-designated place,NJ,"Alloway (CDP), New Jersey",0,0,0,0,0,0,0,0,0,0,0,0,0,0,0.0,0,0,0.0,0.0,0,1371,1128.0,1402.0
8668,13840,US,4075184,40.469914,-74.532222,Census,Census-designated place,NJ,"Six Mile Run, New Jersey",0,0,0,0,0,0,0,0,0,0,0,0,0,0,0.0,0,0,0.0,0.0,0,0,0.0,3184.0
8762,41196,US,125256,40.441616,-74.957987,Census,Township,NJ,"Delaware Township, Hunterdon County, New Jersey",0,0,0,0,0,2305,2554,2838,2959,3092,3037,1953,1740,1705,1704.0,1756,2031,2485.0,3249.0,3816,4512,4478.0,4563.0
8782,10919,US,125116,38.976427,-74.951503,Census,Census-designated place,NJ,"North Cape May, New Jersey",0,0,0,0,0,0,0,0,0,0,0,0,0,0,0.0,0,0,0.0,3812.0,4029,3574,3618.0,3226.0
8812,35763,US,125596,39.928405,-74.202189,Census,Borough,NJ,"Beachwood, New Jersey",0,0,0,0,0,0,0,0,0,0,0,0,0,20,394.0,650,1251,2765.0,4390.0,7687,9324,10375.0,11045.0
8845,5317,US,9566808,40.161493,-74.022789,Census,Borough,NJ,"North Spring Lake, New Jersey",0,0,0,0,0,0,0,0,0,0,277,361,0,0,0.0,0,0,0.0,0.0,0,0,0.0,0.0
8884,50238,US,125187,40.847227,-74.294427,Census,Township,NJ,"West Caldwell, New Jersey",0,0,0,0,0,0,0,0,0,0,0,0,494,1085,2911.0,3458,4666,8314.0,11913.0,11407,10422,11233.0,10759.0
8940,45939,US,125050,39.78495,-74.71645,Census,Township,NJ,"Shamong Township, New Jersey",0,0,0,0,0,0,0,1008,1149,1097,958,910,483,414,475.0,505,712,774.0,1318.0,4537,5765,6462.0,6490.0
8941,11420,US,1577199,41.174024,-74.455183,Census,Census-designated place,NJ,"Highland Lakes, New Jersey",0,0,0,0,0,0,0,0,0,0,0,0,0,0,0.0,0,0,0.0,0.0,2888,4550,5051.0,4933.0
8999,65786,US,125470,40.260219,-74.275884,Census,Borough,NJ,"Freehold Borough, New Jersey",0,0,0,0,0,0,0,0,0,2432,2932,2934,3233,4768,6894.0,6952,7550,9140.0,10545.0,10020,10742,10976.0,12052.0
9028,79665,US,125671,40.945855,-74.245077,Census,Township,NJ,"Wayne, New Jersey",0,0,0,0,0,0,1162,1355,1521,1757,2004,1985,2281,2302,4469.0,6868,11822,29353.0,49141.0,46474,47025,54069.0,54717.0
9031,37288,US,125619,39.969474,-74.07188,Census,Borough,NJ,"Lavallette, New Jersey",0,0,0,0,0,0,0,0,0,0,0,21,42,117,287.0,315,567,832.0,1509.0,2072,2299,2665.0,1875.0
9035,10543,US,125395,40.263194,-74.487843,Census,Census-designated place,NJ,"Twin Rivers, New Jersey",0,0,0,0,0,0,0,0,0,0,0,0,0,0,0.0,0,0,0.0,0.0,7742,7715,7422.0,7443.0
9039,160174,US,57843,40.223748,-74.764001,Census,City,NJ,"Trenton, New Jersey",1946,0,3000,3942,3925,4035,6461,17228,22874,29910,57458,73307,96815,119289,123356.0,124697,128009,114167.0,104638.0,92124,88675,85403.0,84913.0
9061,8722,US,125149,39.501155,-75.220355,Census,Census-designated place,NJ,"Seabrook Farms, New Jersey",0,0,0,0,0,0,0,0,0,0,0,0,0,0,0.0,0,0,0.0,0.0,0,1457,1719.0,1484.0
9093,8786,US,125609,39.954094,-74.237294,Census,Census-designated place,NJ,"Holiday City South, New Jersey",0,0,0,0,0,0,0,0,0,0,0,0,0,0,0.0,0,0,0.0,0.0,0,5452,4047.0,3689.0
9103,34193,US,125210,39.867297,-75.185621,Census,Borough,NJ,"National Park, New Jersey",0,0,0,0,0,0,0,0,0,0,0,0,325,1000,1828.0,1977,2419,3380.0,3730.0,3552,3413,3205.0,3036.0
9124,44375,US,125408,40.313448,-74.520224,Census,Township,NJ,"Cranbury, New Jersey",0,0,0,0,0,0,0,0,0,1509,1422,1428,1424,1083,1278.0,1342,1797,2001.0,2253.0,1927,2500,3227.0,3857.0
9161,55608,US,125044,39.958575,-74.604632,Census,Township,NJ,"Pemberton Township, New Jersey",0,0,0,0,0,0,2866,2672,1946,2086,1805,1493,1679,1444,1929.0,2386,4751,13726.0,19754.0,29720,31342,28691.0,27912.0
9227,38453,US,125584,40.876145,-74.543502,Census,Borough,NJ,"Victory Gardens, New Jersey",0,0,0,0,0,0,0,0,0,0,0,0,0,0,0.0,0,0,1085.0,1027.0,1043,1314,1546.0,1649.0
9265,70208,US,125598,40.061736,-74.10962,Census,Township,NJ,"Brick Township, New Jersey",0,0,0,0,0,0,1558,1835,2724,2990,4065,2130,2177,2084,1172.0,1376,4319,16299.0,35057.0,53629,66473,76119.0,75072.0
9268,52355,US,125493,40.212438,-74.054017,Census,Township,NJ,"Neptune Township, New Jersey",0,0,0,0,0,0,0,0,0,4187,8333,7943,5551,6470,10625.0,10207,13613,21487.0,27863.0,28366,28148,27690.0,27935.0
9295,64459,US,125674,41.09652,-74.39945,Census,Township,NJ,"West Milford, New Jersey",0,0,0,0,0,2108,2624,2402,2660,2591,2486,2112,1967,1763,1901.0,2501,3650,8157.0,17304.0,22750,25430,26410.0,25850.0
9343,48647,US,125368,40.690862,-74.772045,Census,Township,NJ,"Tewksbury Township, New Jersey",0,0,1308,1490,1659,1944,2301,2333,2327,2108,2034,1883,1742,1279,1119.0,1200,1439,1908.0,2959.0,4094,4803,5541.0,5993.0
9350,51181,US,125668,41.103963,-74.271138,Census,Borough,NJ,"Ringwood, New Jersey",0,0,0,0,0,0,0,0,0,0,0,0,0,1025,1038.0,977,1752,4182.0,10393.0,12625,12623,12396.0,12228.0
9383,38814,US,124951,39.513087,-74.880028,Census,Township,NJ,"Buena Vista Township, New Jersey",0,0,0,0,0,0,0,0,948,885,1299,1646,2723,3647,4176.0,4067,2106,3915.0,4239.0,6959,7655,7436.0,7570.0
9391,35302,US,93431,41.03,-74.3,Census,US County,NJ,"Passaic County, New Jersey",0,0,0,0,0,16734,22569,29013,46416,68860,105046,155202,215902,259174,302129.0,309353,337093,406618.0,460782.0,447585,453060,489049.0,501226.0
9480,51576,US,124986,40.877915,-74.0825,Census,Borough,NJ,"Lodi, New Jersey",0,0,0,0,0,0,0,0,0,986,998,1917,4138,8175,11549.0,11552,15392,23502.0,25163.0,23956,22355,23971.0,24136.0
9492,58504,US,125614,39.855153,-74.267152,Census,Township,NJ,"Lacey Township, New Jersey",0,0,0,0,0,0,0,0,0,814,711,718,602,504,692.0,752,966,1940.0,4616.0,14161,22141,25346.0,27644.0
9775,31246,US,125250,40.655107,-75.080197,Census,Borough,NJ,"Bloomsbury, New Jersey",0,0,0,0,0,0,0,0,0,0,0,0,600,650,639.0,704,722,838.0,879.0,864,890,886.0,870.0
9793,2332,US,4458453,,,Census,Unknown,NJ,"Clementon Township, New Jersey",0,0,0,0,0,0,0,0,0,0,0,0,2794,3491,0.0,0,0,0.0,0.0,0,0,0.0,0.0
9887,105765,US,125244,40.768903,-74.015427,Census,Township,NJ,"Weehawken, New Jersey",0,0,0,0,0,0,0,280,597,1102,1943,5325,11228,14485,14807.0,14363,14830,13504.0,13383.0,13168,12385,13501.0,12554.0
9910,15514,US,7088130,40.444481,-74.542572,Census,Unincorporated community,NJ,"Franklin Park, New Jersey",0,0,0,0,0,0,0,0,0,0,0,0,0,0,0.0,0,0,0.0,0.0,0,0,0.0,13295.0
9950,9753,US,125037,39.966524,-74.962526,Census,Census-designated place,NJ,"Moorestown-Lenola, New Jersey",0,0,0,0,0,0,0,0,0,0,0,0,0,0,0.0,0,0,0.0,14179.0,13695,13242,13860.0,14217.0
9974,10450,US,125218,39.766445,-75.062003,Census,Census-designated place,NJ,"Turnersville, New Jersey",0,0,0,0,0,0,0,0,0,0,0,0,0,0,0.0,0,0,0.0,0.0,0,3843,3867.0,3742.0
9981,78434,US,125481,40.295372,-73.989899,Census,City,NJ,"Long Branch, New Jersey",0,0,0,0,0,0,0,0,0,3833,7231,8872,13298,13521,18399.0,17408,23090,26228.0,31774.0,29819,28658,31340.0,30719.0
10087,40228,US,125546,40.737825,-74.495335,Census,Township,NJ,"Harding Township, New Jersey",0,0,0,0,0,0,0,0,0,0,0,0,0,0,1206.0,1565,1970,2683.0,3249.0,3236,3640,3180.0,3838.0
10119,48846,US,124985,40.844332,-74.036164,Census,Borough,NJ,"Little Ferry, New Jersey",0,0,0,0,0,0,0,0,0,58,781,1240,2541,2715,4155.0,4545,4955,6175.0,9064.0,9399,9989,10800.0,10626.0
10191,7929,US,38502544,40.424136,-74.586348,Census,Census-designated place,NJ,"Ten Mile Run, New Jersey",0,0,0,0,0,0,0,0,0,0,0,0,0,0,0.0,0,0,0.0,0.0,0,0,0.0,1959.0
10251,30363,US,125743,41.148442,-74.573466,Census,Borough,NJ,"Hamburg, New Jersey",0,0,0,0,0,0,0,0,0,412,519,0,0,0,1160.0,1116,1305,1532.0,1820.0,1832,2566,3105.0,3277.0
10260,10110,US,125440,40.561643,-74.244018,Census,Census-designated place,NJ,"Port Reading, New Jersey",0,0,0,0,0,0,0,0,0,0,0,0,0,0,0.0,0,0,0.0,0.0,0,3977,3829.0,3728.0
10273,33421,US,136913,39.977956,-74.836334,Census,Township,NJ,"Hainesport Township, New Jersey",0,0,0,0,0,0,0,0,0,0,0,0,0,0,984.0,858,1793,3271.0,2990.0,3236,3249,4126.0,6110.0
10274,42714,US,124968,39.603687,-74.678036,Census,Township,NJ,"Mullica Township, New Jersey",0,0,0,0,0,1056,918,1600,861,717,697,880,811,1166,1425.0,1500,1804,2944.0,3391.0,5243,5896,5912.0,6147.0
10291,47897,US,124996,40.847017,-73.997062,Census,Borough,NJ,"Palisades Park, New Jersey",0,0,0,0,0,0,0,0,0,0,0,644,1411,2633,7065.0,8141,9635,11943.0,13351.0,13732,14536,17073.0,19622.0
10301,77206,US,125576,40.859636,-74.423348,Census,Township,NJ,"Parsippany-Troy Hills, New Jersey",0,0,0,0,0,0,0,0,0,0,0,0,0,0,6631.0,10976,15290,25557.0,55112.0,49868,48478,50649.0,53238.0
10316,10336,US,3527659,40.093975,-74.211478,Census,Census-designated place,NJ,"Lakewood (CDP), New Jersey",0,0,0,0,0,0,0,0,0,0,0,0,0,0,0.0,0,9970,13004.0,17874.0,22863,26095,36065.0,53805.0
10333,10177,US,8126807,40.117217,-74.783817,Census,Census-designated place,NJ,"Roebling, New Jersey",0,0,0,0,0,0,0,0,0,0,0,0,0,0,0.0,0,0,0.0,0.0,0,0,0.0,3715.0
10416,31941,US,125637,39.936058,-74.16979,Census,Borough,NJ,"Pine Beach, New Jersey",0,0,0,0,0,0,0,0,0,0,0,0,0,0,72.0,163,495,985.0,1395.0,1796,1954,1950.0,2127.0
10467,8527,US,1364012,40.483582,-74.567789,Census,Census-designated place,NJ,"Blackwells Mills, New Jersey",0,0,0,0,0,0,0,0,0,0,0,0,0,0,0.0,0,0,0.0,0.0,0,0,0.0,803.0
10536,8848,US,125590,39.753903,-74.221654,Census,Census-designated place,NJ,"Barnegat (CDP), New Jersey",0,0,0,0,0,0,0,0,0,0,0,0,0,0,0.0,0,0,0.0,0.0,0,1160,1690.0,2817.0
10599,42124,US,125776,40.61845,-74.315957,Census,Township,NJ,"Clark, New Jersey",0,0,0,0,0,0,0,0,331,353,367,374,469,794,1474.0,2083,4352,12195.0,18829.0,16699,14629,14597.0,14756.0
10637,47002,US,136985,41.002672,-74.559507,Unknown,Township,NJ,"Jefferson Township, New Jersey",0,0,0,0,0,0,0,0,0,0,0,0,0,0,0.0,0,0,0.0,0.0,0,0,0.0,0.0
10683,53584,US,93444,39.71,-75.14,Census,US County,NJ,"Gloucester County, New Jersey",13363,16115,19744,23089,28431,25438,14655,18444,21562,25886,28649,31905,37368,48224,70802.0,72219,91727,134840.0,172681.0,199917,230082,254673.0,288288.0
10688,66426,US,125009,41.023696,-74.092553,Census,Borough,NJ,"Saddle River, New Jersey",0,0,0,0,0,0,0,0,0,0,0,415,483,506,657.0,816,1003,1776.0,2437.0,2763,2950,3201.0,3152.0
10693,60387,US,125700,39.568236,-75.472553,Census,City,NJ,"Salem, New Jersey",0,0,929,1303,1570,2006,3052,3865,4555,5056,5516,5811,6614,7435,8047.0,8618,9050,8941.0,7648.0,6959,6883,5857.0,5146.0
10702,53879,US,124990,40.902885,-74.063457,Census,Borough,NJ,"Maywood, New Jersey",0,0,0,0,0,0,0,0,0,0,0,536,889,1618,3398.0,4052,8667,11460.0,11087.0,9895,9473,9523.0,9555.0
10708,6141,US,37322074,39.918085,-74.990185,Census,Census-designated place,NJ,"Kingston Estates, New Jersey",0,0,0,0,0,0,0,0,0,0,0,0,0,0,0.0,0,0,0.0,0.0,0,0,0.0,5685.0
10727,43950,US,125656,40.936989,-74.188867,Census,Borough,NJ,"Haledon, New Jersey",0,0,0,0,0,0,0,0,0,0,0,0,2560,3435,4812.0,5303,6204,6161.0,6767.0,6607,6951,8252.0,8318.0
10743,43349,US,136881,40.821054,-74.003061,Census,Borough,NJ,"Fairview, Bergen County, New Jersey",0,0,0,0,0,0,0,0,0,0,0,1003,2441,4882,9067.0,8770,8661,9399.0,10698.0,10519,10733,13255.0,13835.0
10781,46452,US,125828,40.729944,-74.958972,Census,Township,NJ,"Washington Township, Warren County, New Jersey",0,0,0,0,0,0,1567,2634,2160,1452,1304,1249,1023,1004,1007.0,1320,1765,3055.0,3585.0,4243,5367,6248.0,6651.0
10801,39918,US,136892,41.013,-73.948085,Census,Borough,NJ,"Northvale, New Jersey",0,0,0,0,0,0,0,0,0,0,0,387,588,827,1144.0,1159,1455,2892.0,5177.0,5046,4563,4460.0,4640.0
10904,42800,US,136897,41.000241,-73.934068,Census,Borough,NJ,"Rockleigh, New Jersey",0,0,0,0,0,0,0,0,0,0,0,32,44,58,86.0,79,110,430.0,308.0,192,270,391.0,531.0
10917,59082,US,257464,40.988306,-74.064693,Census,Township,NJ,"Washington Township, Bergen County, New Jersey",0,0,0,0,0,1833,1807,2273,2514,2853,2942,782,100,194,402.0,491,1208,6654.0,10577.0,9550,9245,8938.0,9102.0
10929,37382,US,125017,40.064811,-74.921904,Census,City,NJ,"Beverly, New Jersey",0,0,0,0,0,0,0,1220,1418,1759,1957,1950,2140,2562,2864.0,2691,3084,3400.0,3105.0,2919,2973,2661.0,2577.0
10957,25379,US,124967,39.452862,-74.723936,Census,Census-designated place,NJ,"Mays Landing, New Jersey",0,0,0,0,0,0,0,0,0,0,0,0,0,0,0.0,0,0,0.0,0.0,0,2090,2321.0,2135.0
10976,7264,US,32425338,40.338759,-74.294388,Census,Census-designated place,NJ,"Robertsville, New Jersey",0,0,0,0,0,0,0,0,0,0,0,0,0,0,0.0,0,0,0.0,0.0,8461,0,0.0,11927.0
10983,67444,US,125761,41.052742,-74.754787,Census,Town,NJ,"Newton, New Jersey",0,0,0,0,0,0,0,1824,2403,2513,3003,4376,4467,4125,5401.0,5533,5781,6563.0,7297.0,7748,7521,8244.0,7997.0
11018,47286,US,125222,39.842012,-75.185397,Census,Township,NJ,"West Deptford Township, New Jersey",0,0,0,0,0,0,0,0,0,1399,1588,1951,2057,1781,3956.0,4336,5446,11152.0,13928.0,18002,19380,19368.0,21677.0
11029,47741,US,125079,39.891609,-75.1167,Census,City,NJ,"Gloucester City, New Jersey",0,0,0,0,0,0,0,0,3682,5347,6564,6840,9462,12162,13796.0,13692,14357,15511.0,14707.0,13121,12649,11484.0,11456.0
11077,58640,US,125706,40.676573,-74.567956,Census,Township,NJ,"Bernards Township, New Jersey",2377,0,1876,2063,2062,3986,2267,2471,2369,2622,2558,3066,4608,4243,2293.0,4512,7487,9018.0,13305.0,12920,17199,24575.0,26652.0
11251,12589,US,125650,39.994856,-74.187754,Census,Census-designated place,NJ,"Toms River (CDP), New Jersey",0,0,0,0,0,0,0,0,0,0,0,0,0,0,0.0,0,2517,6062.0,7303.0,7465,7524,86327.0,88791.0
11256,58624,US,124976,40.97289,-73.960315,Census,Borough,NJ,"Closter, New Jersey",0,0,0,0,0,0,0,0,0,0,513,1057,1483,1840,2502.0,2603,3376,7767.0,8604.0,8164,8094,8383.0,8373.0
11261,52852,US,125666,41.003095,-74.285455,Census,Borough,NJ,"Pompton Lakes, New Jersey",0,0,0,0,0,0,0,0,0,0,0,847,1060,2008,3104.0,3189,4654,9445.0,11397.0,10660,10539,10640.0,11097.0
11263,35629,US,125135,39.273751,-75.045267,Census,Township,NJ,"Commercial Township, New Jersey",0,0,0,0,0,0,0,0,0,2265,2344,2982,2604,2292,2873.0,2822,3238,3244.0,3667.0,4674,5026,5259.0,5178.0
11326,37382,US,125740,41.108997,-74.588641,Census,Borough,NJ,"Franklin, New Jersey",0,0,0,0,0,0,0,0,0,0,0,0,0,4075,4176.0,4009,3864,3624.0,4236.0,4486,4977,5160.0,5045.0
11347,9590,US,4385719,40.402646,-74.698566,Census,Census-designated place,NJ,"Blawenburg, New Jersey",0,0,0,0,0,0,0,0,0,0,0,0,0,0,0.0,0,0,0.0,0.0,0,0,0.0,216.0
11414,48081,US,125627,39.955518,-74.375563,Census,Township,NJ,"Manchester Township, New Jersey",0,0,0,0,0,0,0,0,1102,1057,1057,1033,1112,1034,1009.0,918,1758,3779.0,7550.0,27987,35976,38928.0,43070.0
11460,36993,US,124970,39.39633,-74.826955,Census,Township,NJ,"Weymouth Township, New Jersey",0,0,1029,787,1270,1158,1032,823,810,741,538,972,899,1166,685.0,675,750,788.0,998.0,1260,1957,2257.0,2715.0
11527,39466,US,125246,40.594532,-75.026566,Census,Township,NJ,"Alexandria Township, New Jersey",1503,0,2271,2619,3042,3420,3811,4088,3341,1324,1250,1045,1045,938,1094.0,1186,1369,1629.0,2127.0,2798,3594,4698.0,4938.0
11534,57191,US,124992,41.054594,-74.047298,Census,Borough,NJ,"Montvale, New Jersey",0,0,0,0,0,0,0,0,0,0,0,416,522,779,1243.0,1342,1856,3699.0,7327.0,7318,6946,7034.0,7844.0
11604,125099,US,84658,40.357115,-74.670165,Census,Borough,NJ,"Princeton, New Jersey",0,0,0,0,0,0,0,0,0,0,0,0,0,0,0.0,0,0,0.0,0.0,0,0,0.0,28572.0
11615,8616,US,125652,40.158303,-74.324246,Census,Census-designated place,NJ,"Vista Center, New Jersey",0,0,0,0,0,0,0,0,0,0,0,0,0,0,0.0,0,0,0.0,0.0,0,0,541.0,2095.0
11619,35429,US,93430,39.58,-75.36,Census,US County,NJ,"Salem County, New Jersey",10437,11371,12761,14022,14155,16024,19467,22458,23940,24579,25151,25530,26999,36572,36834.0,42274,49508,58711.0,60346.0,64676,65294,64285.0,66083.0
11631,53682,US,124962,39.481949,-74.737379,Census,Township,NJ,"Hamilton Township, Atlantic County, New Jersey",0,0,0,877,1424,1565,2015,1945,1271,1464,1512,1682,2271,2406,3193.0,3363,3774,6017.0,6445.0,9499,16012,20499.0,26503.0
11676,33379,US,125105,39.916478,-75.095549,Census,Borough,NJ,"Woodlynne, New Jersey",0,0,0,0,0,0,0,0,0,0,0,388,500,1515,2878.0,2861,2776,3128.0,3101.0,2578,2547,2796.0,2978.0
11728,52090,US,125383,40.268457,-74.525804,Census,Borough,NJ,"Hightstown, New Jersey",0,0,0,0,0,0,0,970,1347,1355,1875,1749,1879,2674,3012.0,3486,3712,4317.0,5431.0,4581,5126,5216.0,5494.0
11740,46538,US,125783,40.67742,-74.289341,Census,Borough,NJ,"Kenilworth, New Jersey",0,0,0,0,0,0,0,0,0,0,0,0,779,1312,2243.0,2451,4922,8379.0,9165.0,8221,7574,7675.0,7914.0
11893,39124,US,125251,40.719381,-74.836793,Census,Borough,NJ,"Califon, New Jersey",0,0,0,0,0,0,0,0,0,0,0,0,0,513,534.0,572,623,777.0,970.0,1023,1073,1055.0,1076.0
11938,39073,US,125063,39.868933,-75.051395,Census,Borough,NJ,"Barrington, New Jersey",0,0,0,0,0,0,0,0,0,0,0,0,0,1333,2252.0,2329,2651,7943.0,8409.0,7418,6774,7050.0,6983.0
11939,40977,US,125691,39.685816,-75.376425,Unknown,Township,NJ,"Pilesgrove Township, New Jersey",0,0,0,0,0,0,0,0,0,0,0,0,0,0,0.0,0,0,0.0,0.0,0,0,0.0,0.0
11953,61685,US,124954,39.378291,-74.599779,Census,Township,NJ,"Egg Harbor Township, New Jersey",0,0,1830,1635,2510,2739,2689,3207,3585,3568,3027,1863,1110,1360,3024.0,3066,4991,5593.0,9882.0,19381,24544,30726.0,43323.0
12067,37666,US,125421,40.349279,-74.440405,Census,Borough,NJ,"Jamesburg, New Jersey",0,0,0,0,0,0,0,0,0,681,887,1063,2075,2053,2048.0,2128,2307,2853.0,4584.0,4114,5294,6025.0,5915.0
12069,27678,US,125096,39.78721,-74.975558,Census,Borough,NJ,"Pine Valley, New Jersey",0,0,0,0,0,0,0,0,0,0,0,0,0,0,40.0,27,39,20.0,23.0,23,19,20.0,12.0
12120,56751,US,125717,40.428334,-74.676696,Census,Township,NJ,"Montgomery Township, New Jersey",1875,0,2282,2495,2834,1482,1767,1975,2066,1928,1655,1243,1637,2082,2648.0,3360,3819,3851.0,6353.0,7360,9612,17481.0,22254.0
12266,4734,US,8806383,40.744,-74.265,Census,township,NJ,"Clinton Township, Essex County, New Jersey",0,0,0,0,0,1976,2508,3659,2240,2742,3684,1325,0,0,0.0,0,0,0.0,0.0,0,0,0.0,0.0
12303,10930,US,125492,40.401105,-74.040464,Census,Census-designated place,NJ,"Navesink, New Jersey",0,0,0,0,0,0,0,0,0,0,0,0,0,0,0.0,0,0,0.0,0.0,0,0,1962.0,2020.0
12331,17156,US,125423,40.387103,-74.6152,Census,Census-designated place,NJ,"Kingston, New Jersey",0,0,0,0,0,0,0,0,0,0,0,0,0,0,0.0,0,0,0.0,0.0,0,1047,1292.0,1493.0
12343,12287,US,629310,40.851023,-74.658201,Census,Census-designated place,NJ,"Succasunna, New Jersey",0,0,0,0,0,0,0,0,0,0,0,0,0,0,0.0,0,0,0.0,0.0,0,0,0.0,9152.0
12355,33592,US,125352,40.598039,-75.124165,Census,Township,NJ,"Holland Township, New Jersey",0,0,0,0,0,0,0,0,0,1886,1704,1652,1699,911,994.0,1150,1341,2495.0,3587.0,4593,4892,5124.0,5291.0
12392,185408,US,125665,40.914746,-74.162826,Census,City,NJ,"Paterson, New Jersey",0,0,0,0,0,7596,11334,19586,33579,51031,78347,105171,125600,135875,138513.0,139656,139336,143663.0,144824.0,137970,140891,149222.0,146199.0
12461,42122,US,125023,40.050666,-74.937746,Census,Township,NJ,"Delanco Township, New Jersey",0,0,0,0,0,0,0,906,1020,1369,1451,1801,2337,2794,2349.0,2383,2805,4011.0,4157.0,3730,3316,3237.0,4283.0
12507,48024,US,125486,40.411248,-74.237366,Census,Borough,NJ,"Matawan, New Jersey",0,0,0,0,0,0,0,0,0,1437,1491,1511,1645,1910,2264.0,2758,3739,5097.0,9136.0,8837,9270,8910.0,8810.0
12591,9577,US,4516790,40.870198,-74.631639,Census,Census-designated place,NJ,"Kenvil, New Jersey",0,0,0,0,0,0,0,0,0,0,0,0,0,0,0.0,0,0,0.0,0.0,0,0,0.0,3009.0
12592,8797,US,125522,40.135366,-74.09805,Census,Census-designated place,NJ,"Allenwood, New Jersey",0,0,0,0,0,0,0,0,0,0,0,0,0,0,0.0,0,0,0.0,0.0,0,0,935.0,925.0
12626,44929,US,125103,39.743875,-74.823594,Census,Township,NJ,"Waterford Township, New Jersey",0,1629,2105,2447,3088,3467,1638,1955,2071,2149,2421,2161,1484,1917,2421.0,2750,2997,3809.0,4073.0,8126,10940,10494.0,10649.0
12633,65096,US,136920,39.864269,-74.822471,Census,Township,NJ,"Medford, New Jersey",0,0,0,0,0,0,3022,2136,2189,1980,1864,1969,1903,1891,2021.0,2237,2836,4844.0,8292.0,17622,20526,22253.0,23033.0
12653,58665,US,125538,40.717255,-74.438789,Census,Township,NJ,"Chatham Township, New Jersey",0,0,2019,1832,1874,2138,2469,2968,3715,4276,4681,620,812,735,1115.0,2026,2825,5931.0,8093.0,8883,9361,10086.0,10452.0
12666,10762,US,125445,40.550726,-74.259885,Census,Census-designated place,NJ,"Sewaren, New Jersey",0,0,0,0,0,0,0,0,0,0,0,0,0,0,0.0,0,0,0.0,0.0,0,2569,2780.0,2756.0
12672,6681,US,32315015,39.047486,-74.846665,Census,Census-designated place,NJ,"Burleigh, New Jersey",0,0,0,0,0,0,0,0,0,0,0,0,0,0,0.0,0,0,0.0,0.0,0,0,0.0,725.0
12754,42811,US,125779,40.6417,-74.385676,Census,Borough,NJ,"Fanwood, New Jersey",0,0,0,0,0,0,0,0,0,0,0,399,471,724,1681.0,2310,3228,7963.0,8920.0,7767,7115,7174.0,7318.0
12787,42547,US,125014,40.853084,-74.106323,Census,Borough,NJ,"Wallington, New Jersey",0,0,0,0,0,0,0,0,0,0,0,1812,3448,5715,9063.0,8981,8910,9261.0,10284.0,10741,10828,11583.0,11335.0
12822,37028,US,125211,39.550847,-75.010258,Census,Borough,NJ,"Newfield, New Jersey",0,0,0,0,0,0,0,0,0,0,0,0,0,0,880.0,889,1010,1299.0,1487.0,1563,1592,1616.0,1553.0
12833,8678,US,125439,40.332213,-74.589986,Census,Census-designated place,NJ,"Plainsboro Center, New Jersey",0,0,0,0,0,0,0,0,0,0,0,0,0,0,0.0,0,0,0.0,0.0,0,0,2209.0,2712.0
12885,50821,US,136877,40.954576,-73.956563,Census,Borough,NJ,"Demarest, New Jersey",0,0,0,0,0,0,0,0,0,0,0,393,560,654,1013.0,1165,1786,4231.0,5133.0,4963,4800,4845.0,4881.0
12896,41872,US,125785,40.680722,-74.360292,Census,Borough,NJ,"Mountainside, New Jersey",0,0,0,0,0,0,0,0,0,0,0,367,362,493,965.0,1148,2046,6325.0,7520.0,7118,6657,6602.0,6685.0
12915,73071,US,125507,40.362,-74.005,Census,Borough,NJ,"Rumson, New Jersey",0,0,0,0,0,0,0,0,0,0,0,0,1449,1658,2073.0,2926,4044,6405.0,7421.0,7623,6701,7137.0,7122.0
12939,49905,US,125676,40.889908,-74.194581,Census,Borough,NJ,"Woodland Park, New Jersey",0,0,0,0,0,0,0,0,0,0,0,0,0,1858,3101.0,3306,3931,7602.0,11692.0,11293,10982,10987.0,11819.0
13000,121265,US,125778,40.666261,-74.19353,Census,City,NJ,"Elizabeth, New Jersey",0,0,2977,3515,3455,4184,5583,11567,20832,28229,37764,52130,73409,95783,114589.0,109912,112817,107698.0,112654.0,106201,110002,120568.0,124969.0
13036,9963,US,125605,39.955143,-74.07961,Census,Census-designated place,NJ,"Dover Beaches South, New Jersey",0,0,0,0,0,0,0,0,0,0,0,0,0,0,0.0,0,0,0.0,0.0,0,0,1594.0,1209.0
13069,9177,US,125074,39.847836,-74.997249,Census,Census-designated place,NJ,"Echelon, New Jersey",0,0,0,0,0,0,0,0,0,0,0,0,0,0,0.0,0,0,0.0,0.0,0,0,10440.0,10743.0
13099,104711,US,136882,40.85064,-73.971007,Census,Borough,NJ,"Fort Lee, New Jersey",0,0,0,0,0,0,0,0,0,1424,1253,2612,4472,5761,8759.0,9468,11648,21815.0,30631.0,32449,31997,35461.0,35345.0
13128,10466,US,136868,39.468722,-74.550112,Census,Census-designated place,NJ,"Pomona, New Jersey",0,0,0,0,0,0,0,0,0,0,0,0,0,0,0.0,0,0,0.0,0.0,0,2624,4019.0,7124.0
13198,32151,US,125636,39.925847,-74.134614,Census,Borough,NJ,"Ocean Gate, New Jersey",0,0,0,0,0,0,0,0,0,0,0,0,0,69,174.0,242,452,706.0,1081.0,1385,2078,2076.0,2011.0
13307,94395,US,125036,39.977074,-74.944998,Census,Township,NJ,"Moorestown, New Jersey",0,0,0,0,0,0,0,0,0,0,0,0,0,0,7247.0,7749,9123,12497.0,15577.0,15596,16116,19017.0,20726.0
13368,43263,US,125115,39.087952,-74.837561,Census,Township,NJ,"Middle Township, New Jersey",0,0,1106,1157,1366,1624,1884,2155,2195,2575,2368,2191,2974,2760,3430.0,3889,4599,6718.0,8725.0,11373,14771,16405.0,18911.0
13375,45167,US,125593,40.070315,-74.048162,Census,Borough,NJ,"Bay Head, New Jersey",0,0,0,0,0,0,0,0,0,0,0,247,281,273,429.0,499,808,824.0,1083.0,1340,1226,1238.0,968.0
13377,42113,US,125827,40.758525,-74.98319,Census,Borough,NJ,"Washington, New Jersey",0,0,0,0,0,0,0,0,1880,2142,2834,3580,3567,3341,4410.0,4643,4802,5723.0,5943.0,6429,6474,6712.0,6461.0
13394,9426,US,125446,40.534508,-74.45608,Census,Census-designated place,NJ,"Society Hill, Middlesex County, New Jersey",0,0,0,0,0,0,0,0,0,0,0,0,0,0,0.0,0,0,0.0,0.0,0,3577,3804.0,3829.0
13439,49835,US,125130,38.97,-74.83,Census,Borough,NJ,"Wildwood Crest, New Jersey",0,0,0,0,0,0,0,0,0,0,0,0,103,161,738.0,661,1772,3011.0,3483.0,4149,3631,3980.0,3270.0
13460,33675,US,125757,41.113067,-74.675675,Census,Township,NJ,"Lafayette Township, New Jersey",0,0,0,0,0,0,928,919,884,781,742,717,683,634,735.0,803,836,1100.0,1202.0,1614,1902,2300.0,2538.0
13482,6431,US,38502571,40.482176,-74.492506,Census,Census-designated place,NJ,"Voorhees (CDP), New Jersey",0,0,0,0,0,0,0,0,0,0,0,0,0,0,0.0,0,0,0.0,0.0,0,0,0.0,976.0
13484,57327,US,125120,39.153798,-74.696409,Census,City,NJ,"Sea Isle City, New Jersey",0,0,0,0,0,0,0,0,0,0,776,340,551,564,850.0,773,993,1393.0,1712.0,2644,2692,2835.0,2114.0
13558,45158,US,125639,40.045716,-74.485245,Census,Township,NJ,"Plumsted Township, New Jersey",0,0,0,0,0,0,1613,2003,1566,1561,1327,1204,1123,1276,1215.0,1580,2093,3281.0,4113.0,4674,6005,7275.0,8421.0
13574,34380,US,125681,39.592258,-75.174569,Census,Borough,NJ,"Elmer, New Jersey",0,0,0,0,0,0,0,0,0,345,842,1140,1167,1115,1219.0,1344,1460,1505.0,1592.0,1569,1571,1384.0,1395.0
13597,71195,US,125554,40.758,-74.4178,Census,Borough,NJ,"Madison, New Jersey",0,0,0,0,0,0,0,0,0,1756,2469,3754,4658,5523,7481.0,7944,10417,15122.0,16710.0,15357,15850,16530.0,15845.0
13633,42694,US,125506,40.220742,-74.470155,Census,Borough,NJ,"Roosevelt, New Jersey",0,0,0,0,0,0,0,0,0,0,0,0,0,0,0.0,698,720,764.0,814.0,835,884,933.0,882.0
13635,17785,US,125405,40.594133,-74.31377,Census,Census-designated place,NJ,"Colonia, New Jersey",0,0,0,0,0,0,0,0,0,0,0,0,0,0,0.0,0,0,0.0,0.0,0,18238,17811.0,17795.0
13670,7775,US,4090491,40.449363,-74.658505,Census,Census-designated place,NJ,"Harlingen, New Jersey",0,0,0,0,0,0,0,0,0,0,0,0,0,0,0.0,0,0,0.0,0.0,0,0,0.0,297.0
13696,57140,US,136888,40.999485,-74.096574,Census,Borough,NJ,"Ho-Ho-Kus, New Jersey",0,0,0,0,0,0,0,0,0,0,0,316,488,586,925.0,1626,2254,3988.0,4348.0,4129,3935,4060.0,4078.0
13705,76350,US,125163,40.765058,-74.211862,Census,City,NJ,"East Orange, New Jersey",0,0,0,0,0,0,0,0,4315,8349,13282,21506,34371,50710,68020.0,68945,79340,77259.0,75471.0,77878,73552,69824.0,64270.0
13728,51442,US,125527,40.432114,-74.201529,Census,Borough,NJ,"Keyport, New Jersey",0,0,0,0,0,0,0,0,2366,0,3411,3413,3554,4415,4940.0,5147,5888,6440.0,7205.0,7413,7586,7568.0,7240.0
13738,8804,US,125247,40.646838,-74.888177,Census,Census-designated place,NJ,"Annandale, New Jersey",0,0,0,0,0,0,0,0,0,0,0,0,0,0,0.0,0,0,0.0,0.0,0,1074,1276.0,1695.0
13834,45007,US,125054,39.684163,-74.572639,Census,Township,NJ,"Washington Township, Burlington County, New Jersey",0,0,1273,1225,1315,1630,2010,1723,609,389,310,617,597,500,478.0,518,566,541.0,673.0,808,805,621.0,687.0
13862,67358,US,125825,40.691974,-75.179006,Census,Town,NJ,"Phillipsburg, New Jersey",0,0,0,0,0,0,0,0,5932,7181,8644,10052,13903,16923,19255.0,18314,18919,18502.0,17849.0,16647,15757,15166.0,14950.0
13947,34438,US,125771,41.118632,-74.89404,Census,Township,NJ,"Walpack Township, New Jersey",0,0,591,822,660,728,783,851,647,575,436,371,286,258,178.0,207,204,248.0,384.0,150,67,41.0,16.0
13964,72007,US,125382,40.20704,-74.674431,Census,Township,NJ,"Hamilton Township, Mercer County, New Jersey",0,0,1747,1710,1903,0,2807,3773,5417,3370,4163,4164,7899,14580,27121.0,30219,41156,65035.0,79609.0,82801,86553,87109.0,88464.0
13993,49127,US,125390,40.324923,-74.78878,Census,Borough,NJ,"Pennington, New Jersey",0,0,0,0,0,0,0,0,0,723,588,733,722,1335,1335.0,1492,1682,2063.0,2151.0,2109,2537,2696.0,2585.0
14009,52186,US,125479,40.336952,-74.034535,Census,Borough,NJ,"Little Silver, New Jersey",0,0,0,0,0,0,0,0,0,0,0,0,0,0,1109.0,1461,2595,5202.0,6010.0,5548,5721,6170.0,5950.0
14016,39415,US,125033,39.952381,-74.994896,Census,Township,NJ,"Maple Shade Township, New Jersey",0,1464,1839,2253,2333,2603,3601,2227,2586,2855,3768,4420,5069,7273,5117.0,5535,6560,12947.0,16464.0,20525,19211,19079.0,19131.0
14098,123594,US,125235,40.75,-74.03,Census,City,NJ,"Hoboken, New Jersey",0,0,0,0,0,0,2668,9662,20297,30999,43648,59364,70324,68166,59261.0,50115,50676,48441.0,45380.0,42460,33397,38577.0,50005.0
14102,13571,US,125478,40.335293,-74.132838,Census,Census-designated place,NJ,"Lincroft, New Jersey",0,0,0,0,0,0,0,0,0,0,0,0,0,0,0.0,0,0,0.0,0.0,0,6193,6255.0,6135.0
14105,41107,US,125539,40.790536,-74.689923,Census,Borough,NJ,"Chester Borough, New Jersey",0,0,0,0,0,0,0,0,0,705,683,0,0,0,0.0,650,754,1074.0,1299.0,1433,1214,1635.0,1649.0
14169,9433,US,125022,39.948988,-74.537929,Census,Census-designated place,NJ,"Country Lake Estates, New Jersey",0,0,0,0,0,0,0,0,0,0,0,0,0,0,0.0,0,0,0.0,0.0,3739,4492,4012.0,3943.0
14173,49498,US,125042,40.002615,-75.035273,Census,Borough,NJ,"Palmyra, New Jersey",0,0,0,0,0,0,0,0,0,571,1903,2300,2801,3834,4968.0,5178,5802,7036.0,6969.0,7085,7056,7091.0,7398.0
14223,65844,US,124999,41.059136,-74.145931,Census,Borough,NJ,"Ramsey, New Jersey",0,0,0,0,0,0,0,0,0,0,0,1074,1667,2090,3258.0,3566,4670,9527.0,12571.0,12899,13228,14351.0,14473.0
14226,80265,US,125437,40.54564,-74.460817,Census,Township,NJ,"Piscataway, New Jersey",2261,0,2475,2648,2664,2828,2975,3186,2757,2425,2226,2628,3523,5385,5865.0,7243,10180,19890.0,36418.0,42223,47089,50482.0,56044.0
14247,41927,US,125803,40.829802,-75.073337,Census,Town,NJ,"Belvidere, New Jersey",0,0,0,0,0,0,1001,1530,1882,1773,1768,1784,1764,1793,2073.0,2060,2406,2636.0,2722.0,2475,2669,2771.0,2681.0
14252,64018,US,124988,40.798004,-74.11325,Census,Township,NJ,"Lyndhurst, New Jersey",0,0,0,0,0,0,0,957,2057,3164,1560,1590,4076,9515,17362.0,17454,19980,21867.0,22729.0,20326,18262,19383.0,20554.0
14304,68212,US,136982,40.374964,-74.173849,Census,Township,NJ,"Holmdel Township, New Jersey",0,0,0,0,0,0,0,1334,1415,1575,1479,1190,1058,1100,1191.0,1201,1380,2959.0,6117.0,8447,11532,15781.0,16773.0
14333,54681,US,125482,40.282353,-74.346565,Census,Township,NJ,"Manalapan Township, New Jersey",0,0,0,0,0,0,1910,2374,2286,2175,2002,1435,1375,1080,1464.0,1900,3137,3990.0,14049.0,18914,26716,33423.0,38872.0
14351,9638,US,1681195,39.042252,-74.868134,Census,Census-designated place,NJ,"Whitesboro, New Jersey",0,0,0,0,0,0,0,0,0,0,0,0,0,0,0.0,0,0,0.0,0.0,0,0,0.0,2205.0
14356,59853,US,124998,41.036301,-74.043561,Census,Borough,NJ,"Park Ridge, New Jersey",0,0,0,0,0,0,0,0,0,0,0,870,1401,1481,2229.0,2519,3189,6389.0,8709.0,8515,8102,8708.0,8645.0
14409,30817,US,125068,39.87935,-75.120396,Census,Borough,NJ,"Brooklawn, New Jersey",0,0,0,0,0,0,0,0,0,0,0,0,0,0,1753.0,1919,2262,2504.0,2870.0,2133,1805,2354.0,1955.0
14447,55216,US,124966,39.330913,-74.506849,Census,City,NJ,"Margate City, New Jersey",0,0,0,0,0,0,0,0,0,0,0,69,129,249,2913.0,3266,4715,9474.0,10576.0,9179,8431,8193.0,6354.0
14452,8385,US,125080,39.93289,-75.03975,Census,Census-designated place,NJ,"Golden Triangle, New Jersey",0,0,0,0,0,0,0,0,0,0,0,0,0,0,0.0,0,0,0.0,0.0,0,0,3511.0,4145.0
14518,36034,US,125551,40.923751,-74.304235,Census,Borough,NJ,"Lincoln Park, New Jersey",0,0,0,0,0,0,0,0,0,0,0,0,0,0,1831.0,2186,3376,6048.0,9034.0,8806,10978,10930.0,10521.0
14544,7490,US,125399,40.1805555556,-74.6711111111,Census,Former CDP,NJ,"Yardville-Groveville, New Jersey",0,0,0,0,0,0,0,0,0,0,0,0,0,0,0.0,0,0,0.0,0.0,0,9248,9208.0,0.0
14700,36821,US,125097,39.851738,-75.074803,Census,Borough,NJ,"Runnemede, New Jersey",0,0,0,0,0,0,0,0,0,0,0,0,0,0,2436.0,2835,4217,8396.0,10475.0,9461,9042,8533.0,8648.0
14733,10474,US,125077,39.840937,-75.067211,Census,Census-designated place,NJ,"Glendora, New Jersey",0,0,0,0,0,0,0,0,0,0,0,0,0,0,0.0,0,0,0.0,0.0,5632,5201,4907.0,4750.0
14754,37620,US,125801,40.659447,-75.157053,Census,Borough,NJ,"Alpha, New Jersey",0,0,0,0,0,0,0,0,0,0,0,0,0,2140,2374.0,2301,2117,2406.0,2829.0,2644,2530,2482.0,2369.0
14801,6323,US,36812477,40.415133,-74.617903,Census,Census-designated place,NJ,"East Rocky Hill, New Jersey",0,0,0,0,0,0,0,0,0,0,0,0,0,0,0.0,0,0,0.0,0.0,0,0,0.0,469.0
14838,6113,US,36810486,40.487341,-74.513189,Census,Census-designated place,NJ,"Clyde, New Jersey",0,0,0,0,0,0,0,0,0,0,0,0,0,0,0.0,0,0,0.0,0.0,0,0,0.0,213.0
14864,52386,US,257465,40.450387,-74.479455,Unknown,Township,NJ,"North Brunswick, New Jersey",0,0,0,0,0,0,0,0,0,0,0,0,0,0,0.0,0,0,0.0,0.0,0,0,0.0,0.0
14897,42613,US,125767,41.209859,-74.606535,Census,Borough,NJ,"Sussex, New Jersey",0,0,0,0,0,0,0,0,0,370,993,1306,1212,1318,1415.0,1478,1541,1656.0,2038.0,2418,2201,2145.0,2130.0
14900,39919,US,125688,39.727355,-75.467698,Census,Borough,NJ,"Penns Grove, New Jersey",0,0,0,0,0,0,0,0,0,0,0,1826,2118,6060,5895.0,6488,6669,6176.0,5727.0,5760,5228,4886.0,5147.0
14901,87286,US,136879,40.8238,-73.974237,Census,Borough,NJ,"Edgewater, New Jersey",0,0,0,0,0,0,0,0,0,0,0,1006,2655,3530,4089.0,4028,3952,4113.0,4987.0,4628,5001,7677.0,11513.0
14903,9043,US,125407,40.313448,-74.520224,Census,Census-designated place,NJ,"Cranbury (CDP), New Jersey",0,0,0,0,0,0,0,0,0,0,0,0,0,0,0.0,0,0,0.0,0.0,0,0,2008.0,2181.0
14925,73969,US,125181,40.76804,-74.235692,Census,Township,NJ,"Orange, New Jersey",0,0,2266,2830,3887,3264,4385,8877,9348,13207,18844,24141,29630,33268,35399.0,35717,38037,35789.0,32566.0,31136,29925,32868.0,30134.0
14966,18821,US,10092076,40.7613,-74.0413,Census,municipality,NJ,"West Hoboken, New Jersey",0,0,0,0,0,0,0,0,4232,5441,11665,23094,35403,40074,0.0,0,0,0.0,0.0,0,0,0.0,0.0
14988,8710,US,125406,40.312616,-74.44839,Census,Census-designated place,NJ,"Concordia, New Jersey",0,0,0,0,0,0,0,0,0,0,0,0,0,0,0.0,0,0,0.0,0.0,0,2683,3658.0,3092.0
14999,42913,US,125197,39.598841,-75.020874,Census,Township,NJ,"Franklin Township, Gloucester County, New Jersey",0,0,0,1137,1574,2077,2984,1778,2188,2480,2021,2252,2603,3448,3563.0,3464,5056,7451.0,8990.0,12396,14482,15466.0,16820.0
15019,7899,US,4688653,41.0500959,-75.0329525,Census,,NJ,"Pahaquarry Township, New Jersey",0,0,0,0,258,292,460,465,405,418,291,257,205,128,80.0,72,67,63.0,71.0,26,20,0.0,0.0
15128,6213,US,37545759,40.780434,-74.182817,Census,Census-designated place,NJ,"Silver Lake, Essex County, New Jersey",0,0,0,0,0,0,0,0,0,0,0,0,0,0,0.0,0,0,0.0,0.0,0,0,0.0,4243.0
15140,6359,US,36811936,40.492887,-74.471123,Census,Census-designated place,NJ,"East Franklin, New Jersey",0,0,0,0,0,0,0,0,0,0,0,0,0,0,0.0,0,0,0.0,0.0,0,0,0.0,8669.0
15142,50989,US,125455,40.430669,-74.223548,Census,Township,NJ,"Aberdeen Township, New Jersey",0,0,0,0,0,0,0,2072,2839,2699,1092,1310,1472,1856,2496.0,2633,3888,7359.0,17680.0,17235,17038,17454.0,18210.0
15152,35874,US,125763,41.2136,-74.813514,Census,Township,NJ,"Sandyston Township, New Jersey",0,0,703,858,1097,1209,1327,1480,1230,1195,1084,939,855,727,610.0,651,829,1019.0,1303.0,1485,1732,1825.0,1998.0
15170,68541,US,125226,39.837907,-75.15153,Census,City,NJ,"Woodbury, New Jersey",0,0,0,0,0,0,0,1534,1965,2298,3911,4087,4642,5801,8172.0,8306,10931,12453.0,12408.0,10353,10904,10307.0,10174.0
15216,9205,US,125453,40.554981,-74.285014,Census,Census-designated place,NJ,"Woodbridge (CDP), New Jersey",0,0,0,0,0,0,0,0,0,0,0,0,0,0,0.0,0,0,0.0,0.0,0,17434,18309.0,19265.0
15218,59327,US,125005,41.014201,-74.006774,Census,Township,NJ,"River Vale, New Jersey",0,0,0,0,0,0,0,0,0,0,0,266,450,583,871.0,1112,1699,5616.0,8883.0,9489,9410,9449.0,9659.0
15238,8974,US,125550,40.960346,-74.497426,Census,Census-designated place,NJ,"Lake Telemark, New Jersey",0,0,0,0,0,0,0,0,0,0,0,0,0,0,0.0,0,0,0.0,0.0,0,1121,1202.0,1255.0
15244,44270,US,125643,39.925666,-74.078754,Census,Borough,NJ,"Seaside Park, New Jersey",0,0,0,0,0,0,0,0,0,0,0,73,101,179,571.0,653,987,1054.0,1432.0,1795,1871,2263.0,1579.0
15282,32518,US,125150,39.462259,-75.29252,Census,Borough,NJ,"Shiloh, New Jersey",0,0,0,0,0,0,0,0,0,0,0,0,0,0,401.0,387,427,554.0,573.0,604,408,534.0,516.0
15291,46578,US,125816,40.929261,-75.061796,Census,Township,NJ,"Knowlton Township, New Jersey",0,0,2064,2701,2827,2310,1356,1557,1691,1476,1411,1210,1556,1073,1049.0,1084,1260,1442.0,1738.0,2074,2543,2977.0,3055.0
15309,47921,US,125641,40.092566,-74.045173,Census,Borough,NJ,"Point Pleasant Beach, New Jersey",0,0,0,0,0,0,0,0,0,0,0,746,1003,1575,1844.0,2059,2900,3873.0,4882.0,5415,5112,5314.0,4665.0
15456,50756,US,125107,39.090532,-74.735837,Census,Borough,NJ,"Avalon, New Jersey",0,0,0,0,0,0,0,0,0,0,0,93,230,197,343.0,313,428,695.0,1283.0,2162,1809,2143.0,1334.0
15462,84256,US,125505,40.348697,-74.066472,Census,Borough,NJ,"Red Bank, New Jersey",0,0,0,0,0,0,0,0,2086,2684,4145,5428,7398,9251,11622.0,10974,12743,12482.0,12847.0,12031,10636,11844.0,12206.0
15531,8141,US,125800,40.9116666667,-74.8266666667,Census,Former census-designated place,NJ,"Allamuchy-Panther Valley, New Jersey",0,0,0,0,0,0,0,0,0,0,0,0,0,0,0.0,0,0,0.0,0.0,0,2764,3125.0,0.0
15540,7939,US,125394,40.3613888889,-74.6519444444,Census,Unincorporated community,NJ,"Princeton North, New Jersey",0,0,0,0,0,0,0,0,0,0,0,0,0,0,0.0,0,0,4506.0,5488.0,4814,4386,4528.0,0.0
15552,44208,US,125690,39.626,-75.503,Unknown,Township,NJ,"Pennsville Township, New Jersey",0,0,0,0,0,0,0,0,0,0,0,0,0,0,0.0,0,0,0.0,0.0,0,0,0.0,0.0
15554,49864,US,125730,40.634588,-74.519044,Census,Township,NJ,"Warren Township, New Jersey",0,0,1354,1452,1561,1601,2148,2338,2705,1204,1045,1008,1035,1083,1399.0,2139,3316,5386.0,8592.0,9805,10830,14259.0,15311.0
15651,63130,US,125723,40.56975,-74.607682,Census,Borough,NJ,"Somerville, New Jersey",0,0,0,0,0,0,0,0,2236,3105,3861,4843,5060,6718,8255.0,8720,11571,12458.0,13652.0,11973,11632,12423.0,12098.0
15682,10439,US,125134,39.338571,-75.214506,Census,Census-designated place,NJ,"Cedarville, New Jersey",0,0,0,0,0,0,0,0,0,0,0,0,0,0,0.0,0,0,0.0,0.0,0,0,776.0,793.0
15727,48571,US,93429,40.56,-74.61,Census,US County,NJ,"Somerset County, New Jersey",12296,12815,14725,16506,17689,17455,19692,22057,23510,27162,28311,32948,38820,47991,65132.0,74390,99052,143913.0,198372.0,203129,240279,297490.0,323444.0
15731,35343,US,125085,39.836551,-75.021843,Census,Borough,NJ,"Hi-Nella, New Jersey",0,0,0,0,0,0,0,0,0,0,0,0,0,0,160.0,203,237,474.0,1195.0,1250,1045,1029.0,870.0
15736,6968,US,25013489,40.010227,-74.281723,Census,Census-designated place,NJ,"Leisure Village West, New Jersey",0,0,0,0,0,0,0,0,0,0,0,0,0,0,0.0,0,0,0.0,0.0,0,0,0.0,4217.0
15751,36400,US,125152,39.494923,-75.216943,Census,Township,NJ,"Upper Deerfield Township, New Jersey",0,0,0,0,0,0,0,0,0,0,0,0,0,0,2051.0,2020,5203,6040.0,6648.0,6810,6927,7556.0,7660.0
15773,38987,US,125490,40.335895,-73.985608,Census,Borough,NJ,"Monmouth Beach, New Jersey",0,0,0,0,0,0,0,0,0,0,0,0,485,410,457.0,584,806,1363.0,2042.0,3318,3303,3595.0,3279.0
15781,102711,US,64360,40.615444,-74.415775,Census,City,NJ,"Plainfield, New Jersey",0,0,0,0,0,0,0,0,5095,8125,11267,15369,20550,27700,34422.0,37469,42366,45330.0,46862.0,45555,46567,47829.0,49808.0
15872,113860,US,125664,40.856413,-74.12694,Census,City,NJ,"Passaic, New Jersey",0,0,0,0,0,0,0,0,0,6532,13028,27777,54773,63841,62959.0,61394,57702,53963.0,55124.0,52463,58041,67861.0,69781.0
15983,74438,US,124963,39.66078,-74.767021,Census,Town,NJ,"Hammonton, New Jersey",0,0,0,0,0,0,0,0,1404,1776,3833,3481,5088,6417,7656.0,7668,8411,9854.0,11464.0,12298,12208,12604.0,14791.0
16031,35237,US,125057,39.841289,-74.51774,Census,Township,NJ,"Woodland Township, New Jersey",0,0,0,0,0,0,0,0,389,325,327,475,548,970,970.0,1374,1524,1904.0,2032.0,2285,2063,1170.0,1788.0
16139,57286,US,125707,40.730387,-74.592571,Census,Borough,NJ,"Bernardsville, New Jersey",0,0,0,0,0,0,0,0,0,0,0,0,0,0,3336.0,3405,3956,5515.0,6652.0,6715,6597,7345.0,7707.0
16230,11838,US,7051941,40.428191,-74.712293,Census,Census-designated place,NJ,"Skillman, New Jersey",0,0,0,0,0,0,0,0,0,0,0,0,0,0,0.0,0,0,0.0,0.0,0,0,0.0,240.0
16428,9463,US,17268150,39.569375,-74.707921,Census,Census-designated place,NJ,"Elwood, New Jersey",0,0,0,0,0,0,0,0,0,0,0,0,0,0,0.0,0,0,0.0,0.0,0,1487,1392.0,1437.0
16460,48478,US,125768,41.197847,-74.48458,Census,Township,NJ,"Vernon Township, New Jersey",0,0,1708,2096,2380,2395,2649,2190,1979,1811,1756,1738,1675,1433,1279.0,1407,1548,2155.0,6059.0,16302,21211,24686.0,23943.0
16513,66670,US,124973,40.922334,-73.998001,Census,Borough,NJ,"Bergenfield, New Jersey",0,0,0,0,0,0,0,0,0,0,0,729,1991,3667,8816.0,10275,17647,27203.0,29000.0,25568,24458,26247.0,26764.0
16591,79549,US,125435,40.404632,-74.308537,Census,Township,NJ,"Old Bridge Township, New Jersey",0,0,0,0,0,0,0,0,1870,1662,1520,1671,1621,1808,2566.0,3803,7366,22772.0,48715.0,51515,56475,60456.0,65375.0
16638,42985,US,125818,40.714352,-75.155769,Census,Township,NJ,"Lopatcong Township, New Jersey",0,0,0,0,0,0,0,3741,1150,1591,1738,1982,766,1050,1269.0,1450,1737,2703.0,3144.0,4998,5052,5765.0,8014.0
16654,8140,US,125081,39.898668,-74.96168,Census,Census-designated place,NJ,"Greentree, New Jersey",0,0,0,0,0,0,0,0,0,0,0,0,0,0,0.0,0,0,0.0,0.0,0,0,11536.0,11367.0
16673,41484,US,125467,40.36194,-74.038775,Census,Borough,NJ,"Fair Haven, New Jersey",0,0,0,0,0,0,0,0,0,0,0,0,0,1295,2260.0,2491,3560,5678.0,6142.0,5679,5270,5937.0,6121.0
16693,36347,US,125701,39.612375,-75.209549,Census,Township,NJ,"Upper Pittsgrove Township, New Jersey",0,0,0,0,0,0,1656,2082,2087,2073,1923,1725,1754,1724,1899.0,1925,2204,2715.0,2884.0,3139,3140,3468.0,3505.0
16735,9864,US,125434,40.396577,-74.334317,Census,Census-designated place,NJ,"Old Bridge (CDP), New Jersey",0,0,0,0,0,0,0,0,0,0,0,0,0,0,0.0,0,0,0.0,22240.0,21815,22151,22833.0,23753.0
16754,10120,US,125520,40.230905,-74.294073,Census,Census-designated place,NJ,"West Freehold, New Jersey",0,0,0,0,0,0,0,0,0,0,0,0,0,0,0.0,0,0,0.0,0.0,9929,11166,12498.0,13613.0
16777,13380,US,125626,39.693472,-74.250229,Census,Census-designated place,NJ,"Manahawkin, New Jersey",0,0,0,0,0,0,0,0,0,0,0,0,0,0,0.0,0,0,0.0,0.0,0,1594,2004.0,2303.0
16816,46089,US,136886,40.991681,0.0,Census,Borough,NJ,"Harrington Park, New Jersey",0,0,0,0,0,0,0,0,0,0,0,269,377,627,1251.0,1389,1634,3581.0,4841.0,4532,4623,4740.0,4664.0
16852,55142,US,125592,39.752007,-74.110893,Census,Borough,NJ,"Barnegat Light, New Jersey",0,0,0,0,0,0,0,0,0,0,0,0,70,69,144.0,225,227,287.0,554.0,619,675,764.0,574.0
16897,38157,US,125542,40.818553,-74.363742,Census,Township,NJ,"East Hanover Township, New Jersey",0,0,0,0,0,0,0,0,0,0,0,0,0,0,946.0,1579,2151,4379.0,7734.0,9319,9926,11393.0,11157.0
16907,44034,US,125718,40.621255,-74.439466,Census,Borough,NJ,"North Plainfield, New Jersey",0,0,0,0,0,0,0,0,0,0,0,5009,6117,6916,9760.0,10586,12766,16993.0,21796.0,19108,18820,21103.0,21936.0
16967,184802,US,93451,40.96,-74.07,Census,US County,NJ,"Bergen County, New Jersey",12601,15156,16603,18178,22412,13223,14725,21618,30122,36786,47226,78441,138002,210703,364977.0,409646,539139,780255.0,897148.0,845385,825380,884118.0,905116.0
16986,48121,US,136875,40.826424,-74.062338,Census,Borough,NJ,"Carlstadt, New Jersey",0,0,0,0,0,0,0,0,0,1060,1549,2920,3807,4472,5425.0,5644,5591,6042.0,6724.0,6166,5510,5917.0,6127.0
17026,17468,US,125722,40.508507,-74.500207,Unknown,Census-designated place,NJ,"Somerset, New Jersey",0,0,0,0,0,0,0,0,0,0,0,0,0,0,0.0,0,0,0.0,0.0,0,0,0.0,0.0
17042,55892,US,125782,40.695889,-74.2288,Census,Township,NJ,"Hillside, New Jersey",0,0,0,0,0,0,0,0,0,0,0,0,0,5267,17601.0,18556,21007,22304.0,21636.0,21440,21044,21747.0,21404.0
17068,101325,US,125488,40.407306,-74.071121,Census,Township,NJ,"Middletown Township, New Jersey",3225,0,3849,4369,5128,6063,3251,4112,4639,5059,5650,5479,6653,5917,9209.0,11018,16203,39675.0,54623.0,62574,68183,66327.0,66522.0
17070,53131,US,125078,39.792186,-75.036059,Census,Township,NJ,"Gloucester Township, New Jersey",0,1398,1726,2059,2332,2837,2371,2320,2710,2527,3091,4018,2380,3097,5820.0,6198,7952,17591.0,26511.0,45156,53797,64350.0,64634.0
17088,86220,US,125108,38.940782,-74.903198,Census,City,NJ,"Cape May, New Jersey",0,0,0,0,0,0,0,0,1248,1699,2136,2257,2471,2999,2637.0,2583,3607,4477.0,4392.0,4853,4668,4034.0,3607.0
17136,8874,US,125638,39.961557,-74.312016,Census,Census-designated place,NJ,"Pine Ridge at Crestwood, New Jersey",0,0,0,0,0,0,0,0,0,0,0,0,0,0,0.0,0,0,0.0,0.0,0,2372,2025.0,2369.0
17217,50251,US,124974,40.874287,-74.029735,Census,Borough,NJ,"Bogota, New Jersey",0,0,0,0,0,0,0,0,0,0,0,337,1125,3906,7341.0,7346,7662,7965.0,8960.0,8344,7824,8249.0,8187.0
17223,12805,US,125420,40.569295,-74.321106,Census,Census-designated place,NJ,"Iselin, New Jersey",0,0,0,0,0,0,0,0,0,0,0,0,0,0,0.0,0,0,0.0,0.0,0,16141,16698.0,18695.0
17255,60373,US,124980,40.891197,-73.972515,Census,City,NJ,"Englewood, New Jersey",0,0,0,0,0,0,0,0,0,0,0,6253,9924,11627,17805.0,18966,23145,26057.0,24985.0,23701,24850,26203.0,27147.0
17286,83407,US,125412,40.426247,-74.418244,Census,Township,NJ,"East Brunswick, New Jersey",0,0,0,0,0,0,0,2436,2861,3272,2642,2423,1602,1857,2711.0,3706,5699,19965.0,34166.0,37711,43548,46756.0,47512.0
17340,77239,US,125471,40.224382,-74.299051,Census,Township,NJ,"Freehold Township, New Jersey",3785,0,4784,5146,5481,6303,2642,3811,4231,1870,2165,2234,2329,1498,1720.0,2459,3442,4779.0,13185.0,19202,24710,31537.0,36184.0
17361,48796,US,125543,40.775832,-74.394058,Census,Borough,NJ,"Florham Park, New Jersey",0,0,0,0,0,0,0,0,0,0,0,752,558,570,1269.0,1609,2385,7222.0,8094.0,9359,8521,8857.0,11696.0
17369,29700,US,125101,39.876482,-75.027979,Census,Borough,NJ,"Tavistock, New Jersey",0,0,0,0,0,0,0,0,0,0,0,0,0,0,20.0,13,15,10.0,12.0,9,35,24.0,5.0
17396,63983,US,93437,,,Census,US County,NJ,"Middlesex County, New Jersey",15956,17890,20381,21470,23157,21893,28635,34812,45029,52286,61754,79762,114426,162334,212208.0,217077,264872,433856.0,583813.0,595893,671780,750162.0,809858.0
17420,36770,US,125110,38.936909,-74.965374,Census,Borough,NJ,"Cape May Point, New Jersey",0,0,0,0,0,0,0,0,0,198,167,153,162,121,104.0,126,198,263.0,204.0,255,248,241.0,291.0
17424,36980,US,124993,40.841361,-74.057656,Census,Borough,NJ,"Moonachie, New Jersey",0,0,0,0,0,0,0,0,0,0,0,212,638,1194,1465.0,1554,1775,3052.0,2951.0,2706,2817,2754.0,2708.0
17431,50412,US,125810,40.853704,-74.824877,Census,Town,NJ,"Hackettstown, New Jersey",0,0,0,0,0,0,0,1322,2202,2502,2417,2474,2715,2936,3038.0,3289,3894,5276.0,9472.0,8850,8120,10403.0,9724.0
17474,8491,US,125805,40.763125,-75.026248,Census,Census-designated place,NJ,"Brass Castle, New Jersey",0,0,0,0,0,0,0,0,0,0,0,0,0,0,0.0,0,0,0.0,0.0,0,1419,1507.0,1555.0
17486,45965,US,125657,40.956957,-74.158561,Census,Borough,NJ,"Hawthorne, New Jersey",0,0,0,0,0,0,0,0,0,0,0,2096,3400,5135,11868.0,12610,14816,17735.0,19173.0,18200,17084,18218.0,18791.0
17489,34423,US,125780,40.651249,-74.323137,Census,Borough,NJ,"Garwood, New Jersey",0,0,0,0,0,0,0,0,0,0,0,0,1118,2084,3344.0,3622,4622,5426.0,5260.0,4752,4227,4153.0,4226.0
17497,84618,US,136903,40.999093,-74.168849,Census,Township,NJ,"Wyckoff, New Jersey",0,0,0,0,0,0,0,0,0,0,0,1285,1509,1288,3001.0,3847,5590,11205.0,16039.0,15500,15372,16508.0,16696.0
17501,46652,US,125625,39.601551,-74.226367,Census,Township,NJ,"Long Beach Township, New Jersey",0,0,0,0,0,0,0,0,0,0,0,152,107,106,355.0,425,840,1561.0,2910.0,3488,3407,3329.0,3051.0
17522,40475,US,125756,40.952432,-74.65966,Census,Borough,NJ,"Hopatcong, New Jersey",0,0,0,0,0,0,0,0,0,0,0,75,146,179,534.0,660,1173,3391.0,9052.0,15531,15586,15888.0,15147.0
17532,40024,US,125051,39.916236,-74.717766,Census,Township,NJ,"Southampton Township, New Jersey",0,0,0,0,0,0,3545,2558,2374,2269,1849,1904,1778,1641,1637.0,1813,2341,3166.0,4982.0,8808,10202,10388.0,10464.0
17575,44136,US,125814,40.91031,-74.98577,Census,Township,NJ,"Hope Township, New Jersey",0,0,0,0,0,1903,1755,1789,1542,1569,1332,1144,1119,948,553.0,646,681,833.0,1140.0,1468,1719,1891.0,1952.0
17619,47675,US,125597,39.913101,-74.190445,Census,Township,NJ,"Berkeley Township, New Jersey",0,0,0,0,0,0,0,0,0,683,786,694,597,576,811.0,1127,1550,4272.0,7918.0,23151,37319,39991.0,41255.0
17667,72569,US,125019,40.071,-74.864,Census,City,NJ,"Burlington, New Jersey",0,0,0,0,0,0,4536,5174,5817,6090,7264,7392,8336,9049,10844.0,10905,12051,12687.0,12010.0,10246,9835,9736.0,9920.0
17697,42101,US,125680,39.694751,-75.445164,Census,Township,NJ,"Carneys Point Township, New Jersey",0,0,1638,1861,1638,1854,2422,2901,3178,3301,2239,775,744,6259,3879.0,4805,6717,7595.0,7016.0,8396,8443,7684.0,8049.0
17857,34878,US,125144,39.334878,-75.184579,Census,Township,NJ,"Lawrence Township, Cumberland County, New Jersey",0,0,0,0,0,0,0,0,0,0,1729,1658,1746,1549,1770.0,1754,2044,2639.0,2329.0,2116,2433,2721.0,3290.0
17898,45904,US,125732,40.642845,-74.436233,Census,Borough,NJ,"Watchung, New Jersey",0,0,0,0,0,0,0,0,0,0,0,0,0,0,906.0,1158,1818,3312.0,4750.0,5290,5110,5613.0,5801.0
17961,33902,US,125721,40.400348,-74.638922,Census,Borough,NJ,"Rocky Hill, New Jersey",0,0,0,0,0,0,0,0,0,0,0,354,502,305,512.0,404,537,528.0,917.0,717,693,662.0,682.0
17965,43323,US,125472,40.425627,-74.16869,Census,Township,NJ,"Hazlet, New Jersey",0,0,0,0,0,0,4198,2979,3443,3891,1368,1524,1583,1659,1568.0,1662,2763,15334.0,22239.0,23013,21976,21378.0,20334.0
18017,6366,US,36812560,40.531534,-74.54141,Census,Census-designated place,NJ,"Franklin Center, New Jersey",0,0,0,0,0,0,0,0,0,0,0,0,0,0,0.0,0,0,0.0,0.0,0,0,0.0,4460.0
18038,54137,US,125577,40.96267,-74.305205,Unknown,Township,NJ,"Pequannock Township, New Jersey",0,0,0,0,0,0,0,0,0,0,0,0,0,0,0.0,0,0,0.0,0.0,0,0,0.0,0.0
18057,38441,US,125654,41.035155,-74.333581,Census,Borough,NJ,"Bloomingdale, New Jersey",0,0,0,0,0,0,0,0,0,0,0,0,0,2193,2543.0,2606,3251,5293.0,7797.0,7867,7530,7610.0,7656.0
18064,42504,US,125574,40.891374,-74.441114,Census,Borough,NJ,"Mountain Lakes, New Jersey",0,0,0,0,0,0,0,0,0,0,0,0,0,0,2132.0,2205,2806,4037.0,4739.0,4153,3847,4256.0,4160.0
18075,49345,US,125559,40.796131,-74.493803,Census,Township,NJ,"Morris Township, New Jersey",0,0,3753,3524,3536,4013,4992,5985,5674,1419,1999,2571,3161,2824,5565.0,6107,7432,12092.0,19414.0,18486,19952,21796.0,22306.0
18094,31565,US,125647,39.941422,-74.209733,Census,Borough,NJ,"South Toms River, New Jersey",0,0,0,0,0,0,0,0,0,0,0,0,0,0,405.0,445,492,1603.0,3981.0,3954,3869,3634.0,3684.0
18146,62947,US,125624,39.632206,-74.335951,Census,Township,NJ,"Little Egg Harbor Township, New Jersey",0,1160,913,1102,1491,1875,2020,2375,1779,1881,1771,1856,388,410,547.0,577,644,847.0,2972.0,8483,13333,15945.0,20065.0
18151,131795,US,125242,40.76746,-74.032295,Census,Unknown,NJ,"Union City, New Jersey",0,0,0,0,0,0,0,0,4640,5849,10643,15187,21023,20651,58659.0,56173,55537,52180.0,57305.0,55593,58012,67088.0,66455.0
18173,74787,US,125791,40.633026,-74.372905,Census,Township,NJ,"Scotch Plains, New Jersey",0,0,0,0,0,0,0,0,0,1167,1305,1200,1616,2343,4186.0,4993,9069,18491.0,22279.0,20774,21160,22732.0,23510.0
18210,91242,US,125798,40.633274,-74.291296,Census,Township,NJ,"Winfield Township, New Jersey",0,0,0,0,0,0,0,0,0,0,0,0,0,0,0.0,0,2719,2458.0,2184.0,1785,1576,1514.0,1471.0
18315,36546,US,125829,40.821516,-75.033111,Census,Township,NJ,"White Township, New Jersey",0,0,0,0,0,0,0,0,0,0,0,0,0,1161,1200.0,1335,1536,1832.0,2326.0,2748,3603,4245.0,4882.0
18329,43059,US,125164,40.828127,-74.276197,Census,Borough,NJ,"Essex Fells, New Jersey",0,0,0,0,0,0,0,0,0,0,0,0,442,598,1115.0,1466,1617,2174.0,2541.0,2363,2139,2162.0,2113.0
18366,51844,US,93422,,,Census,US County,NJ,"Warren County, New Jersey",0,0,0,0,18627,20366,22358,28433,34336,36589,36553,37781,43187,45057,49319.0,50181,54374,63220.0,73960.0,84429,91607,102437.0,108692.0
18440,40237,US,125041,40.089961,-74.585444,Census,Township,NJ,"North Hanover Township, New Jersey",0,0,0,0,0,0,0,0,0,0,0,0,696,651,675.0,731,1155,2796.0,9858.0,9050,9994,7347.0,7678.0
18454,63583,US,93450,39.88,-74.67,Census,US County,NJ,"Burlington County, New Jersey",18095,21521,24979,28822,31107,32831,43203,49730,53639,55402,58528,58241,66565,81770,93541.0,97013,135910,224499.0,323132.0,362542,395066,423394.0,448734.0
18495,2601,US,3929354,40.91,-74.078,Census,township,NJ,"Midland Township, New Jersey",0,0,0,0,0,0,0,0,0,0,0,1298,1480,2203,0.0,0,0,0.0,0.0,0,0,0.0,0.0
18539,28542,US,89745,40.302787,-74.738004,Census,Census-designated place,NJ,"Lawrenceville, New Jersey",0,0,0,0,0,0,0,0,0,0,0,0,0,0,0.0,0,0,0.0,0.0,0,6446,4081.0,3887.0
18548,43230,US,125521,40.287904,-74.020019,Census,Borough,NJ,"West Long Branch, New Jersey",0,0,0,0,0,0,0,0,0,0,0,0,879,1686,1686.0,2030,2739,5337.0,6845.0,7380,7690,8258.0,8097.0
18610,6776,US,3393226,,,Census,township,NJ,"Lodi Township, New Jersey",0,0,0,0,0,0,1114,2063,3221,4071,5181,448,693,987,1294.0,0,0,0.0,0.0,0,0,0.0,0.0
18611,38779,US,125232,40.751965,-74.162202,Census,Borough,NJ,"East Newark, New Jersey",0,0,0,0,0,0,0,0,0,0,0,2500,3163,3057,2686.0,2273,2173,1872.0,1922.0,1923,2157,2377.0,2406.0
18669,57311,US,136876,40.939786,-73.958581,Census,Borough,NJ,"Cresskill, New Jersey",0,0,0,0,0,0,0,0,0,333,527,486,550,942,1924.0,2246,3534,7290.0,8298.0,7609,7558,7746.0,8573.0
18693,37061,US,125685,39.739885,-75.411655,Census,Township,NJ,"Oldmans Township, New Jersey",0,0,0,0,0,0,0,0,0,0,1432,1382,1364,1328,1431.0,1722,1657,2913.0,2088.0,1847,1683,1798.0,1773.0
18789,46618,US,125582,40.888304,-74.650869,Census,Township,NJ,"Roxbury Township, New Jersey",0,0,1563,1792,2262,2231,2269,2865,3320,2139,2739,2185,2414,2976,3879.0,4455,5707,9983.0,15754.0,18878,20429,23883.0,23324.0
18818,6737,US,38649097,41.188789,-74.504046,Census,Census-designated place,NJ,"Vernon Center, New Jersey",0,0,0,0,0,0,0,0,0,0,0,0,0,0,0.0,0,0,0.0,0.0,0,0,0.0,0.0
18855,70367,US,125118,39.263596,-74.604605,Census,City,NJ,"Ocean City, New Jersey",0,0,0,0,0,0,0,0,0,0,452,1307,1950,2512,5525.0,4672,6040,7618.0,10575.0,13949,15512,15378.0,11701.0
18961,88475,US,125436,40.52016,-74.271331,Census,City,NJ,"Perth Amboy, New Jersey",582,0,815,798,879,1303,1865,2302,2851,4808,9512,17699,32121,41707,43516.0,41242,41330,38007.0,38798.0,38951,41967,47303.0,50814.0
18964,42630,US,125508,40.130499,-74.033843,Census,Borough,NJ,"Sea Girt, New Jersey",0,0,0,0,0,0,0,0,0,0,0,0,0,110,386.0,599,1178,1798.0,2207.0,2650,2099,2148.0,1828.0
18965,49476,US,125737,40.960099,-74.713361,Census,Township,NJ,"Byram Township, New Jersey",0,0,591,672,958,1153,1340,1202,1332,1406,1380,1235,1055,409,245.0,373,761,1616.0,4592.0,7502,8048,8254.0,8350.0
18977,46344,US,125719,40.715443,-74.65679,Census,Borough,NJ,"Peapack-Gladstone, New Jersey",0,0,0,0,0,0,0,0,0,0,0,0,0,1226,1273.0,1354,1450,1804.0,1924.0,2038,2111,2433.0,2582.0
19042,36585,US,125207,39.660293,-74.972747,Census,Township,NJ,"Monroe Township, Gloucester County, New Jersey",0,0,0,0,0,0,0,1417,1663,1858,1945,2402,3015,3292,4064.0,4310,5531,9396.0,14071.0,21639,26703,28967.0,36129.0
19094,40219,US,125203,39.72601,-75.20505,Census,Township,NJ,"Harrison Township, New Jersey",0,0,0,0,0,0,1984,2544,3038,2841,1545,1569,1682,1633,1827.0,1805,2225,2410.0,2661.0,3585,4715,8788.0,12417.0
19115,43691,US,125711,40.690871,-74.621571,Census,Borough,NJ,"Far Hills, New Jersey",0,0,0,0,0,0,0,0,0,0,0,0,0,0,560.0,574,600,702.0,780.0,677,657,859.0,919.0
19138,60237,US,125532,40.903818,-74.406369,Census,Town,NJ,"Boonton, New Jersey",0,0,0,0,0,0,0,0,3458,2277,2981,3901,4930,5372,6866.0,6739,7163,7981.0,9261.0,8620,8343,8496.0,8347.0
19143,10243,US,125425,40.445716,-74.296163,Census,Census-designated place,NJ,"Madison Park, New Jersey",0,0,0,0,0,0,0,0,0,0,0,0,0,0,0.0,0,0,0.0,0.0,7447,7490,6929.0,7144.0
19158,26989,US,125076,39.833075,-74.965723,Census,Borough,NJ,"Gibbsboro, New Jersey",0,0,0,0,0,0,0,0,0,0,0,0,0,0,622.0,713,906,2141.0,2634.0,2510,2383,2435.0,2274.0
19207,11380,US,125147,39.250469,-75.042457,Census,Census-designated place,NJ,"Port Norris, New Jersey",0,0,0,0,0,0,0,0,0,0,0,0,0,0,0.0,0,0,0.0,0.0,0,1701,1507.0,1377.0
19269,138682,US,93428,41.14,-74.69,Census,US County,NJ,"Sussex County, New Jersey",19500,22534,25549,32752,20346,21770,22989,23846,23168,23539,22259,24134,26781,24905,27830.0,29632,34423,49255.0,77528.0,116119,130943,144166.0,149265.0
19323,65179,US,124975,40.822081,-73.987834,Census,Borough,NJ,"Cliffside Park, New Jersey",0,0,0,0,0,0,0,0,0,0,0,968,3394,5709,15267.0,16892,17116,17642.0,18891.0,21464,20393,23007.0,23594.0
19326,44249,US,125217,39.745884,-75.310947,Census,Borough,NJ,"Swedesboro, New Jersey",0,0,0,0,0,0,0,0,0,894,2035,0,1477,1838,2123.0,2268,2459,2449.0,2287.0,2031,2024,2055.0,2584.0
19352,39836,US,125670,41.043436,-74.289748,Census,Borough,NJ,"Wanaque, New Jersey",0,0,0,0,0,0,0,0,0,0,0,0,0,2916,3119.0,3143,4222,7126.0,8636.0,10025,9711,10266.0,11116.0
19438,67261,US,124995,41.02998,-74.243842,Census,Borough,NJ,"Oakland, New Jersey",0,0,0,0,0,0,0,0,0,0,0,479,568,497,735.0,932,1817,9446.0,14420.0,13443,11997,12466.0,12754.0
19461,9590,US,125530,40.401587,-74.219349,Census,Census-designated place,NJ,"Strathmore, New Jersey",0,0,0,0,0,0,0,0,0,0,0,0,0,0,0.0,0,0,0.0,0.0,0,7060,6740.0,7258.0
19513,110821,US,913710,40.785828,-74.3291,Census,Township,NJ,"Livingston, New Jersey",0,0,0,1056,1150,1081,1151,1323,1157,1401,1197,1412,1025,1126,3476.0,5972,9932,23124.0,30127.0,28040,26609,27391.0,29366.0
19573,9944,US,125802,40.819412,-74.853676,Census,Census-designated place,NJ,"Beattystown, New Jersey",0,0,0,0,0,0,0,0,0,0,0,0,0,0,0.0,0,0,0.0,0.0,0,3966,3223.0,4554.0
19605,54309,US,125008,40.902976,-74.101061,Census,Township,NJ,"Saddle Brook, New Jersey",0,0,2171,2291,3399,828,823,1007,1168,1355,1169,1954,3047,2845,2424.0,3169,7955,13834.0,15975.0,14084,13296,13155.0,13659.0
19627,48450,US,125585,40.784634,-74.797766,Census,Township,NJ,"Washington Township, Morris County, New Jersey",0,0,1793,1876,2188,2451,2502,2504,2484,2681,2367,2220,1900,1779,1615.0,1870,2147,3330.0,6962.0,11402,15592,17592.0,18533.0
19668,53334,US,125669,40.903266,-74.221372,Census,Borough,NJ,"Totowa, New Jersey",0,0,0,0,0,0,0,0,0,0,0,562,1130,1864,4600.0,5130,6045,10897.0,11580.0,11448,10177,9892.0,10804.0
19694,42920,US,125182,40.819861,-74.310168,Census,Borough,NJ,"Roseland, New Jersey",0,0,0,0,0,0,0,0,0,0,0,0,486,609,1058.0,1556,2019,2804.0,4453.0,5330,4847,5298.0,5819.0
19713,38373,US,125206,39.762012,-75.17309,Census,Township,NJ,"Mantua Township, New Jersey",0,0,0,0,0,0,0,1742,1897,1718,1791,2101,1529,2002,2677.0,2433,3548,7991.0,9643.0,9193,10074,14217.0,15217.0
19761,42820,US,125489,40.21197,-74.432241,Census,Township,NJ,"Millstone Township, New Jersey",0,0,0,0,0,0,1676,2356,2087,2080,1782,1509,1461,1405,1428.0,1466,2100,2550.0,2535.0,3926,5069,8970.0,10566.0
19817,11031,US,125124,39.016266,-74.935969,Census,Census-designated place,NJ,"Villas, New Jersey",0,0,0,0,0,0,0,0,0,0,0,0,0,0,0.0,0,0,0.0,1505.0,2734,8136,9064.0,9483.0
19969,8381,US,4229673,40.505696,-74.53337,Census,Census-designated place,NJ,"Middlebush, New Jersey",0,0,0,0,0,0,0,0,0,0,0,0,0,0,0.0,0,0,0.0,0.0,0,0,0.0,803.0
19978,40804,US,136923,39.853649,-74.811665,Census,Borough,NJ,"Medford Lakes, New Jersey",0,0,0,0,0,0,0,0,0,0,0,0,0,0,0.0,137,461,2876.0,4792.0,4958,4462,4173.0,4146.0
19990,23353,US,125034,39.901885,-74.929277,Census,Census-designated place,NJ,"Marlton, New Jersey",0,0,0,0,0,0,0,0,0,0,0,0,0,0,0.0,0,0,0.0,10180.0,9411,10228,10260.0,10133.0
20126,53538,US,125648,39.705632,-74.264121,Census,Township,NJ,"Stafford Township, New Jersey",883,0,1239,1428,2059,2149,1384,1436,1514,1008,1095,1009,934,830,1039.0,1253,1347,1930.0,3684.0,10385,13325,22532.0,26535.0
20143,58687,US,125642,39.945,-74.0788,Census,Borough,NJ,"Seaside Heights, New Jersey",0,0,0,0,0,0,0,0,0,0,0,0,0,154,399.0,549,862,954.0,1248.0,1802,2366,3155.0,2887.0
20149,38688,US,125480,40.232296,-74.000009,Census,Village,NJ,"Loch Arbour, New Jersey",0,0,0,0,0,0,0,0,0,0,0,0,0,0,0.0,0,0,297.0,395.0,369,380,280.0,194.0
20153,9702,US,125442,40.332747,-74.472422,Census,Census-designated place,NJ,"Rossmoor, New Jersey",0,0,0,0,0,0,0,0,0,0,0,0,0,0,0.0,0,0,0.0,0.0,0,3231,3129.0,2666.0
20205,8153,US,125099,39.876188,-74.972145,Census,Census-designated place,NJ,"Springdale, New Jersey",0,0,0,0,0,0,0,0,0,0,0,0,0,0,0.0,0,0,0.0,0.0,0,0,14409.0,14518.0
20234,85851,US,125617,40.077041,-74.200383,Census,Township,NJ,"Lakewood Township, New Jersey",0,0,0,0,0,0,0,0,0,1044,0,3094,5149,6110,7869.0,8502,10809,16020.0,25233.0,38464,45048,60352.0,92843.0
20236,40374,US,125145,39.295626,-74.928882,Census,Township,NJ,"Maurice River Township, New Jersey",0,0,2085,2411,2724,2143,2245,2430,2500,2374,2279,2132,2124,2016,2319.0,2261,2834,3105.0,3743.0,4577,6648,6928.0,7976.0
20294,44256,US,124955,39.563687,-74.595865,Census,City,NJ,"Egg Harbor City, New Jersey",0,0,0,0,0,0,0,789,1311,1232,1439,1808,2181,2622,3478.0,3589,3838,4416.0,4304.0,4618,4583,4545.0,4243.0
20387,42010,US,125811,41.040016,-75.006505,Census,Township,NJ,"Hardwick Township, New Jersey",0,0,2528,2335,1962,1957,727,792,638,583,503,400,405,352,331.0,367,370,370.0,548.0,947,1235,1464.0,1696.0
20409,40569,US,125202,39.833175,-75.29028,Census,Township,NJ,"Greenwich Township, Gloucester County, New Jersey",0,2526,2859,2699,2657,2958,3067,2199,2342,2598,1900,2252,874,1751,2361.0,2563,3152,4065.0,5676.0,5404,5102,4879.0,4899.0
20410,39416,US,125055,40.018416,-74.816778,Census,Township,NJ,"Westampton Township, New Jersey",0,0,0,0,0,0,1507,1313,1369,715,688,567,564,478,491.0,573,716,1114.0,2680.0,3383,6004,7217.0,8813.0
20432,8643,US,125452,40.330542,-74.445603,Census,Census-designated place,NJ,"Whittingham, New Jersey",0,0,0,0,0,0,0,0,0,0,0,0,0,0,0.0,0,0,0.0,0.0,0,0,2483.0,2476.0
20463,40342,US,125205,39.792079,-75.355179,Census,Township,NJ,"Logan Township, New Jersey",0,0,0,0,0,0,0,0,0,1765,1523,1444,1523,1510,1860.0,1630,2222,1924.0,1840.0,3078,5147,6032.0,6042.0
20537,53785,US,136891,40.786256,-74.12622,Census,Borough,NJ,"North Arlington, New Jersey",0,0,0,0,0,0,0,0,0,0,0,290,437,1767,8263.0,9904,15970,17477.0,18096.0,16587,13790,15181.0,15392.0
20540,8616,US,125417,40.389933,-74.572931,Census,Census-designated place,NJ,"Heathcote, New Jersey",0,0,0,0,0,0,0,0,0,0,0,0,0,0,0.0,0,0,0.0,0.0,0,3112,4755.0,5821.0
20562,55518,US,125093,39.968392,-75.057942,Census,Township,NJ,"Pennsauken Township, New Jersey",0,0,0,0,0,0,0,0,0,0,0,3145,4169,6474,16915.0,17745,22767,33771.0,36394.0,33775,34738,35737.0,35885.0
20597,43106,US,125634,39.78527,-74.217652,Census,Township,NJ,"Ocean Township, Ocean County, New Jersey",0,0,0,0,0,0,0,0,0,484,482,436,397,286,387.0,427,520,921.0,2222.0,3731,5416,6450.0,8332.0
20617,2170,US,9415500,38.933,-74.942,Census,borough,NJ,"South Cape May, New Jersey",0,0,0,0,0,0,0,0,0,0,0,14,7,10,6.0,0,0,0.0,0.0,0,0,0.0,0.0
20668,47114,US,125552,40.684827,-74.492069,Census,Township,NJ,"Long Hill Township, New Jersey",0,0,0,0,0,0,0,0,1624,1896,1821,2141,2165,2373,2149.0,2664,3429,5537.0,7393.0,7275,7826,8777.0,8702.0
20674,10761,US,125504,40.436673,-74.098641,Census,Census-designated place,NJ,"Port Monmouth, New Jersey",0,0,0,0,0,0,0,0,0,396,754,0,0,0,0.0,0,0,0.0,0.0,0,3558,3742.0,3818.0
20731,34422,US,125736,41.147239,-74.749033,Census,Borough,NJ,"Branchville, New Jersey",0,0,0,0,0,0,0,0,0,0,0,526,663,588,665.0,715,810,963.0,911.0,870,851,845.0,841.0
20766,48717,US,125013,41.013615,-74.125919,Census,Borough,NJ,"Waldwick, New Jersey",0,0,0,0,0,0,0,0,0,0,0,1207,970,1296,1728.0,2475,3963,10495.0,12313.0,10802,9757,9622.0,9625.0
20767,9699,US,125465,40.275752,-74.241309,Census,Census-designated place,NJ,"East Freehold, New Jersey",0,0,0,0,0,0,0,0,0,0,0,0,0,0,0.0,0,0,0.0,0.0,2990,3842,4936.0,4894.0
20777,11140,US,125523,40.428075,-74.078221,Census,Census-designated place,NJ,"Belford, New Jersey",0,0,0,0,0,0,0,0,0,0,0,0,0,0,0.0,0,0,0.0,0.0,0,0,1340.0,1768.0
20899,37455,US,125411,40.590231,-74.465595,Census,Borough,NJ,"Dunellen, New Jersey",0,0,0,0,0,0,0,0,0,817,1060,1239,1990,3394,5148.0,5360,6291,6840.0,7072.0,6593,6528,6823.0,7227.0
20900,17125,US,125393,40.323294,-74.621157,Census,Census-designated place,NJ,"Princeton Junction, New Jersey",0,0,0,0,0,0,0,0,0,0,0,0,0,0,0.0,0,0,0.0,0.0,0,2362,2382.0,2465.0
20907,44641,US,125200,39.700096,-75.111423,Census,Borough,NJ,"Glassboro, New Jersey",0,0,0,0,0,0,0,0,0,2088,2642,2677,2821,3073,4799.0,4925,5867,10253.0,12938.0,14574,15614,19068.0,18579.0
20933,14684,US,125553,40.78225,-74.776936,Census,Census-designated place,NJ,"Long Valley, New Jersey",0,0,0,0,0,0,0,0,0,0,0,0,0,0,0.0,0,0,0.0,0.0,0,1744,1818.0,1879.0
20958,53123,US,125473,40.40422,-73.990674,Census,Borough,NJ,"Highlands, New Jersey",0,0,0,0,0,0,0,0,0,0,0,1228,1386,1731,1877.0,2076,2959,3536.0,3916.0,5187,4849,5097.0,5005.0
21015,44175,US,125466,40.296142,-74.359584,Census,Borough,NJ,"Englishtown, New Jersey",0,0,0,0,0,0,0,0,0,0,444,410,468,641,797.0,815,1004,1143.0,1048.0,976,1268,1764.0,1847.0
21031,67536,US,93425,40.65,-74.29,Census,US County,NJ,"Union County, New Jersey",0,0,0,0,0,0,0,27780,41859,55571,72467,99353,140197,200157,305209.0,328344,398138,504255.0,543116.0,504094,493819,522541.0,536499.0
21060,42276,US,125254,40.630098,-74.867202,Census,Township,NJ,"Clinton Township, New Jersey",0,0,0,0,0,0,2369,2951,3134,2133,913,2296,2108,1987,1856.0,2349,2926,3770.0,5119.0,7345,10816,12957.0,13478.0
21068,39705,US,125139,39.372316,-75.238721,Census,Township,NJ,"Fairfield Township, Cumberland County, New Jersey",0,0,2279,1869,1812,1935,2133,2448,3011,3215,1688,1911,1629,1514,1848.0,1977,2932,3916.0,4990.0,5693,5699,6283.0,6295.0
21069,31101,US,125762,41.080091,-74.597626,Census,Borough,NJ,"Ogdensburg, New Jersey",0,0,0,0,0,0,0,0,0,0,0,0,0,939,1138.0,1165,1169,1212.0,2222.0,2737,2722,2638.0,2410.0
21130,40422,US,125349,40.70455,-74.971571,Census,Borough,NJ,"Hampton, New Jersey",0,0,0,0,0,0,0,0,0,0,0,998,914,916,861.0,864,975,1135.0,1386.0,1614,1515,1546.0,1401.0
21143,5962,US,35579521,39.260327,-74.873714,Census,Census-designated place,NJ,"Belleplain, New Jersey",0,0,0,0,0,0,0,0,0,0,0,0,0,0,0.0,0,0,0.0,0.0,0,0,0.0,597.0
21162,15838,US,125607,39.796991,-74.104637,Census,Census-designated place,NJ,"Forked River, New Jersey",0,0,0,0,0,0,0,0,0,0,0,0,0,0,0.0,0,0,0.0,0.0,0,4243,4914.0,5244.0
21214,59245,US,125444,40.467357,-74.319351,Census,Borough,NJ,"Sayreville, New Jersey",0,0,0,0,0,0,0,0,0,1930,3509,4155,5783,7181,8658.0,8186,10338,22553.0,32508.0,29969,34986,40377.0,42704.0
21258,33923,US,125026,40.003011,-74.757322,Census,Township,NJ,"Eastampton Township, New Jersey",0,0,0,0,0,0,0,0,0,566,654,584,508,539,503.0,498,692,1402.0,2284.0,3814,4962,6202.0,6069.0
21295,38985,US,125027,40.053356,-74.918438,Census,Township,NJ,"Edgewater Park, New Jersey",0,0,0,0,0,0,0,0,0,0,0,0,0,0,1243.0,1171,1279,2866.0,7412.0,9273,8388,7864.0,8881.0
21301,36943,US,125667,40.94152,-74.174435,Census,Borough,NJ,"Prospect Park, New Jersey",0,0,0,0,0,0,0,0,0,0,0,0,2719,4292,5909.0,5714,5242,5201.0,5176.0,5142,5053,5779.0,5865.0
21345,11838,US,125653,39.789812,-74.19327,Census,Census-designated place,NJ,"Waretown, New Jersey",0,0,0,0,0,0,0,0,0,0,0,0,0,0,0.0,0,0,0.0,0.0,0,1283,1582.0,1569.0
21419,37484,US,125043,39.970819,-74.685498,Census,Borough,NJ,"Pemberton, New Jersey",0,0,0,0,0,0,0,0,797,799,834,771,797,800,783.0,906,1194,1250.0,1344.0,1198,1367,1210.0,1409.0
21428,42399,US,125815,40.880001,-74.876253,Census,Township,NJ,"Independence Township, New Jersey",0,0,1224,1850,2126,2140,2621,1871,1766,1018,904,805,867,933,964.0,1046,1169,1509.0,2057.0,2829,3940,5603.0,5662.0
21437,48996,US,136887,40.961713,-73.997437,Census,Borough,NJ,"Haworth, New Jersey",0,0,0,0,0,0,0,0,0,0,0,418,588,748,1042.0,1419,1612,3215.0,3760.0,3509,3384,3390.0,3382.0
21441,75823,US,125173,40.732672,-74.271125,Census,Township,NJ,"Maplewood, New Jersey",0,0,0,0,0,0,0,0,2963,1733,1078,1630,2979,5283,21321.0,23139,25201,23977.0,24932.0,22950,21652,23868.0,23867.0
21479,36972,US,125806,40.708514,-75.045939,Census,Township,NJ,"Franklin Township, Warren County, New Jersey",0,0,0,0,0,1348,1565,1902,1655,1529,1283,1280,1585,1457,1213.0,1540,1530,1729.0,1973.0,2341,2404,2768.0,3176.0
21503,48495,US,125082,39.906216,-75.062951,Census,Township,NJ,"Haddon Township, New Jersey",0,0,0,0,0,0,0,0,1926,1071,888,2012,1465,2708,9198.0,9708,12379,17099.0,18192.0,15875,14837,14651.0,14707.0
21509,11189,US,37563418,40.834945,-74.179777,Census,Census-designated place,NJ,"Brookdale, New Jersey",0,0,0,0,0,0,0,0,0,0,0,0,0,0,0.0,0,0,0.0,0.0,0,0,0.0,9239.0
21553,40524,US,125131,39.228399,-74.809726,Census,Borough,NJ,"Woodbine, New Jersey",0,0,0,0,0,0,0,0,0,0,0,0,2399,1406,2164.0,2111,2417,2823.0,2625.0,2809,2678,2716.0,2472.0
21585,42157,US,125495,40.200211,-74.03362,Census,Borough,NJ,"Neptune City, New Jersey",0,0,0,0,0,0,0,0,0,0,0,1009,488,539,2258.0,2392,3073,4013.0,5502.0,5276,4997,5218.0,4869.0
21671,35780,US,125812,40.747701,-75.122777,Census,Township,NJ,"Harmony Township, New Jersey",0,0,0,0,0,1602,1565,1382,1405,1350,1152,1080,1490,1444,1311.0,1465,1763,2039.0,2195.0,2592,2653,2729.0,2667.0
21684,12390,US,125374,40.616169,-74.771893,Census,Census-designated place,NJ,"Whitehouse Station, New Jersey",0,0,0,0,0,0,0,0,0,0,0,0,0,0,0.0,0,0,0.0,0.0,0,1287,1951.0,2089.0
21791,40805,US,125586,40.896905,-74.574292,Census,Borough,NJ,"Wharton, New Jersey",0,0,0,0,0,0,0,0,0,0,775,2069,2983,2877,3683.0,3854,3853,5006.0,5535.0,5485,5405,6298.0,6522.0
21817,51487,US,136895,40.854705,-74.019926,Census,Village,NJ,"Ridgefield Park, New Jersey",0,0,0,0,0,0,0,0,0,0,0,1987,4512,8575,10764.0,11277,11993,12701.0,13990.0,12738,12454,12873.0,12729.0
21822,2833,US,17784690,40.615,-74.279,Census,township,NJ,"Rahway Township, New Jersey",0,0,1779,1945,1983,2533,3306,0,0,0,0,0,0,0,0.0,0,0,0.0,0.0,0,0,0.0,0.0
21888,10212,US,125589,40.928477,-74.516762,Census,Census-designated place,NJ,"White Meadow Lake, New Jersey",0,0,0,0,0,0,0,0,0,0,0,0,0,0,0.0,0,0,0.0,8499.0,8429,8002,9052.0,8836.0
21954,10151,US,125212,39.806271,-75.158815,Census,Census-designated place,NJ,"Oak Valley, New Jersey",0,0,0,0,0,0,0,0,0,0,0,0,0,0,0.0,0,0,0.0,0.0,0,4055,3747.0,3483.0
21993,6158,US,35103907,39.901243,-75.000829,Census,Census-designated place,NJ,"Barclay, New Jersey",0,0,0,0,0,0,0,0,0,0,0,0,0,0,0.0,0,0,0.0,0.0,0,0,0.0,4428.0
22038,69921,US,125133,39.427518,-75.227954,Census,City,NJ,"Bridgeton, New Jersey",0,0,0,0,0,0,0,0,6830,8722,11424,13913,14209,14323,15699.0,15992,18378,20966.0,20435.0,18795,18942,22771.0,25349.0
22080,38169,US,125040,40.015535,-74.571657,Census,Township,NJ,"New Hanover Township, New Jersey",0,0,2536,2642,2859,3045,2245,2526,2536,2373,1962,1847,948,5606,646.0,983,18168,28528.0,27410.0,14258,9546,9744.0,7385.0
22130,63865,US,136894,40.956651,-74.032858,Census,Borough,NJ,"Oradell, New Jersey",0,0,0,0,0,0,0,0,0,0,0,746,1005,1286,2360.0,2802,3665,7487.0,8903.0,8658,8024,8047.0,7978.0
22145,3602,US,3219503,41.02,-74.183,Census,township,NJ,"Franklin Township, Bergen County, New Jersey",0,0,0,0,0,0,0,0,0,0,0,2139,1054,1671,0.0,0,0,0.0,0.0,0,0,0.0,0.0
22193,114524,US,125458,40.222884,-74.010232,Census,City,NJ,"Asbury Park, New Jersey",0,0,0,0,0,0,0,0,0,0,0,4148,11150,13400,14981.0,14617,17094,17366.0,16533.0,17015,16799,16930.0,16116.0
22204,20269,US,125424,40.447787,-74.248358,Unknown,Census-designated place,NJ,"Laurence Harbor, New Jersey",0,0,0,0,0,0,0,0,0,0,0,0,0,0,0.0,0,0,0.0,0.0,0,0,0.0,0.0
22217,39302,US,48587271,40.395687,-74.390089,Census,Borough,NJ,"Spotswood, New Jersey",0,0,0,0,0,0,0,0,0,0,0,0,623,704,921.0,1201,2325,5788.0,7891.0,7840,7983,7880.0,8257.0
22254,74212,US,136910,39.856677,-74.90081,Census,Township,NJ,"Evesham Township, New Jersey",0,3381,3445,3977,4239,5060,3067,3145,3351,1602,1501,1429,1408,1284,1694.0,1655,2121,4548.0,13477.0,21508,35309,42275.0,45538.0
22299,41286,US,136900,40.852999,-74.060355,Census,Borough,NJ,"Teterboro, New Jersey",0,0,0,0,0,0,0,0,0,0,0,7,20,24,26.0,40,28,22.0,19.0,19,22,18.0,67.0
22364,39009,US,125684,39.623249,-75.414662,Census,Township,NJ,"Mannington Township, New Jersey",0,0,1664,1732,1726,2064,2187,2393,2351,2230,1870,1745,1606,1456,1584.0,1656,1686,2024.0,1913.0,1740,1693,1559.0,1806.0
22409,205774,US,106211,39.377297,-74.451082,Census,City,NJ,"Atlantic City, New Jersey",0,0,0,0,0,0,0,687,1043,5477,13055,27838,46150,50707,66198.0,64094,61657,59544.0,47859.0,40199,37986,40517.0,39558.0
22436,10766,US,125610,39.964154,-74.277814,Census,Census-designated place,NJ,"Holiday City-Berkeley, New Jersey",0,0,0,0,0,0,0,0,0,0,0,0,0,0,0.0,0,0,0.0,0.0,9019,14293,13884.0,12831.0
22456,12791,US,125140,39.373352,-75.208845,Census,Census-designated place,NJ,"Fairton, New Jersey",0,0,0,0,0,0,0,0,0,0,0,0,0,0,0.0,0,0,0.0,0.0,0,1359,2253.0,1264.0
22492,13040,US,125199,39.82454,-75.278082,Census,Census-designated place,NJ,"Gibbstown, New Jersey",0,0,0,0,0,0,0,0,0,0,0,0,0,0,0.0,0,0,0.0,0.0,0,3902,3758.0,3739.0
22502,35526,US,125799,40.920033,-74.819759,Census,Township,NJ,"Allamuchy Township, New Jersey",0,0,0,0,0,0,0,0,0,648,759,588,642,556,684.0,686,736,973.0,1138.0,2560,3484,3877.0,4323.0
22618,51712,US,125252,40.63681,-74.915205,Census,Town,NJ,"Clinton, New Jersey",0,0,0,0,0,0,0,0,785,842,913,816,836,950,932.0,1066,1118,1158.0,1742.0,1910,2054,2632.0,2719.0
22630,9116,US,125070,39.938885,-75.011805,Census,Census-designated place,NJ,"Cherry Hill Mall, New Jersey",0,0,0,0,0,0,0,0,0,0,0,0,0,0,0.0,0,0,0.0,0.0,0,0,13238.0,14171.0
22672,66536,US,125517,40.1673,-74.096089,Census,Township,NJ,"Wall Township, New Jersey",0,0,0,0,0,0,0,2283,2671,3829,3269,3212,3817,3324,3540.0,4383,7386,11929.0,16498.0,18952,20244,25261.0,26164.0
22711,66078,US,125167,40.804798,-74.204569,Census,Borough,NJ,"Glen Ridge, New Jersey",0,0,0,0,0,0,0,0,0,0,0,1960,3260,4620,7365.0,7331,7620,8322.0,8518.0,7855,7076,7271.0,7527.0
22721,33629,US,125061,39.896837,-75.088819,Census,Borough,NJ,"Audubon Park, New Jersey",0,0,0,0,0,0,0,0,0,0,0,0,0,0,0.0,0,1859,1713.0,1492.0,1274,1150,1102.0,1023.0
22787,42408,US,125608,39.699578,-74.141511,Census,Borough,NJ,"Harvey Cedars, New Jersey",0,0,0,0,0,0,0,0,0,0,0,39,33,65,53.0,74,106,134.0,314.0,363,362,359.0,337.0
22799,56558,US,125640,40.077328,-74.070068,Census,Borough,NJ,"Point Pleasant, New Jersey",0,0,0,0,0,0,0,0,0,0,0,0,0,0,2058.0,2082,4009,10182.0,15968.0,17747,18177,19306.0,18392.0
22821,2024,US,17797047,,,Census,Unknown,NJ,"Randolph Township, Burlington County, New Jersey",0,0,0,0,0,0,0,0,450,428,302,0,0,0,0.0,0,0,0.0,0.0,0,0,0.0,0.0
22830,61921,US,125581,40.958742,-74.499844,Census,Township,NJ,"Rockaway Township, New Jersey",0,0,0,0,0,0,3139,3551,6445,7366,6033,4528,4835,3505,3178.0,2423,4418,10356.0,18955.0,19850,19572,22930.0,24156.0
22838,45653,US,125052,40.033565,-74.706598,Census,Township,NJ,"Springfield Township, Burlington County, New Jersey",0,0,1500,1568,1534,1632,1827,1810,1761,1886,1670,1382,1278,1223,1326.0,1299,1562,1956.0,2244.0,2691,3028,3227.0,3414.0
22921,48692,US,125720,40.572127,-74.646514,Census,Borough,NJ,"Raritan, New Jersey",0,0,0,0,0,0,0,0,1009,2046,2556,3244,3672,4457,4751.0,4839,5131,6137.0,6691.0,6128,5798,6338.0,6881.0
22935,35664,US,125427,40.574627,-74.498259,Census,Borough,NJ,"Middlesex, New Jersey",0,0,0,0,0,0,0,0,0,0,0,0,0,1852,3504.0,3763,5943,10520.0,15038.0,13480,13055,13717.0,13635.0
22971,36085,US,125534,40.931264,-74.424928,Census,Township,NJ,"Boonton Township, New Jersey",0,0,0,0,0,0,0,0,0,405,326,809,428,684,623.0,817,1155,1998.0,3070.0,3273,3566,4287.0,4263.0
22985,8504,US,125611,39.939383,-74.257272,Census,Census-designated place,NJ,"Holiday Heights, New Jersey",0,0,0,0,0,0,0,0,0,0,0,0,0,0,0.0,0,0,0.0,0.0,0,703,2389.0,2099.0
23009,44040,US,125083,39.879127,-75.065918,Census,Borough,NJ,"Haddon Heights, New Jersey",0,0,0,0,0,0,0,0,0,0,0,0,1452,2950,5394.0,5555,7287,9260.0,9365.0,8361,7860,7547.0,7473.0
23127,51964,US,125788,40.652211,-74.260158,Census,Borough,NJ,"Roselle, New Jersey",0,0,0,0,0,0,0,0,0,737,996,1652,2725,5737,13021.0,13597,17681,21032.0,22585.0,20641,20314,21274.0,21085.0
23158,49410,US,125786,40.69889,-74.406623,Census,Borough,NJ,"New Providence, New Jersey",0,0,0,0,0,0,0,0,0,0,0,565,873,1203,1918.0,2374,3380,10243.0,13796.0,12426,11439,11907.0,12171.0
23165,40633,US,125449,40.574413,-74.4148,Census,Borough,NJ,"South Plainfield, New Jersey",0,0,0,0,0,0,0,0,0,0,0,0,0,0,5047.0,5379,8008,17879.0,21142.0,20512,20489,21810.0,23385.0
23194,47242,US,125384,40.389009,-74.763861,Census,Borough,NJ,"Hopewell, New Jersey",0,0,0,0,0,0,0,0,0,0,0,980,1073,1339,1467.0,1678,1869,1928.0,2271.0,2001,1968,2035.0,1922.0
23205,32328,US,125138,39.269497,-75.133318,Census,Township,NJ,"Downe Township, New Jersey",0,0,1501,1749,1923,1920,2341,3114,3385,1687,1793,1833,1519,1322,1574.0,1546,1786,1870.0,1777.0,1803,1702,1631.0,1585.0
23227,49428,US,136917,40.087416,-74.712259,Census,Township,NJ,"Mansfield Township, Burlington County, New Jersey",0,0,1810,1927,2083,2401,2953,2777,2880,1648,1671,1518,1526,1517,1709.0,1642,1907,2084.0,2597.0,2523,3874,5090.0,8544.0
23232,9479,US,125045,39.95792,-74.674924,Census,Census-designated place,NJ,"Pemberton Heights, New Jersey",0,0,0,0,0,0,0,0,0,0,0,0,0,0,0.0,0,0,0.0,0.0,3150,2941,2512.0,2423.0
23275,8713,US,125404,40.309995,-74.464629,Census,Census-designated place,NJ,"Clearbrook Park, New Jersey",0,0,0,0,0,0,0,0,0,0,0,0,0,0,0.0,0,0,0.0,0.0,0,2853,3053.0,2667.0
23312,60135,US,125365,40.581601,-74.777851,Census,Township,NJ,"Readington Township, New Jersey",0,0,1717,1964,2102,2373,2836,3076,3070,3103,2813,2670,2569,2525,2811.0,2905,4080,6147.0,7688.0,10855,13400,15803.0,16126.0
23324,46067,US,125114,38.983768,-74.911308,Census,Township,NJ,"Lower Township, New Jersey",0,0,862,1001,999,1133,1604,1865,1783,1779,1156,1141,1188,1096,1444.0,1693,2737,6332.0,10154.0,17105,20820,22945.0,22866.0
23395,9409,US,3535670,39.705469,-75.468143,Census,Census-designated place,NJ,"Carneys Point (CDP), New Jersey",0,0,0,0,0,0,0,0,0,0,0,0,0,0,0.0,0,0,0.0,0.0,0,7686,6914.0,7382.0
23419,9116,US,125468,40.365312,-74.080588,Census,Census-designated place,NJ,"Fairview, Monmouth County, New Jersey",0,0,0,0,0,0,0,0,0,0,0,0,0,0,0.0,0,0,0.0,0.0,0,3853,3942.0,3806.0
23440,98008,US,21229975,40.785753,-74.26506,Census,Township,NJ,"West Orange, New Jersey",0,0,0,0,0,0,0,0,2106,3385,4358,6889,10980,15573,24327.0,25662,28605,39895.0,43715.0,39510,39103,44943.0,46207.0
23473,63103,US,125448,40.385022,-74.522936,Census,Township,NJ,"South Brunswick, New Jersey",1817,0,2332,2489,2557,2797,3368,3816,3779,2803,2403,2337,2443,2206,2758.0,3129,4001,10278.0,14058.0,17127,25792,37734.0,43417.0
23474,40062,US,125822,40.808466,-74.91023,Census,Township,NJ,"Mansfield Township, Warren County, New Jersey",0,0,2058,2787,3310,3057,1615,1688,1997,1709,1362,1324,1238,1133,1139.0,1254,1497,2130.0,3546.0,5780,7154,6653.0,7725.0
23477,132431,US,125794,40.715622,-74.364684,Census,City,NJ,"Summit, New Jersey",0,0,0,0,0,0,0,0,1176,1910,3502,5302,7500,10174,14556.0,16165,17929,23677.0,23620.0,21071,19757,21131.0,21457.0
23592,67760,US,93445,,,Census,US County,NJ,"Essex County, New Jersey",17785,22269,25984,30793,41911,44621,73950,98877,143839,189929,256098,359053,512886,652089,833513.0,837340,905949,923545.0,932526.0,851304,778206,793633.0,783969.0
23600,11137,US,125604,39.991931,-74.07168,Census,Census-designated place,NJ,"Dover Beaches North, New Jersey",0,0,0,0,0,0,0,0,0,0,0,0,0,0,0.0,0,0,0.0,0.0,0,0,1785.0,1239.0
23603,77117,US,125183,40.748811,-74.261513,Census,Township,NJ,"South Orange, New Jersey",0,0,0,0,0,0,0,0,0,2178,3106,4608,6014,7274,13630.0,13742,15230,16175.0,16971.0,15864,16390,16964.0,16198.0
23647,28871,US,125071,39.731289,-74.879927,Census,Borough,NJ,"Chesilhurst, New Jersey",0,0,0,0,0,0,0,0,0,0,0,283,246,287,298.0,308,314,384.0,801.0,1590,1526,1520.0,1634.0
23678,116078,US,93442,40.73,-74.08,Census,US County,NJ,"Hudson County, New Jersey",0,0,0,0,0,9483,21822,62717,129067,187944,275126,386048,537231,629154,690730.0,652040,647437,610734.0,607839.0,556972,553099,608975.0,634266.0
23691,71367,US,125419,40.500795,-74.427911,Census,Borough,NJ,"Highland Park, New Jersey",0,0,0,0,0,0,0,0,0,0,0,0,1517,4866,8691.0,9002,9721,11049.0,14385.0,13396,13279,13999.0,13982.0
23712,33102,US,125086,39.820543,-75.005445,Census,Borough,NJ,"Laurel Springs, New Jersey",0,0,0,0,0,0,0,0,0,0,0,0,0,911,1343.0,1344,1540,2028.0,2566.0,2249,2341,1970.0,1908.0
23735,45199,US,125193,39.813794,-75.118693,Census,Township,NJ,"Deptford Township, New Jersey",0,2510,2978,3281,3599,2570,3355,4213,2698,1520,1681,2114,2524,2224,4507.0,4738,7304,17878.0,24232.0,23473,24137,26763.0,30561.0
23746,58007,US,125341,40.508651,-74.860113,Census,Borough,NJ,"Flemington, New Jersey",0,0,0,0,0,0,0,1174,1412,1751,1977,2145,2693,2590,2729.0,2617,3058,3232.0,3917.0,4132,4047,4200.0,4581.0
23775,62903,US,125073,39.915275,-75.078392,Census,Borough,NJ,"Collingswood, New Jersey",0,0,0,0,0,0,0,0,0,0,539,1633,4795,8714,12723.0,12685,15800,17370.0,17422.0,15838,15289,14326.0,13926.0
23778,36862,US,125141,39.396273,-75.367551,Census,Township,NJ,"Greenwich Township, Cumberland County, New Jersey",0,0,858,890,912,918,1158,1265,1262,1245,1173,1283,1145,966,979.0,929,966,1086.0,963.0,973,911,847.0,804.0
23796,51888,US,136873,39.31608,-74.60677,Census,City,NJ,"Somers Point, New Jersey",0,0,0,0,0,0,0,0,0,0,191,308,604,843,2073.0,1992,2480,4504.0,7919.0,10330,11216,11614.0,10795.0
23833,36200,US,125612,39.941792,-74.143814,Census,Borough,NJ,"Island Heights, New Jersey",0,0,0,0,0,0,0,0,0,34,271,316,313,194,453.0,392,795,1150.0,1397.0,1575,1470,1751.0,1673.0
23839,88076,US,125797,40.651644,-74.343447,Census,Town,NJ,"Westfield, New Jersey",0,0,2152,2358,2492,3150,1577,1719,2753,2216,2739,4328,6420,9063,15801.0,18458,21243,31447.0,33720.0,30447,28870,29644.0,30316.0
23855,58781,US,125461,40.179663,-74.02444,Census,Borough,NJ,"Belmar, New Jersey",0,0,0,0,0,0,0,0,0,0,0,902,1433,1987,3491.0,3435,4636,5190.0,5782.0,6771,5877,6045.0,5794.0
23863,47425,US,125501,40.316012,-74.020479,Census,Borough,NJ,"Oceanport, New Jersey",0,0,0,0,0,0,0,0,0,0,0,0,0,0,1872.0,3159,7588,4937.0,7503.0,5888,6146,5807.0,5832.0
23885,35207,US,125227,39.813376,-75.150617,Census,Borough,NJ,"Woodbury Heights, New Jersey",0,0,0,0,0,0,0,0,0,0,0,0,0,481,997.0,1137,1373,1723.0,3621.0,3460,3392,2988.0,3055.0
23991,37953,US,125772,41.252181,-74.632827,Census,Township,NJ,"Wantage Township, New Jersey",0,0,2969,3307,4034,3908,3934,3862,3636,3361,3412,2217,2077,1898,2075.0,2376,2543,3308.0,4329.0,7268,9487,10387.0,11358.0
23996,45191,US,125575,40.897852,-74.701704,Census,Borough,NJ,"Netcong, New Jersey",0,0,0,0,0,0,0,0,0,0,0,941,1532,1800,2097.0,2157,2284,2765.0,2858.0,3557,3311,2580.0,3232.0
24018,51338,US,124978,40.904526,-74.119514,Census,Borough,NJ,"Elmwood Park, New Jersey",0,0,0,0,0,0,0,0,0,0,0,892,1396,2441,4779.0,4937,15386,19344.0,20511.0,18377,17623,18925.0,19403.0
24029,56311,US,125544,40.81995,-74.427986,Census,Township,NJ,"Hanover Township, New Jersey",0,0,3843,3503,3718,3909,3614,3476,3623,4138,4481,5366,6228,8531,2516.0,2812,3756,9329.0,10700.0,11846,11538,12898.0,13712.0
24036,15416,US,125595,39.670428,-74.233123,Unknown,Census-designated place,NJ,"Beach Haven West, New Jersey",0,0,0,0,0,0,0,0,0,0,0,0,0,0,0.0,0,0,0.0,0.0,0,0,0.0,0.0
24082,146348,US,136885,40.889398,-74.045698,Census,City,NJ,"Hackensack, New Jersey",0,0,2835,2592,1693,2104,2265,3558,4929,4248,6004,9443,14050,17667,24568.0,26279,29219,30521.0,36008.0,36039,37049,42677.0,43010.0
24084,64713,US,125432,40.319474,-74.428802,Census,Township,NJ,"Monroe Township, Middlesex County, New Jersey",0,0,0,0,0,2453,3001,3132,3253,3017,2153,1829,2238,2625,2894.0,3034,4082,5831.0,9138.0,15858,22255,27999.0,39132.0
24088,35505,US,124953,39.30162,-74.76024,Census,City,NJ,"Corbin City, New Jersey",0,0,0,0,0,0,0,0,0,0,0,0,0,0,256.0,220,238,271.0,258.0,254,412,468.0,492.0
24099,50938,US,125709,40.560479,-74.714754,Census,Township,NJ,"Branchburg, New Jersey",0,0,0,0,0,0,1143,1174,1251,1316,1152,1012,970,931,1084.0,1231,1958,3741.0,5742.0,7846,10888,14566.0,14459.0
24196,57422,US,125474,40.182051,-74.19852,Census,Township,NJ,"Howell Township, New Jersey",0,0,2780,3354,4141,4699,4058,2574,3371,3374,3018,3103,2703,2549,3146.0,4039,6696,11153.0,21756.0,25065,38987,48903.0,51075.0
24206,40587,US,125125,38.942226,-74.939033,Census,Borough,NJ,"West Cape May, New Jersey",0,0,0,0,0,0,0,0,0,0,757,696,844,967,1048.0,934,897,1030.0,1005.0,1091,1026,1095.0,1024.0
24237,75407,US,125245,40.786032,-74.009507,Census,Town,NJ,"West New York, New Jersey",0,0,0,0,0,0,0,0,0,0,0,5267,13560,29916,37107.0,39439,37683,35547.0,40627.0,39194,38125,45768.0,49708.0
24268,36051,US,125511,40.170011,-74.024861,Census,Borough,NJ,"Lake Como, New Jersey",0,0,0,0,0,0,0,0,0,0,0,0,0,0,886.0,955,1294,1537.0,1490.0,1566,1482,1806.0,1759.0
24289,63995,US,124960,39.491453,-74.473865,Census,Township,NJ,"Galloway Township, New Jersey",0,0,1648,1895,2960,2208,2307,2735,2860,2337,2208,2469,1976,2115,3416.0,3457,4140,5634.0,8276.0,12176,23330,31209.0,37349.0
24346,40272,US,125529,40.326064,-74.059667,Census,Borough,NJ,"Shrewsbury, New Jersey",0,0,0,0,0,0,0,0,0,0,0,0,0,0,857.0,1058,1613,3222.0,3315.0,2962,3096,3590.0,3809.0
24415,33596,US,125678,39.562311,-75.310603,Census,Township,NJ,"Alloway Township, New Jersey",0,0,1921,2194,2136,2235,2530,2899,3062,1917,1675,1528,1533,1431,1575.0,1705,1792,2226.0,2550.0,2680,2795,2774.0,3467.0
24492,40191,US,125090,39.95012,-75.05009,Census,Borough,NJ,"Merchantville, New Jersey",0,0,0,0,0,0,0,0,245,439,1225,1608,1996,2749,3592.0,3679,4183,4075.0,4425.0,3972,4095,3801.0,3821.0
24536,59551,US,125039,39.948992,-74.900247,Census,Township,NJ,"Mount Laurel, New Jersey",0,0,0,0,0,0,0,0,0,1739,1699,1644,1573,1667,1929.0,2189,2817,5249.0,11221.0,17614,30270,40221.0,41864.0
24541,35735,US,125734,40.985758,-74.74359,Census,Borough,NJ,"Andover, New Jersey",0,0,0,0,0,0,0,0,0,0,0,0,884,417,479.0,512,560,734.0,813.0,892,700,658.0,606.0
24710,35168,US,125196,39.662752,-75.156972,Census,Township,NJ,"Elk Township, New Jersey",0,0,0,0,0,0,0,0,0,0,0,997,1022,951,1623.0,1656,2074,2635.0,2707.0,3187,3806,3514.0,4216.0
24713,12565,US,125122,39.19614,-74.659412,Census,Census-designated place,NJ,"Strathmere, New Jersey",0,0,0,0,0,0,0,0,0,0,0,0,0,0,0.0,0,0,0.0,0.0,0,0,175.0,158.0
24720,46203,US,124964,39.343718,-74.57105,Census,City,NJ,"Linwood, New Jersey",0,0,0,0,0,0,0,0,0,0,536,495,602,638,1514.0,1479,1925,3847.0,6159.0,6144,6866,7172.0,7092.0
24741,33245,US,125753,41.0919,-74.78852,Census,Township,NJ,"Hampton Township, New Jersey",0,0,0,0,0,0,0,0,1023,895,866,775,671,592,581.0,611,668,1174.0,2091.0,3916,4438,4943.0,5196.0
24751,56713,US,125792,40.697899,-74.33452,Census,Township,NJ,"Springfield Township, Union County, New Jersey",0,0,2360,1804,1656,1651,1945,1020,770,844,959,1073,1246,1715,3725.0,4148,7214,14467.0,15740.0,13955,13420,14429.0,15817.0
24795,41585,US,125360,40.726368,-74.894441,Census,Township,NJ,"Lebanon Township, New Jersey",0,0,2419,2817,3436,3849,2128,2495,3561,2699,2337,2253,2179,1083,1269.0,1437,1971,2841.0,4235.0,5459,5679,5816.0,6588.0
24916,42074,US,125215,39.732942,-75.130695,Census,Borough,NJ,"Pitman, New Jersey",0,0,0,0,0,0,0,0,0,0,0,0,1950,3385,5411.0,5507,6960,8644.0,10257.0,9744,9365,9331.0,9011.0
24925,38274,US,125358,40.641862,-74.833312,Census,Borough,NJ,"Lebanon, New Jersey",0,0,0,0,0,0,0,0,0,0,0,0,0,0,550.0,638,752,880.0,885.0,820,1036,1065.0,1358.0
24958,11482,US,125112,38.958852,-74.852009,Census,Census-designated place,NJ,"Diamond Beach, New Jersey",0,0,0,0,0,0,0,0,0,0,0,0,0,0,0.0,0,0,0.0,0.0,0,0,136.0,218.0
24980,48478,US,125104,39.701722,-74.908351,Census,Township,NJ,"Winslow Township, New Jersey",0,0,0,0,0,0,1540,1800,2050,2158,2408,2392,2919,3379,4744.0,4866,5102,9142.0,11202.0,20034,30087,34611.0,39599.0
24997,39265,US,125513,40.149592,-74.045981,Census,Borough,NJ,"Spring Lake Heights, New Jersey",0,0,0,0,0,0,0,0,0,0,0,0,0,0,1221.0,1076,1798,3309.0,4602.0,5424,5341,5227.0,4713.0
24998,46627,US,136974,40.411771,-74.019836,Census,Borough,NJ,"Atlantic Highlands, New Jersey",0,0,0,0,0,0,0,0,0,0,945,1383,1645,1629,2000.0,2335,3083,4119.0,5102.0,4950,4629,4705.0,4385.0
25042,52704,US,125021,40.000162,-74.991632,Census,Township,NJ,"Cinnaminson Township, New Jersey",0,0,0,0,0,0,0,2701,3112,2184,2891,1078,1266,1587,2277.0,2504,3144,8302.0,16962.0,16072,14583,14595.0,15569.0
25096,9891,US,3535729,39.652074,-75.509256,Census,Census-designated place,NJ,"Pennsville (CDP), New Jersey",0,0,0,0,0,0,0,0,0,0,0,0,0,0,0.0,0,0,0.0,11014.0,12467,12218,11657.0,11888.0
25101,50670,US,125403,40.58379,-74.227458,Census,Borough,NJ,"Carteret, New Jersey",0,0,0,0,0,0,0,0,0,0,0,0,5785,11047,13339.0,11976,13030,20502.0,23137.0,20598,19025,20709.0,22844.0
25115,55969,US,125789,40.665265,-74.266706,Census,Borough,NJ,"Roselle Park, New Jersey",0,0,0,0,0,0,0,0,0,0,0,0,3138,5438,8969.0,9661,11537,12546.0,14277.0,13377,12805,13281.0,13297.0
25127,35176,US,125682,39.533318,-75.498478,Census,Township,NJ,"Elsinboro Township, New Jersey",0,0,517,505,503,526,655,749,700,570,524,445,419,374,405.0,663,674,1220.0,1204.0,1290,1170,1092.0,1036.0
25179,36426,US,125100,39.828957,-75.015458,Census,Borough,NJ,"Stratford, New Jersey",0,0,0,0,0,0,0,0,0,0,0,0,0,0,958.0,980,1356,4308.0,9801.0,8005,7614,7271.0,7040.0
25182,62188,US,136880,40.889682,-73.942047,Census,Borough,NJ,"Englewood Cliffs, New Jersey",0,0,0,0,0,0,0,0,0,0,0,218,410,534,809.0,888,966,2913.0,5938.0,5698,5634,5322.0,5281.0
25185,103846,US,125230,40.662411,-74.110228,Census,City,NJ,"Bayonne, New Jersey",0,0,0,0,0,0,0,0,3834,9372,19033,32722,55545,76754,88979.0,79198,77203,74215.0,72743.0,65047,61444,61842.0,63024.0
25209,16527,US,125477,40.419287,-74.060197,Census,Census-designated place,NJ,"Leonardo, New Jersey",0,0,0,0,0,0,0,0,0,0,0,0,0,0,0.0,0,0,0.0,0.0,0,3788,2823.0,2757.0
25347,40564,US,125644,39.645354,-74.183003,Census,Borough,NJ,"Ship Bottom, New Jersey",0,0,0,0,0,0,0,0,0,0,0,0,0,0,277.0,396,533,717.0,1079.0,1427,1352,1384.0,1156.0
25350,16290,US,125224,39.684113,-74.968819,Census,Census-designated place,NJ,"Williamstown, New Jersey",0,0,0,0,0,0,0,0,0,0,0,0,0,0,0.0,0,0,2722.0,4075.0,5768,10891,11812.0,15567.0
25383,154037,US,125237,40.714,-74.071,Census,City,NJ,"Jersey City, New Jersey",0,0,0,0,0,3072,6856,29226,82546,120722,163003,206433,267779,298103,316715.0,301173,299017,276101.0,260350.0,223532,228537,240055.0,247597.0
25390,39162,US,125526,40.291607,-74.054357,Census,Borough,NJ,"Eatontown, New Jersey",0,0,0,0,0,0,0,0,0,2642,2953,3021,2076,2682,1938.0,1758,3044,10334.0,14619.0,12703,13800,14008.0,12709.0
25402,9084,US,125599,39.953737,-74.400284,Census,Census-designated place,NJ,"Cedar Glen Lakes, New Jersey",0,0,0,0,0,0,0,0,0,0,0,0,0,0,0.0,0,0,0.0,0.0,0,1611,1617.0,1421.0
25405,64541,US,136884,40.959471,-74.125202,Census,Borough,NJ,"Glen Rock, New Jersey",0,0,0,0,0,0,0,0,0,0,0,613,1055,2181,4369.0,5177,7145,12896.0,13011.0,11497,10883,11546.0,11601.0
25410,55541,US,136893,41.030312,-73.985919,Census,Borough,NJ,"Old Tappan, New Jersey",0,0,0,0,0,0,0,0,0,0,0,269,305,404,600.0,609,828,2330.0,3917.0,4168,4254,5482.0,5750.0
25500,16337,US,125463,40.443266,-74.21796,Census,Census-designated place,NJ,"Cliffwood Beach, New Jersey",0,0,0,0,0,0,0,0,0,0,0,0,0,0,0.0,0,0,0.0,0.0,0,3543,3538.0,3194.0
25568,9573,US,125046,39.914955,-74.563509,Census,Census-designated place,NJ,"Presidential Lakes Estates, New Jersey",0,0,0,0,0,0,0,0,0,0,0,0,0,0,0.0,0,0,0.0,0.0,2607,2450,2332.0,2365.0
25599,47288,US,125739,41.164296,-74.737798,Census,Township,NJ,"Frankford Township, New Jersey",0,0,1637,2008,1996,2410,1941,1828,1776,1682,1459,932,1004,936,1074.0,1244,1530,2170.0,2777.0,4654,5114,5420.0,5565.0
25656,58816,US,125613,40.093077,-74.35618,Census,Township,NJ,"Jackson Township, New Jersey",0,0,0,0,0,0,1333,1606,1755,1803,1717,1595,1325,1268,1719.0,2153,3513,5939.0,18276.0,25644,33233,42816.0,54856.0
25659,9376,US,125738,41.122688,-74.840523,Census,Census-designated place,NJ,"Crandon Lakes, New Jersey",0,0,0,0,0,0,0,0,0,0,0,0,0,0,0.0,0,0,0.0,0.0,0,1177,1180.0,1178.0
25664,101033,US,125569,40.796562,-74.477318,Census,Town,NJ,"Morristown, New Jersey",0,0,0,0,0,0,0,0,0,5418,8156,11267,12507,12548,15197.0,15270,17124,17712.0,17662.0,16614,16189,18544.0,18411.0
25688,41491,US,125715,40.54127,-74.589273,Census,Borough,NJ,"Manville, New Jersey",0,0,0,0,0,0,0,0,0,0,0,0,0,0,5441.0,6065,8597,10995.0,13029.0,11278,10567,10343.0,10344.0
25723,53512,US,124983,40.862751,-74.075182,Census,Borough,NJ,"Hasbrouck Heights, New Jersey",0,0,0,0,0,0,0,0,0,0,0,1255,2155,2895,5658.0,6716,9181,13046.0,13651.0,12166,11488,11662.0,11842.0
25772,43823,US,136906,40.130014,-74.697203,Census,Township,NJ,"Bordentown Township, New Jersey",0,0,0,0,0,0,0,4027,6041,1076,858,488,608,596,818.0,1095,2033,5936.0,7303.0,7170,7683,8380.0,11367.0
25775,35080,US,125606,39.639039,-74.291364,Census,Township,NJ,"Eagleswood Township, New Jersey",0,0,0,0,0,0,0,0,0,592,791,563,550,420,483.0,551,623,766.0,823.0,1009,1476,1441.0,1603.0
25779,9479,US,36267400,40.11916,-74.808773,Census,Census-designated place,NJ,"Florence (CDP), New Jersey",0,0,0,0,0,0,0,0,0,0,0,0,0,0,0.0,0,0,0.0,0.0,0,0,0.0,4426.0
25814,15339,US,125208,39.725999,-75.21882,Census,Census-designated place,NJ,"Mullica Hill, New Jersey",0,0,0,0,0,0,0,0,0,0,0,0,0,0,0.0,0,0,0.0,0.0,0,1117,1658.0,3982.0
25854,32269,US,125392,40.357115,-74.670165,Census,Township,NJ,"Princeton Township, New Jersey",0,0,0,0,0,0,0,0,1188,1139,809,955,1178,1424,2738.0,3251,5407,10411.0,13651.0,13683,13198,16027.0,16265.0
26005,14145,US,125398,40.191823,-74.701372,Unknown,Census-designated place,NJ,"White Horse, New Jersey",0,0,0,0,0,0,0,0,0,0,0,0,0,0,0.0,0,0,0.0,0.0,0,0,0.0,0.0
26032,45303,US,136911,40.094624,-74.783817,Census,Township,NJ,"Florence Township, New Jersey",0,0,0,0,0,0,0,0,0,1528,1922,1955,4731,7100,7824.0,7229,7455,8127.0,8560.0,9084,10266,10746.0,12109.0
26054,32728,US,125095,39.786806,-74.984657,Census,Borough,NJ,"Pine Hill, New Jersey",0,0,0,0,0,0,0,0,0,0,0,0,0,0,1392.0,1537,2546,3939.0,5132.0,8684,9854,10880.0,10233.0
26110,36794,US,125354,40.494704,-75.019461,Census,Township,NJ,"Kingwood Township, New Jersey",2446,0,2606,2786,2898,2947,1799,2148,1942,1694,1424,1304,1265,1160,1218.0,1253,1320,1841.0,2294.0,2772,3325,3782.0,3845.0
26153,49206,US,125515,40.44585,-74.170926,Census,Borough,NJ,"Union Beach, New Jersey",0,0,0,0,0,0,0,0,0,0,0,0,0,0,1893.0,2076,3636,5862.0,6472.0,6354,6156,6649.0,6245.0
26180,49924,US,125020,40.120242,-74.653491,Census,Township,NJ,"Chesterfield Township, New Jersey",0,0,1839,2087,2385,3438,1789,1628,1748,1525,1253,1143,1130,1133,1269.0,1766,2020,2519.0,3190.0,3867,5152,5955.0,7699.0
26190,2451,US,17796956,40.634,-74.378,Census,township,NJ,"Plainfield Township, New Jersey",0,0,0,0,0,0,2447,3224,0,0,0,0,0,0,0.0,0,0,0.0,0.0,0,0,0.0,0.0
26249,111986,US,125414,40.503991,-74.349411,Census,Township,NJ,"Edison, New Jersey",0,0,0,0,0,0,0,0,3460,3789,3018,2801,2707,5419,10025.0,11470,16348,44799.0,67120.0,70193,88680,97687.0,99967.0
26261,32938,US,125098,39.845391,-75.021701,Census,Borough,NJ,"Somerdale, New Jersey",0,0,0,0,0,0,0,0,0,0,0,0,0,0,1151.0,1170,1417,4839.0,6510.0,5900,5440,5123.0,5151.0
26274,42117,US,125363,40.547102,-74.895921,Census,Township,NJ,"Raritan Township, New Jersey",0,0,0,0,0,2510,3070,2270,2242,2437,1821,1892,1310,1677,1823.0,2158,2814,4545.0,6934.0,8292,15616,19809.0,22185.0
26311,33078,US,125151,39.456196,-75.355016,Census,Township,NJ,"Stow Creek Township, New Jersey",0,0,1039,884,791,846,1093,1267,1122,1107,972,934,880,844,796.0,720,957,1010.0,1050.0,1365,1437,1429.0,1431.0
26363,37726,US,136905,39.658443,-74.448127,Census,Township,NJ,"Bass River Township, New Jersey",0,0,0,0,0,0,0,0,807,1006,853,800,685,612,700.0,599,688,737.0,815.0,1344,1580,1510.0,1443.0
26446,46257,US,124991,40.995809,-74.141262,Census,Borough,NJ,"Midland Park, New Jersey",0,0,0,0,0,0,0,0,0,0,0,1348,2001,2243,3638.0,4525,5164,7543.0,8159.0,7381,7047,6947.0,7128.0
26505,4479,US,6972299,41.1416666667,-74.3108333333,Census,Unincorporated community,NJ,"Hewitt, New Jersey",0,0,0,0,0,0,0,0,0,0,0,0,0,0,0.0,0,0,0.0,0.0,0,0,7639.0,7439.0
26537,56666,US,125578,40.841691,-74.57833,Unknown,Township,NJ,"Randolph, New Jersey",0,0,0,0,0,0,0,0,0,0,0,0,0,0,0.0,0,0,0.0,0.0,0,0,0.0,0.0
26580,40315,US,125536,40.998059,-74.348758,Census,Borough,NJ,"Butler, New Jersey",0,0,0,0,0,0,0,0,0,0,0,0,2265,2886,3392.0,3351,4050,5414.0,7051.0,7616,7392,7420.0,7539.0
26603,111112,US,125240,40.794175,-74.02496,Census,Township,NJ,"North Bergen, New Jersey",0,0,0,0,0,0,3578,6335,3032,4268,5715,9213,15662,23344,40714.0,39714,41560,42387.0,47751.0,47019,48414,58092.0,60773.0
26625,69344,US,125168,40.72386,-74.232517,Census,Township,NJ,"Irvington, New Jersey",0,0,0,0,0,0,0,0,0,1677,0,5255,11877,25480,56733.0,55328,59201,59379.0,59743.0,61493,61018,60695.0,53926.0
26644,48056,US,125483,40.113032,-74.036886,Census,Borough,NJ,"Manasquan, New Jersey",0,0,0,0,0,0,0,0,0,0,1506,1500,1582,1705,2320.0,2340,3178,4022.0,4971.0,5354,5369,6310.0,5897.0
26826,43149,US,125628,40.056853,-74.049895,Census,Borough,NJ,"Mantoloking, New Jersey",0,0,0,0,0,0,0,0,0,0,0,0,0,37,37.0,58,72,160.0,319.0,433,334,423.0,296.0
26935,35842,US,125361,40.573843,-75.089483,Census,Borough,NJ,"Milford, New Jersey",0,0,0,0,0,0,0,0,0,0,0,0,0,656,933.0,933,1012,1114.0,1230.0,1368,1273,1195.0,1233.0
26952,9898,US,136914,39.89342,-74.708177,Census,Census-designated place,NJ,"Leisuretowne, New Jersey",0,0,0,0,0,0,0,0,0,0,0,0,0,0,0.0,0,0,0.0,0.0,0,2552,2535.0,3582.0
26981,43733,US,136908,40.062164,-74.836883,Census,Township,NJ,"Burlington Township, New Jersey",0,2009,2419,2758,2670,3434,863,876,1025,1147,958,1061,1220,1520,2587.0,2520,3441,6291.0,10621.0,11527,12454,20294.0,22594.0
26999,50821,US,125729,40.554,-74.53,Census,Borough,NJ,"South Bound Brook, New Jersey",0,0,0,0,0,0,0,0,0,671,801,883,1024,1302,1763.0,1928,2905,3626.0,4525.0,4331,4185,4492.0,4563.0
27029,6272,US,3909815,40.89,-73.97,Census,Unknown,NJ,"Hackensack Township, New Jersey",0,0,1918,2076,2200,2631,3506,5488,8038,0,0,0,0,0,0.0,0,0,0.0,0.0,0,0,0.0,0.0
27039,44510,US,125649,39.662085,-74.169456,Census,Borough,NJ,"Surf City, New Jersey",0,0,0,0,0,0,0,0,0,0,0,9,40,43,76.0,129,291,419.0,1129.0,1571,1375,1442.0,1205.0
27131,75051,US,125787,40.607153,-74.280531,Census,City,NJ,"Rahway, New Jersey",0,0,0,0,0,0,0,7130,6258,6455,7105,7935,9337,11042,16011.0,17498,21290,27699.0,29114.0,26723,25325,26500.0,27346.0
27174,45803,US,125450,40.445652,-74.378459,Census,Borough,NJ,"South River, New Jersey",0,0,0,0,0,0,0,0,0,1081,1796,2792,4772,6596,10759.0,10714,11308,13397.0,15428.0,14361,13692,15322.0,16008.0
27176,53256,US,136890,40.934161,-74.019453,Census,Borough,NJ,"New Milford, New Jersey",0,0,0,0,0,0,0,0,0,0,0,860,1141,3833,2556.0,3215,6006,18810.0,19149.0,16876,15990,16400.0,16341.0
27209,40567,US,125060,39.890128,-75.072383,Census,Borough,NJ,"Audubon, New Jersey",0,0,0,0,0,0,0,0,0,0,0,0,1343,4740,8904.0,8906,9531,10440.0,10802.0,9533,9205,9183.0,8819.0
27320,39846,US,125259,40.434993,-74.82303,Census,Township,NJ,"East Amwell Township, New Jersey",0,0,0,0,0,0,1330,1865,1802,1696,1375,1327,1203,1102,1210.0,1218,1525,1981.0,2568.0,3468,4332,4455.0,4013.0
27327,58880,US,93441,40.57,-74.92,Census,US County,NJ,"Hunterdon County, New Jersey",20153,21261,24556,28604,31060,24789,28990,33654,36963,38570,35355,34507,33569,32885,34728.0,36766,42736,54107.0,69718.0,87361,107776,121989.0,128349.0
27335,42441,US,125370,40.632215,-74.964965,Census,Township,NJ,"Union Township, Hunterdon County, New Jersey",0,0,0,0,0,0,0,1217,1051,1167,1134,918,930,834,1152.0,1303,1557,1717.0,2351.0,3971,5078,6160.0,5908.0
27341,49747,US,124979,40.97499,-74.023248,Census,Borough,NJ,"Emerson, New Jersey",0,0,0,0,0,0,0,0,0,0,0,456,767,973,1394.0,1487,1744,6849.0,8428.0,7793,6930,7197.0,7401.0
27410,73487,US,125185,40.834007,-74.242877,Census,Township,NJ,"Verona, New Jersey",0,0,0,0,0,0,0,0,0,0,0,0,1675,3039,7161.0,8957,10921,13782.0,15067.0,14166,13597,13533.0,13332.0
27412,15712,US,125109,39.07892,-74.820866,Unknown,Census-designated place,NJ,"Cape May Court House, New Jersey",0,0,0,0,0,0,0,0,0,0,0,0,0,0,0.0,0,0,0.0,0.0,0,0,0.0,0.0
27430,57464,US,125438,40.338251,-74.581908,Census,Township,NJ,"Plainsboro Township, New Jersey",0,0,0,0,0,0,0,0,0,0,0,0,0,460,1018.0,925,1112,1171.0,1648.0,5605,14213,20215.0,22999.0
27433,21851,US,125629,39.565839,-74.380959,Census,Census-designated place,NJ,"Mystic Island, New Jersey",0,0,0,0,0,0,0,0,0,0,0,0,0,0,0.0,0,0,0.0,0.0,4929,7400,8694.0,8493.0
27515,6853,US,125623,40.0022222222,-74.2613888889,Census,Former census designated place,NJ,"Leisure Village West-Pine Lake Park, New Jersey",0,0,0,0,0,0,0,0,0,0,0,0,0,0,0.0,0,0,0.0,0.0,0,10139,11085.0,0.0
27532,42707,US,125826,40.636483,-75.174906,Census,Township,NJ,"Pohatcong Township, New Jersey",0,0,0,0,0,0,0,0,0,0,1483,2215,3202,1559,1974.0,2029,2540,3543.0,3924.0,3856,3591,3416.0,3339.0
27566,13142,US,10091857,40.775878,-74.024827,Census,town,NJ,"Union Hill, New Jersey",0,0,0,0,0,0,0,0,4640,5849,10643,15187,21023,20651,0.0,0,0,0.0,0.0,0,0,0.0,0.0
27602,32820,US,93447,39.33,-75.13,Census,US County,NJ,"Cumberland County, New Jersey",8248,9529,12670,12668,14093,14374,17189,22605,34665,37687,45438,51193,55153,61348,69895.0,73184,88597,106850.0,121374.0,132866,138053,146438.0,156898.0
27659,46418,US,125651,39.592075,-74.333511,Census,Borough,NJ,"Tuckerton, New Jersey",0,0,0,0,0,0,0,0,0,0,0,0,1268,1106,1429.0,1320,1332,1536.0,1926.0,2472,3048,3517.0,3347.0
27680,124877,US,124981,40.935833,-74.117504,Census,Borough,NJ,"Fair Lawn, New Jersey",0,0,0,0,0,0,0,0,0,0,0,756,1178,2026,5990.0,9107,23885,36421.0,37975.0,32229,30548,31637.0,32457.0
27691,8257,US,125583,40.8613888889,-74.6466666667,Census,Former census-designated place,NJ,"Succasunna-Kenvil, New Jersey",0,0,0,0,0,0,0,0,0,0,0,0,0,0,0.0,0,0,0.0,0.0,10931,11781,12569.0,0.0
27763,6843,US,38580631,41.127527,-74.713356,Census,Census-designated place,NJ,"Ross Corner, New Jersey",0,0,0,0,0,0,0,0,0,0,0,0,0,0,0.0,0,0,0.0,0.0,0,0,0.0,13.0
27805,39121,US,125058,40.034128,-74.622596,Census,Borough,NJ,"Wrightstown, New Jersey",0,0,0,0,0,0,0,0,0,0,0,0,0,270,176.0,241,1199,4846.0,2719.0,3031,3843,746.0,802.0
