,article_length,country,id,lat,lon,other_years,poptype,settlement_type,state,title,y1790,y1800,y1810,y1820,y1830,y1840,y1850,y1860,y1870,y1880,y1890,y1900,y1910,y1920,y1930,y1940,y1950,y1960,y1970,y1980,y1990,y2000,y2010
76,29892,US,91891,33.77,-81.97,,Census,US County,SC,"Edgefield County, South Carolina",13289,18130,23160,25119,30509,32852,39262,39887,42486,45844,49259,25478,28281,23928,19326.0,17894,16591,15735.0,15692.0,17528.0,18375.0,24595.0,26985.0
259,6268,US,134613,33.4333333333,-80.9166666667,,Census,Town,SC,"Cordova, South Carolina",0,0,0,0,0,0,0,0,0,0,0,0,0,133,151.0,139,175,209.0,205.0,202.0,135.0,157.0,169.0
281,27602,US,91881,34.34,-80.59,,Census,US County,SC,"Kershaw County, South Carolina",0,7340,9867,12432,13545,12281,14473,13086,11754,21538,22361,24696,27094,29398,32070.0,32913,32287,33585.0,34727.0,39015.0,43599.0,52647.0,61697.0
336,15728,US,134421,32.6086111111,-80.0816666667,,Census,Town,SC,"Kiawah Island, South Carolina",0,0,0,0,0,0,0,0,0,91,0,0,0,0,0.0,0,0,0.0,0.0,0.0,718.0,1163.0,1626.0
381,7097,US,134675,34.9511111111,-82.0986111111,,Census,City,SC,"Wellford, South Carolina",0,0,0,0,0,0,0,0,0,302,0,346,370,180,400.0,454,721,1040.0,1298.0,2143.0,2511.0,2030.0,2378.0
384,9115,US,134473,33.8319444444,-81.8022222222,,Census,Town,SC,"Johnston, South Carolina",0,0,0,0,0,0,0,0,0,463,827,865,943,1101,1072.0,1100,1426,2119.0,2552.0,2624.0,2688.0,2336.0,2362.0
692,23838,US,91906,,,,Census,US County,SC,"Anderson County, South Carolina",0,0,0,0,17169,18493,21475,22873,24049,33612,43696,55728,69568,76349,80949.0,88712,90664,98478.0,105474.0,133235.0,145196.0,165740.0,187126.0
696,6402,US,134601,34.2177777778,-81.7133333333,,Census,Town,SC,"Silverstreet, South Carolina",0,0,0,0,0,0,0,0,0,0,0,0,0,297,221.0,146,201,181.0,156.0,200.0,156.0,216.0,162.0
799,5612,US,134582,34.2825,-79.4736111111,,Census,Town,SC,"Sellers, South Carolina",0,0,0,0,0,0,0,0,0,0,0,0,458,483,690.0,681,530,431.0,469.0,388.0,358.0,277.0,219.0
806,12292,US,134420,32.79,-79.7838888889,,Census,City,SC,"Isle of Palms, South Carolina",0,0,0,0,0,0,0,0,0,0,0,0,0,0,0.0,0,0,1186.0,2657.0,3421.0,3680.0,4583.0,4133.0
862,13125,US,134596,34.1952777778,-81.4138888889,,Census,Town,SC,"Little Mountain, South Carolina",0,0,0,0,0,0,0,0,0,0,0,283,440,399,244.0,251,213,238.0,240.0,282.0,235.0,255.0,291.0
964,6809,US,134485,34.2283333333,-79.7325,,Census,Town,SC,"Quinby, South Carolina",0,0,0,0,0,0,0,0,0,0,0,0,0,0,0.0,0,0,0.0,788.0,952.0,865.0,842.0,932.0
993,28091,US,134622,33.4969444444,-80.8622222222,,Census,City,SC,"Orangeburg, South Carolina",0,0,0,0,0,0,0,997,246,2140,2964,4455,5906,7290,8776.0,10521,15322,13852.0,13252.0,14933.0,13739.0,12765.0,13964.0
1002,7145,US,134522,32.8136111111,-81.2394444444,,Census,Town,SC,"Luray, South Carolina",0,0,0,0,0,0,0,0,0,0,0,131,194,174,188.0,162,102,102.0,72.0,149.0,102.0,115.0,127.0
1073,9121,US,134589,33.9136111111,-82.2891666667,,Census,Town,SC,"McCormick, South Carolina",0,0,0,0,0,0,0,0,0,0,0,237,613,1284,1304.0,1456,1744,1998.0,1864.0,1725.0,1659.0,1489.0,2783.0
1339,9063,US,134667,34.905,-81.7572222222,,Census,Town,SC,"Pacolet, South Carolina",0,0,0,0,0,0,0,0,0,0,0,365,410,398,309.0,352,455,1252.0,1418.0,1556.0,1736.0,2690.0,2235.0
1462,6591,US,134455,33.0686111111,-80.9577777778,,Census,Town,SC,"Lodge, South Carolina",0,0,0,0,0,0,0,0,0,0,0,0,263,315,290.0,242,316,181.0,168.0,145.0,147.0,114.0,120.0
1510,7088,US,134373,32.9575,-81.2377777778,,Census,Town,SC,"Fairfax, South Carolina",0,0,0,0,0,0,0,0,0,0,0,301,499,957,1376.0,1379,1567,1814.0,1937.0,2154.0,2317.0,3206.0,2025.0
1665,6761,US,134398,33.1244444444,-81.3430555556,,Census,Town,SC,"Kline, South Carolina",0,0,0,0,0,0,0,0,0,0,0,93,199,238,214.0,282,230,213.0,305.0,315.0,285.0,238.0,197.0
1668,6779,US,134585,34.58,-79.5433333333,,Census,Town,SC,"Clio, South Carolina",0,0,0,0,0,0,0,0,0,0,0,508,780,1009,808.0,821,837,847.0,936.0,1031.0,882.0,774.0,726.0
1731,21883,US,91858,33.92,-80.38,,Census,US County,SC,"Sumter County, South Carolina",0,3571,19054,25269,28277,27892,33220,23859,25268,37037,43605,51237,38472,43040,45902.0,52463,57634,74941.0,79425.0,88243.0,102637.0,104646.0,107456.0
1840,20236,US,151026,33.0080555556,-80.1827777778,,Census,Town,SC,"Summerville, South Carolina",0,0,0,0,0,0,0,0,0,1371,2219,2420,2355,2550,2579.0,3023,3312,3633.0,3839.0,6492.0,22519.0,27752.0,43392.0
1912,7027,US,134483,33.9363888889,-79.9319444444,,Census,Town,SC,"Olanta, South Carolina",0,0,0,0,0,0,0,0,0,0,0,0,230,409,433.0,515,586,568.0,640.0,699.0,687.0,613.0,563.0
2002,31725,US,91903,32.35,-80.69,,Census,US County,SC,"Beaufort County, South Carolina",18753,20428,25887,32199,37032,35794,38805,40053,34359,30176,34119,35495,30355,22269,21815.0,22037,26993,44187.0,51136.0,65364.0,86425.0,120937.0,162233.0
2012,6858,US,134696,34.5916666667,-81.4644444444,,Census,Town,SC,"Carlisle, South Carolina",0,0,0,0,0,0,0,0,0,0,0,358,367,376,382.0,303,405,390.0,670.0,503.0,470.0,496.0,436.0
2075,9089,US,134538,33.6061111111,-78.9730555556,,Census,Town,SC,"Surfside Beach, South Carolina",0,0,0,0,0,0,0,0,0,0,0,0,0,0,0.0,0,0,0.0,1329.0,2522.0,3845.0,4425.0,3837.0
2357,21157,US,91901,33.67,-80.78,,Census,US County,SC,"Calhoun County, South Carolina",0,0,0,0,0,0,0,0,0,0,0,0,16634,18384,16707.0,16229,14753,12256.0,10780.0,12206.0,12753.0,15185.0,15175.0
2371,19565,US,134444,34.4677777778,-80.2580555556,,Census,Town,SC,"McBee, South Carolina",0,0,0,0,0,0,0,0,0,0,0,0,187,417,514.0,587,420,512.0,540.0,623.0,715.0,714.0,867.0
2630,8176,US,134450,33.7363888889,-80.3575,,Census,Town,SC,"Paxville, South Carolina",0,0,0,0,0,0,0,0,0,0,0,0,175,185,170.0,194,208,216.0,261.0,244.0,218.0,248.0,185.0
2661,11811,US,134443,34.6516666667,-80.3894444444,,Census,Town,SC,"Jefferson, South Carolina",0,0,0,0,0,0,0,0,0,0,0,0,390,454,499.0,547,556,493.0,709.0,651.0,745.0,704.0,753.0
2782,23811,US,91907,32.99,-81.35,,Census,US County,SC,"Allendale County, South Carolina",0,0,0,0,0,0,0,0,0,0,0,0,0,16098,13294.0,13040,11773,11362.0,9692.0,10700.0,11722.0,11211.0,10419.0
2956,13913,US,134407,32.3833333333,-80.6955555556,,Census,Town,SC,"Port Royal, South Carolina",0,0,0,0,0,0,0,0,0,170,524,601,363,383,353.0,342,793,686.0,2865.0,2977.0,2985.0,3950.0,10678.0
3064,6282,US,134618,33.5536111111,-81.1205555556,,Census,Town,SC,"Livingston, South Carolina",0,0,0,0,0,0,0,0,0,0,0,79,168,159,198.0,178,210,208.0,165.0,166.0,171.0,148.0,136.0
3127,8711,US,134663,35.1752777778,-82.1861111111,,Census,City,SC,"Landrum, South Carolina",0,0,0,0,0,0,0,0,0,0,155,263,449,980,1212.0,1289,1333,1930.0,1859.0,2141.0,2347.0,2472.0,2376.0
3272,8656,US,134659,35.0161111111,-81.8041666667,,Census,Town,SC,"Cowpens, South Carolina",0,0,0,0,0,0,0,0,0,112,349,692,1101,1284,1115.0,1343,1879,2038.0,2109.0,2023.0,2176.0,2279.0,2162.0
3357,10302,US,134616,33.4,-80.35,,Census,Town,SC,"Eutawville, South Carolina",0,0,0,0,0,0,0,0,0,0,224,305,405,285,327.0,496,478,468.0,386.0,615.0,350.0,344.0,315.0
3369,7238,US,134716,34.9516666667,-81.3394444444,,Census,Town,SC,"Sharon, South Carolina",0,0,0,0,0,0,0,0,0,0,0,150,374,419,324.0,388,365,280.0,268.0,323.0,270.0,421.0,494.0
3588,25520,US,134539,32.2838888889,-81.0786111111,,Census,City,SC,"Hardeeville, South Carolina",0,0,0,0,0,0,0,0,0,252,0,0,0,413,728.0,1361,0,700.0,853.0,1250.0,1583.0,1793.0,2952.0
3660,28245,US,91871,33.9,-81.27,,Census,US County,SC,"Lexington County, South Carolina",0,0,6641,8083,9065,12111,12930,15579,12988,18564,22181,27264,32040,35676,36494.0,35994,44279,60726.0,89012.0,140353.0,167611.0,216014.0,262391.0
3734,9914,US,134499,34.7808333333,-82.3005555556,,Census,City,SC,"Mauldin, South Carolina",0,0,0,0,0,0,0,0,0,0,0,0,0,0,0.0,0,0,1462.0,3797.0,8143.0,11587.0,15224.0,22889.0
3786,26813,US,134693,33.9269444444,-80.3636111111,,Census,City,SC,"Sumter, South Carolina",0,0,0,0,0,0,1356,1119,1807,2011,3865,5673,8109,9508,11780.0,15874,20185,23062.0,24435.0,24921.0,41943.0,39643.0,40524.0
3806,27321,US,134567,33.9811111111,-81.2308333333,,Census,Town,SC,"Lexington, South Carolina",0,0,0,0,0,0,0,0,0,262,342,806,709,894,1152.0,1033,1081,1127.0,969.0,2131.0,3289.0,9793.0,17870.0
3819,7976,US,134654,34.0030555556,-81.7716666667,,Census,Town,SC,"Saluda, South Carolina",0,0,0,0,0,0,0,0,0,0,0,289,610,1203,1381.0,1516,1594,2089.0,2442.0,2752.0,2798.0,3066.0,3565.0
3896,23824,US,91904,33.26,-81.44,,Census,US County,SC,"Barnwell County, South Carolina",0,7376,12280,14750,19236,21471,26608,30743,35724,39857,44613,35504,34209,23081,21221.0,20138,17266,17659.0,17176.0,19868.0,20293.0,23478.0,22621.0
4042,7754,US,134371,33.4822222222,-81.5133333333,,Census,Town,SC,"Windsor, South Carolina",0,0,0,0,0,0,0,0,0,0,51,0,73,0,0.0,0,0,0.0,0.0,55.0,124.0,127.0,121.0
4107,7880,US,134541,34.415,-80.3475,,Census,Town,SC,"Bethune, South Carolina",0,0,0,0,0,0,0,0,0,0,0,0,317,299,522.0,620,639,579.0,506.0,481.0,405.0,352.0,334.0
4116,9905,US,134578,33.9910555556,-81.0731666667,,Census,City,SC,"West Columbia, South Carolina",0,0,0,0,0,0,0,0,0,0,0,1089,900,1793,1722.0,1744,1543,6410.0,7838.0,10409.0,10588.0,13064.0,14988.0
4133,7172,US,134439,34.8055555556,-81.2405555556,,Census,Town,SC,"Lowrys, South Carolina",0,0,0,0,0,0,0,0,0,0,0,0,343,194,208.0,315,368,298.0,260.0,225.0,200.0,207.0,200.0
4396,6600,US,134698,34.7908333333,-81.46,,Census,Town,SC,"Lockhart, South Carolina",0,0,0,0,0,0,0,0,0,0,0,0,0,0,0.0,0,0,128.0,103.0,85.0,58.0,39.0,488.0
4813,25711,US,91864,34.75,-83.07,,Census,US County,SC,"Oconee County, South Carolina",0,0,0,0,0,0,0,0,10536,16256,18687,23634,27337,30117,33368.0,36512,39050,40204.0,40728.0,48611.0,57494.0,66215.0,74273.0
4884,6758,US,134575,33.9608333333,-81.11,,Census,Town,SC,"Springdale, Lexington County, South Carolina",0,0,0,0,0,0,0,0,0,0,0,0,0,0,0.0,0,0,1002.0,2638.0,2985.0,3226.0,2877.0,2636.0
5165,6962,US,134465,34.3408333333,-79.1677777778,,Census,Town,SC,"Lake View, South Carolina",0,0,0,0,0,0,0,0,0,0,0,0,157,330,447.0,532,653,865.0,949.0,939.0,872.0,789.0,807.0
5172,9296,US,134526,33.9977777778,-79.2025,,Census,Town,SC,"Aynor, South Carolina",0,0,0,0,0,0,0,0,0,0,0,0,0,275,375.0,537,551,635.0,536.0,643.0,470.0,587.0,560.0
5203,7024,US,134653,33.8458333333,-81.6608333333,,Census,Town,SC,"Ridge Spring, South Carolina",0,0,0,0,0,0,0,0,0,328,390,411,505,597,628.0,661,598,649.0,644.0,969.0,861.0,823.0,737.0
5248,14302,US,134430,35.1205555556,-81.5163888889,,Census,Town,SC,"Blacksburg, South Carolina",0,0,0,0,0,0,0,0,0,145,1245,1285,1110,1512,1747.0,1917,2056,2174.0,1977.0,1873.0,1907.0,1880.0,1848.0
5420,23735,US,91887,34.89,-82.37,,Census,US County,SC,"Greenville County, South Carolina",6503,11504,13133,14530,16476,17839,20156,21892,22262,37496,44310,53490,68377,88498,117009.0,136580,168152,209776.0,240546.0,287913.0,320167.0,379616.0,451225.0
5470,11302,US,134549,34.7211111111,-80.7733333333,,Census,City,SC,"Lancaster, South Carolina",0,0,0,0,0,0,376,536,591,681,1094,1477,2098,3032,3545.0,4430,7159,7999.0,9186.0,9703.0,8914.0,8177.0,8526.0
5507,12622,US,134597,34.2777777778,-81.6166666667,,Census,City,SC,"Newberry, South Carolina",0,0,0,0,0,0,509,0,1891,2343,3020,4607,5028,5894,7298.0,7510,7546,8208.0,9218.0,9866.0,10542.0,10580.0,10277.0
5542,9789,US,134426,32.7644444444,-80.24,,Census,Town,SC,"Ravenel, South Carolina",0,0,0,0,0,0,0,0,0,0,0,0,0,0,0.0,0,337,527.0,931.0,1655.0,2165.0,2214.0,2465.0
5758,7775,US,134366,33.3305555556,-81.79,,Census,Town,SC,"Jackson, South Carolina",0,0,0,0,0,0,0,0,0,0,0,0,0,0,0.0,0,0,1746.0,1928.0,1771.0,1681.0,1625.0,1700.0
5761,6812,US,134458,33.0341666667,-80.8430555556,,Census,Town,SC,"Williams, South Carolina",0,0,0,0,0,0,0,0,0,0,0,0,0,0,0.0,218,254,194.0,201.0,205.0,188.0,116.0,117.0
5850,11892,US,134481,33.8177777778,-79.4483333333,,Census,City,SC,"Johnsonville, South Carolina",0,0,0,0,0,0,0,0,0,0,0,0,0,271,325.0,464,616,882.0,1267.0,1421.0,1415.0,1418.0,1480.0
5916,13417,US,134413,33.2,-80.0,,Census,Town,SC,"Moncks Corner, South Carolina",0,0,0,0,0,0,0,0,0,0,118,202,232,309,623.0,1165,1818,2030.0,2314.0,4179.0,5607.0,5952.0,7885.0
6002,13918,US,134434,34.7055555556,-81.2116666667,,Census,City,SC,"Chester, South Carolina",0,0,0,0,0,0,0,0,0,1899,2703,4075,4754,5557,5528.0,6392,6893,6906.0,7045.0,6820.0,7158.0,6476.0,5607.0
6041,23773,US,91889,34.02,-79.71,,Census,US County,SC,"Florence County, South Carolina",0,0,0,0,0,0,0,0,0,0,25027,28474,35671,50406,61027.0,70582,79710,84438.0,89636.0,110163.0,114344.0,125761.0,136885.0
6098,26953,US,91880,,,,Census,US County,SC,"Lancaster County, South Carolina",6302,6012,6318,8716,10361,9907,10988,11797,12087,16903,20761,24311,26650,28628,27980.0,33542,37071,39352.0,43328.0,53361.0,54516.0,61351.0,76652.0
6115,6638,US,134646,34.0502777778,-80.9641666667,,Census,Town,SC,"Arcadia Lakes, South Carolina",0,0,0,0,0,0,0,0,0,0,0,0,0,0,0.0,0,0,316.0,741.0,611.0,899.0,882.0,861.0
6176,13451,US,134640,34.7238888889,-82.7797222222,,Census,Town,SC,"Central, South Carolina",0,0,0,0,0,0,0,0,0,184,396,349,886,898,1440.0,1496,1263,1473.0,1550.0,1914.0,2438.0,3522.0,5159.0
6202,11099,US,151029,35.1483333333,-81.8619444444,,Census,City,SC,"Chesnee, South Carolina",0,0,0,0,0,0,0,0,0,0,0,0,0,600,764.0,827,1051,1045.0,1069.0,1069.0,1280.0,1003.0,868.0
6480,13394,US,134535,33.8222222222,-78.6811111111,,Census,City,SC,"North Myrtle Beach, South Carolina",0,0,0,0,0,0,0,0,0,0,0,0,0,0,0.0,0,0,0.0,1957.0,3960.0,8636.0,10974.0,13752.0
6762,6547,US,134623,33.3733333333,-80.8363888889,,Census,Town,SC,"Rowesville, South Carolina",0,0,0,0,0,0,0,0,0,125,174,252,508,425,400.0,402,363,398.0,392.0,388.0,316.0,378.0,304.0
6819,10346,US,134438,34.5708333333,-80.9002777778,,Census,Town,SC,"Great Falls, South Carolina",0,0,0,0,0,0,0,0,0,0,0,0,0,0,0.0,0,3533,3030.0,2727.0,2601.0,2307.0,2194.0,1979.0
7119,41979,US,134480,34.1838888889,-79.7741666667,,Census,City,SC,"Florence, South Carolina",0,0,0,0,0,0,0,0,0,1914,3395,4647,7057,10968,14774.0,16054,22513,24722.0,25997.0,29842.0,29813.0,30248.0,37056.0
7376,15019,US,134527,33.7891666667,-78.7472222222,,Census,Town,SC,"Briarcliffe Acres, South Carolina",0,0,0,0,0,0,0,0,0,0,0,0,0,0,0.0,0,0,0.0,0.0,338.0,552.0,470.0,457.0
7612,6882,US,134518,32.7544444444,-81.2383333333,,Census,Town,SC,"Estill, South Carolina",0,0,0,0,0,0,0,0,0,0,0,0,460,1393,1412.0,1280,1659,1865.0,1954.0,2308.0,2387.0,2425.0,2040.0
7888,8521,US,134621,33.45,-81.1333333333,,Census,Town,SC,"Norway, South Carolina",0,0,0,0,0,0,0,0,0,0,0,218,315,474,494.0,488,476,525.0,579.0,518.0,401.0,389.0,337.0
7913,13105,US,134384,34.6505555556,-82.7808333333,,Census,Town,SC,"Pendleton, South Carolina",0,0,0,0,0,0,0,854,985,672,476,568,822,1040,1035.0,1278,1432,2358.0,2615.0,3154.0,3314.0,2966.0,2964.0
7923,5845,US,134638,33.6677777778,-81.1122222222,,Census,Town,SC,"Woodford, South Carolina",0,0,0,0,0,0,0,0,0,0,0,205,190,144,223.0,211,179,172.0,195.0,206.0,200.0,196.0,185.0
8083,6963,US,134708,34.9838888889,-81.4158333333,,Census,Town,SC,"Hickory Grove, South Carolina",0,0,0,0,0,0,0,0,0,0,134,289,285,301,318.0,272,275,287.0,377.0,344.0,287.0,337.0,440.0
8097,6695,US,134525,33.8027777778,-78.7169444444,,Census,Town,SC,"Atlantic Beach, South Carolina",0,0,0,0,0,0,0,0,0,0,0,0,0,0,0.0,0,0,0.0,215.0,289.0,446.0,351.0,334.0
8504,12596,US,134579,34.18,-79.3972222222,,Census,City,SC,"Marion, South Carolina",0,0,0,0,0,0,214,0,968,824,1640,1831,3844,3892,4921.0,5746,6834,7174.0,7435.0,7700.0,7658.0,7042.0,6939.0
8827,9787,US,151030,35.0466666667,-81.4130555556,,Census,Town,SC,"Smyrna, South Carolina",0,0,0,0,0,0,0,0,0,0,0,48,109,101,117.0,133,105,52.0,85.0,47.0,57.0,59.0,45.0
8930,10464,US,134506,34.97,-82.4377777778,,Census,City,SC,"Travelers Rest, South Carolina",0,0,0,0,0,0,0,0,0,0,0,0,0,0,0.0,0,0,1973.0,2241.0,3017.0,3069.0,4099.0,4576.0
8950,9556,US,134717,35.0372222222,-81.0247222222,,Census,City,SC,"Tega Cay, South Carolina",0,0,0,0,0,0,0,0,0,0,0,0,0,0,0.0,0,0,0.0,0.0,0.0,3016.0,4044.0,7620.0
8952,8662,US,134620,33.6161111111,-81.1036111111,,Census,Town,SC,"North, South Carolina",0,0,0,0,0,0,0,0,0,0,0,368,561,700,755.0,733,954,1047.0,1076.0,1304.0,809.0,813.0,754.0
8976,11942,US,134390,33.3211111111,-81.1422222222,,Census,City,SC,"Denmark, South Carolina",0,0,0,0,0,0,0,0,0,0,366,724,1075,1254,1713.0,2056,2814,3221.0,3571.0,4434.0,3762.0,3328.0,3538.0
9025,7207,US,134445,34.7686111111,-80.2252777778,,Census,Town,SC,"Mount Croghan, South Carolina",0,0,0,0,0,0,0,0,0,0,0,0,0,232,229.0,209,209,145.0,123.0,146.0,131.0,155.0,195.0
9247,7050,US,134523,32.6813888889,-81.2472222222,,Census,Town,SC,"Scotia, South Carolina",0,0,0,0,0,0,0,0,0,0,0,0,189,269,324.0,238,226,102.0,64.0,72.0,182.0,227.0,215.0
9276,9857,US,134633,33.4833333333,-80.4833333333,,Census,Town,SC,"Santee, South Carolina",0,0,0,0,0,0,0,0,0,0,0,0,0,0,0.0,0,107,105.0,137.0,280.0,638.0,740.0,961.0
9335,7227,US,134520,32.8608333333,-81.2388888889,,Census,Town,SC,"Gifford, South Carolina",0,0,0,0,0,0,0,0,0,0,0,0,0,0,0.0,0,0,0.0,0.0,385.0,313.0,370.0,288.0
9480,5701,US,134581,34.2327777778,-79.1486111111,,Census,Town,SC,"Nichols, South Carolina",0,0,0,0,0,0,0,0,0,122,57,82,118,191,239.0,292,380,617.0,549.0,606.0,528.0,408.0,368.0
9483,8185,US,134414,33.405,-79.9233333333,,Census,Town,SC,"St. Stephen, South Carolina",0,0,0,0,0,0,0,0,0,79,230,256,408,312,911.0,1185,1341,1462.0,1506.0,1850.0,1697.0,1776.0,1697.0
9521,10219,US,151022,32.7,-80.85,,Census,Town,SC,"Yemassee, South Carolina",0,0,0,0,0,0,0,0,0,0,0,0,250,323,539.0,684,712,473.0,745.0,789.0,728.0,807.0,1027.0
9530,23655,US,91865,34.29,-81.6,,Census,US County,SC,"Newberry County, South Carolina",9342,12006,13964,16104,17441,18350,20143,20879,20775,26497,26434,30182,34586,35552,34681.0,33577,31771,29416.0,29273.0,31242.0,33172.0,36108.0,37508.0
9578,27992,US,91861,34.03,-80.91,,Census,US County,SC,"Richland County, South Carolina",3930,6097,9027,12321,14772,16397,20243,18307,23025,28573,36821,45589,55143,78122,87667.0,104843,142565,200102.0,233868.0,269735.0,285720.0,320677.0,384504.0
9594,6846,US,134516,33.9833333333,-82.3,,Census,Town,SC,"Troy, South Carolina",0,0,0,0,0,0,0,0,0,0,311,263,283,315,219.0,224,242,260.0,207.0,161.0,140.0,105.0,93.0
9704,8224,US,134469,33.0933333333,-80.3133333333,,Census,Town,SC,"Ridgeville, South Carolina",0,0,0,0,0,0,0,0,0,250,212,250,300,385,418.0,593,507,611.0,563.0,603.0,1625.0,1690.0,1979.0
9724,26239,US,151019,34.685,-82.8147222222,,Census,City,SC,"Clemson, South Carolina",0,0,0,0,0,0,0,0,0,0,0,0,0,0,0.0,761,1204,1587.0,6690.0,8118.0,11096.0,11939.0,13905.0
9961,15094,US,134464,34.4177777778,-79.3680555556,,Census,City,SC,"Dillon, South Carolina",0,0,0,0,0,0,0,0,0,0,82,1015,1757,2205,2731.0,3867,5171,6173.0,6391.0,7060.0,6829.0,6316.0,6788.0
10027,8714,US,134363,33.5122222222,-81.8705555556,,Census,Town,SC,"Burnettown, South Carolina",0,0,0,0,0,0,0,0,0,0,0,0,0,0,0.0,0,578,510.0,434.0,359.0,493.0,2720.0,2673.0
10089,7857,US,134447,34.5755555556,-80.0430555556,,Census,Town,SC,"Patrick, South Carolina",0,0,0,0,0,0,0,0,0,0,0,0,98,164,230.0,270,310,393.0,421.0,375.0,368.0,354.0,351.0
10228,7982,US,134467,33.2116666667,-80.4483333333,,Census,Town,SC,"Harleyville, South Carolina",0,0,0,0,0,0,0,0,0,0,0,248,295,353,371.0,381,483,561.0,704.0,606.0,633.0,594.0,677.0
10290,8763,US,134370,33.6527777778,-81.3641666667,,Census,Town,SC,"Wagener, South Carolina",0,0,0,0,0,0,0,0,0,0,0,192,362,597,546.0,588,584,614.0,723.0,903.0,731.0,863.0,797.0
10358,23786,US,91905,33.22,-81.05,,Census,US County,SC,"Bamberg County, South Carolina",0,0,0,0,0,0,0,0,0,0,0,17296,18544,20962,19410.0,18643,17533,16274.0,15950.0,18118.0,16902.0,16658.0,15987.0
10561,14214,US,134718,34.9947222222,-81.2394444444,,Census,City,SC,"York, South Carolina",0,0,0,0,0,0,0,1360,0,1330,1553,2012,2326,2731,2827.0,3495,4181,4758.0,5081.0,6412.0,6709.0,6985.0,7736.0
10790,13557,US,134490,33.4258333333,-79.125,,Census,Town,SC,"Pawleys Island, South Carolina",0,0,0,0,0,0,0,0,0,0,0,0,0,0,0.0,0,0,0.0,0.0,0.0,176.0,138.0,103.0
10814,31259,US,91899,35.05,-81.62,,Census,US County,SC,"Cherokee County, South Carolina",0,0,0,0,0,0,0,0,0,0,0,21359,26179,27570,32201.0,33290,34992,35205.0,36791.0,40983.0,44506.0,52537.0,55342.0
10818,9301,US,134487,34.1333333333,-79.95,,Census,Town,SC,"Timmonsville, South Carolina",0,0,0,0,0,0,0,0,477,557,516,861,1708,1860,1919.0,1979,2001,2178.0,2246.0,2112.0,2182.0,2315.0,2320.0
10940,6391,US,134705,33.7297222222,-79.5127777778,,Census,Town,SC,"Stuckey, South Carolina",0,0,0,0,0,0,0,0,0,0,0,0,0,0,0.0,0,0,199.0,193.0,222.0,311.0,263.0,245.0
10991,25533,US,134354,34.178544,-82.377687,,Census,City,SC,"Abbeville, South Carolina",0,0,0,0,0,0,1251,592,0,1543,1696,3766,4459,4570,4414.0,4930,5395,5436.0,5515.0,5833.0,5778.0,5840.0,5237.0
11144,6917,US,134712,34.8669444444,-81.2233333333,,Census,Town,SC,"McConnells, South Carolina",0,0,0,0,0,0,0,0,0,0,0,0,279,247,279.0,263,255,266.0,213.0,171.0,157.0,287.0,255.0
11149,8544,US,134367,33.4213888889,-81.6808333333,,Census,City,SC,"New Ellenton, South Carolina",0,0,0,0,0,0,0,0,0,0,0,0,0,0,0.0,0,0,2309.0,2546.0,2628.0,2515.0,2250.0,2052.0
11158,11491,US,134563,33.9633333333,-81.0666666667,,Census,City,SC,"Cayce, South Carolina",0,0,0,0,0,0,0,0,0,0,0,0,0,746,1267.0,1476,3294,8517.0,9967.0,11701.0,11163.0,12150.0,12528.0
11342,22306,US,91882,32.44,-81.02,,Census,US County,SC,"Jasper County, South Carolina",0,0,0,0,0,0,0,0,0,0,0,0,0,9868,9988.0,11011,10995,12237.0,11885.0,14504.0,15487.0,20678.0,24777.0
11448,7564,US,134427,32.6030555556,-80.1969444444,,Census,Town,SC,"Rockville, South Carolina",0,0,0,0,0,0,0,0,0,0,0,0,0,0,0.0,0,0,0.0,0.0,0.0,0.0,137.0,134.0
11618,25501,US,91859,34.93,-81.99,,Census,US County,SC,"Spartanburg County, South Carolina",8800,12122,14259,16989,21150,23669,26400,26919,25784,40409,55385,65560,83465,94265,116323.0,127733,150349,156830.0,173724.0,201861.0,226800.0,253791.0,284307.0
11644,7133,US,134453,32.9355555556,-80.4811111111,,Census,Town,SC,"Cottageville, South Carolina",0,0,0,0,0,0,0,0,0,0,0,0,418,444,465.0,544,553,520.0,497.0,371.0,572.0,707.0,762.0
11700,6886,US,134375,33.0966666667,-81.2077777778,,Census,Town,SC,"Ulmer, South Carolina",0,0,0,0,0,0,0,0,0,0,0,150,190,186,199.0,169,139,168.0,109.0,91.0,90.0,102.0,88.0
11790,7150,US,134396,33.3805555556,-81.3794444444,,Census,Town,SC,"Elko, South Carolina",0,0,0,0,0,0,0,0,0,149,100,208,114,188,210.0,206,142,194.0,202.0,329.0,214.0,212.0,193.0
12078,6976,US,134615,33.5333333333,-80.5666666667,,Census,Town,SC,"Elloree, South Carolina",0,0,0,0,0,0,0,0,0,0,311,413,540,925,1098.0,1123,1127,1031.0,940.0,909.0,939.0,742.0,692.0
12122,8180,US,134440,34.7175,-81.0197222222,,Census,Town,SC,"Richburg, South Carolina",0,0,0,0,0,0,0,0,0,121,186,240,245,222,245.0,183,238,235.0,304.0,269.0,405.0,332.0,275.0
12178,11350,US,134540,32.4863888889,-80.98,,Census,Town,SC,"Ridgeland, South Carolina",0,0,0,0,0,0,0,0,0,0,0,0,330,418,715.0,1021,1078,1192.0,1165.0,1143.0,1071.0,2518.0,4036.0
12291,7396,US,134513,34.2869444444,-82.2463888889,,Census,Town,SC,"Hodges, South Carolina",0,0,0,0,0,0,0,0,0,271,255,257,266,284,284.0,303,275,209.0,214.0,154.0,125.0,158.0,155.0
12355,6447,US,134619,33.5352777778,-81.1252777778,,Census,Town,SC,"Neeses, South Carolina",0,0,0,0,0,0,0,0,0,0,0,0,143,289,320.0,364,328,347.0,388.0,557.0,410.0,413.0,374.0
12727,9421,US,134451,33.6052777778,-80.3522222222,,Census,Town,SC,"Summerton, South Carolina",0,0,0,0,0,0,0,0,0,0,0,236,678,957,812.0,958,1419,1504.0,1305.0,1173.0,975.0,1061.0,1000.0
12758,7051,US,134602,34.5022222222,-81.6141666667,,Census,Town,SC,"Whitmire, South Carolina",0,0,0,0,0,0,0,0,0,0,0,131,1045,1955,2763.0,3272,3006,2663.0,2226.0,2038.0,1702.0,1512.0,1441.0
12787,6401,US,134598,34.2372222222,-81.3258333333,,Census,Town,SC,"Peak, South Carolina",0,0,0,0,0,0,0,0,0,62,143,156,183,160,154.0,147,134,86.0,87.0,82.0,78.0,61.0,64.0
12884,27849,US,134488,33.3675,-79.2938888889,,Census,City,SC,"Georgetown, South Carolina",0,0,0,0,0,0,1628,1720,2080,2557,2895,4138,5530,4579,5082.0,5559,6004,12261.0,10449.0,10144.0,9517.0,8950.0,9163.0
12941,8546,US,134648,33.8775,-80.6947222222,,Census,Town,SC,"Eastover, South Carolina",0,0,0,0,0,0,0,0,0,0,0,0,237,326,393.0,473,564,713.0,817.0,899.0,1044.0,830.0,813.0
13117,13029,US,134645,34.8019444444,-82.8177777778,,Census,Town,SC,"Six Mile, South Carolina",0,0,0,0,0,0,0,0,0,0,0,0,0,134,150.0,152,157,218.0,361.0,470.0,562.0,553.0,675.0
13283,9116,US,134519,32.6819444444,-81.19,,Census,Town,SC,"Furman, South Carolina",0,0,0,0,0,0,0,0,0,0,0,0,0,296,270.0,380,293,244.0,239.0,348.0,260.0,286.0,239.0
13321,7574,US,134668,34.865,-82.1047222222,,Census,Town,SC,"Reidville, South Carolina",0,0,0,0,0,0,0,0,0,266,156,162,177,231,208.0,214,236,242.0,460.0,0.0,0.0,478.0,601.0
13330,12101,US,134482,33.8677777778,-79.7561111111,,Census,City,SC,"Lake City, South Carolina",0,0,0,0,0,0,0,0,0,0,0,374,1074,1606,1942.0,2522,5112,6059.0,6247.0,6731.0,7153.0,6478.0,6675.0
13554,16366,US,151039,33.9166666667,-81.55,,Census,Town,SC,"Batesburg-Leesville, South Carolina",0,0,0,0,0,0,0,0,0,286,528,971,1995,2848,2839.0,2933,3169,3806.0,4036.0,4023.0,4082.0,5517.0,5362.0
13951,8043,US,134566,33.9255555556,-81.3944444444,,Census,Town,SC,"Gilbert, South Carolina",0,0,0,0,0,0,0,0,0,141,115,178,162,226,235.0,153,172,171.0,186.0,211.0,324.0,500.0,565.0
14061,18567,US,134542,34.2591666667,-80.6091666667,,Census,City,SC,"Camden, South Carolina",0,0,0,0,0,0,1133,1621,1007,1780,3533,2441,3569,3930,5183.0,5747,6986,6842.0,8532.0,7462.0,6696.0,6682.0,6838.0
14107,14730,US,151015,34.3966666667,-82.245,,Census,Town,SC,"Ware Shoals, South Carolina",0,0,0,0,0,0,0,0,0,0,0,0,0,0,0.0,0,0,0.0,2480.0,2370.0,2497.0,2363.0,2170.0
14211,9968,US,134461,34.1702777778,-80.0625,,Census,Town,SC,"Lamar, South Carolina",0,0,0,0,0,0,0,0,0,0,0,220,592,784,915.0,921,958,1121.0,1250.0,1333.0,1125.0,1015.0,989.0
14285,104552,US,27956,,,,Census,US State,SC,South Carolina,249073,345591,415115,502741,581185,594398,668507,703708,705606,995577,1151149,1340316,1515400,1683724,1738765.0,1899804,2117027,2382594.0,2590516.0,3121820.0,3486703.0,4012012.0,4625364.0
14599,30607,US,91863,33.44,-80.8,,Census,US County,SC,"Orangeburg County, South Carolina",18513,15766,13229,15653,18453,18519,23582,24896,16865,41395,49393,59663,55893,64907,63864.0,63707,68726,68559.0,69789.0,82276.0,84803.0,91582.0,92501.0
14610,19314,US,134707,35.0,-80.95,,Census,Suburban town,SC,"Fort Mill, South Carolina",0,0,0,0,0,0,0,0,0,290,689,1394,1616,1940,2112.0,2919,3204,3315.0,4505.0,4162.0,4930.0,7587.0,10811.0
14613,42197,US,134402,32.2125,-80.8972222222,,Census,Town,SC,"Bluffton, South Carolina",0,0,0,0,0,0,0,0,0,170,0,0,577,480,570.0,459,474,356.0,529.0,541.0,738.0,1275.0,12530.0
14620,8263,US,134599,34.2666666667,-81.4194444444,,Census,Town,SC,"Pomaria, South Carolina",0,0,0,0,0,0,0,0,0,0,0,0,238,288,263.0,263,251,230.0,264.0,271.0,267.0,177.0,179.0
14646,9189,US,134533,34.0588888889,-78.8911111111,,Census,City,SC,"Loris, South Carolina",0,0,0,0,0,0,0,0,0,0,0,0,229,600,900.0,1238,1614,1702.0,1741.0,2193.0,2067.0,2079.0,2396.0
14751,29695,US,91909,33.55,-81.64,,Census,US County,SC,"Aiken County, South Carolina",0,0,0,0,0,0,0,0,0,28112,31822,39032,41849,45574,47403.0,49916,53137,81038.0,91023.0,105625.0,120940.0,142552.0,160099.0
14877,12015,US,134543,34.1697222222,-80.7916666667,,Census,Town,SC,"Elgin, Kershaw County, South Carolina",0,0,0,0,0,0,0,0,0,0,0,0,116,156,175.0,146,183,329.0,374.0,595.0,622.0,806.0,1311.0
14903,18208,US,134394,33.2444444444,-81.3633333333,,Census,City,SC,"Barnwell, South Carolina",0,0,0,0,0,0,0,0,0,648,937,1329,1324,1903,1834.0,1922,2005,4568.0,4439.0,5572.0,5255.0,5035.0,4750.0
14911,7062,US,134397,33.2738888889,-81.2463888889,,Census,Town,SC,"Hilda, South Carolina",0,0,0,0,0,0,0,0,0,0,0,0,0,0,0.0,246,304,259.0,331.0,355.0,342.0,436.0,447.0
14978,6884,US,134559,34.3530555556,-82.0580555556,,Census,Town,SC,"Waterloo, South Carolina",0,0,0,0,0,0,0,0,0,0,291,189,191,209,204.0,150,162,148.0,112.0,200.0,122.0,203.0,166.0
15013,7601,US,134393,33.1802777778,-81.1841666667,,Census,Town,SC,"Olar, South Carolina",0,0,0,0,0,0,0,0,0,0,0,196,350,500,540.0,528,414,467.0,423.0,381.0,391.0,237.0,257.0
15599,7879,US,134649,34.0386111111,-80.9675,,Census,City,SC,"Forest Acres, South Carolina",0,0,0,0,0,0,0,0,0,0,0,0,0,0,0.0,323,3240,3842.0,6808.0,6062.0,7197.0,10558.0,10361.0
15722,42944,US,134401,32.4333333333,-80.6833333333,,Census,City,SC,"Beaufort, South Carolina",0,0,0,0,0,0,879,0,1739,2549,3587,4110,2486,2831,2776.0,3185,5081,6298.0,9434.0,8634.0,9576.0,12789.0,12361.0
15795,8445,US,151016,33.8497222222,-81.6083333333,,Census,Town,SC,"Monetta, South Carolina",0,0,0,0,0,0,0,0,0,0,0,0,122,137,203.0,114,84,109.0,269.0,273.0,285.0,220.0,236.0
15814,31596,US,134425,32.7869444444,-79.8763888889,,Census,Suburban town,SC,"Mount Pleasant, South Carolina",0,0,0,0,0,0,0,0,0,783,1138,2252,1346,1575,1415.0,1698,1857,5116.0,6155.0,14464.0,30108.0,47609.0,67843.0
15830,5928,US,134655,33.8577777778,-81.7322222222,,Census,Town,SC,"Ward, South Carolina",0,0,0,0,0,0,0,0,0,0,161,135,183,234,233.0,204,122,162.0,150.0,98.0,132.0,110.0,91.0
15877,9501,US,151014,34.4475,-82.3930555556,,Census,Town,SC,"Honea Path, South Carolina",0,0,0,0,0,0,0,0,0,228,365,617,1763,1900,2740.0,2765,2840,3453.0,3707.0,4114.0,3841.0,3504.0,3597.0
15937,7901,US,134424,32.7055555556,-80.2630555556,,Census,Town,SC,"Meggett, South Carolina",0,0,0,0,0,0,0,0,0,0,0,0,0,0,0.0,0,224,188.0,180.0,249.0,787.0,1230.0,1226.0
16081,12432,US,134676,34.7405555556,-82.0325,,Census,City,SC,"Woodruff, South Carolina",0,0,0,0,0,0,0,0,0,254,380,596,1880,2396,3175.0,3508,3831,3679.0,4690.0,5171.0,4365.0,4229.0,4090.0
16133,9666,US,134418,32.6661111111,-79.9391666667,,Census,City,SC,"Folly Beach, South Carolina",0,0,0,0,0,0,0,0,0,0,0,0,0,0,0.0,0,0,1137.0,1157.0,1478.0,1398.0,2116.0,2617.0
16257,22994,US,91898,34.69,-81.16,,Census,US County,SC,"Chester County, South Carolina",6866,8185,11479,14189,17182,17747,18038,18122,18805,24153,26660,28616,29425,33389,31803.0,32579,32597,30888.0,29811.0,30148.0,32170.0,34068.0,33140.0
16511,12798,US,134417,32.9863888889,-79.6433333333,,Census,Town,SC,"Awendaw, South Carolina",0,0,0,0,0,0,0,0,0,0,0,0,0,0,0.0,0,0,0.0,0.0,0.0,0.0,1195.0,1294.0
16884,9766,US,134586,34.6688888889,-79.5452777778,,Census,Town,SC,"McColl, South Carolina",0,0,0,0,0,0,0,0,0,0,0,1311,1628,2129,1657.0,2391,2688,2479.0,2524.0,2677.0,2685.0,2498.0,2174.0
16907,24063,US,91892,33.08,-80.4,,Census,US County,SC,"Dorchester County, South Carolina",0,0,0,0,0,0,0,0,0,0,0,16294,17891,19459,18956.0,19928,22601,24383.0,32276.0,58761.0,83060.0,96413.0,136555.0
16935,12943,US,2384439,32.7377777778,-79.9427777778,,Census,Town,SC,"James Island, South Carolina",0,0,0,0,0,0,0,0,1808,0,0,0,0,0,0.0,0,0,0.0,0.0,0.0,0.0,0.0,0.0
17026,11146,US,134580,34.2052777778,-79.2580555556,,Census,City,SC,"Mullins, South Carolina",0,0,0,0,0,0,0,0,0,0,242,828,1832,2379,3158.0,4392,4916,6229.0,6006.0,6068.0,5910.0,5029.0,4663.0
17062,6395,US,134576,33.9244444444,-81.4230555556,,Census,Town,SC,"Summit, South Carolina",0,0,0,0,0,0,0,0,0,57,0,0,87,89,66.0,73,105,108.0,130.0,172.0,242.0,219.0,402.0
17099,12363,US,151036,34.6933333333,-82.1986111111,,Census,City,SC,"Fountain Inn, South Carolina",0,0,0,0,0,0,0,0,0,0,212,497,979,1100,1264.0,1346,1325,2385.0,3391.0,4226.0,4388.0,6017.0,7799.0
17145,7167,US,134658,34.9069444444,-81.7533333333,,Census,Town,SC,"Central Pacolet, South Carolina",0,0,0,0,0,0,0,0,0,0,0,0,0,0,0.0,0,0,333.0,483.0,315.0,257.0,267.0,216.0
17180,31351,US,91885,34.16,-82.13,,Census,US County,SC,"Greenwood County, South Carolina",0,0,0,0,0,0,0,0,0,0,0,28343,34225,35791,36078.0,40083,41628,44346.0,49686.0,57847.0,59567.0,66271.0,69661.0
17385,7523,US,134553,34.3102777778,-81.9841666667,,Census,Town,SC,"Cross Hill, South Carolina",0,0,0,0,0,0,0,0,0,149,216,459,558,587,678.0,525,543,441.0,579.0,604.0,469.0,601.0,507.0
17462,13949,US,134389,33.2983333333,-81.0319444444,,Census,City,SC,"Bamberg, South Carolina",0,0,0,0,0,0,0,0,0,648,696,1533,1937,2210,2450.0,3000,2954,3081.0,3406.0,3672.0,3843.0,3733.0,3607.0
17514,70592,US,151028,32.8852777778,-80.0169444444,,Census,City,SC,"North Charleston, South Carolina",0,0,0,0,0,0,0,0,0,0,0,0,0,0,0.0,0,0,0.0,0.0,62479.0,70218.0,79641.0,97471.0
17540,13317,US,134454,32.4875,-80.3244444444,,Census,Town,SC,"Edisto Beach, South Carolina",0,0,0,0,0,0,0,0,0,0,0,0,0,0,0.0,0,0,0.0,0.0,193.0,340.0,641.0,414.0
17552,32875,US,91910,34.23,-82.45,,Census,US County,SC,"Abbeville County, South Carolina",9197,13553,21156,23167,28149,29351,32318,32385,31129,40815,46854,33400,34804,27139,23323.0,22931,22456,21417.0,21112.0,22627.0,23862.0,26167.0,25417.0
17592,6802,US,134635,33.4958333333,-81.2791666667,,Census,Town,SC,"Springfield, South Carolina",0,0,0,0,0,0,0,0,0,0,221,344,488,798,943.0,786,782,787.0,724.0,604.0,523.0,504.0,524.0
17593,22599,US,134642,34.7883333333,-82.695,,Census,City,SC,"Liberty, South Carolina",0,0,0,0,0,0,0,0,0,149,211,368,1058,1705,2128.0,2240,2291,2657.0,2860.0,3167.0,3228.0,3009.0,3269.0
17762,15788,US,134583,34.6213888889,-79.6847222222,,Census,City,SC,"Bennettsville, South Carolina",0,0,0,0,0,0,0,0,0,343,978,1929,2646,3197,3667.0,4895,5140,6963.0,7468.0,8774.0,9345.0,9425.0,9069.0
17836,58945,US,134672,34.9466666667,-81.9275,,Census,City,SC,"Spartanburg, South Carolina",0,0,0,0,0,0,1176,1216,1080,3253,5544,11395,17517,22638,28723.0,32249,36795,44352.0,44546.0,43826.0,43467.0,39673.0,37013.0
17898,8164,US,134410,33.3066666667,-79.9577777778,,Census,Town,SC,"Bonneau, South Carolina",0,0,0,0,0,0,0,0,0,0,0,0,0,0,0.0,493,408,402.0,365.0,401.0,374.0,354.0,487.0
18015,7221,US,134548,34.5472222222,-80.5827777778,,Census,Town,SC,"Kershaw, South Carolina",0,0,0,0,0,0,0,0,0,0,0,1002,950,1022,1120.0,1264,1376,1567.0,990.0,1993.0,1814.0,1645.0,1803.0
18276,8794,US,151041,34.0861111111,-81.1830555556,,Census,Town,SC,"Irmo, South Carolina",0,0,0,0,0,0,0,0,0,0,0,193,267,236,365.0,230,281,359.0,517.0,3957.0,11280.0,11039.0,11097.0
18356,7908,US,134415,33.5575,-80.7152777778,,Census,Town,SC,"Cameron, South Carolina",0,0,0,0,0,0,0,0,0,0,0,320,421,524,620.0,624,630,607.0,476.0,536.0,504.0,449.0,424.0
18782,15688,US,134442,34.7336111111,-80.0888888889,,Census,Town,SC,"Chesterfield, South Carolina",0,0,0,0,0,0,0,0,0,0,0,308,618,856,1030.0,1263,1530,1532.0,1667.0,1432.0,1373.0,1318.0,1472.0
18783,27035,US,134361,33.5494444444,-81.7205555556,,Census,City,SC,"Aiken, South Carolina",0,0,0,0,0,0,0,0,0,1817,2362,3414,3911,4103,6033.0,6168,7083,11243.0,13436.0,14978.0,19872.0,25337.0,29566.0
18937,18557,US,151024,33.0,-80.0333333333,,Census,City,SC,"Goose Creek, South Carolina",0,0,0,0,0,0,0,0,0,0,0,0,0,0,0.0,0,0,0.0,3825.0,17811.0,24692.0,29208.0,35938.0
19029,8788,US,134422,33.0086111111,-80.1577777778,,Census,Town,SC,"Lincolnville, South Carolina",0,0,0,0,0,0,0,0,0,350,388,40,341,247,600.0,261,278,420.0,504.0,808.0,716.0,904.0,1139.0
19347,6952,US,134704,33.5252777778,-79.8794444444,,Census,Town,SC,"Lane, South Carolina",0,0,0,0,0,0,0,0,0,0,0,0,0,308,433.0,297,580,497.0,517.0,554.0,523.0,585.0,508.0
19370,31836,US,134472,33.7833333333,-81.9333333333,,Census,Town,SC,"Edgefield, South Carolina",0,0,0,0,0,0,0,518,846,808,1168,1775,1771,1865,2132.0,2119,2518,2876.0,2750.0,2713.0,2563.0,4449.0,4750.0
19461,12520,US,134606,34.7672222222,-83.0644444444,,Census,City,SC,"Walhalla, South Carolina",0,0,0,0,0,0,0,0,716,789,820,1307,1595,2068,2388.0,2820,3104,3431.0,3662.0,3977.0,3755.0,3801.0,4263.0
19480,6814,US,134387,34.6463888889,-82.475,,Census,Town,SC,"West Pelzer, South Carolina",0,0,0,0,0,0,0,0,0,0,0,0,0,0,355.0,448,578,687.0,861.0,944.0,989.0,879.0,880.0
19501,22017,US,91893,34.39,-79.38,,Census,US County,SC,"Dillon County, South Carolina",0,0,0,0,0,0,0,0,0,0,0,0,22615,25278,25733.0,29625,30930,30584.0,28838.0,31083.0,29114.0,30722.0,32062.0
19753,24075,US,134556,34.5008333333,-82.0183333333,,Census,City,SC,"Laurens, South Carolina",0,0,0,0,0,0,0,429,0,752,2245,4029,4818,4629,5443.0,6895,8658,9598.0,10298.0,10587.0,9694.0,9916.0,9139.0
19884,21344,US,151037,34.9302777778,-82.225,,Census,City,SC,"Greer, South Carolina",0,0,0,0,0,0,0,0,0,97,320,648,1673,2292,2419.0,2940,5050,8967.0,10642.0,10525.0,10322.0,16843.0,25515.0
20114,6712,US,134592,33.7858333333,-82.2188888889,,Census,Town,SC,"Parksville, South Carolina",0,0,0,0,0,0,0,0,0,0,145,143,197,245,175.0,168,198,164.0,164.0,157.0,193.0,120.0,117.0
20160,6916,US,134617,33.3166666667,-80.4166666667,,Census,Town,SC,"Holly Hill, South Carolina",0,0,0,0,0,0,0,0,0,0,814,256,342,522,702.0,1062,1116,1235.0,1178.0,1785.0,1478.0,1281.0,1277.0
20275,16411,US,134529,33.8380555556,-79.0561111111,,Census,City,SC,"Conway, South Carolina",0,0,0,0,0,0,0,476,696,575,677,705,1228,1969,3011.0,5066,6073,8563.0,8151.0,10240.0,9819.0,11788.0,17103.0
20341,15729,US,134644,34.8816666667,-82.7075,,Census,City,SC,"Pickens, South Carolina",0,0,0,0,0,0,0,0,0,212,283,449,897,895,1130.0,1637,1961,2198.0,2954.0,3199.0,3042.0,3012.0,3126.0
20444,7719,US,134479,33.9755555556,-79.7472222222,,Census,Town,SC,"Coward, South Carolina",0,0,0,0,0,0,0,0,0,0,0,0,0,0,0.0,0,0,0.0,466.0,428.0,532.0,650.0,752.0
20547,13225,US,134503,34.7333333333,-82.26,,Census,City,SC,"Simpsonville, South Carolina",0,0,0,0,0,0,0,0,0,0,0,195,521,566,1400.0,1298,1529,2282.0,3308.0,9037.0,11708.0,14352.0,18238.0
20556,11637,US,151034,34.2180555556,-80.9847222222,,Census,Town,SC,"Blythewood, South Carolina",0,0,0,0,0,0,0,0,0,0,0,0,0,0,0.0,0,0,0.0,0.0,92.0,164.0,170.0,2034.0
20572,6730,US,134486,33.9175,-79.7433333333,,Census,Town,SC,"Scranton, South Carolina",0,0,0,0,0,0,0,0,0,124,0,208,308,294,392.0,438,602,613.0,732.0,861.0,802.0,942.0,932.0
20605,10153,US,151035,33.45,-79.5638888889,,Census,Town,SC,"Andrews, South Carolina",0,0,0,0,0,0,0,0,0,0,0,0,0,1968,1712.0,2008,2702,2995.0,2839.0,3129.0,3050.0,3068.0,2861.0
20731,10513,US,134428,32.5822222222,-80.1633333333,,Census,Town,SC,"Seabrook Island, South Carolina",0,0,0,0,0,0,0,0,0,50,0,0,0,0,0.0,0,0,0.0,0.0,0.0,948.0,1250.0,1714.0
20764,73883,US,134534,,,,Census,City,SC,"Myrtle Beach, South Carolina",0,0,0,0,0,0,0,0,0,0,0,0,0,0,0.0,1597,3345,7834.0,8536.0,18446.0,24848.0,22759.0,27109.0
20786,29521,US,91867,34.6,-79.68,,Census,US County,SC,"Marlboro County, South Carolina",10706,5452,4966,6425,8582,8408,10789,12434,11814,20598,23500,27639,31189,33180,31634.0,33281,31766,28529.0,27151.0,31624.0,29361.0,28818.0,28933.0
21630,15354,US,134561,34.2188888889,-80.2488888889,,Census,City,SC,"Bishopville, South Carolina",0,0,0,0,0,0,0,0,0,144,422,715,1659,2090,2249.0,2995,3076,3586.0,3404.0,3429.0,3560.0,3670.0,3471.0
21635,21657,US,91856,33.62,-79.73,,Census,US County,SC,"Williamsburg County, South Carolina",0,0,6871,8716,9018,10327,12447,15489,15489,24110,27777,31685,37626,38539,34914.0,41011,43807,40932.0,34243.0,38226.0,36815.0,37217.0,34423.0
21650,22195,US,91860,34.01,-81.73,,Census,US County,SC,"Saluda County, South Carolina",0,0,0,0,0,0,0,0,0,0,0,18966,20943,22088,18148.0,17192,15924,14554.0,14528.0,16150.0,16357.0,19181.0,19875.0
21675,7803,US,134505,34.9133333333,-82.3108333333,,Census,Cdp,SC,"Taylors, South Carolina",0,0,0,0,0,0,0,0,0,0,0,0,0,0,0.0,0,1518,1071.0,6831.0,15801.0,19619.0,20125.0,21617.0
21762,15870,US,134457,32.9041666667,-80.6661111111,,Census,City,SC,"Walterboro, South Carolina",0,0,0,0,0,0,0,0,636,691,1171,1491,1677,1853,2592.0,3373,4616,5417.0,6257.0,6209.0,5492.0,5153.0,5398.0
21927,6740,US,134374,33.0386111111,-81.2219444444,,Census,Town,SC,"Sycamore, South Carolina",0,0,0,0,0,0,0,0,0,0,0,79,99,118,149.0,324,383,401.0,229.0,261.0,208.0,185.0,180.0
21976,6302,US,134612,32.3833333333,-81.0,,Census,Town,SC,"Cope, South Carolina",0,0,0,0,0,0,0,0,0,0,0,80,174,266,231.0,280,209,227.0,202.0,167.0,124.0,107.0,77.0
21990,75487,US,134404,32.1788888889,-80.7430555556,,Census,Town,SC,"Hilton Head Island, South Carolina",0,0,0,0,0,0,0,0,0,0,0,0,0,0,0.0,0,0,0.0,0.0,0.0,23694.0,33862.0,37099.0
22050,29812,US,91902,33.2,-79.95,,Census,US County,SC,"Berkeley County, South Carolina",0,0,0,0,0,0,0,0,0,0,55428,30454,23487,22558,22236.0,27128,30251,38196.0,56199.0,94727.0,128776.0,142651.0,177843.0
22157,34502,US,91883,,,,Census,US County,SC,"Horry County, South Carolina",0,0,4349,5025,5245,5755,7646,7962,10721,15574,19256,23364,26995,32077,39376.0,51951,59820,68247.0,69992.0,101419.0,144053.0,196629.0,269291.0
22195,26882,US,134376,34.5144444444,-82.6488888889,,Census,City,SC,"Anderson, South Carolina",0,0,0,0,0,0,0,625,1432,1850,3018,5498,9654,10570,14383.0,19424,19770,41316.0,27556.0,27546.0,26184.0,25514.0,26686.0
22264,8000,US,134400,33.4005555556,-81.4225,,Census,Town,SC,"Williston, South Carolina",0,0,0,0,0,0,0,0,0,426,503,617,624,854,1024.0,1107,896,2722.0,2594.0,3173.0,3099.0,3307.0,3139.0
22643,18376,US,134477,34.3769444444,-81.0880555556,,Census,Town,SC,"Winnsboro, South Carolina",0,0,0,0,0,0,0,355,1124,1500,1738,1765,1754,1822,2344.0,3181,3267,3479.0,3411.0,2919.0,3475.0,3599.0,3550.0
22647,14804,US,134514,34.1733333333,-82.0216666667,,Census,Town,SC,"Ninety Six, South Carolina",0,0,0,0,0,0,0,0,0,468,445,414,758,773,1381.0,1453,1556,1435.0,2166.0,2249.0,2099.0,1936.0,1998.0
22678,21237,US,134429,32.7633333333,-79.8377777778,,Census,Town,SC,"Sullivan's Island, South Carolina",0,0,0,0,0,0,0,0,0,0,0,0,0,0,0.0,0,0,1358.0,1426.0,1867.0,1623.0,1911.0,1791.0
22743,15638,US,134552,34.4713888889,-81.875,,Census,City,SC,"Clinton, South Carolina",0,0,0,0,0,0,0,197,0,459,1021,1869,3272,3767,5643.0,5704,7168,7937.0,8138.0,8596.0,7987.0,8091.0,8490.0
22951,8833,US,134358,34.3322222222,-82.3872222222,,Census,Town,SC,"Due West, South Carolina",0,0,0,0,0,0,330,0,400,449,644,631,672,702,620.0,593,1033,1166.0,1380.0,1366.0,1220.0,1209.0,1247.0
22973,9302,US,134452,33.8894444444,-80.0133333333,,Census,Town,SC,"Turbeville, South Carolina",0,0,0,0,0,0,0,0,0,0,0,0,0,0,210.0,234,271,355.0,442.0,549.0,698.0,602.0,766.0
23145,7508,US,134517,32.9266666667,-81.1877777778,,Census,Town,SC,"Brunson, South Carolina",0,0,0,0,0,0,0,0,0,167,470,342,610,699,675.0,542,607,603.0,559.0,590.0,587.0,589.0,554.0
23180,106348,US,57851,34.0005555556,-81.0347222222,,Census,State capital,SC,"Columbia, South Carolina",0,0,0,0,3310,4340,6060,8052,9298,10036,15353,21108,26319,37524,51581.0,62396,86914,97433.0,112542.0,101208.0,98052.0,116278.0,129272.0
23235,7990,US,134554,34.6086111111,-82.1141666667,,Census,Town,SC,"Gray Court, South Carolina",0,0,0,0,0,0,0,0,0,0,0,181,284,318,360.0,401,479,473.0,859.0,988.0,914.0,1021.0,795.0
23243,9509,US,134436,34.7008333333,-80.8963888889,,Census,Town,SC,"Fort Lawn, South Carolina",0,0,0,0,0,0,0,0,0,0,0,126,204,231,180.0,168,216,192.0,510.0,471.0,718.0,864.0,895.0
23355,25263,US,91894,34.33,-79.96,,Census,US County,SC,"Darlington County, South Carolina",0,7631,9047,10949,13728,14822,16830,20361,26243,34485,29134,32388,36027,39126,41427.0,45198,50016,52928.0,53442.0,62717.0,61851.0,67394.0,68681.0
23377,35003,US,91896,33.66,-80.22,,Census,US County,SC,"Clarendon County, South Carolina",0,0,0,0,0,0,0,13095,14038,19190,23233,28184,32188,34878,30036.0,31500,32215,29490.0,25604.0,27464.0,28450.0,32502.0,34971.0
23431,6879,US,134701,33.5813888889,-79.9894444444,,Census,Town,SC,"Greeleyville, South Carolina",0,0,0,0,0,0,0,0,0,0,0,252,630,645,474.0,633,600,504.0,542.0,593.0,464.0,452.0,438.0
23499,11103,US,134565,33.8158333333,-81.1008333333,,Census,Town,SC,"Gaston, South Carolina",0,0,0,0,0,0,0,0,0,0,0,0,0,0,0.0,0,0,0.0,0.0,960.0,984.0,1304.0,1645.0
23540,7743,US,134357,34.3752777778,-82.3469444444,,Census,Town,SC,"Donalds, South Carolina",0,0,0,0,0,0,0,0,0,0,216,229,268,310,220.0,271,332,416.0,392.0,366.0,326.0,354.0,348.0
23567,17874,US,134703,33.6711111111,-79.8286111111,,Census,City,SC,"Kingstree, South Carolina",0,0,0,0,0,0,0,0,0,384,539,760,1372,2074,2392.0,3182,3621,3847.0,3381.0,4147.0,3858.0,3496.0,3328.0
23756,7218,US,134607,34.7580555556,-83.0416666667,,Census,Town,SC,"West Union, South Carolina",0,0,0,0,0,0,0,0,0,192,235,289,328,306,309.0,449,429,443.0,388.0,300.0,260.0,297.0,291.0
23758,13150,US,134521,32.8675,-81.1116666667,,Census,Town,SC,"Hampton, South Carolina",0,0,0,0,0,0,0,0,0,169,318,536,748,706,811.0,997,2007,2486.0,2966.0,3143.0,2997.0,2837.0,2808.0
23941,7253,US,134448,34.7455555556,-80.1758333333,,Census,Town,SC,"Ruby, South Carolina",0,0,0,0,0,0,0,0,0,0,0,0,194,290,326.0,337,315,284.0,306.0,256.0,300.0,348.0,360.0
24000,16123,US,134604,34.6841666667,-82.9558333333,,Census,Town,SC,"Seneca, South Carolina",0,0,0,0,0,0,0,0,0,382,0,920,1313,1460,1929.0,2155,3649,5227.0,6027.0,7436.0,7726.0,7652.0,8102.0
24119,35176,US,91857,34.69,-81.62,,Census,US County,SC,"Union County, South Carolina",7693,10237,10995,14126,17906,18936,19852,19635,19248,24080,25363,25501,29911,30372,30920.0,31360,31334,30015.0,29230.0,30751.0,30337.0,29881.0,28961.0
24160,11835,US,134423,33.0889527778,-79.4672861111,,Census,Town,SC,"McClellanville, South Carolina",0,0,0,0,0,0,0,0,0,0,0,0,0,0,502.0,431,417,354.0,304.0,436.0,333.0,459.0,499.0
24293,7482,US,134682,33.9855555556,-80.2072222222,,Census,Town,SC,"Mayesville, South Carolina",0,0,0,0,0,0,0,0,0,396,706,761,751,839,649.0,0,706,750.0,757.0,663.0,694.0,1001.0,731.0
24393,9530,US,134524,32.8525,-81.0794444444,,Census,Town,SC,"Varnville, South Carolina",0,0,0,0,0,0,0,0,0,0,553,372,542,1160,969.0,917,1180,1461.0,1555.0,1948.0,1970.0,2074.0,2162.0
24554,7363,US,134468,33.2041666667,-80.6472222222,,Census,Town,SC,"Reevesville, South Carolina",0,0,0,0,0,0,0,0,0,0,109,137,205,200,181.0,217,285,268.0,247.0,241.0,244.0,207.0,196.0
24653,13405,US,134608,34.6663888889,-83.0952777778,,Census,City,SC,"Westminster, South Carolina",0,0,0,0,0,0,0,0,0,162,532,857,1576,1847,1774.0,2014,2219,2413.0,2521.0,3114.0,3120.0,2743.0,2418.0
24753,8646,US,134665,34.9563888889,-82.1244444444,,Census,Town,SC,"Lyman, South Carolina",0,0,0,0,0,0,0,0,0,0,0,0,0,0,0.0,0,0,1261.0,1159.0,1067.0,2271.0,2659.0,3243.0
24888,6880,US,134687,33.7394444444,-80.4633333333,,Census,Town,SC,"Pinewood, South Carolina",0,0,0,0,0,0,0,0,0,0,0,97,424,338,400.0,456,578,570.0,687.0,689.0,600.0,459.0,538.0
24896,14101,US,134700,34.7172222222,-81.625,,Census,City,SC,"Union, South Carolina",0,0,0,0,0,0,554,0,0,1267,1609,5400,5623,6141,7419.0,8478,9730,10191.0,10775.0,10523.0,9836.0,8793.0,8393.0
25106,6960,US,134570,33.9108333333,-81.1075,,Census,Town,SC,"Pine Ridge, South Carolina",0,0,0,0,0,0,0,0,0,0,0,0,0,0,0.0,0,0,329.0,633.0,1287.0,1731.0,1593.0,2064.0
25140,32986,US,91897,34.64,-80.16,,Census,US County,SC,"Chesterfield County, South Carolina",0,5216,5564,6645,8472,8574,10790,11834,10584,16345,18468,20401,26301,31969,34334.0,35963,36236,33717.0,33667.0,38161.0,38577.0,42768.0,46734.0
25153,39860,US,91900,,,,Census,US County,SC,"Charleston County, South Carolina",66985,57480,63179,80212,86338,82661,72805,70100,88863,102800,59903,88006,88594,108450,101050.0,121105,164856,216382.0,247650.0,276974.0,295039.0,309969.0,350209.0
25276,6965,US,134456,33.0908333333,-80.8108333333,,Census,Town,SC,"Smoaks, South Carolina",0,0,0,0,0,0,0,0,0,0,0,0,0,132,176.0,168,130,145.0,155.0,165.0,142.0,140.0,126.0
25329,8460,US,134391,33.0958333333,-81.0133333333,,Census,Town,SC,"Ehrhardt, South Carolina",0,0,0,0,0,0,0,0,0,0,0,215,315,495,432.0,407,510,482.0,478.0,353.0,442.0,614.0,545.0
25415,7966,US,134471,33.1833333333,-80.5833333333,,Census,Town,SC,"St. George, South Carolina",0,0,0,0,0,0,0,0,0,279,629,576,957,1386,1639.0,1906,1938,1833.0,1806.0,2134.0,2077.0,2092.0,2084.0
25591,10037,US,134419,32.7341666667,-80.2416666667,,Census,Town,SC,"Hollywood, South Carolina",0,0,0,0,0,0,0,0,0,0,0,0,0,0,0.0,0,246,334.0,339.0,729.0,2094.0,3946.0,4714.0
25697,7435,US,134369,33.5658333333,-81.3041666667,,Census,Town,SC,"Salley, South Carolina",0,0,0,0,0,0,0,0,0,0,252,241,311,400,433.0,443,407,403.0,450.0,584.0,451.0,410.0,398.0
25699,7218,US,134392,33.2166666667,-81.1666666667,,Census,Town,SC,"Govan, South Carolina",0,0,0,0,0,0,0,0,0,0,0,113,111,124,106.0,113,109,138.0,136.0,109.0,84.0,67.0,65.0
25705,27927,US,91888,33.41,-79.3,,Census,US County,SC,"Georgetown County, South Carolina",22122,22938,15679,17603,19943,18274,20647,21305,16161,19613,20857,22846,22270,21716,21738.0,26352,31762,34798.0,33500.0,42461.0,46302.0,55797.0,60158.0
25830,8905,US,134395,33.3569444444,-81.2727777778,,Census,Town,SC,"Blackville, South Carolina",0,0,0,0,0,0,0,0,0,684,962,1116,1278,1421,1284.0,1456,1294,1901.0,2395.0,2840.0,2688.0,2973.0,2406.0
25846,8504,US,134372,33.0088888889,-81.3086111111,,Census,Town,SC,"Allendale, South Carolina",0,0,0,0,0,0,0,0,0,0,0,1030,1453,1893,2068.0,2217,2474,3114.0,3620.0,4400.0,4410.0,4052.0,3482.0
25906,4684,US,18610014,34.2677777778,-81.2877777778,,Census,Town,SC,"Jenkinsville, South Carolina",0,0,0,0,0,0,0,0,0,0,0,0,0,0,0.0,0,0,0.0,0.0,0.0,0.0,0.0,46.0
26034,7807,US,134600,34.2105555556,-81.5344444444,,Census,Town,SC,"Prosperity, South Carolina",0,0,0,0,0,0,0,0,0,357,565,592,737,748,844.0,719,699,757.0,762.0,803.0,1116.0,1047.0,1180.0
26090,7009,US,134399,33.2413888889,-81.4530555556,,Census,Town,SC,"Snelling, South Carolina",0,0,0,0,0,0,0,0,0,0,0,0,338,137,126.0,128,34,100.0,150.0,111.0,125.0,246.0,274.0
26209,7088,US,134577,33.7372222222,-81.1022222222,,Census,Town,SC,"Swansea, South Carolina",0,0,0,0,0,0,0,0,0,0,0,239,523,690,717.0,950,762,776.0,691.0,888.0,527.0,533.0,827.0
26325,6901,US,134546,34.5916666667,-80.6744444444,,Census,Town,SC,"Heath Springs, South Carolina",0,0,0,0,0,0,0,0,0,0,0,266,452,505,520.0,570,694,832.0,955.0,979.0,907.0,864.0,790.0
26388,8461,US,134657,35.1152777778,-82.1497222222,,Census,Town,SC,"Campobello, South Carolina",0,0,0,0,0,0,0,0,0,99,137,203,255,309,340.0,389,394,420.0,530.0,472.0,465.0,449.0,502.0
26416,21798,US,134459,34.3013888889,-79.8686111111,,Census,City,SC,"Darlington, South Carolina",0,0,0,0,0,0,0,0,0,940,2389,3028,3789,4669,5556.0,6236,6619,6710.0,6990.0,7989.0,7311.0,6720.0,6289.0
26428,24393,US,91870,34.08,-79.36,,Census,US County,SC,"Marion County, South Carolina",0,6914,8884,10201,11208,13932,17407,21190,22160,34107,29976,35181,20596,23721,27221.0,30107,33110,32014.0,30270.0,34179.0,33899.0,35466.0,33062.0
26493,6578,US,134360,34.2102777778,-82.6494444444,,Census,Town,SC,"Lowndesville, South Carolina",0,0,0,0,0,0,0,0,0,116,268,241,350,350,271.0,201,252,274.0,219.0,197.0,162.0,166.0,128.0
26725,22439,US,91884,32.78,-81.14,,Census,US County,SC,"Hampton County, South Carolina",0,0,0,0,0,0,0,0,0,18741,20544,23738,25126,19550,17243.0,17465,18027,17425.0,15878.0,18159.0,18191.0,21386.0,21090.0
26770,24390,US,134564,34.1658333333,-81.3472222222,,Census,Town,SC,"Chapin, South Carolina",0,0,0,0,0,0,0,0,0,0,0,187,345,264,429.0,311,327,358.0,342.0,311.0,282.0,628.0,1445.0
26936,6272,US,134636,33.4361111111,-80.4197222222,,Census,Town,SC,"Vance, South Carolina",0,0,0,0,0,0,0,0,0,0,0,81,97,124,121.0,125,106,85.0,54.0,89.0,214.0,208.0,170.0
27086,16336,US,151018,33.5130555556,-81.9627777778,,Census,City,SC,"North Augusta, South Carolina",0,0,0,0,0,0,0,0,0,0,0,0,1136,1742,2003.0,2629,3659,10348.0,12883.0,13593.0,15351.0,17574.0,21348.0
27245,11653,US,134388,34.6177777778,-82.4791666667,,Census,Town,SC,"Williamston, South Carolina",0,0,0,0,0,0,0,0,0,0,935,991,1957,2322,2235.0,2509,2782,3721.0,3991.0,4310.0,3876.0,3791.0,3934.0
27252,10089,US,134702,33.7533333333,-79.4458333333,,Census,Town,SC,"Hemingway, South Carolina",0,0,0,0,0,0,0,0,0,0,0,0,0,371,351.0,536,821,951.0,1026.0,853.0,829.0,573.0,459.0
27253,6748,US,134610,33.2519444444,-80.8177777778,,Census,Town,SC,"Branchville, South Carolina",0,0,0,0,0,0,0,0,366,517,732,1101,1471,1814,1689.0,1351,1353,1182.0,1011.0,1769.0,1107.0,1083.0,1024.0
27489,8839,US,134463,34.5138888889,-79.8511111111,,Census,Town,SC,"Society Hill, South Carolina",0,0,0,0,0,0,0,0,0,0,0,0,0,0,573.0,687,645,677.0,806.0,848.0,686.0,700.0,563.0
27562,13267,US,134383,34.6433333333,-82.46,,Census,Town,SC,"Pelzer, South Carolina",0,0,0,0,0,0,0,0,0,0,0,0,0,0,0.0,0,2692,106.0,130.0,130.0,81.0,97.0,89.0
27645,28196,US,91879,34.48,-82.01,,Census,US County,SC,"Laurens County, South Carolina",9337,12809,14982,17682,20863,21584,23407,23858,22536,29444,31610,24311,26650,42560,42094.0,44185,46974,47609.0,49713.0,52214.0,58092.0,69567.0,66537.0
27689,13097,US,134466,34.3383333333,-79.4330555556,,Census,Town,SC,"Latta, South Carolina",0,0,0,0,0,0,0,0,0,0,0,453,1358,1079,1166.0,1334,1602,1901.0,1764.0,1804.0,1565.0,1410.0,1379.0
27706,33519,US,91862,34.89,-82.72,,Census,US County,SC,"Pickens County, South Carolina",0,0,0,0,14473,14356,16904,19639,10269,14389,16389,19375,25422,28329,33709.0,37111,40058,46030.0,58956.0,79292.0,93894.0,110757.0,119224.0
27803,10858,US,134706,35.1122222222,-81.2269444444,,Census,Town,SC,"Clover, South Carolina",0,0,0,0,0,0,0,0,0,73,287,961,1207,1608,3111.0,3067,3276,3500.0,3506.0,3451.0,3422.0,4014.0,5094.0
27948,7464,US,134603,34.8886111111,-82.9747222222,,Census,Town,SC,"Salem, South Carolina",0,0,0,0,0,0,0,0,0,0,0,0,139,0,0.0,0,0,206.0,301.0,194.0,192.0,126.0,135.0
28013,11435,US,134378,34.5255555556,-82.4961111111,,Census,City,SC,"Belton, South Carolina",0,0,0,0,0,0,0,0,0,314,494,826,1852,1780,1765.0,2119,3371,5106.0,5257.0,5312.0,4646.0,4461.0,4134.0
28027,6943,US,134643,34.765,-82.7522222222,,Census,Town,SC,"Norris, South Carolina",0,0,0,0,0,0,0,0,0,0,0,0,180,206,216.0,177,325,594.0,757.0,903.0,884.0,847.0,813.0
28054,150987,US,61024,32.7833333333,-79.9333333333,,Census,City,SC,"Charleston, South Carolina",16359,18824,24711,24780,30289,29261,42985,40522,48956,49984,54955,55807,58833,67957,62265.0,71275,70174,60288.0,66945.0,69779.0,80414.0,96650.0,120083.0
28061,17759,US,134449,33.695,-80.2108333333,,Census,City,SC,"Manning, South Carolina",0,0,0,0,0,0,0,0,0,0,1069,1430,1854,2022,1884.0,2381,2775,3917.0,4025.0,4746.0,4428.0,4025.0,4108.0
28160,9414,US,134356,34.0927777778,-82.5897222222,,Census,Town,SC,"Calhoun Falls, South Carolina",0,0,0,0,0,0,0,0,0,0,0,0,296,807,1759.0,1832,2396,2525.0,2234.0,2491.0,2328.0,2303.0,2004.0
28261,44893,US,91855,,,,Census,US County,SC,"York County, South Carolina",6604,10250,10032,14936,17790,18383,19433,21502,24286,30713,38831,41684,47718,50536,53418.0,58663,71596,78760.0,85216.0,106720.0,131497.0,164614.0,226073.0
28267,28777,US,134460,34.3694444444,-80.0808333333,,Census,City,SC,"Hartsville, South Carolina",0,0,0,0,0,0,0,0,0,0,342,704,2365,3624,5067.0,5399,5658,6392.0,8017.0,7631.0,8372.0,7556.0,7764.0
28455,9522,US,134609,33.3477777778,-80.6838888889,,Census,Town,SC,"Bowman, South Carolina",0,0,0,0,0,0,0,0,0,0,0,134,327,733,754.0,799,857,1106.0,1095.0,1137.0,1063.0,1198.0,968.0
28474,10043,US,134412,33.2841666667,-79.695,,Census,Town,SC,"Jamestown, South Carolina",0,0,0,0,0,0,0,0,0,0,0,0,0,0,0.0,0,0,184.0,190.0,193.0,84.0,97.0,72.0
28573,6255,US,134562,34.0605555556,-80.0772222222,,Census,Town,SC,"Lynchburg, South Carolina",0,0,0,0,0,0,0,0,0,0,0,0,466,506,512.0,382,506,544.0,546.0,534.0,475.0,588.0,373.0
28771,27780,US,91890,34.4,-81.13,,Census,US County,SC,"Fairfield County, South Carolina",7623,10087,11857,17174,21546,20165,21404,22111,19888,27765,28599,29425,29442,27159,23287.0,24187,21780,20713.0,19999.0,20700.0,22295.0,23454.0,23956.0
28834,6978,US,134386,34.3780555556,-82.6938888889,,Census,Town,SC,"Starr, South Carolina",0,0,0,0,0,0,0,0,0,0,0,0,273,347,361.0,349,282,243.0,190.0,241.0,164.0,173.0,173.0
28863,7145,US,134368,33.6277777778,-81.3111111111,,Census,Town,SC,"Perry, South Carolina",0,0,0,0,0,0,0,0,0,0,69,76,179,189,166.0,141,133,196.0,209.0,273.0,241.0,237.0,233.0
29051,21065,US,91866,33.9,-82.3,,Census,US County,SC,"McCormick County, South Carolina",0,0,0,0,0,0,0,0,0,0,0,0,0,16444,11471.0,10367,9577,8629.0,7955.0,7797.0,8868.0,9958.0,10233.0
29098,9515,US,134661,35.0475,-82.0902777778,,Census,City,SC,"Inman, South Carolina",0,0,0,0,0,0,0,0,0,0,134,294,474,694,969.0,1115,1514,1714.0,1661.0,1554.0,1742.0,1884.0,2321.0
29115,19274,US,134441,34.6966666667,-79.895,,Census,Town,SC,"Cheraw, South Carolina",0,0,0,0,0,0,0,0,0,918,976,1151,2873,3150,3573.0,4497,4836,5171.0,5627.0,5654.0,5505.0,5524.0,5851.0
29123,11714,US,134446,34.7713888889,-80.3916666667,,Census,Town,SC,"Pageland, South Carolina",0,0,0,0,0,0,0,0,0,0,0,0,360,521,707.0,989,1925,2020.0,2122.0,2720.0,2666.0,2521.0,2760.0
29151,6955,US,134697,34.8355555556,-81.6816666667,,Census,City,SC,"Jonesville, South Carolina",0,0,0,0,0,0,0,0,0,266,286,508,969,1209,1153.0,1182,1345,1439.0,1447.0,1201.0,1205.0,982.0,911.0
29161,21440,US,91872,34.16,-80.25,,Census,US County,SC,"Lee County, South Carolina",0,0,0,0,0,0,0,0,0,0,0,0,25318,26827,24096.0,24908,23173,21832.0,18323.0,18929.0,18437.0,20119.0,19220.0
29397,7241,US,134381,34.3072222222,-82.6638888889,,Census,Town,SC,"Iva, South Carolina",0,0,0,0,0,0,0,0,0,0,0,0,804,962,1273.0,1285,1164,1357.0,1114.0,1369.0,1174.0,1156.0,1218.0
29415,6433,US,134594,33.85,-82.2594444444,,Census,Town,SC,"Plum Branch, South Carolina",0,0,0,0,0,0,0,0,0,0,0,0,145,169,127.0,142,158,139.0,108.0,73.0,101.0,98.0,82.0
29496,49301,US,134715,34.9380555556,-81.0261111111,,Census,City,SC,"Rock Hill, South Carolina",0,0,0,0,0,0,0,0,0,809,2744,5485,7216,8809,11322.0,15009,24502,29404.0,33846.0,35327.0,41643.0,49765.0,66154.0
29580,25349,US,91895,32.84,-80.65,,Census,US County,SC,"Colleton County, South Carolina",0,24903,26359,26404,27256,25548,39505,41916,25410,38386,40293,33452,35390,29897,25821.0,26268,28242,27816.0,27622.0,31776.0,34377.0,38264.0,38892.0
29638,8330,US,134476,34.3058333333,-80.9613888889,,Census,Town,SC,"Ridgeway, South Carolina",0,0,0,0,0,0,0,0,0,0,249,334,370,429,404.0,408,414,417.0,437.0,343.0,407.0,328.0,319.0
29966,8654,US,134660,34.935,-82.1347222222,,Census,Town,SC,"Duncan, South Carolina",0,0,0,0,0,0,0,0,0,0,0,149,190,115,406.0,631,599,1186.0,1266.0,1259.0,2152.0,2870.0,3181.0
30086,6755,US,134574,33.9086111111,-81.1352777778,,Census,Town,SC,"South Congaree, South Carolina",0,0,0,0,0,0,0,0,0,0,0,0,0,0,0.0,0,0,650.0,1434.0,2113.0,2406.0,2266.0,2306.0
30228,23654,US,134432,35.0719444444,-81.6530555556,,Census,City,SC,"Gaffney, South Carolina",0,0,0,0,0,0,0,0,0,400,1631,3937,4767,5065,6827.0,7636,8123,10435.0,13253.0,13453.0,13145.0,12968.0,12539.0
30305,63463,US,134497,34.8444444444,-82.3855555556,,Census,City,SC,"Greenville, South Carolina",0,0,0,0,0,0,1305,1518,2757,6160,8607,11860,15741,23127,29154.0,34734,58161,66188.0,61208.0,58242.0,58282.0,56002.0,58409.0
30517,6337,US,134584,34.5075,-79.6530555556,,Census,Town,SC,"Blenheim, South Carolina",0,0,0,0,0,0,0,0,0,0,95,176,228,234,253.0,237,153,185.0,236.0,202.0,191.0,137.0,154.0
30614,7797,US,134484,33.9961111111,-79.5677777778,,Census,Town,SC,"Pamplico, South Carolina",0,0,0,0,0,0,0,0,0,0,0,0,0,452,467.0,555,728,988.0,1068.0,1213.0,1314.0,1139.0,1226.0
30630,15949,US,134641,34.8233333333,-82.5902777778,,Census,City,SC,"Easley, South Carolina",0,0,0,0,0,0,0,0,0,327,421,903,2983,3568,4886.0,5183,6316,8283.0,11175.0,14264.0,15195.0,17754.0,19993.0
30902,25024,US,134512,34.1952777778,-82.1616666667,,Census,City,SC,"Greenwood, South Carolina",0,0,0,0,0,0,0,0,700,745,1326,4824,6614,8703,11020.0,13020,13806,16644.0,21069.0,21613.0,20807.0,22071.0,23222.0
30909,9362,US,134416,33.6647222222,-80.7788888889,,Census,Town,SC,"St. Matthews, South Carolina",0,0,0,0,0,0,0,0,0,271,524,758,1377,1780,1750.0,2187,2351,2433.0,2403.0,2496.0,2345.0,2107.0,2021.0
30981,23741,US,134411,32.9169444444,-79.9958333333,,Census,City,SC,"Hanahan, South Carolina",0,0,0,0,0,0,0,0,0,0,0,0,0,0,0.0,0,0,0.0,0.0,13224.0,13176.0,12937.0,17997.0
31008,5955,US,134587,34.6477777778,-79.5863888889,,Census,Town,SC,"Tatum, South Carolina",0,0,0,0,0,0,0,0,0,0,0,200,225,176,186.0,181,119,132.0,115.0,101.0,49.0,69.0,75.0
31226,8570,US,134475,33.7397222222,-81.8402777778,,Census,Town,SC,"Trenton, South Carolina",0,0,0,0,0,0,0,0,0,0,302,266,257,271,369.0,408,296,314.0,362.0,404.0,303.0,226.0,196.0
31471,6870,US,134569,33.7655555556,-81.2463888889,,Census,Town,SC,"Pelion, South Carolina",0,0,0,0,0,0,0,0,0,0,0,0,0,184,200.0,212,196,233.0,216.0,213.0,336.0,553.0,674.0
