,article_length,country,id,lat,lon,other_years,poptype,settlement_type,state,title,y1790,y1800,y1810,y1820,y1830,y1840,y1850,y1860,y1870,y1880,y1890,y1900,y1910,y1920,y1930,y1940,y1950,y1960,y1970,y1980,y1990,y2000,y2010
25,12204,US,134869,44.59,-97.4663888889,,Census,City,SD,"Bryant, South Dakota",0,0,0,0,0,0,0,0,0,0,172,405,645,651,656.0,658,624,522.0,502.0,388.0,374.0,396.0,456.0
91,11397,US,134738,42.9477777778,-97.6580555556,,Census,Town,SD,"Tabor, South Dakota",0,0,0,0,0,0,0,0,0,0,0,0,273,428,397.0,391,373,378.0,388.0,460.0,403.0,417.0,423.0
214,24148,US,91821,43.2,-99.18,,Census,US County,SD,"Gregory County, South Dakota",0,0,0,0,0,0,0,0,0,0,295,2211,13061,12700,11420.0,9554,8556,7399.0,6710.0,6015.0,5359.0,4792.0,4271.0
266,9730,US,135036,43.3233333333,-101.037777778,,Census,Cdp,SD,"Parmelee, South Dakota",0,0,0,0,0,0,0,0,0,0,0,0,0,0,0.0,0,0,0.0,0.0,0.0,618.0,650.0,562.0
315,12202,US,135032,44.8386111111,-100.072777778,,Census,Town,SD,"Agar, South Dakota",0,0,0,0,0,0,0,0,0,0,0,0,0,0,200.0,142,141,139.0,156.0,139.0,82.0,82.0,76.0
395,11376,US,134776,43.1369444444,-98.4263888889,,Census,Town,SD,"Ravinia, South Dakota",0,0,0,0,0,0,0,0,0,0,0,0,81,199,157.0,155,200,164.0,109.0,88.0,79.0,79.0,61.0
416,11486,US,134814,45.3330555556,-97.3041666667,,Census,City,SD,"Waubay, South Dakota",0,0,0,0,0,0,0,0,0,0,0,430,803,979,903.0,882,879,851.0,696.0,675.0,647.0,662.0,576.0
491,13119,US,134956,43.5694444444,-100.746111111,,Census,City,SD,"White River, South Dakota",0,0,0,0,0,0,0,0,0,0,0,0,0,417,471.0,562,465,583.0,617.0,561.0,595.0,598.0,581.0
517,26424,US,91794,43.68,-96.79,,Census,US County,SD,"Minnehaha County, South Dakota",0,0,0,0,0,0,0,0,355,8251,21879,23926,29631,42490,50872.0,57697,70910,86575.0,95209.0,109435.0,123809.0,148281.0,169468.0
627,50201,US,91845,44.41,-98.28,,Census,US County,SD,"Beadle County, South Dakota",0,0,0,0,0,0,0,0,0,1290,9586,8081,15776,19273,22917.0,19648,21082,21682.0,20877.0,19195.0,18253.0,17023.0,17398.0
634,11254,US,134745,44.245,-97.0433333333,,Census,Town,SD,"Sinai, South Dakota",0,0,0,0,0,0,0,0,0,0,0,0,0,216,217.0,182,181,166.0,147.0,129.0,120.0,133.0,120.0
804,11229,US,134802,43.6091666667,-103.594166667,,Census,Town,SD,"Pringle, South Dakota",0,0,0,0,0,0,0,0,0,0,0,0,0,0,0.0,273,193,145.0,86.0,105.0,96.0,125.0,112.0
829,16484,US,134839,43.2994444444,-103.828888889,,Census,City,SD,"Edgemont, South Dakota",0,0,0,0,0,0,0,0,0,0,0,479,816,1254,1103.0,1002,1158,1772.0,1174.0,1468.0,906.0,867.0,774.0
919,14599,US,134828,45.4286111111,-101.074722222,,Census,City,SD,"Timber Lake, South Dakota",0,0,0,0,0,0,0,0,0,0,0,0,0,555,572.0,512,552,624.0,625.0,660.0,517.0,443.0,443.0
933,13609,US,135019,43.2625,-102.347777778,,Census,Cdp,SD,"Porcupine, South Dakota",0,0,0,0,0,0,0,0,0,0,0,0,0,0,0.0,0,0,0.0,0.0,0.0,783.0,407.0,1062.0
1004,11094,US,134753,45.3180555556,-98.3041666667,,Census,Town,SD,"Stratford, South Dakota",0,0,0,0,0,0,0,0,0,0,0,0,0,297,262.0,205,164,109.0,106.0,82.0,85.0,96.0,72.0
1167,12662,US,134876,44.5161111111,-99.2016666667,,Census,Town,SD,"Ree Heights, South Dakota",0,0,0,0,0,0,0,0,0,0,0,0,0,0,339.0,258,254,188.0,183.0,88.0,91.0,85.0,62.0
1195,16611,US,134977,44.0477777778,-96.5963888889,,Census,City,SD,"Flandreau, South Dakota",0,0,0,0,0,0,0,0,0,471,569,1244,1484,1929,1934.0,2212,2193,2129.0,2027.0,2114.0,2311.0,2376.0,2341.0
1196,11924,US,134999,45.8561111111,-96.9191666667,,Census,Town,SD,"New Effington, South Dakota",0,0,0,0,0,0,0,0,0,0,0,0,0,305,337.0,344,367,280.0,258.0,261.0,219.0,233.0,256.0
1197,11496,US,134998,45.3341666667,-96.7644444444,,Census,Town,SD,"Corona, South Dakota",0,0,0,0,0,0,0,0,0,0,0,0,0,0,152.0,177,191,150.0,133.0,126.0,118.0,112.0,109.0
1201,12295,US,134877,44.5169444444,-98.9388888889,,Census,Town,SD,"St. Lawrence, South Dakota",0,0,0,0,0,0,0,0,0,0,320,115,305,390,413.0,297,261,290.0,249.0,223.0,223.0,210.0,198.0
1205,11947,US,134910,44.4869444444,-97.4425,,Census,Town,SD,"Erwin, South Dakota",0,0,0,0,0,0,0,0,0,0,0,131,230,257,205.0,182,153,157.0,106.0,66.0,42.0,58.0,45.0
1220,11543,US,134962,44.0102777778,-97.5961111111,,Census,Town,SD,"Vilas, South Dakota",0,0,0,0,0,0,0,0,0,0,0,0,157,144,106.0,91,71,49.0,33.0,28.0,28.0,19.0,20.0
1252,117400,US,26746,,,,Census,US State,SD,South Dakota,0,0,0,0,0,0,0,4837,11776,98268,348600,401570,583888,636547,692849.0,642961,652740,680514.0,665507.0,690768.0,696004.0,754844.0,814180.0
1406,13601,US,135048,43.1175,-96.9605555556,,Census,City,SD,"Centerville, South Dakota",0,0,0,0,0,0,0,0,0,0,723,871,971,1104,1169.0,1046,1053,887.0,910.0,892.0,887.0,910.0,882.0
1537,13517,US,134969,43.6247222222,-96.945,,Census,City,SD,"Hartford, South Dakota",0,0,0,0,0,0,0,0,0,0,0,423,648,677,628.0,647,592,688.0,800.0,1207.0,1262.0,1844.0,2534.0
1643,24075,US,91817,44.55,-99.0,,Census,US County,SD,"Hand County, South Dakota",0,0,0,0,0,0,0,0,0,153,6346,4525,7870,8778,9485.0,7166,7149,6712.0,5883.0,4948.0,4272.0,3741.0,3431.0
1669,21948,US,91796,43.58,-100.76,,Census,US County,SD,"Mellette County, South Dakota",0,0,0,0,0,0,0,0,0,0,0,0,1700,3850,5293.0,4107,3046,2664.0,2420.0,2249.0,2137.0,2083.0,2048.0
1755,12367,US,134798,43.4925,-103.314166667,,Census,Town,SD,"Buffalo Gap, South Dakota",0,0,0,0,0,0,0,0,0,0,0,0,280,132,183.0,182,186,194.0,155.0,186.0,173.0,164.0,126.0
1768,14808,US,135067,42.8891666667,-97.1730555556,,Census,Town,SD,"Gayville, South Dakota",0,0,0,0,0,0,0,0,0,0,0,0,257,305,261.0,278,271,261.0,269.0,407.0,401.0,418.0,407.0
1888,11632,US,134850,45.0608333333,-99.51,,Census,Town,SD,"Seneca, South Dakota",0,0,0,0,0,0,0,0,0,0,0,0,321,264,318.0,243,204,161.0,118.0,103.0,81.0,58.0,38.0
2098,24001,US,91808,44.06,-98.62,,Census,US County,SD,"Jerauld County, South Dakota",0,0,0,0,0,0,0,0,0,0,3605,2798,5120,6338,5816.0,4752,4476,4048.0,3310.0,2929.0,2425.0,2295.0,2071.0
2143,12025,US,134970,43.645,-97.0744444444,,Census,Town,SD,"Humboldt, South Dakota",0,0,0,0,0,0,0,0,0,0,0,0,0,445,428.0,417,450,446.0,411.0,487.0,468.0,521.0,589.0
2215,12835,US,134959,44.1694444444,-97.7158333333,,Census,City,SD,"Carthage, South Dakota",0,0,0,0,0,0,0,0,0,0,200,265,554,667,590.0,512,458,368.0,362.0,274.0,221.0,187.0,144.0
2221,21833,US,91813,45.59,-103.5,,Census,US County,SD,"Harding County, South Dakota",0,0,0,0,0,0,0,0,0,0,0,0,4228,3953,3589.0,3010,2289,2371.0,1855.0,1700.0,1669.0,1353.0,1255.0
2236,11192,US,134791,45.085,-97.4788888889,,Census,Town,SD,"Wallace, South Dakota",0,0,0,0,0,0,0,0,0,0,0,0,207,235,189.0,193,188,132.0,95.0,90.0,83.0,86.0,85.0
2249,10767,US,134761,44.0608333333,-99.4291666667,,Census,Cdp,SD,"Fort Thompson, South Dakota",0,0,0,0,0,0,0,0,0,0,0,0,0,0,0.0,0,0,0.0,0.0,0.0,1088.0,1375.0,1282.0
2296,10799,US,134756,45.6488888889,-98.4972222222,,Census,Town,SD,"Westport, South Dakota",0,0,0,0,0,0,0,0,0,0,0,0,0,0,0.0,0,0,0.0,0.0,122.0,112.0,125.0,133.0
2386,14076,US,134832,43.2669444444,-98.1630555556,,Census,City,SD,"Delmont, South Dakota",0,0,0,0,0,0,0,0,0,0,0,0,369,518,472.0,461,405,363.0,260.0,290.0,235.0,263.0,234.0
2664,24282,US,91825,43.25,-103.52,,Census,US County,SD,"Fall River County, South Dakota",0,0,0,0,0,0,0,0,0,0,4478,3541,7763,6985,8741.0,8089,10439,10688.0,7505.0,8439.0,7353.0,7453.0,7094.0
2878,11790,US,134807,45.4105555556,-97.9036111111,,Census,Town,SD,"Andover, South Dakota",0,0,0,0,0,0,0,0,0,0,232,225,446,441,322.0,350,277,224.0,138.0,139.0,106.0,99.0,91.0
3029,12611,US,135052,43.2825,-97.0883333333,,Census,City,SD,"Hurley, South Dakota",0,0,0,0,0,0,0,0,0,0,344,444,506,586,586.0,586,474,450.0,399.0,419.0,372.0,426.0,415.0
3172,26055,US,91839,44.08,-99.2,,Census,US County,SD,"Buffalo County, South Dakota",0,0,0,0,0,0,0,0,246,63,993,1790,1589,1715,1931.0,1853,1615,1547.0,1739.0,1795.0,1759.0,2032.0,1912.0
3216,11667,US,134856,45.0161111111,-96.5705555556,,Census,Town,SD,"Revillo, South Dakota",0,0,0,0,0,0,0,0,0,0,0,187,332,338,274.0,325,249,202.0,142.0,158.0,152.0,147.0,119.0
3309,11726,US,134913,44.2283333333,-97.3088888889,,Census,City,SD,"Oldham, South Dakota",0,0,0,0,0,0,0,0,0,0,0,222,355,364,419.0,386,349,291.0,244.0,222.0,189.0,206.0,133.0
3341,10398,US,134952,45.6244444444,-98.7688888889,,Census,Town,SD,"Wetonka, South Dakota",0,0,0,0,0,0,0,0,0,0,0,0,0,164,111.0,109,115,46.0,31.0,22.0,12.0,12.0,8.0
3708,12196,US,134817,44.5577777778,-96.5463888889,,Census,Town,SD,"Astoria, South Dakota",0,0,0,0,0,0,0,0,0,0,0,0,0,221,231.0,214,206,176.0,153.0,154.0,155.0,150.0,139.0
3765,12932,US,134930,43.4480555556,-96.8375,,Census,City,SD,"Tea, South Dakota",0,0,0,0,0,0,0,0,0,0,0,0,134,165,148.0,165,151,188.0,302.0,729.0,786.0,1742.0,3806.0
3801,13285,US,134948,45.7691666667,-99.6219444444,,Census,City,SD,"Eureka, South Dakota",0,0,0,0,0,0,0,0,0,0,552,961,961,1200,1308.0,1457,1576,1555.0,1547.0,1360.0,1197.0,1101.0,868.0
3811,15094,US,134938,45.7927777778,-97.7527777778,,Census,City,SD,"Britton, South Dakota",0,0,0,0,0,0,0,0,0,0,514,519,901,1105,1312.0,1500,1430,1442.0,1495.0,1590.0,1394.0,1328.0,1241.0
3878,13462,US,134750,45.8327777778,-98.5069444444,,Census,City,SD,"Frederick, South Dakota",0,0,0,0,0,0,0,0,0,0,281,251,433,424,461.0,422,408,381.0,359.0,307.0,241.0,255.0,199.0
4024,24326,US,91802,43.28,-96.72,,Census,US County,SD,"Lincoln County, South Dakota",0,0,0,0,0,0,0,0,712,5896,9148,12161,12712,13893,13918.0,13171,12767,12371.0,11761.0,13942.0,15427.0,24131.0,44828.0
4170,13683,US,134934,43.8041666667,-99.3802777778,,Census,Town,SD,"Oacoma, South Dakota",0,0,0,0,0,0,0,0,0,0,0,0,235,224,167.0,197,231,312.0,215.0,289.0,367.0,390.0,451.0
4174,13344,US,134744,44.2358333333,-96.4819444444,,Census,City,SD,"Elkton, South Dakota",0,0,0,0,0,0,0,0,0,0,331,578,742,872,856.0,779,657,621.0,541.0,632.0,602.0,677.0,736.0
4404,15664,US,134864,43.2338888889,-99.4286111111,,Census,City,SD,"Gregory, South Dakota",0,0,0,0,0,0,0,0,0,0,0,0,1142,1067,1034.0,1246,1375,1478.0,1756.0,1503.0,1486.0,1342.0,1295.0
4605,24092,US,91785,44.4,-100.75,,Census,US County,SD,"Stanley County, South Dakota",0,0,0,0,0,0,0,0,0,793,1028,1341,14975,2908,2381.0,1959,2055,4085.0,2457.0,2533.0,2453.0,2772.0,2966.0
4653,25607,US,91811,43.34,-97.75,,Census,US County,SD,"Hutchinson County, South Dakota",0,0,0,0,0,0,0,0,37,5573,10469,11897,12319,13475,13904.0,12668,11423,11085.0,10379.0,9350.0,8262.0,8075.0,7343.0
4692,12574,US,134847,44.9036111111,-98.8255555556,,Census,Town,SD,"Rockham, South Dakota",0,0,0,0,0,0,0,0,0,0,0,0,286,347,288.0,220,113,197.0,60.0,52.0,48.0,53.0,33.0
4800,13686,US,134989,43.9916666667,-102.240833333,,Census,Town,SD,"Wall, South Dakota",0,0,0,0,0,0,0,0,0,0,0,0,167,224,326.0,500,556,629.0,786.0,770.0,834.0,818.0,766.0
4867,11517,US,134755,45.3252777778,-98.4963888889,,Census,Town,SD,"Warner, South Dakota",0,0,0,0,0,0,0,0,0,0,0,0,0,0,0.0,0,0,0.0,0.0,322.0,336.0,419.0,457.0
4990,14059,US,134836,45.5772222222,-99.4738888889,,Census,City,SD,"Hosmer, South Dakota",0,0,0,0,0,0,0,0,0,0,0,0,217,419,524.0,579,533,433.0,437.0,385.0,310.0,287.0,208.0
5003,67568,US,134987,44.076,-103.228,,Census,City,SD,"Rapid City, South Dakota",0,0,0,0,0,0,0,0,0,939,2128,1342,3454,5777,10464.0,13844,25312,42390.0,43846.0,46492.0,54523.0,59607.0,67956.0
5135,10809,US,134859,45.2055555556,-96.7816666667,,Census,Town,SD,"Twin Brooks, South Dakota",0,0,0,0,0,0,0,0,0,0,0,0,190,141,138.0,121,113,86.0,122.0,87.0,54.0,55.0,69.0
5383,11109,US,134766,45.8877777778,-99.8077777778,,Census,Town,SD,"Artas, South Dakota",0,0,0,0,0,0,0,0,0,0,0,0,0,0,0.0,0,0,87.0,73.0,43.0,28.0,13.0,9.0
5410,13088,US,134870,44.7233333333,-97.0294444444,,Census,City,SD,"Castlewood, South Dakota",0,0,0,0,0,0,0,0,0,0,0,430,594,582,500.0,493,498,500.0,523.0,557.0,549.0,666.0,627.0
5502,24356,US,91834,44.98,-97.18,,Census,US County,SD,"Codington County, South Dakota",0,0,0,0,0,0,0,0,0,2156,7037,8770,14092,16549,17457.0,17014,18944,20220.0,19140.0,20885.0,22698.0,25897.0,27227.0
5546,12013,US,134941,45.6022222222,-97.8313888889,,Census,Town,SD,"Langford, South Dakota",0,0,0,0,0,0,0,0,0,0,198,239,463,510,444.0,452,456,397.0,328.0,307.0,298.0,290.0,313.0
5547,11472,US,135029,44.7388888889,-98.5077777778,,Census,Town,SD,"Tulare, South Dakota",0,0,0,0,0,0,0,0,0,0,0,0,0,324,305.0,244,212,225.0,211.0,238.0,244.0,221.0,207.0
5605,10863,US,134845,45.1925,-99.4669444444,,Census,Town,SD,"Onaka, South Dakota",0,0,0,0,0,0,0,0,0,0,0,0,0,0,164.0,139,158,85.0,69.0,70.0,52.0,30.0,15.0
5678,13408,US,134837,45.445,-99.0302777778,,Census,City,SD,"Ipswich, South Dakota",0,0,0,0,0,0,0,0,0,0,539,397,810,909,913.0,1002,1058,1131.0,1187.0,1153.0,965.0,943.0,954.0
5822,22925,US,134805,43.7138888889,-98.0263888889,,Census,City,SD,"Mitchell, South Dakota",0,0,0,0,0,0,0,0,0,320,2217,4055,6515,8478,10942.0,10633,12123,12555.0,13425.0,13916.0,13798.0,14558.0,15254.0
5829,24195,US,91779,43.31,-97.15,,Census,US County,SD,"Turner County, South Dakota",0,0,0,0,0,0,0,0,0,5320,10256,13175,13840,14871,14891.0,13270,12100,11159.0,9872.0,9255.0,8576.0,8849.0,8347.0
5852,11341,US,135002,45.8658333333,-96.7319444444,,Census,Town,SD,"Rosholt, South Dakota",0,0,0,0,0,0,0,0,0,0,0,0,0,301,327.0,362,387,423.0,456.0,446.0,408.0,419.0,423.0
5922,11534,US,134851,45.0516666667,-96.555,,Census,Unincorporated community,SD,"Albee, South Dakota",0,0,0,0,0,0,0,0,0,0,0,0,131,115,94.0,114,75,42.0,26.0,23.0,15.0,10.0,16.0
5944,11089,US,134916,44.12,-97.2180555556,,Census,Town,SD,"Ramona, South Dakota",0,0,0,0,0,0,0,0,0,0,0,172,312,356,279.0,265,278,247.0,227.0,241.0,194.0,190.0,174.0
6004,26151,US,91803,44.36,-103.79,,Census,US County,SD,"Lawrence County, South Dakota",0,0,0,0,0,0,0,0,0,13218,11673,17897,19694,13029,13920.0,19093,16648,17075.0,17453.0,18339.0,20655.0,21802.0,24097.0
6026,13141,US,134759,43.7788888889,-99.1827777778,,Census,Town,SD,"Pukwana, South Dakota",0,0,0,0,0,0,0,0,0,0,0,0,164,192,307.0,258,302,247.0,208.0,234.0,263.0,287.0,285.0
6054,11704,US,134995,45.07,-99.7708333333,,Census,Town,SD,"Lebanon, South Dakota",0,0,0,0,0,0,0,0,0,0,0,0,0,325,334.0,310,215,198.0,182.0,129.0,115.0,86.0,47.0
6112,22539,US,91791,45.5,-102.48,,Census,US County,SD,"Perkins County, South Dakota",0,0,0,0,0,0,0,0,0,0,0,0,11348,7993,8717.0,6585,6776,5977.0,4769.0,4700.0,3932.0,3363.0,2982.0
6182,11554,US,135051,43.4905555556,-97.385,,Census,Town,SD,"Dolton, South Dakota",0,0,0,0,0,0,0,0,0,0,0,0,147,147,124.0,121,93,71.0,60.0,47.0,43.0,41.0,37.0
6246,18703,US,134955,44.4102777778,-103.518611111,,Census,City,SD,"Sturgis, South Dakota",0,0,0,0,0,0,0,0,0,60,668,1100,1739,1250,1747.0,3008,3471,4639.0,4536.0,5184.0,5330.0,6442.0,6627.0
6249,18046,US,134992,45.9394444444,-102.16,,Census,City,SD,"Lemmon, South Dakota",0,0,0,0,0,0,0,0,0,0,0,0,1255,1126,1508.0,1781,2760,2412.0,1997.0,1871.0,1614.0,1398.0,1227.0
6312,12436,US,134985,44.0938888889,-102.834166667,,Census,City,SD,"New Underwood, South Dakota",0,0,0,0,0,0,0,0,0,0,0,0,134,164,311.0,214,268,462.0,416.0,517.0,553.0,616.0,660.0
6393,11222,US,135070,42.9802777778,-97.4980555556,,Census,Town,SD,"Utica, South Dakota",0,0,0,0,0,0,0,0,0,0,0,0,103,141,98.0,95,84,70.0,89.0,100.0,115.0,86.0,65.0
6446,22905,US,91784,44.71,-100.13,,Census,US County,SD,"Sully County, South Dakota",0,0,0,0,0,0,0,0,0,296,2412,1715,2462,2831,3852.0,2668,2713,2607.0,2362.0,1990.0,1589.0,1556.0,1373.0
6563,9941,US,135046,43.4391666667,-100.081666667,,Census,Town,SD,"New Witten, South Dakota",0,0,0,0,0,0,0,0,0,0,0,0,0,0,0.0,211,198,146.0,102.0,134.0,87.0,51.0,79.0
6570,9796,US,135016,43.2288888889,-102.473333333,,Census,Cdp,SD,"Manderson-White Horse Creek, South Dakota",0,0,0,0,0,0,0,0,0,0,0,0,0,0,0.0,0,0,0.0,0.0,0.0,243.0,626.0,626.0
6571,14027,US,135058,42.6855555556,-96.6816666667,,Census,City,SD,"Elk Point, South Dakota",0,0,0,0,0,0,0,0,0,0,0,1081,1200,1470,1294.0,1483,1367,1378.0,1372.0,1661.0,1423.0,1714.0,1963.0
6791,12288,US,135055,43.3972222222,-97.1372222222,,Census,City,SD,"Parker, South Dakota",0,0,0,0,0,0,0,0,0,113,728,893,1224,1288,1229.0,1244,1148,1142.0,1005.0,999.0,984.0,1031.0,1022.0
6860,24402,US,91830,45.37,-97.61,,Census,US County,SD,"Day County, South Dakota",0,0,0,0,0,0,0,0,0,97,9168,12254,14372,15194,14606.0,13565,12294,10516.0,8713.0,8133.0,6978.0,6267.0,5710.0
7086,10821,US,5470404,44.1975,-103.345555556,,Census,City,SD,"Summerset, South Dakota",0,0,0,0,0,0,0,0,0,0,0,0,0,0,0.0,0,0,0.0,0.0,0.0,0.0,0.0,1814.0
7126,11727,US,135039,43.1441666667,-100.903055556,,Census,Town,SD,"St. Francis, South Dakota",0,0,0,0,0,0,0,0,0,0,0,0,0,0,0.0,273,241,421.0,300.0,766.0,815.0,675.0,709.0
7138,32082,US,134741,44.3063888889,-96.7880555556,,Census,City,SD,"Brookings, South Dakota",0,0,0,0,0,0,0,0,0,0,1518,2846,2971,3921,4376.0,5346,7764,10558.0,13717.0,14951.0,16270.0,18504.0,22056.0
7253,8572,US,135037,43.2411111111,-100.851944444,,Census,Cdp,SD,"Rosebud, South Dakota",0,0,0,0,0,0,0,0,0,0,0,0,0,0,0.0,0,0,0.0,0.0,0.0,1538.0,1557.0,1587.0
7395,22045,US,91788,44.03,-98.09,,Census,US County,SD,"Sanborn County, South Dakota",0,0,0,0,0,0,0,0,0,0,4610,4464,6607,7877,7326.0,5754,5142,4641.0,3697.0,3213.0,2833.0,2675.0,2355.0
7415,22331,US,91783,43.18,-100.73,,Census,US County,SD,"Todd County, South Dakota",0,0,0,0,0,0,0,0,0,0,0,0,2164,2784,5898.0,5714,4758,4661.0,6606.0,7328.0,8352.0,9050.0,9612.0
7597,25909,US,91806,44.37,-97.49,,Census,US County,SD,"Kingsbury County, South Dakota",0,0,0,0,0,0,0,0,0,1102,8562,9866,12560,12802,12805.0,10831,9962,9227.0,7657.0,6679.0,5925.0,5815.0,5148.0
7621,10336,US,134733,43.2805555556,-101.927777778,,Census,Cdp,SD,"Allen, South Dakota",0,0,0,0,0,0,0,0,0,0,0,0,0,0,0.0,0,0,0.0,0.0,0.0,0.0,419.0,420.0
7694,22372,US,91793,44.02,-96.67,,Census,US County,SD,"Moody County, South Dakota",0,0,0,0,0,0,0,0,0,3915,5941,8326,8695,9742,9603.0,9341,9252,8810.0,7622.0,6692.0,6507.0,6595.0,6486.0
7753,23160,US,91777,45.43,-100.03,,Census,US County,SD,"Walworth County, South Dakota",0,0,0,0,0,0,0,0,0,46,2153,3839,6488,8447,8791.0,7274,7648,8097.0,7842.0,7011.0,6087.0,5974.0,5438.0
7950,20912,US,91807,43.95,-100.69,,Census,US County,SD,"Jones County, South Dakota",0,0,0,0,0,0,0,0,0,0,0,0,0,3004,3177.0,2509,2281,2066.0,1882.0,1463.0,1324.0,1193.0,1006.0
7962,13117,US,134968,43.7144444444,-96.5019444444,,Census,City,SD,"Garretson, South Dakota",0,0,0,0,0,0,0,0,0,0,341,500,668,715,655.0,666,745,850.0,847.0,963.0,924.0,1165.0,1166.0
7985,11870,US,134887,43.4761111111,-97.9869444444,,Census,Town,SD,"Dimock, South Dakota",0,0,0,0,0,0,0,0,0,0,0,0,0,0,0.0,0,0,0.0,167.0,140.0,157.0,151.0,125.0
8103,11408,US,134816,44.8402777778,-96.6905555556,,Census,Town,SD,"Altamont, South Dakota",0,0,0,0,0,0,0,0,0,0,0,0,110,116,123.0,144,76,77.0,54.0,58.0,48.0,34.0,34.0
8123,10444,US,134979,44.1541666667,-96.4611111111,,Census,Town,SD,"Ward, South Dakota",0,0,0,0,0,0,0,0,0,0,0,0,72,118,90.0,84,96,74.0,57.0,43.0,35.0,41.0,48.0
8214,13216,US,134774,43.0663888889,-98.5319444444,,Census,Town,SD,"Pickstown, South Dakota",0,0,0,0,0,0,0,0,0,0,0,0,0,0,0.0,0,0,0.0,0.0,0.0,95.0,168.0,201.0
8359,11048,US,134809,45.2580555556,-97.7136111111,,Census,Town,SD,"Butler, South Dakota",0,0,0,0,0,0,0,0,0,0,0,0,162,156,184.0,153,109,62.0,38.0,22.0,17.0,17.0,17.0
8469,11095,US,134931,43.3288888889,-96.7666666667,,Census,City,SD,"Worthing, South Dakota",0,0,0,0,0,0,0,0,0,0,0,213,179,238,262.0,291,272,304.0,294.0,388.0,371.0,585.0,877.0
8636,11279,US,134853,45.05,-96.6777777778,,Census,Town,SD,"La Bolt, South Dakota",0,0,0,0,0,0,0,0,0,0,0,0,0,142,126.0,127,164,125.0,90.0,94.0,91.0,86.0,68.0
8754,11676,US,135063,45.5027777778,-99.8861111111,,Census,Town,SD,"Java, South Dakota",0,0,0,0,0,0,0,0,0,0,0,0,473,527,529.0,493,433,406.0,305.0,261.0,161.0,197.0,129.0
8777,12249,US,134767,45.8372222222,-100.068333333,,Census,City,SD,"Herreid, South Dakota",0,0,0,0,0,0,0,0,0,0,0,0,414,460,544.0,592,633,767.0,672.0,570.0,488.0,482.0,438.0
8961,12363,US,134769,45.9,-100.288333333,,Census,Town,SD,"Pollock, South Dakota",0,0,0,0,0,0,0,0,0,0,0,0,304,437,481.0,527,395,417.0,341.0,355.0,379.0,339.0,241.0
8993,10905,US,134915,44.1616666667,-97.0169444444,,Census,Town,SD,"Nunda, South Dakota",0,0,0,0,0,0,0,0,0,0,0,0,137,206,163.0,147,102,106.0,85.0,60.0,45.0,47.0,43.0
9011,13569,US,134734,43.175,-101.734166667,,Census,City,SD,"Martin, South Dakota",0,0,0,0,0,0,0,0,0,0,0,0,0,0,720.0,1013,989,1184.0,1248.0,1018.0,1151.0,1106.0,1071.0
9097,28062,US,134785,42.7811111111,-96.9269444444,,Census,City,SD,"Vermillion, South Dakota",0,0,0,0,0,0,0,0,0,714,1496,2188,2187,2590,2850.0,3324,5337,6102.0,9128.0,10136.0,10034.0,9765.0,10571.0
9195,11940,US,134994,45.2419444444,-99.7766666667,,Census,Town,SD,"Hoven, South Dakota",0,0,0,0,0,0,0,0,0,0,0,0,209,271,386.0,369,552,568.0,671.0,615.0,522.0,511.0,406.0
9349,11355,US,134957,43.4986111111,-100.48,,Census,Town,SD,"Wood, South Dakota",0,0,0,0,0,0,0,0,0,0,0,0,0,0,257.0,414,260,267.0,132.0,134.0,73.0,66.0,62.0
9557,11325,US,134991,45.5238888889,-102.464722222,,Census,Town,SD,"Bison, South Dakota",0,0,0,0,0,0,0,0,0,0,0,0,0,0,0.0,0,457,457.0,406.0,457.0,451.0,373.0,333.0
9601,26192,US,91826,45.41,-99.21,,Census,US County,SD,"Edmunds County, South Dakota",0,0,0,0,0,0,0,0,0,0,4399,4916,7654,8336,8712.0,7814,7275,6079.0,5548.0,5159.0,4356.0,4367.0,4071.0
9677,23374,US,91810,44.55,-99.48,,Census,US County,SD,"Hyde County, South Dakota",0,0,0,0,0,0,0,0,0,0,1860,1492,3307,3315,3690.0,3113,2811,2602.0,2515.0,2069.0,1696.0,1671.0,1420.0
9797,12754,US,135069,42.9211111111,-97.2794444444,,Census,Town,SD,"Mission Hill, South Dakota",0,0,0,0,0,0,0,0,0,0,0,0,0,167,184.0,195,169,165.0,161.0,197.0,180.0,183.0,177.0
9870,24336,US,91812,44.39,-99.99,,Census,US County,SD,"Hughes County, South Dakota",0,0,0,0,0,0,0,0,0,268,5044,3684,6271,5711,7009.0,6624,8111,12725.0,11632.0,14220.0,14817.0,16481.0,17022.0
10033,12917,US,135012,43.8977777778,-98.1394444444,,Census,Town,SD,"Letcher, South Dakota",0,0,0,0,0,0,0,0,0,0,0,130,402,454,414.0,344,291,296.0,201.0,221.0,164.0,177.0,173.0
10041,10183,US,134826,45.0063888889,-101.231388889,,Census,Census-designated place,SD,"North Eagle Butte, South Dakota",0,0,0,0,0,0,0,0,0,0,0,0,0,0,0.0,0,0,0.0,0.0,1354.0,1423.0,2163.0,1954.0
10054,14142,US,134860,43.0769444444,-98.9469444444,,Census,City,SD,"Bonesteel, South Dakota",0,0,0,0,0,0,0,0,0,0,0,0,563,652,564.0,532,485,452.0,354.0,358.0,297.0,297.0,275.0
10085,12158,US,134835,45.4516666667,-99.6577777778,,Census,City,SD,"Bowdle, South Dakota",0,0,0,0,0,0,0,0,0,0,0,622,671,818,773.0,757,788,673.0,667.0,644.0,589.0,571.0,502.0
10091,11412,US,134725,44.4933333333,-98.3480555556,,Census,Town,SD,"Broadland, South Dakota",0,0,0,0,0,0,0,0,0,0,0,0,0,129,102.0,73,74,33.0,45.0,49.0,40.0,38.0,31.0
10298,11424,US,134763,44.6680555556,-103.696388889,,Census,Town,SD,"Fruitdale, South Dakota",0,0,0,0,0,0,0,0,0,0,0,0,0,40,113.0,89,70,79.0,74.0,88.0,43.0,62.0,64.0
10328,12764,US,134801,43.8388888889,-103.193888889,,Census,Town,SD,"Hermosa, South Dakota",0,0,0,0,0,0,0,0,0,0,172,77,114,74,128.0,121,123,126.0,150.0,251.0,242.0,315.0,398.0
10330,11871,US,134782,44.9119444444,-97.9386111111,,Census,Town,SD,"Raymond, South Dakota",0,0,0,0,0,0,0,0,0,0,0,0,241,330,200.0,206,174,168.0,114.0,106.0,96.0,86.0,50.0
10515,12873,US,134950,45.7211111111,-98.9386111111,,Census,City,SD,"Leola, South Dakota",0,0,0,0,0,0,0,0,0,0,0,0,484,637,724.0,795,772,833.0,787.0,645.0,521.0,462.0,457.0
10625,24956,US,91842,44.37,-96.79,,Census,US County,SD,"Brookings County, South Dakota",0,0,0,0,0,0,0,0,163,4965,10132,12561,14178,16119,16847.0,16560,17851,20046.0,22158.0,24332.0,25207.0,28220.0,31965.0
10685,12104,US,135027,45.1561111111,-98.5786111111,,Census,Town,SD,"Northville, South Dakota",0,0,0,0,0,0,0,0,0,0,0,243,392,372,260.0,223,220,153.0,119.0,138.0,105.0,124.0,143.0
10806,14324,US,134990,44.0686111111,-102.445,,Census,Town,SD,"Wasta, South Dakota",0,0,0,0,0,0,0,0,0,0,0,0,0,0,0.0,153,144,196.0,127.0,99.0,82.0,75.0,80.0
10895,21711,US,91782,43.34,-99.88,,Census,US County,SD,"Tripp County, South Dakota",0,0,0,0,0,0,0,0,0,0,0,0,8323,11970,12712.0,9937,9139,8761.0,8171.0,7268.0,6924.0,6430.0,5644.0
10943,40115,US,135072,42.8816666667,-97.3925,,Census,City,SD,"Yankton, South Dakota",0,0,0,0,0,0,0,0,0,3431,3670,4125,3787,5024,6072.0,6798,7709,9279.0,11919.0,12011.0,12703.0,13528.0,14454.0
10963,12476,US,134821,44.8780555556,-96.8488888889,,Census,Town,SD,"Goodwin, South Dakota",0,0,0,0,0,0,0,0,0,0,0,0,145,157,140.0,152,141,113.0,114.0,139.0,126.0,160.0,146.0
11004,11897,US,134886,44.5222222222,-99.7388888889,,Census,Town,SD,"Harrold, South Dakota",0,0,0,0,0,0,0,0,0,0,0,57,230,252,309.0,229,263,255.0,184.0,196.0,167.0,209.0,124.0
11322,13174,US,134815,45.3336111111,-97.5194444444,,Census,City,SD,"Webster, South Dakota",0,0,0,0,0,0,0,0,0,0,618,1506,1713,1800,1805.0,2173,2503,2409.0,2252.0,2417.0,2017.0,1952.0,1886.0
11352,15467,US,135047,43.3738888889,-99.8577777778,,Census,City,SD,"Winner, South Dakota",0,0,0,0,0,0,0,0,0,0,0,0,0,2000,2220.0,2426,3252,3705.0,3789.0,3472.0,3354.0,3137.0,2897.0
11367,12389,US,135053,43.4233333333,-97.26,,Census,City,SD,"Marion, South Dakota",0,0,0,0,0,0,0,0,0,0,0,338,462,535,704.0,765,794,843.0,844.0,830.0,831.0,892.0,784.0
11415,28644,US,57853,44.3680555556,-100.336388889,,Census,City,SD,"Pierre, South Dakota",0,0,0,0,0,0,0,0,0,0,3235,2306,3656,3209,3659.0,4322,5715,10088.0,9699.0,11973.0,12906.0,13876.0,13646.0
11487,13325,US,134901,44.1819444444,-98.3675,,Census,Town,SD,"Alpena, South Dakota",0,0,0,0,0,0,0,0,0,0,0,153,417,576,499.0,440,426,407.0,307.0,288.0,251.0,265.0,286.0
11671,13229,US,134796,45.8130555556,-100.811388889,,Census,City,SD,"McLaughlin, South Dakota",0,0,0,0,0,0,0,0,0,0,0,0,0,555,678.0,660,713,983.0,863.0,754.0,780.0,775.0,663.0
11685,11678,US,134748,45.6725,-98.0158333333,,Census,Town,SD,"Claremont, South Dakota",0,0,0,0,0,0,0,0,0,0,121,120,294,290,285.0,271,236,247.0,214.0,180.0,135.0,130.0,127.0
11731,11738,US,134939,45.6161111111,-97.4205555556,,Census,Town,SD,"Eden, South Dakota",0,0,0,0,0,0,0,0,0,0,0,0,0,209,150.0,171,149,136.0,132.0,142.0,97.0,97.0,89.0
11745,15420,US,134946,43.7261111111,-97.3866666667,,Census,City,SD,"Salem, South Dakota",0,0,0,0,0,0,0,0,0,0,429,741,1097,1187,1115.0,1185,1119,1188.0,1391.0,1486.0,1289.0,1371.0,1347.0
11749,12401,US,134803,43.5458333333,-97.9833333333,,Census,Town,SD,"Ethan, South Dakota",0,0,0,0,0,0,0,0,0,0,0,0,312,416,369.0,324,319,297.0,309.0,351.0,312.0,330.0,331.0
11780,8839,US,134922,44.5080555556,-103.885277778,,Census,Cdp,SD,"North Spearfish, South Dakota",0,0,0,0,0,0,0,0,0,0,0,0,0,0,0.0,0,0,0.0,0.0,0.0,2274.0,2306.0,2221.0
11925,29185,US,134729,44.3591666667,-98.2180555556,,Census,City,SD,"Huron, South Dakota",0,0,0,0,0,0,0,0,0,164,3038,2793,5791,8302,10946.0,10843,12788,14180.0,14299.0,13000.0,12448.0,11893.0,12592.0
11936,11383,US,134784,44.6277777778,-97.6380555556,,Census,City,SD,"Willow Lake, South Dakota",0,0,0,0,0,0,0,0,0,0,240,210,437,477,514.0,427,484,467.0,353.0,375.0,317.0,294.0,263.0
12113,25441,US,91841,45.6,-98.35,,Census,US County,SD,"Brown County, South Dakota",0,0,0,0,0,0,0,0,0,353,16855,15286,25867,29509,31458.0,29676,32617,34106.0,36920.0,36962.0,35580.0,35460.0,36531.0
12157,12093,US,135014,43.1277777778,-102.101666667,,Census,Town,SD,"Batesland, South Dakota",0,0,0,0,0,0,0,0,0,0,0,0,0,0,0.0,0,0,0.0,135.0,163.0,124.0,88.0,108.0
12238,11458,US,134904,43.925,-100.54,,Census,Town,SD,"Draper, South Dakota",0,0,0,0,0,0,0,0,0,0,0,0,211,173,169.0,190,252,215.0,200.0,138.0,123.0,92.0,82.0
12287,22584,US,91790,45.06,-99.95,,Census,US County,SD,"Potter County, South Dakota",0,0,0,0,0,0,0,0,0,0,2910,2988,4466,4382,5762.0,4614,4688,4926.0,4449.0,3674.0,3190.0,2693.0,2329.0
12303,11919,US,134743,44.3272222222,-96.645,,Census,Town,SD,"Bushnell, South Dakota",0,0,0,0,0,0,0,0,0,0,0,0,0,150,134.0,134,96,92.0,65.0,76.0,81.0,75.0,65.0
12334,16315,US,151047,44.3644444444,-97.1347222222,,Census,City,SD,"Arlington, South Dakota",0,0,0,0,0,0,0,0,0,0,270,314,791,1011,1020.0,1157,1096,996.0,954.0,991.0,908.0,992.0,915.0
12395,22633,US,91809,43.7,-101.64,,Census,US County,SD,"Jackson County, South Dakota",0,0,0,0,0,0,0,0,0,0,0,0,0,2472,2636.0,1955,1768,1985.0,1531.0,3437.0,2811.0,2930.0,3031.0
12403,10031,US,134953,44.1516666667,-103.311388889,,Census,Cdp,SD,"Blackhawk, South Dakota",0,0,0,0,0,0,0,0,0,0,0,0,0,0,0.0,0,0,0.0,0.0,1608.0,1995.0,2432.0,2892.0
12502,16060,US,134789,44.8905555556,-96.9163888889,,Census,Town,SD,"Kranzburg, South Dakota",0,0,0,0,0,0,0,0,0,0,0,0,0,0,0.0,0,0,156.0,143.0,136.0,132.0,185.0,172.0
12553,13368,US,134871,44.5761111111,-96.9005555556,,Census,City,SD,"Estelline, South Dakota",0,0,0,0,0,0,0,0,0,0,210,357,509,658,488.0,627,760,722.0,624.0,719.0,658.0,675.0,768.0
12649,11356,US,135001,45.5427777778,-96.9572222222,,Census,Town,SD,"Peever, South Dakota",0,0,0,0,0,0,0,0,0,0,0,0,259,386,265.0,272,221,208.0,202.0,232.0,195.0,209.0,168.0
12670,11945,US,135068,43.0386111111,-97.5922222222,,Census,Town,SD,"Lesterville, South Dakota",0,0,0,0,0,0,0,0,0,0,0,244,279,281,228.0,229,192,173.0,181.0,156.0,168.0,158.0,127.0
12700,23785,US,91798,45.77,-99.22,,Census,US County,SD,"McPherson County, South Dakota",0,0,0,0,0,0,0,0,0,0,5940,6327,6791,7705,8774.0,8353,7071,5821.0,5022.0,4027.0,3228.0,2904.0,2459.0
12760,48515,US,2709,45.4647222222,-98.4863888889,,Census,City,SD,"Aberdeen, South Dakota",0,0,0,0,0,0,0,0,0,0,3182,4087,10753,14537,16465.0,17015,21061,23073.0,26476.0,25851.0,24927.0,24658.0,26091.0
12871,24288,US,91835,44.86,-97.73,,Census,US County,SD,"Clark County, South Dakota",0,0,0,0,0,0,0,0,0,114,6728,6942,10901,11136,11022.0,8955,8369,7134.0,5515.0,4894.0,4403.0,4143.0,3691.0
12932,13742,US,134779,44.8794444444,-97.7341666667,,Census,City,SD,"Clark, South Dakota",0,0,0,0,0,0,0,0,0,25,592,684,1220,1392,1290.0,1291,1471,1484.0,1356.0,1351.0,1292.0,1285.0,1139.0
13071,28056,US,134921,44.3508333333,-103.765833333,,Census,City,SD,"Lead, South Dakota",0,0,0,0,0,0,0,0,0,1487,2581,6210,8392,5013,5733.0,7520,6422,6211.0,5420.0,4330.0,3632.0,3027.0,3124.0
13205,16136,US,134960,44.0105555556,-97.5263888889,,Census,City,SD,"Howard, South Dakota",0,0,0,0,0,0,0,0,0,0,0,588,1026,1325,1224.0,1193,1251,1208.0,1175.0,1169.0,1156.0,1071.0,858.0
13295,12166,US,134911,44.3766666667,-97.2344444444,,Census,Town,SD,"Hetland, South Dakota",0,0,0,0,0,0,0,0,0,0,0,162,223,248,250.0,199,123,107.0,81.0,66.0,53.0,43.0,46.0
13391,13888,US,134993,45.0119444444,-99.9552777778,,Census,City,SD,"Gettysburg, South Dakota",0,0,0,0,0,0,0,0,0,0,0,0,936,951,1400.0,1324,1555,1950.0,1915.0,1623.0,1510.0,1352.0,1162.0
13397,20928,US,134762,44.6675,-103.850277778,,Census,City,SD,"Belle Fourche, South Dakota",0,0,0,0,0,0,0,0,0,0,0,451,1352,1616,2032.0,2496,3540,4087.0,4236.0,4692.0,4335.0,4565.0,5594.0
13429,12765,US,135057,43.0230555556,-96.6305555556,,Census,City,SD,"Alcester, South Dakota",0,0,0,0,0,0,0,0,0,0,0,381,409,492,460.0,581,585,479.0,627.0,885.0,843.0,880.0,807.0
13465,11307,US,134822,44.5722222222,-96.6419444444,,Census,Town,SD,"Toronto, South Dakota",0,0,0,0,0,0,0,0,0,0,148,447,424,380,341.0,362,322,268.0,216.0,236.0,201.0,202.0,212.0
13613,10832,US,134730,44.2902777778,-98.4272222222,,Census,Town,SD,"Virgil, South Dakota",0,0,0,0,0,0,0,0,0,0,0,0,0,189,166.0,145,124,81.0,43.0,37.0,33.0,25.0,16.0
13679,11789,US,134724,43.7291666667,-98.7133333333,,Census,City,SD,"White Lake, South Dakota",0,0,0,0,0,0,0,0,0,0,366,264,507,610,530.0,496,395,397.0,395.0,414.0,419.0,405.0,372.0
13854,23485,US,91775,44.98,-101.67,,Census,US County,SD,"Ziebach County, South Dakota",0,0,0,0,0,0,0,0,0,0,0,0,0,3718,4039.0,2875,2606,2495.0,2221.0,2308.0,2220.0,2519.0,2801.0
13914,11842,US,134907,44.4855555556,-97.2075,,Census,Town,SD,"Badger, South Dakota",0,0,0,0,0,0,0,0,0,0,0,0,0,162,163.0,170,180,117.0,122.0,99.0,114.0,144.0,107.0
13921,13615,US,134777,43.0802777778,-98.2947222222,,Census,City,SD,"Wagner, South Dakota",0,0,0,0,0,0,0,0,0,0,0,0,964,1236,1420.0,1319,1528,1586.0,1655.0,1453.0,1462.0,1675.0,1566.0
13977,12212,US,134800,43.6866666667,-103.210833333,,Census,Town,SD,"Fairburn, South Dakota",0,0,0,0,0,0,0,0,0,0,0,0,0,0,91.0,120,80,47.0,50.0,41.0,62.0,80.0,85.0
14055,12373,US,135011,44.0075,-97.9233333333,,Census,Town,SD,"Artesian, South Dakota",0,0,0,0,0,0,0,0,0,0,256,339,583,689,556.0,502,429,330.0,277.0,227.0,217.0,157.0,138.0
14460,13200,US,134742,44.4377777778,-96.8913888889,,Census,City,SD,"Bruce, South Dakota",0,0,0,0,0,0,0,0,0,0,0,0,262,342,371.0,394,305,272.0,217.0,254.0,235.0,272.0,204.0
14481,12713,US,134739,42.9916666667,-97.8636111111,,Census,City,SD,"Tyndall, South Dakota",0,0,0,0,0,0,0,0,0,0,509,1167,1107,1405,1287.0,1289,1292,1262.0,1245.0,1253.0,1201.0,1239.0,1067.0
14494,12407,US,134893,43.3941666667,-97.9872222222,,Census,City,SD,"Parkston, South Dakota",0,0,0,0,0,0,0,0,0,0,262,596,970,1230,1336.0,1305,1354,1514.0,1611.0,1545.0,1572.0,1674.0,1508.0
14578,12146,US,134831,43.4244444444,-98.4061111111,,Census,City,SD,"Corsica, South Dakota",0,0,0,0,0,0,0,0,0,0,0,0,286,346,516.0,452,551,479.0,615.0,644.0,619.0,644.0,592.0
14678,13101,US,134965,43.7875,-96.9272222222,,Census,City,SD,"Colton, South Dakota",0,0,0,0,0,0,0,0,0,0,0,0,407,608,575.0,615,521,593.0,601.0,757.0,657.0,662.0,687.0
14826,13766,US,134868,44.04,-101.666111111,,Census,City,SD,"Philip, South Dakota",0,0,0,0,0,0,0,0,0,0,0,0,578,647,786.0,833,810,1114.0,983.0,1088.0,1077.0,885.0,779.0
14925,17579,US,134909,44.3858333333,-97.5516666667,,Census,City,SD,"De Smet, South Dakota",0,0,0,0,0,0,0,0,0,116,541,749,1063,1035,1017.0,1016,1180,1324.0,1336.0,1237.0,1172.0,1164.0,1089.0
15081,10518,US,135018,43.0255555556,-102.556388889,,Census,Cdp,SD,"Pine Ridge, South Dakota",0,0,0,0,0,0,0,0,0,0,0,0,0,0,0.0,0,0,1256.0,2768.0,3059.0,2596.0,3171.0,3308.0
15143,27021,US,91846,43.72,-98.57,,Census,US County,SD,"Aurora County, South Dakota",0,0,0,0,0,0,0,0,0,69,5045,4011,6143,7246,7139.0,5387,5020,4749.0,4183.0,3628.0,3136.0,3058.0,2710.0
15263,12721,US,151048,43.0836111111,-97.1566666667,,Census,City,SD,"Irene, South Dakota",0,0,0,0,0,0,0,0,0,0,0,229,263,446,491.0,391,374,399.0,461.0,523.0,464.0,432.0,420.0
15281,7800,US,134891,43.4275,-97.8027777778,,Census,Cdp,SD,"Milltown, South Dakota",0,0,0,0,0,0,0,0,0,0,0,0,0,0,0.0,0,0,0.0,0.0,0.0,0.0,8.0,10.0
15326,11993,US,135042,43.26,-99.7161111111,,Census,City,SD,"Colome, South Dakota",0,0,0,0,0,0,0,0,0,0,0,0,0,568,599.0,509,451,398.0,375.0,361.0,309.0,340.0,296.0
15420,8186,US,134982,44.037365,-103.114673,,Census,Cdp,SD,"Green Valley, South Dakota",0,0,0,0,0,0,0,0,0,0,0,0,0,0,0.0,0,0,0.0,0.0,0.0,0.0,768.0,928.0
15575,13016,US,134879,43.6027777778,-97.6205555556,,Census,City,SD,"Emery, South Dakota",0,0,0,0,0,0,0,0,0,0,0,247,446,600,542.0,482,480,502.0,452.0,399.0,417.0,439.0,447.0
15685,10765,US,134858,45.0433333333,-96.7613888889,,Census,Town,SD,"Strandburg, South Dakota",0,0,0,0,0,0,0,0,0,0,0,0,0,169,113.0,177,144,105.0,98.0,79.0,74.0,69.0,72.0
15709,11385,US,134951,45.8563888889,-99.2066666667,,Census,Town,SD,"Long Lake, South Dakota",0,0,0,0,0,0,0,0,0,0,0,0,0,0,0.0,0,175,109.0,128.0,117.0,64.0,58.0,31.0
15958,11538,US,134881,43.7247222222,-97.6886111111,,Census,Town,SD,"Farmer, South Dakota",0,0,0,0,0,0,0,0,0,0,0,0,0,0,132.0,130,114,95.0,58.0,27.0,23.0,18.0,10.0
16119,13142,US,151052,44.1152777778,-103.081944444,,Census,City,SD,"Box Elder, South Dakota",0,0,0,0,0,0,0,0,0,0,0,0,0,0,0.0,0,0,0.0,607.0,3186.0,2680.0,2841.0,7800.0
16190,11752,US,134810,45.4663888889,-97.39,,Census,Town,SD,"Grenville, South Dakota",0,0,0,0,0,0,0,0,0,0,0,0,0,0,247.0,260,207,151.0,154.0,119.0,81.0,62.0,54.0
16285,12626,US,134874,44.5816666667,-97.2083333333,,Census,City,SD,"Lake Norden, South Dakota",0,0,0,0,0,0,0,0,0,0,0,0,202,408,459.0,463,373,390.0,393.0,417.0,427.0,432.0,467.0
16297,13425,US,134947,43.7277777778,-97.5919444444,,Census,City,SD,"Spencer, South Dakota",0,0,0,0,0,0,0,0,0,0,0,332,506,637,561.0,617,552,460.0,385.0,380.0,317.0,157.0,154.0
16355,11785,US,134854,45.2602777778,-96.9125,,Census,Town,SD,"Marvin, South Dakota",0,0,0,0,0,0,0,0,0,0,0,0,0,173,150.0,164,110,93.0,65.0,52.0,38.0,66.0,34.0
16559,13812,US,134740,44.2833333333,-96.6861111111,,Census,Town,SD,"Aurora, South Dakota",0,0,0,0,0,0,0,0,0,0,0,0,236,246,166.0,225,202,232.0,237.0,507.0,619.0,500.0,532.0
16681,13617,US,134943,43.5502777778,-97.5002777778,,Census,City,SD,"Bridgewater, South Dakota",0,0,0,0,0,0,0,0,0,0,410,691,934,976,762.0,790,748,694.0,633.0,653.0,533.0,607.0,492.0
16682,26212,US,57779,42.92,-96.97,,Census,US County,SD,"Clay County, South Dakota",0,0,0,0,0,0,0,0,2621,5001,7509,9316,8711,9654,10088.0,9592,10993,10810.0,12923.0,13689.0,13186.0,13537.0,13864.0
16873,15642,US,134964,43.5916666667,-96.5805555556,,Census,City,SD,"Brandon, South Dakota",0,0,0,0,0,0,0,0,0,0,0,0,0,0,0.0,0,200,696.0,1431.0,2589.0,3545.0,5693.0,8785.0
17114,28156,US,91795,44.02,-97.61,,Census,US County,SD,"Miner County, South Dakota",0,0,0,0,0,0,0,0,0,363,5165,5864,7661,8560,8376.0,6836,6268,5398.0,4454.0,3739.0,3272.0,2884.0,2389.0
17201,24681,US,91801,43.9,-99.85,,Census,US County,SD,"Lyman County, South Dakota",0,0,0,0,0,0,0,0,0,124,233,2632,10848,6591,6335.0,5045,4572,4428.0,4060.0,3864.0,3638.0,3895.0,3755.0
17242,12586,US,134771,43.2530555556,-98.6980555556,,Census,City,SD,"Geddes, South Dakota",0,0,0,0,0,0,0,0,0,0,0,0,701,695,680.0,581,502,380.0,308.0,303.0,280.0,252.0,208.0
17314,11525,US,134797,45.9377777778,-101.719722222,,Census,Town,SD,"Morristown, South Dakota",0,0,0,0,0,0,0,0,0,0,0,0,222,269,268.0,217,190,219.0,144.0,127.0,64.0,82.0,67.0
17326,17903,US,135031,44.3588888889,-100.375833333,,Census,City,SD,"Fort Pierre, South Dakota",0,0,0,0,0,0,0,0,0,287,360,395,792,805,683.0,764,951,2649.0,1448.0,1789.0,1854.0,1991.0,2078.0
17354,13800,US,134890,43.2377777778,-97.5775,,Census,City,SD,"Menno, South Dakota",0,0,0,0,0,0,0,0,0,52,413,556,621,918,909.0,966,868,837.0,796.0,793.0,768.0,729.0,608.0
17377,12236,US,134841,43.1813888889,-103.233611111,,Census,Town,SD,"Oelrichs, South Dakota",0,0,0,0,0,0,0,0,0,0,303,0,150,176,206.0,212,168,132.0,94.0,124.0,138.0,145.0,126.0
17441,12185,US,134924,44.4613888889,-103.639166667,,Census,City,SD,"Whitewood, South Dakota",0,0,0,0,0,0,0,0,0,0,443,311,390,339,392.0,267,304,470.0,689.0,821.0,891.0,844.0,927.0
17553,11806,US,135010,45.4083333333,-96.8586111111,,Census,City,SD,"Wilmot, South Dakota",0,0,0,0,0,0,0,0,0,0,0,352,427,617,566.0,628,590,467.0,518.0,507.0,566.0,543.0,492.0
17711,13478,US,135056,43.1727777778,-97.0808333333,,Census,City,SD,"Viborg, South Dakota",0,0,0,0,0,0,0,0,0,0,0,222,410,618,719.0,659,644,699.0,662.0,812.0,763.0,832.0,782.0
17857,24629,US,91831,43.68,-98.16,,Census,US County,SD,"Davison County, South Dakota",0,0,0,0,0,0,0,0,0,1256,5449,7483,11625,14139,16821.0,15336,16522,16681.0,17319.0,17820.0,17503.0,18741.0,19504.0
17927,13821,US,134764,44.7163888889,-103.423055556,,Census,City,SD,"Newell, South Dakota",0,0,0,0,0,0,0,0,0,0,0,0,0,414,547.0,683,784,797.0,664.0,638.0,675.0,646.0,603.0
17964,12326,US,134867,44.0711111111,-101.156388889,,Census,Town,SD,"Midland, South Dakota",0,0,0,0,0,0,0,0,0,0,0,0,210,309,262.0,282,387,401.0,270.0,277.0,233.0,179.0,129.0
18111,11481,US,134842,45.1675,-98.7405555556,,Census,Town,SD,"Chelsea, South Dakota",0,0,0,0,0,0,0,0,0,0,0,0,0,110,84.0,51,41,53.0,45.0,41.0,33.0,33.0,27.0
18151,24056,US,91778,42.83,-96.65,,Census,US County,SD,"Union County, South Dakota",0,0,0,0,0,0,0,0,3507,6813,9130,11153,10676,11099,11480.0,11675,10792,10197.0,9643.0,10938.0,10189.0,12584.0,14399.0
18202,13176,US,134735,43.0066666667,-98.0591666667,,Census,City,SD,"Avon, South Dakota",0,0,0,0,0,0,0,0,0,0,0,0,451,630,670.0,728,692,637.0,610.0,576.0,576.0,561.0,590.0
18216,14679,US,134986,43.9875,-102.127222222,,Census,Town,SD,"Quinn, South Dakota",0,0,0,0,0,0,0,0,0,0,0,0,0,0,141.0,189,214,162.0,105.0,80.0,72.0,44.0,54.0
18250,15664,US,134843,45.1705555556,-98.9480555556,,Census,Town,SD,"Cresbard, South Dakota",0,0,0,0,0,0,0,0,0,0,0,0,320,349,358.0,288,235,229.0,224.0,221.0,185.0,143.0,104.0
18267,15608,US,134967,43.825,-96.7111111111,,Census,City,SD,"Dell Rapids, South Dakota",0,0,0,0,0,0,0,0,0,260,993,1255,1367,1677,1657.0,1706,1650,1863.0,1991.0,2389.0,2484.0,2980.0,3633.0
18472,12476,US,1591404,44.2316666667,-103.388611111,,Census,City,SD,"Piedmont, South Dakota",0,0,0,0,0,0,0,0,0,0,0,0,0,0,0.0,0,0,0.0,0.0,0.0,0.0,0.0,222.0
18478,11728,US,134926,43.2222222222,-96.4894444444,,Census,Town,SD,"Fairview, South Dakota",0,0,0,0,0,0,0,0,0,0,0,0,107,174,156.0,150,155,101.0,72.0,90.0,73.0,94.0,60.0
18739,11839,US,134812,45.4947222222,-97.8316666667,,Census,Town,SD,"Pierpont, South Dakota",0,0,0,0,0,0,0,0,0,0,0,0,314,400,379.0,362,326,258.0,241.0,184.0,173.0,122.0,135.0
18909,23577,US,91805,44.02,-97.12,,Census,US County,SD,"Lake County, South Dakota",0,0,0,0,0,0,0,0,0,2657,7508,9137,10711,12257,12379.0,12412,11792,11764.0,11456.0,10724.0,10550.0,11276.0,11200.0
18936,11343,US,134908,44.4875,-97.7508333333,,Census,Town,SD,"Bancroft, South Dakota",0,0,0,0,0,0,0,0,0,0,0,0,136,141,155.0,126,100,86.0,48.0,41.0,30.0,37.0,19.0
19024,13316,US,134945,43.6994444444,-97.1858333333,,Census,City,SD,"Montrose, South Dakota",0,0,0,0,0,0,0,0,0,0,563,375,442,519,471.0,506,448,430.0,377.0,396.0,420.0,460.0,472.0
19053,10999,US,135000,45.3327777778,-97.1975,,Census,Town,SD,"Ortley, South Dakota",0,0,0,0,0,0,0,0,0,0,0,0,192,187,157.0,184,144,127.0,111.0,80.0,63.0,54.0,65.0
19196,23610,US,91843,42.99,-97.88,,Census,US County,SD,"Bon Homme County, South Dakota",0,0,0,0,0,0,0,0,608,5468,9057,10379,11061,11940,11737.0,10241,9440,9229.0,8577.0,8059.0,7089.0,7260.0,7070.0
19240,10834,US,134732,44.4333333333,-97.9894444444,,Census,Town,SD,"Yale, South Dakota",0,0,0,0,0,0,0,0,0,0,0,0,0,0,190.0,156,164,171.0,148.0,136.0,128.0,118.0,108.0
19426,12127,US,134936,43.8786111111,-99.6011111111,,Census,Town,SD,"Reliance, South Dakota",0,0,0,0,0,0,0,0,0,0,0,0,192,317,287.0,219,215,201.0,204.0,190.0,169.0,206.0,191.0
19547,12135,US,134976,43.9988888889,-96.6494444444,,Census,City,SD,"Egan, South Dakota",0,0,0,0,0,0,0,0,0,23,399,503,516,569,419.0,418,347,310.0,281.0,248.0,208.0,265.0,278.0
19629,11356,US,135064,45.3163888889,-99.9838888889,,Census,Town,SD,"Lowry, South Dakota",0,0,0,0,0,0,0,0,0,0,0,0,90,0,89.0,90,70,44.0,35.0,22.0,15.0,10.0,6.0
19749,13949,US,134861,43.1830555556,-99.2911111111,,Census,City,SD,"Burke, South Dakota",0,0,0,0,0,0,0,0,0,0,0,0,311,628,605.0,602,829,811.0,892.0,859.0,756.0,676.0,604.0
19778,13971,US,134899,43.8352777778,-101.512222222,,Census,City,SD,"Kadoka, South Dakota",0,0,0,0,0,0,0,0,0,0,0,0,222,341,385.0,464,584,840.0,815.0,832.0,736.0,706.0,654.0
19799,13723,US,135007,45.6633333333,-97.0491666667,,Census,City,SD,"Sisseton, South Dakota",0,0,0,0,0,0,0,0,0,0,0,928,1397,1431,1569.0,2513,2871,3218.0,3094.0,2789.0,2181.0,2572.0,2470.0
19849,24589,US,91799,43.67,-97.36,,Census,US County,SD,"McCook County, South Dakota",0,0,0,0,0,0,0,0,0,1283,6448,8689,9589,9990,10316.0,9793,8828,8268.0,7246.0,6444.0,5688.0,5832.0,5618.0
19918,12491,US,134898,43.7252777778,-101.983055556,,Census,Town,SD,"Interior, South Dakota",0,0,0,0,0,0,0,0,0,0,0,0,0,0,144.0,182,126,179.0,81.0,62.0,67.0,77.0,94.0
20243,11779,US,134765,44.6736111111,-103.553055556,,Census,Town,SD,"Nisland, South Dakota",0,0,0,0,0,0,0,0,0,0,0,0,0,173,187.0,212,216,211.0,157.0,216.0,174.0,204.0,232.0
20277,41312,US,134920,44.3766666667,-103.729166667,,Census,City,SD,"Deadwood, South Dakota",0,0,0,0,0,0,0,0,0,3777,2366,3408,3653,2403,2559.0,4100,3288,3045.0,2409.0,2035.0,1830.0,1380.0,1270.0
20746,8197,US,134723,43.5275,-98.5894444444,,Census,Cdp,SD,"Storla, South Dakota",0,0,0,0,0,0,0,0,0,0,0,0,0,0,0.0,0,0,0.0,0.0,0.0,0.0,15.0,6.0
20821,12267,US,134927,43.4294444444,-96.6961111111,"[[y2015,5906]]",Census,City,SD,"Harrisburg, South Dakota",0,0,0,0,0,0,0,0,0,0,0,0,164,193,205.0,241,274,313.0,338.0,558.0,727.0,958.0,4089.0
20842,41605,US,134983,43.9336111111,-103.571388889,,Census,City,SD,"Hill City, South Dakota",0,0,0,0,0,0,0,0,0,0,470,0,271,0,0.0,0,361,419.0,389.0,535.0,650.0,780.0,948.0
20890,25358,US,91836,,,,Census,US County,SD,"Charles Mix County, South Dakota",0,0,0,0,0,0,0,0,152,407,4178,8498,14899,16256,16703.0,13449,15558,11785.0,9994.0,9680.0,9131.0,9350.0,9129.0
20905,11406,US,134736,43.1491666667,-97.7183333333,,Census,City,SD,"Scotland, South Dakota",0,0,0,0,0,0,0,0,0,150,1083,964,1102,1234,1163.0,1204,1188,1077.0,984.0,1022.0,968.0,891.0,841.0
20990,11602,US,135030,45.0488888889,-98.0952777778,,Census,Town,SD,"Turton, South Dakota",0,0,0,0,0,0,0,0,0,0,0,0,240,243,323.0,180,201,140.0,121.0,101.0,76.0,61.0,48.0
21046,12192,US,134787,45.0538888889,-97.3261111111,,Census,Town,SD,"Florence, South Dakota",0,0,0,0,0,0,0,0,0,0,0,0,270,290,298.0,254,226,216.0,175.0,190.0,192.0,299.0,374.0
21057,12267,US,134806,43.7122222222,-98.2613888889,,Census,City,SD,"Mount Vernon, South Dakota",0,0,0,0,0,0,0,0,0,0,127,222,614,661,489.0,405,387,379.0,398.0,402.0,368.0,477.0,462.0
21115,14585,US,134912,44.3627777778,-97.375,,Census,City,SD,"Lake Preston, South Dakota",0,0,0,0,0,0,0,0,0,0,337,706,1007,1008,944.0,886,957,955.0,812.0,789.0,663.0,737.0,599.0
21193,14128,US,134772,43.1569444444,-98.5380555556,,Census,City,SD,"Lake Andes, South Dakota",0,0,0,0,0,0,0,0,0,0,0,0,920,867,1052.0,785,1851,1097.0,948.0,1029.0,846.0,819.0,879.0
21285,13396,US,134875,44.52,-98.9863888889,,Census,City,SD,"Miller, South Dakota",0,0,0,0,0,0,0,0,0,0,536,544,1202,1478,1447.0,1460,1916,2081.0,2148.0,1931.0,1678.0,1530.0,1489.0
21300,27871,US,91844,43.18,-101.66,,Census,US County,SD,"Bennett County, South Dakota",0,0,0,0,0,0,0,0,0,0,0,0,96,1924,4590.0,3983,3396,3053.0,3088.0,3044.0,3206.0,3574.0,3431.0
21478,11412,US,134873,44.7588888889,-97.3808333333,,Census,Town,SD,"Hazel, South Dakota",0,0,0,0,0,0,0,0,0,0,0,0,229,247,191.0,182,161,128.0,101.0,94.0,103.0,105.0,91.0
21642,12387,US,134997,45.8575,-97.1027777778,,Census,Town,SD,"Claire City, South Dakota",0,0,0,0,0,0,0,0,0,0,0,0,0,213,193.0,149,109,86.0,100.0,87.0,85.0,85.0,76.0
21684,11164,US,135009,45.9191666667,-96.5727777778,,Census,Town,SD,"White Rock, South Dakota",0,0,0,0,0,0,0,0,0,0,0,170,368,353,281.0,220,113,76.0,35.0,10.0,7.0,18.0,3.0
21851,11143,US,134996,45.2077777778,-99.6138888889,,Census,Town,SD,"Tolstoy, South Dakota",0,0,0,0,0,0,0,0,0,0,0,0,142,183,210.0,171,180,142.0,99.0,97.0,69.0,64.0,36.0
21895,9354,US,135020,43.1438888889,-102.367777778,,Census,Cdp,SD,"Wounded Knee, South Dakota",0,0,0,0,0,0,0,0,0,0,0,0,0,0,0.0,0,0,0.0,0.0,0.0,18.0,328.0,382.0
21973,24607,US,91840,43.72,-99.06,,Census,US County,SD,"Brule County, South Dakota",0,0,0,0,0,0,0,0,0,238,6737,5401,6451,7141,7416.0,6195,6076,6319.0,5870.0,5245.0,5485.0,5364.0,5255.0
22017,10522,US,134781,44.7702777778,-97.5127777778,,Census,Town,SD,"Naples, South Dakota",0,0,0,0,0,0,0,0,0,0,0,0,0,0,89.0,84,62,36.0,38.0,45.0,35.0,25.0,41.0
22032,12038,US,134883,45.5847222222,-103.545,,Census,Town,SD,"Buffalo, South Dakota",0,0,0,0,0,0,0,0,0,0,0,0,0,0,0.0,0,380,652.0,393.0,453.0,488.0,380.0,330.0
22072,12369,US,134818,44.6641666667,-96.6236111111,,Census,Town,SD,"Brandt, South Dakota",0,0,0,0,0,0,0,0,0,0,0,0,158,299,265.0,271,211,148.0,132.0,129.0,123.0,113.0,107.0
22129,23697,US,91823,45.07,-99.15,,Census,US County,SD,"Faulk County, South Dakota",0,0,0,0,0,0,0,0,0,4,4062,3547,6716,6442,6895.0,5168,4752,4397.0,3893.0,3327.0,2744.0,2640.0,2364.0
22140,10437,US,134975,43.9836111111,-96.8133333333,,Census,City,SD,"Colman, South Dakota",0,0,0,0,0,0,0,0,0,0,0,213,362,535,488.0,462,509,505.0,456.0,501.0,482.0,572.0,594.0
22168,12096,US,134727,44.3694444444,-98.0383333333,,Census,Town,SD,"Cavour, South Dakota",0,0,0,0,0,0,0,0,0,0,0,98,408,249,202.0,138,154,140.0,134.0,117.0,166.0,141.0,114.0
22384,24171,US,91797,44.57,-102.71,,Census,US County,SD,"Meade County, South Dakota",0,0,0,0,0,0,0,0,0,0,4640,4907,12640,9367,11482.0,9735,11516,12044.0,16618.0,20717.0,21878.0,24253.0,25434.0
22397,11519,US,134966,43.6613888889,-96.8091666667,,Census,City,SD,"Crooks, South Dakota",0,0,0,0,0,0,0,0,0,0,0,0,0,0,0.0,0,0,0.0,0.0,594.0,671.0,859.0,1269.0
22443,13291,US,134737,42.8547222222,-97.8947222222,,Census,City,SD,"Springfield, South Dakota",0,0,0,0,0,0,0,0,0,235,302,525,675,719,881.0,667,801,1194.0,1566.0,1377.0,834.0,792.0,1989.0
22457,13118,US,134720,43.7147222222,-98.4830555556,,Census,City,SD,"Plankinton, South Dakota",0,0,0,0,0,0,0,0,0,0,654,465,712,803,758.0,694,754,644.0,613.0,644.0,604.0,601.0,707.0
23171,15445,US,134830,43.3194444444,-98.3472222222,,Census,City,SD,"Armour, South Dakota",0,0,0,0,0,0,0,0,0,0,482,912,968,1045,1009.0,1013,900,875.0,925.0,819.0,854.0,782.0,699.0
23234,9621,US,134981,44.0061111111,-103.296111111,,Census,Cdp,SD,"Colonial Pine Hills, South Dakota",0,0,0,0,0,0,0,0,0,0,0,0,0,0,0.0,0,0,0.0,0.0,0.0,1553.0,2561.0,2493.0
23323,11824,US,135026,45.1538888889,-98.4983333333,,Census,City,SD,"Mellette, South Dakota",0,0,0,0,0,0,0,0,0,0,241,354,472,507,363.0,332,250,208.0,199.0,192.0,184.0,248.0,210.0
23329,15433,US,134775,43.3863888889,-98.8427777778,,Census,City,SD,"Platte, South Dakota",0,0,0,0,0,0,0,0,0,0,0,0,1115,1242,1207.0,1017,1069,1167.0,1351.0,1334.0,1311.0,1367.0,1230.0
23402,13086,US,134862,43.2369444444,-99.5166666667,,Census,Town,SD,"Dallas, South Dakota",0,0,0,0,0,0,0,0,0,0,0,0,1277,705,423.0,278,244,212.0,233.0,199.0,142.0,144.0,120.0
23411,13484,US,134757,43.8055555556,-99.3283333333,,Census,City,SD,"Chamberlain, South Dakota",0,0,0,0,0,0,0,0,0,0,939,874,1275,1303,1364.0,1626,1912,2598.0,2626.0,2258.0,2347.0,2338.0,2387.0
23539,14693,US,134903,44.0819444444,-98.5702777778,,Census,City,SD,"Wessington Springs, South Dakota",0,0,0,0,0,0,0,0,0,0,0,320,1093,1618,1401.0,1352,1453,1488.0,1300.0,1203.0,1083.0,1011.0,956.0
23545,27696,US,134840,43.4316666667,-103.474166667,,Census,City,SD,"Hot Springs, South Dakota",0,0,0,0,0,0,0,0,0,0,1423,1319,2140,2141,3486.0,4083,5030,4943.0,4434.0,4742.0,4325.0,4129.0,3711.0
23705,11754,US,134786,43.0063888889,-97.1058333333,,Census,Town,SD,"Wakonda, South Dakota",0,0,0,0,0,0,0,0,0,0,0,220,326,451,453.0,451,454,382.0,290.0,383.0,329.0,374.0,321.0
23783,27250,US,134923,44.4897222222,-103.8525,,Census,City,SD,"Spearfish, South Dakota",0,0,0,0,0,0,0,0,0,170,678,1166,1130,1254,1577.0,2139,2755,3682.0,4661.0,5251.0,6966.0,8606.0,10494.0
23837,11729,US,134778,45.0888888889,-97.6416666667,,Census,Town,SD,"Bradley, South Dakota",0,0,0,0,0,0,0,0,0,0,0,0,351,368,291.0,311,226,188.0,157.0,135.0,117.0,112.0,72.0
23885,12436,US,134788,44.8777777778,-97.4658333333,,Census,Town,SD,"Henry, South Dakota",0,0,0,0,0,0,0,0,0,0,194,191,441,418,358.0,322,323,276.0,182.0,217.0,215.0,268.0,267.0
23938,13137,US,134895,44.5186111111,-99.4411111111,,Census,City,SD,"Highmore, South Dakota",0,0,0,0,0,0,0,0,0,0,435,376,1084,1022,1034.0,1136,1158,1078.0,1173.0,1055.0,835.0,851.0,795.0
24093,13365,US,134865,43.1152777778,-99.1905555556,,Census,Town,SD,"Herrick, South Dakota",0,0,0,0,0,0,0,0,0,0,0,0,412,422,339.0,246,169,160.0,126.0,115.0,139.0,105.0,105.0
24107,11685,US,135050,43.2580555556,-96.9930555556,,Census,Town,SD,"Davis, South Dakota",0,0,0,0,0,0,0,0,0,0,0,151,164,245,209.0,230,153,124.0,101.0,100.0,87.0,104.0,85.0
24134,22875,US,91833,45.72,-101.18,,Census,US County,SD,"Corson County, South Dakota",0,0,0,0,0,0,0,0,0,0,0,0,2929,7249,9535.0,6755,6168,5798.0,4994.0,5196.0,4195.0,4181.0,4050.0
24183,13398,US,134758,43.7472222222,-98.9575,,Census,City,SD,"Kimball, South Dakota",0,0,0,0,0,0,0,0,0,0,593,453,713,993,1111.0,997,952,912.0,825.0,752.0,743.0,745.0,703.0
24196,12845,US,135073,45.05,-101.601111111,,Census,City,SD,"Dupree, South Dakota",0,0,0,0,0,0,0,0,0,0,0,0,0,213,365.0,460,438,548.0,523.0,562.0,484.0,434.0,525.0
24205,10659,US,134896,43.8322222222,-101.272222222,,Census,Town,SD,"Belvidere, South Dakota",0,0,0,0,0,0,0,0,0,0,0,0,0,0,214.0,187,172,232.0,96.0,80.0,63.0,57.0,49.0
24213,23619,US,91789,45.62,-96.95,,Census,US County,SD,"Roberts County, South Dakota",0,0,0,0,0,0,0,0,0,0,1997,12216,14897,16514,15782.0,15887,14929,13190.0,11678.0,10911.0,9914.0,10016.0,10149.0
24218,12915,US,134958,43.8805555556,-97.5019444444,,Census,Town,SD,"Canova, South Dakota",0,0,0,0,0,0,0,0,0,0,0,169,311,338,364.0,333,340,247.0,204.0,194.0,172.0,140.0,105.0
24226,13098,US,134751,45.4511111111,-98.0991666667,,Census,City,SD,"Groton, South Dakota",0,0,0,0,0,0,0,0,0,0,684,700,1108,1273,1009.0,946,1084,1063.0,1021.0,1230.0,1196.0,1356.0,1458.0
24307,13818,US,135065,45.5397222222,-100.434722222,,Census,City,SD,"Mobridge, South Dakota",0,0,0,0,0,0,0,0,0,0,0,0,1200,3517,3464.0,3008,3753,4391.0,4545.0,4174.0,3768.0,3574.0,3465.0
24328,14391,US,135028,44.8752777778,-98.5177777778,,Census,City,SD,"Redfield, South Dakota",0,0,0,0,0,0,0,0,0,0,796,1015,2856,2755,2664.0,2428,2655,2952.0,2943.0,3027.0,2770.0,2897.0,2333.0
24396,27053,US,91792,44.01,-102.82,,Census,US County,SD,"Pennington County, South Dakota",0,0,0,0,0,0,0,0,0,2244,6540,5610,12453,12720,20079.0,23799,34053,58195.0,59349.0,70361.0,81343.0,88565.0,100948.0
24416,11642,US,134897,43.9663888889,-101.905555556,,Census,Town,SD,"Cottonwood, South Dakota",0,0,0,0,0,0,0,0,0,0,0,0,0,121,191.0,118,102,38.0,16.0,4.0,12.0,6.0,9.0
24704,12772,US,134905,43.8880555556,-100.711111111,,Census,City,SD,"Murdo, South Dakota",0,0,0,0,0,0,0,0,0,0,0,0,372,500,619.0,680,739,783.0,865.0,723.0,679.0,612.0,488.0
24715,15247,US,151049,44.9963888889,-101.235833333,,Census,City,SD,"Eagle Butte, South Dakota",0,0,0,0,0,0,0,0,0,0,0,0,0,210,387.0,374,375,495.0,530.0,435.0,489.0,619.0,1318.0
24816,24528,US,91822,45.17,-96.77,,Census,US County,SD,"Grant County, South Dakota",0,0,0,0,0,0,0,0,0,3010,6814,9103,10303,10880,10729.0,10552,10233,9913.0,9005.0,9013.0,8372.0,7847.0,7356.0
25013,13399,US,134811,45.1813888889,-97.6827777778,,Census,Town,SD,"Lily, South Dakota",0,0,0,0,0,0,0,0,0,0,0,0,175,187,135.0,158,139,119.0,62.0,38.0,26.0,21.0,4.0
25025,13714,US,134819,44.7552777778,-96.685,,Census,City,SD,"Clear Lake, South Dakota",0,0,0,0,0,0,0,0,0,0,147,491,704,835,834.0,997,1105,1137.0,1157.0,1310.0,1247.0,1335.0,1273.0
25147,13607,US,134808,45.3452777778,-97.7508333333,,Census,City,SD,"Bristol, South Dakota",0,0,0,0,0,0,0,0,0,0,199,282,444,545,688.0,675,647,562.0,470.0,445.0,419.0,377.0,341.0
25357,14743,US,134780,44.9577777778,-97.5797222222,,Census,Town,SD,"Garden City, South Dakota",0,0,0,0,0,0,0,0,0,0,0,0,304,204,257.0,272,282,226.0,126.0,104.0,93.0,72.0,53.0
25448,11670,US,135066,45.5055555556,-100.031388889,,Census,City,SD,"Selby, South Dakota",0,0,0,0,0,0,0,0,0,0,0,0,558,564,548.0,599,706,979.0,957.0,884.0,707.0,736.0,642.0
25454,11827,US,135071,42.9577777778,-97.1811111111,,Census,Town,SD,"Volin, South Dakota",0,0,0,0,0,0,0,0,0,0,0,0,286,314,283.0,292,197,171.0,157.0,156.0,175.0,207.0,161.0
25484,13398,US,135059,42.6044444444,-96.5627777778,,Census,City,SD,"Jefferson, South Dakota",0,0,0,0,0,0,0,0,0,90,229,364,407,550,426.0,469,466,443.0,474.0,592.0,527.0,586.0,547.0
25646,12549,US,134885,44.5163888889,-99.9883333333,,Census,City,SD,"Blunt, South Dakota",0,0,0,0,0,0,0,0,0,0,353,246,566,512,477.0,322,423,532.0,445.0,424.0,342.0,370.0,354.0
25659,16151,US,134954,45.0216666667,-102.039444444,,Census,City,SD,"Faith, South Dakota",0,0,0,0,0,0,0,0,0,0,0,0,0,575,607.0,522,599,591.0,576.0,576.0,548.0,489.0,421.0
25676,8019,US,134906,43.8869444444,-100.8925,,Census,Cdp,SD,"Okaton, South Dakota",0,0,0,0,0,0,0,0,0,0,0,0,0,0,0.0,0,0,0.0,0.0,0.0,0.0,29.0,36.0
25695,29191,US,134792,44.9033333333,-97.1205555556,,Census,City,SD,"Watertown, South Dakota",0,0,0,0,0,0,0,0,0,746,2672,3352,7010,9400,10214.0,10617,12699,14077.0,13388.0,15649.0,17592.0,20237.0,21482.0
25727,11202,US,134783,44.7036111111,-97.5002777778,,Census,Town,SD,"Vienna, South Dakota",0,0,0,0,0,0,0,0,0,0,0,171,453,477,443.0,313,306,191.0,119.0,90.0,93.0,78.0,45.0
25762,11728,US,135008,45.3036111111,-97.0372222222,,Census,Town,SD,"Summit, South Dakota",0,0,0,0,0,0,0,0,0,0,0,237,545,556,431.0,459,431,283.0,332.0,290.0,267.0,281.0,288.0
25791,11622,US,134857,45.1,-96.8002777778,,Census,Town,SD,"Stockholm, South Dakota",0,0,0,0,0,0,0,0,0,0,0,0,0,0,130.0,114,114,155.0,116.0,95.0,89.0,105.0,108.0
25831,11271,US,91800,45.76,-97.6,,Census,US County,SD,"Marshall County, South Dakota",0,0,0,0,0,0,0,0,0,0,4544,5942,8021,9596,9540.0,8880,7835,6663.0,5965.0,5404.0,4844.0,4576.0,4656.0
25864,12136,US,134929,43.3538888889,-96.8955555556,,Census,City,SD,"Lennox, South Dakota",0,0,0,0,0,0,0,0,0,89,363,591,745,1074,1113.0,1164,1218,1353.0,1487.0,1827.0,1767.0,2037.0,2111.0
25878,11781,US,134768,45.7258333333,-100.069444444,,Census,Town,SD,"Mound City, South Dakota",0,0,0,0,0,0,0,0,0,0,0,0,0,0,165.0,195,177,144.0,164.0,111.0,89.0,84.0,71.0
26042,7798,US,135034,43.3036111111,-100.6325,,Census,Cdp,SD,"Antelope, South Dakota",0,0,0,0,0,0,0,0,0,0,0,0,0,0,0.0,0,0,0.0,0.0,0.0,744.0,867.0,826.0
26311,12631,US,134863,43.0280555556,-98.8897222222,,Census,Town,SD,"Fairfax, South Dakota",0,0,0,0,0,0,0,0,0,0,0,0,500,530,430.0,338,301,253.0,199.0,225.0,144.0,123.0,115.0
26334,13833,US,134746,44.3219444444,-96.9244444444,,Census,City,SD,"Volga, South Dakota",0,0,0,0,0,0,0,0,0,287,298,396,568,600,604.0,632,578,780.0,982.0,1221.0,1263.0,1435.0,1768.0
26524,12156,US,134940,45.7238888889,-97.4138888889,,Census,Town,SD,"Lake City, South Dakota",0,0,0,0,0,0,0,0,0,0,0,0,0,0,162.0,168,110,81.0,44.0,46.0,43.0,47.0,51.0
26626,10355,US,134949,45.6677777778,-99.5605555556,,Census,Town,SD,"Hillsview, South Dakota",0,0,0,0,0,0,0,0,0,0,0,0,0,0,101.0,160,68,44.0,19.0,9.0,4.0,3.0,3.0
26640,11863,US,134882,43.7272222222,-97.8227777778,,Census,Town,SD,"Fulton, South Dakota",0,0,0,0,0,0,0,0,0,0,0,0,0,214,171.0,168,139,135.0,101.0,108.0,70.0,86.0,91.0
26881,12432,US,134728,44.63,-98.4102777778,,Census,Town,SD,"Hitchcock, South Dakota",0,0,0,0,0,0,0,0,0,0,0,135,259,358,334.0,246,227,193.0,150.0,132.0,95.0,108.0,91.0
26904,12304,US,134928,43.1297222222,-96.4547222222,,Census,Town,SD,"Hudson, South Dakota",0,0,0,0,0,0,0,0,0,88,202,400,404,470,478.0,478,500,455.0,366.0,388.0,332.0,402.0,296.0
26916,15087,US,134944,43.5975,-97.2933333333,,Census,City,SD,"Canistota, South Dakota",0,0,0,0,0,0,0,0,0,0,0,0,409,594,590.0,665,687,627.0,636.0,626.0,608.0,700.0,656.0
26985,11977,US,135021,44.9944444444,-98.4986111111,,Census,City,SD,"Ashton, South Dakota",0,0,0,0,0,0,0,0,0,0,359,274,430,372,314.0,240,222,182.0,137.0,154.0,148.0,152.0,122.0
27085,10968,US,134846,44.9019444444,-99.0886111111,,Census,Town,SD,"Orient, South Dakota",0,0,0,0,0,0,0,0,0,0,0,0,0,0,302.0,250,206,133.0,131.0,87.0,59.0,57.0,63.0
27180,11893,US,134722,43.5886111111,-98.4377777778,,Census,Town,SD,"Stickney, South Dakota",0,0,0,0,0,0,0,0,0,0,0,0,310,386,412.0,361,388,45.0,421.0,409.0,323.0,334.0,284.0
27332,14127,US,134963,43.7622222222,-96.7377777778,,Census,City,SD,"Baltic, South Dakota",0,0,0,0,0,0,0,0,0,0,0,0,278,287,272.0,270,255,278.0,364.0,679.0,666.0,811.0,1089.0
27347,92447,US,151051,43.5363888889,-96.7316666667,,Census,City,SD,"Sioux Falls, South Dakota",0,0,0,0,0,0,0,0,0,2164,10177,10266,14094,25202,33362.0,40832,52969,65466.0,72488.0,81182.0,100814.0,123975.0,153888.0
27360,11707,US,134935,43.9058333333,-100.058055556,,Census,City,SD,"Presho, South Dakota",0,0,0,0,0,0,0,0,0,0,0,0,635,626,487.0,568,712,881.0,922.0,760.0,654.0,588.0,497.0
27427,10746,US,134973,43.7577777778,-96.4758333333,,Census,Town,SD,"Sherman, South Dakota",0,0,0,0,0,0,0,0,0,0,0,0,138,206,192.0,158,120,116.0,82.0,100.0,88.0,87.0,78.0
27511,10138,US,135017,43.1830555556,-102.736944444,,Census,Cdp,SD,"Oglala, South Dakota",0,0,0,0,0,0,0,0,0,0,0,0,0,0,0.0,0,0,0.0,0.0,0.0,422.0,1229.0,1290.0
27804,23186,US,91828,45.16,-100.88,,Census,US County,SD,"Dewey County, South Dakota",0,0,0,0,0,0,0,0,0,0,0,0,1145,4802,6476.0,5709,4916,5257.0,5170.0,5366.0,5523.0,5972.0,5301.0
27824,31345,US,134925,43.3022222222,-96.5908333333,,Census,City,SD,"Canton, South Dakota",0,0,0,0,0,0,0,0,0,675,1101,1943,2103,2225,2270.0,2518,2530,2511.0,2665.0,2886.0,2787.0,3110.0,3057.0
27974,15619,US,134914,44.0077777778,-97.1147222222,,Census,City,SD,"Madison, South Dakota",0,0,0,0,0,0,0,0,0,96,1736,2550,3137,4144,4289.0,5018,5153,5420.0,6315.0,6210.0,6257.0,6540.0,6474.0
28072,12145,US,135023,45.1566666667,-98.0986111111,,Census,City,SD,"Conde, South Dakota",0,0,0,0,0,0,0,0,0,0,0,195,592,544,431.0,395,409,388.0,279.0,259.0,203.0,187.0,140.0
28113,14353,US,134884,45.5497222222,-103.975277778,,Census,Town,SD,"Camp Crook, South Dakota",0,0,0,0,0,0,0,0,0,0,0,0,120,163,161.0,227,122,90.0,150.0,100.0,146.0,56.0,63.0
28114,11981,US,135062,45.5327777778,-100.271388889,,Census,Town,SD,"Glenham, South Dakota",0,0,0,0,0,0,0,0,0,0,0,0,182,135,187.0,131,168,171.0,178.0,169.0,134.0,139.0,105.0
28271,15075,US,134855,45.2186111111,-96.6336111111,,Census,City,SD,"Milbank, South Dakota",0,0,0,0,0,0,0,0,0,0,1207,1426,2015,2215,2389.0,2745,2982,3500.0,3727.0,4120.0,3879.0,3640.0,3353.0
28378,12311,US,134749,45.6113888889,-98.3119444444,,Census,City,SD,"Columbia, South Dakota",0,0,0,0,0,0,0,0,0,133,400,143,235,327,251.0,275,270,272.0,240.0,161.0,133.0,140.0,136.0
28434,13587,US,134932,43.9041666667,-99.8627777778,,Census,Town,SD,"Kennebec, South Dakota",0,0,0,0,0,0,0,0,0,0,0,0,252,341,349.0,390,374,372.0,372.0,334.0,284.0,286.0,240.0
28451,23727,US,91786,44.94,-98.35,,Census,US County,SD,"Spink County, South Dakota",0,0,0,0,0,0,0,0,0,477,10581,9487,15981,15768,15304.0,12527,12204,11706.0,10595.0,9201.0,7981.0,7454.0,6415.0
28486,12426,US,135049,43.3725,-96.9877777778,,Census,Town,SD,"Chancellor, South Dakota",0,0,0,0,0,0,0,0,0,0,0,0,160,280,207.0,232,193,214.0,220.0,257.0,276.0,328.0,264.0
28526,14225,US,135013,44.0527777778,-98.2736111111,,Census,City,SD,"Woonsocket, South Dakota",0,0,0,0,0,0,0,0,0,0,687,648,1027,1368,1108.0,1050,1051,1035.0,852.0,799.0,766.0,720.0,655.0
28531,12171,US,134770,43.0388888889,-98.1855555556,,Census,Town,SD,"Dante, South Dakota",0,0,0,0,0,0,0,0,0,0,0,0,0,175,132.0,118,140,102.0,88.0,83.0,98.0,82.0,84.0
28560,11738,US,134942,45.8627777778,-97.2872222222,,Census,City,SD,"Veblen, South Dakota",0,0,0,0,0,0,0,0,0,0,0,0,173,530,520.0,486,476,437.0,377.0,368.0,321.0,281.0,531.0
28728,11939,US,134824,45.3938888889,-101.430555556,,Census,Town,SD,"Isabel, South Dakota",0,0,0,0,0,0,0,0,0,0,0,0,0,240,430.0,490,511,488.0,394.0,332.0,319.0,239.0,135.0
28765,14976,US,135024,44.8941666667,-98.1008333333,,Census,City,SD,"Doland, South Dakota",0,0,0,0,0,0,0,0,0,0,216,235,581,667,538.0,542,535,481.0,430.0,381.0,306.0,297.0,180.0
28838,14840,US,135060,42.5311111111,-96.4955555556,,Census,City,SD,"North Sioux City, South Dakota",0,0,0,0,0,0,0,0,0,0,0,0,0,0,0.0,0,0,736.0,860.0,1992.0,2019.0,2288.0,2530.0
28888,12575,US,135054,43.4869444444,-97.2163888889,,Census,Town,SD,"Monroe, South Dakota",0,0,0,0,0,0,0,0,0,0,0,0,169,217,221.0,219,160,156.0,134.0,170.0,151.0,163.0,160.0
28917,12151,US,134892,43.2416666667,-97.675,,Census,Town,SD,"Olivet, South Dakota",0,0,0,0,0,0,0,0,0,0,105,156,133,200,184.0,242,202,135.0,103.0,96.0,74.0,70.0,74.0
28976,12586,US,134974,43.5836111111,-96.4644444444,,Census,City,SD,"Valley Springs, South Dakota",0,0,0,0,0,0,0,0,0,96,308,388,331,374,393.0,396,389,472.0,566.0,801.0,739.0,792.0,759.0
29083,11526,US,134747,44.4344444444,-96.6475,,Census,City,SD,"White, South Dakota",0,0,0,0,0,0,0,0,0,0,137,454,468,594,533.0,559,525,417.0,418.0,474.0,536.0,530.0,485.0
29131,9526,US,134988,44.0652777778,-103.1475,,Census,Cdp,SD,"Rapid Valley, South Dakota",0,0,0,0,0,0,0,0,0,0,0,0,0,0,0.0,0,0,0.0,0.0,3265.0,5968.0,7043.0,8260.0
29257,12442,US,135033,44.7058333333,-100.066944444,,Census,City,SD,"Onida, South Dakota",0,0,0,0,0,0,0,0,0,0,0,0,319,455,636.0,597,822,843.0,785.0,851.0,761.0,740.0,658.0
29316,14394,US,134919,44.3672222222,-103.769722222,,Census,City,SD,"Central City, South Dakota",0,0,0,0,0,0,0,0,0,1008,519,0,296,199,198.0,302,218,247.0,188.0,177.0,185.0,149.0,134.0
29445,12723,US,134852,45.2947222222,-96.4627777778,,Census,City,SD,"Big Stone City, South Dakota",0,0,0,0,0,0,0,0,0,376,471,590,551,630,617.0,681,829,718.0,631.0,672.0,669.0,605.0,467.0
29482,23439,US,91827,43.39,-98.36,,Census,US County,SD,"Douglas County, South Dakota",0,0,0,0,0,0,0,0,0,0,4600,5012,6400,6993,7236.0,6348,5636,5113.0,4569.0,4181.0,3746.0,3458.0,3002.0
29534,12105,US,134894,43.225,-97.9652777778,,Census,City,SD,"Tripp, South Dakota",0,0,0,0,0,0,0,0,0,0,1828,366,675,970,939.0,913,913,837.0,851.0,804.0,664.0,711.0,647.0
29562,24164,US,91832,43.68,-103.46,,Census,US County,SD,"Custer County, South Dakota",0,0,0,0,0,0,0,0,0,995,4891,2728,4458,3907,5353.0,6023,5517,4906.0,4698.0,6000.0,6179.0,7275.0,8216.0
29571,11551,US,135022,45.1591666667,-98.3233333333,,Census,Town,SD,"Brentford, South Dakota",0,0,0,0,0,0,0,0,0,0,0,0,0,132,174.0,161,132,96.0,94.0,91.0,69.0,65.0,77.0
29715,13354,US,134752,45.8819444444,-98.1519444444,,Census,City,SD,"Hecla, South Dakota",0,0,0,0,0,0,0,0,0,0,0,160,462,553,558.0,555,500,444.0,407.0,435.0,398.0,314.0,227.0
29720,13473,US,134872,44.6575,-97.2044444444,,Census,Town,SD,"Hayti, South Dakota",0,0,0,0,0,0,0,0,0,0,0,0,0,293,344.0,370,413,425.0,393.0,371.0,372.0,367.0,381.0
29733,12815,US,151045,44.3663888889,-97.85,,Census,City,SD,"Iroquois, South Dakota",0,0,0,0,0,0,0,0,0,0,181,276,578,651,531.0,413,413,385.0,375.0,348.0,328.0,278.0,266.0
29742,11763,US,134902,44.0691666667,-98.4258333333,,Census,Town,SD,"Lane, South Dakota",0,0,0,0,0,0,0,0,0,0,0,0,294,336,187.0,214,145,99.0,94.0,83.0,71.0,59.0,59.0
29787,11114,US,134790,45.105,-96.9280555556,,Census,Town,SD,"South Shore, South Dakota",0,0,0,0,0,0,0,0,0,0,0,0,335,305,322.0,296,269,259.0,199.0,241.0,260.0,270.0,225.0
29885,12341,US,134813,45.4963888889,-97.4908333333,,Census,Town,SD,"Roslyn, South Dakota",0,0,0,0,0,0,0,0,0,0,0,0,0,211,237.0,253,222,256.0,250.0,261.0,251.0,225.0,183.0
29911,13665,US,134888,43.3522222222,-97.4341666667,,Census,City,SD,"Freeman, South Dakota",0,0,0,0,0,0,0,0,0,0,0,525,615,894,987.0,976,944,1140.0,1357.0,1462.0,1293.0,1317.0,1306.0
29936,12426,US,134795,45.9216666667,-101.350277778,,Census,City,SD,"McIntosh, South Dakota",0,0,0,0,0,0,0,0,0,0,0,0,409,727,663.0,626,628,568.0,563.0,418.0,302.0,217.0,173.0
29940,10855,US,135015,43.4266666667,-102.175555556,,Census,Cdp,SD,"Kyle, South Dakota",0,0,0,0,0,0,0,0,0,0,0,0,0,0,0.0,0,0,0.0,0.0,0.0,914.0,970.0,846.0
30051,11714,US,134978,43.9069444444,-96.6547222222,,Census,Town,SD,"Trent, South Dakota",0,0,0,0,0,0,0,0,0,0,0,0,0,295,256.0,240,213,232.0,177.0,197.0,211.0,254.0,232.0
30069,23318,US,91816,43.66,-97.79,,Census,US County,SD,"Hanson County, South Dakota",0,0,0,0,0,0,0,0,0,1301,4267,4947,6237,6202,6131.0,5400,4896,4584.0,3781.0,3415.0,2994.0,3139.0,3331.0
30079,19026,US,151050,43.0808333333,-96.7761111111,,Census,City,SD,"Beresford, South Dakota",0,0,0,0,0,0,0,0,0,0,494,1046,1117,1519,1460.0,1642,1686,1794.0,1655.0,1865.0,1849.0,2006.0,2005.0
30186,11011,US,134918,43.9966666667,-96.9661111111,,Census,Village,SD,"Wentworth, South Dakota",0,0,0,0,0,0,0,0,0,0,0,181,329,360,310.0,303,270,211.0,196.0,193.0,181.0,188.0,171.0
30197,26011,US,91829,44.76,-96.67,,Census,US County,SD,"Deuel County, South Dakota",0,0,0,0,0,0,0,0,37,2302,4574,6656,7768,8759,8732.0,8450,7689,6782.0,5686.0,5289.0,4522.0,4498.0,4364.0
30389,21836,US,91787,43.33,-102.55,,Census,US County,SD,"Oglala Lakota County, South Dakota",0,0,0,0,0,0,0,0,0,0,0,0,0,2003,4058.0,5366,5669,6000.0,8198.0,11323.0,9902.0,12466.0,13586.0
30574,11163,US,135061,45.3319444444,-100.119722222,,Census,Town,SD,"Akaska, South Dakota",0,0,0,0,0,0,0,0,0,0,0,0,114,101,169.0,151,84,90.0,46.0,49.0,52.0,31.0,42.0
30592,21817,US,91819,44.3,-101.53,,Census,US County,SD,"Haakon County, South Dakota",0,0,0,0,0,0,0,0,0,0,0,0,0,4596,4679.0,3515,3167,3303.0,2802.0,2794.0,2624.0,2196.0,1937.0
30597,11543,US,135035,43.3066666667,-100.656388889,,Census,City,SD,"Mission, South Dakota",0,0,0,0,0,0,0,0,0,0,0,0,0,0,0.0,452,388,611.0,739.0,748.0,730.0,904.0,1182.0
30806,24845,US,134799,43.7683333333,-103.5975,,Census,City,SD,"Custer, South Dakota",0,0,0,0,0,0,0,0,0,271,790,599,602,595,1203.0,1845,2017,2105.0,1597.0,1830.0,1741.0,1860.0,2067.0
30847,13402,US,134878,43.6547222222,-97.7813888889,,Census,City,SD,"Alexandria, South Dakota",0,0,0,0,0,0,0,0,0,0,0,680,955,965,688.0,746,714,614.0,598.0,588.0,518.0,563.0,615.0
30910,23691,US,91818,44.68,-97.2,,Census,US County,SD,"Hamlin County, South Dakota",0,0,0,0,0,0,0,0,0,693,4623,5945,7475,8054,8299.0,7562,7058,6303.0,5172.0,5261.0,4974.0,5540.0,5903.0
30933,25241,US,91838,44.91,-103.49,,Census,US County,SD,"Butte County, South Dakota",0,0,0,0,0,0,0,0,0,0,1037,2907,4993,6819,8589.0,8004,8161,8592.0,7825.0,8372.0,7914.0,9094.0,10110.0
30973,14418,US,134984,43.8936111111,-103.426111111,,Census,Town,SD,"Keystone, South Dakota",0,0,0,0,0,0,0,0,0,0,0,0,0,0,0.0,0,0,0.0,0.0,295.0,232.0,311.0,337.0
31101,25146,US,91837,45.76,-100.05,,Census,US County,SD,"Campbell County, South Dakota",0,0,0,0,0,0,0,0,0,50,3510,4527,5244,5305,5629.0,5033,4046,3531.0,2866.0,2243.0,1965.0,1782.0,1466.0
31245,10634,US,134754,45.2422222222,-98.1011111111,,Census,Town,SD,"Verdon, South Dakota",0,0,0,0,0,0,0,0,0,0,0,0,136,90,69.0,65,34,28.0,18.0,7.0,7.0,6.0,5.0
31255,13961,US,151046,44.4555555556,-98.6991666667,,Census,City,SD,"Wessington, South Dakota",0,0,0,0,0,0,0,0,0,0,0,0,576,728,681.0,516,467,378.0,380.0,327.0,265.0,248.0,170.0
31337,12577,US,134731,44.4088888889,-98.4741666667,,Census,Town,SD,"Wolsey, South Dakota",0,0,0,0,0,0,0,0,0,0,0,122,436,510,455.0,410,391,354.0,436.0,437.0,442.0,418.0,376.0
31350,15798,US,134844,45.0333333333,-99.1280555556,,Census,City,SD,"Faulkton, South Dakota",0,0,0,0,0,0,0,0,0,0,462,539,802,709,739.0,747,837,1051.0,955.0,981.0,809.0,785.0,736.0
31359,13265,US,134820,44.7930555556,-96.4575,,Census,City,SD,"Gary, South Dakota",0,0,0,0,0,0,0,0,0,0,277,345,477,588,543.0,566,558,471.0,366.0,354.0,274.0,231.0,227.0
31451,22837,US,91776,43.01,-97.39,,Census,US County,SD,"Yankton County, South Dakota",0,0,0,0,0,0,0,0,2097,8390,10414,12649,13135,15233,16589.0,16725,16804,17551.0,19039.0,18952.0,19252.0,21652.0,22438.0
31467,12757,US,135025,44.8775,-98.3061111111,,Census,City,SD,"Frankfort, South Dakota",0,0,0,0,0,0,0,0,0,0,186,198,408,438,367.0,335,331,240.0,192.0,209.0,192.0,166.0,149.0
31483,11481,US,134838,45.4502777778,-99.3366666667,,Census,City,SD,"Roscoe, South Dakota",0,0,0,0,0,0,0,0,0,0,114,92,357,459,491.0,608,726,532.0,398.0,370.0,362.0,324.0,329.0
