,article_length,country,id,lat,lon,other_years,poptype,settlement_type,state,title,y1790,y1800,y1810,y1820,y1830,y1840,y1850,y1860,y1870,y1880,y1890,y1900,y1910,y1920,y1930,y1940,y1950,y1960,y1970,y1980,y1990,y2000,y2010
81,13580,US,137828,46.2677777778,-119.488333333,,Census,City,WA,"Benton City, Washington",0,0,0,0,0,0,0,0,0,0,0,0,0,0,0.0,0,863,1210.0,1070.0,1980.0,1806.0,2624.0,3038.0
178,40841,US,138041,47.57,-122.6525,,Census,City,WA,"Bremerton, Washington",0,0,0,0,0,0,0,0,0,0,0,0,2993,8918,10170.0,15134,27678,28922.0,35307.0,36208.0,38142.0,37259.0,37729.0
257,11334,US,138082,46.5791666667,-122.910833333,,Census,City,WA,"Napavine, Washington",0,0,0,0,0,0,0,0,0,0,0,0,0,340,181.0,220,242,314.0,377.0,611.0,745.0,1361.0,1988.0
398,7027,US,137994,47.4811111111,-122.118611111,,Census,Cdp,WA,"East Renton Highlands, Washington",0,0,0,0,0,0,0,0,0,0,0,0,0,0,0.0,0,0,0.0,0.0,12033.0,13218.0,13264.0,11140.0
554,7589,US,138079,46.7413888889,-122.996666667,,Census,Cdp,WA,"Fords Prairie, Washington",0,0,0,0,0,0,0,0,0,0,0,0,0,0,0.0,0,0,1404.0,2250.0,2582.0,2480.0,1961.0,1959.0
588,6214,US,138012,47.3327777778,-122.276944444,,Census,Cdp,WA,"Lakeland North, Washington",0,0,0,0,0,0,0,0,0,0,0,0,0,0,0.0,0,0,0.0,0.0,11648.0,14402.0,15085.0,12942.0
616,7130,US,137837,47.3911111111,-120.293888889,,Census,Census-designated place,WA,"South Wenatchee, Washington",0,0,0,0,0,0,0,0,0,0,0,0,0,0,0.0,0,0,0.0,0.0,1376.0,1207.0,1991.0,1553.0
695,34536,US,57823,46.25,-119.5,,Census,US County,WA,"Benton County, Washington",0,0,0,0,0,0,0,0,0,0,0,0,7937,10903,10952.0,12053,51370,62070.0,67540.0,109444.0,112560.0,142475.0,175177.0
735,10194,US,138321,46.7925,-117.250555556,,Census,Town,WA,"Albion, Washington",0,0,0,0,0,0,0,0,0,0,0,0,276,252,236.0,206,256,291.0,687.0,631.0,632.0,616.0,579.0
747,10977,US,138179,48.5261111111,-121.988888889,,Census,Town,WA,"Hamilton, Washington",0,0,0,0,0,0,0,0,0,0,203,392,405,462,252.0,229,294,271.0,196.0,268.0,228.0,309.0,301.0
898,12007,US,137923,47.69,-119.107222222,,Census,Town,WA,"Hartline, Washington",0,0,0,0,0,0,0,0,0,0,0,0,237,282,170.0,168,205,206.0,189.0,165.0,176.0,134.0,151.0
902,12289,US,138299,46.2680555556,-118.154166667,,Census,City,WA,"Waitsburg, Washington",0,0,0,0,0,0,0,0,0,248,817,1011,1237,1174,869.0,936,1015,1010.0,953.0,1035.0,990.0,1212.0,1217.0
947,11700,US,138277,48.6641666667,-118.064166667,,Census,Town,WA,"Marcus, Washington",0,0,0,0,0,0,0,0,0,0,311,0,481,551,583.0,393,149,126.0,142.0,174.0,135.0,117.0,183.0
1048,11125,US,137883,46.5186111111,-118.126666667,,Census,Town,WA,"Starbuck, Washington",0,0,0,0,0,0,0,0,0,0,0,0,761,524,346.0,251,194,161.0,216.0,198.0,170.0,130.0,129.0
1054,10220,US,138183,48.5252777778,-122.060833333,,Census,Town,WA,"Lyman, Washington",0,0,0,0,0,0,0,0,0,0,0,0,441,492,441.0,376,378,400.0,324.0,285.0,275.0,409.0,438.0
1124,2868,US,51515481,47.6033333333,-117.741666667,,Census,Unincorporated community,WA,"Espanola, Washington",0,0,0,0,0,0,0,0,0,0,0,0,399,318,1740.0,2332,195,0.0,0.0,0.0,0.0,0.0,0.0
1214,32245,US,91207,,,,Census,US County,WA,"Grays Harbor County, Washington",0,0,0,0,0,0,0,285,401,921,9249,15124,35590,44745,59982.0,53166,53644,54465.0,59553.0,66314.0,64175.0,67194.0,72797.0
1239,9348,US,138101,47.9983333333,-118.953611111,,Census,Town,WA,"Elmer City, Washington",0,0,0,0,0,0,0,0,0,0,0,0,0,0,0.0,0,513,265.0,324.0,312.0,290.0,267.0,238.0
1359,6784,US,138035,47.5711111111,-122.098888889,,Census,Neighborhood,WA,"West Lake Sammamish, Bellevue, Washington",0,0,0,0,0,0,0,0,0,0,0,0,0,0,0.0,0,0,0.0,0.0,0.0,6087.0,5937.0,0.0
1451,159064,US,13015878,,,,Census,US State,WA,Washington (state),0,0,0,0,0,0,1201,11594,23955,75116,357232,518103,1141990,1356621,1563396.0,1736191,2378963,2853214.0,3409169.0,4132156.0,4866692.0,5894121.0,6724540.0
1458,15064,US,138094,47.2988888889,-117.9775,,Census,City,WA,"Sprague, Washington",0,0,0,0,0,0,0,0,0,0,1689,695,1110,822,639.0,641,598,597.0,550.0,473.0,410.0,490.0,446.0
1490,11893,US,137916,47.0783333333,-119.857222222,,Census,City,WA,"George, Washington",0,0,0,0,0,0,0,0,0,0,0,0,0,0,0.0,0,0,0.0,273.0,261.0,253.0,528.0,501.0
1602,13216,US,137961,46.8908333333,-124.11,,Census,City,WA,"Westport, Washington",0,0,0,0,0,0,0,0,0,0,0,0,0,114,272.0,443,731,976.0,1364.0,1954.0,1892.0,2137.0,2099.0
1648,14012,US,137892,48.0061111111,-119.671666667,,Census,City,WA,"Bridgeport, Washington",0,0,0,0,0,0,0,0,0,0,0,0,431,337,305.0,320,802,876.0,952.0,1174.0,1498.0,2059.0,2409.0
1651,12290,US,138342,46.3444444444,-120.191388889,,Census,City,WA,"Granger, Washington",0,0,0,0,0,0,0,0,0,0,0,0,453,412,568.0,752,1164,1424.0,1567.0,1812.0,2053.0,2530.0,3246.0
1697,9242,US,138343,46.4041666667,-120.543055556,,Census,Town,WA,"Harrah, Washington",0,0,0,0,0,0,0,0,0,0,0,0,0,0,0.0,0,297,284.0,305.0,343.0,341.0,542.0,625.0
1717,62118,US,138252,47.4886111111,-117.578611111,,Census,City,WA,"Cheney, Washington",0,0,0,0,0,0,0,0,0,0,647,781,1207,1252,1335.0,1551,2797,3173.0,6358.0,7630.0,7723.0,8832.0,10590.0
1959,15240,US,138161,47.17,-122.594444444,,Census,Town,WA,"Steilacoom, Washington",0,0,0,0,0,0,0,0,0,250,270,284,430,564,722.0,832,1233,1569.0,2850.0,4886.0,5728.0,6049.0,5985.0
2006,9822,US,138297,46.2988888889,-118.314444444,,Census,City,WA,"Prescott, Washington",0,0,0,0,0,0,0,0,0,0,313,657,502,559,275.0,324,244,269.0,242.0,341.0,267.0,314.0,318.0
2344,6181,US,137864,45.6705555556,-122.67,,Census,Former cdp,WA,"Hazel Dell South, Washington",0,0,0,0,0,0,0,0,0,0,0,0,0,0,0.0,0,0,0.0,0.0,0.0,5796.0,6605.0,0.0
2360,10291,US,138126,48.7405555556,-117.420277778,,Census,Town,WA,"Ione, Washington",0,0,0,0,0,0,0,0,0,0,0,0,634,541,594.0,681,714,648.0,529.0,594.0,507.0,479.0,447.0
2808,11475,US,138263,47.6855555556,-117.284166667,,Census,City,WA,"Millwood, Washington",0,0,0,0,0,0,0,0,0,0,0,0,0,0,493.0,717,1240,1776.0,1770.0,1717.0,1559.0,1649.0,1786.0
2828,7156,US,137945,46.81,-124.093333333,,Census,Cdp,WA,"Grayland, Washington",0,0,0,0,0,0,0,0,0,0,0,0,0,0,0.0,0,0,0.0,0.0,0.0,0.0,1002.0,953.0
2897,30172,US,138185,48.42,-122.326111111,,Census,City,WA,"Mount Vernon, Washington",0,0,0,0,0,0,0,0,0,0,770,1120,2381,3341,3690.0,4278,5230,7921.0,8804.0,13009.0,17647.0,26232.0,31743.0
3063,13131,US,137898,47.8130555556,-119.64,,Census,Town,WA,"Mansfield, Washington",0,0,0,0,0,0,0,0,0,0,0,0,0,478,230.0,349,414,335.0,273.0,315.0,311.0,319.0,320.0
3159,39386,US,138003,47.5355555556,-122.043333333,,Census,City,WA,"Issaquah, Washington",0,0,0,0,0,0,0,0,0,0,0,700,628,791,763.0,812,955,1870.0,4313.0,5536.0,7786.0,11212.0,30434.0
3251,10869,US,138194,47.79,-122.273055556,,Census,City,WA,"Brier, Washington",0,0,0,0,0,0,0,0,0,0,0,0,0,0,0.0,0,0,0.0,3093.0,2915.0,5633.0,6383.0,6087.0
3264,40035,US,137998,47.3166666667,-122.35,,Census,City,WA,"Federal Way, Washington",0,0,0,0,0,0,0,0,0,0,0,0,0,0,0.0,0,0,0.0,0.0,0.0,67554.0,83259.0,89306.0
3283,18279,US,137957,46.9716666667,-124.154722222,,Census,City,WA,"Ocean Shores, Washington",0,0,0,0,0,0,0,0,0,0,0,0,0,0,0.0,0,0,0.0,800.0,1692.0,2301.0,3836.0,5569.0
3292,11605,US,138123,46.6636111111,-123.801111111,,Census,City,WA,"South Bend, Washington",0,0,0,0,0,0,0,0,0,0,0,711,3023,1948,1798.0,1771,1857,1671.0,1795.0,1686.0,1551.0,1807.0,1637.0
3299,15246,US,138116,46.3125,-124.029722222,,Census,City,WA,"Ilwaco, Washington",0,0,0,0,0,0,0,0,0,85,517,584,664,787,750.0,656,628,518.0,506.0,604.0,815.0,950.0,936.0
3351,20394,US,137893,47.4213888889,-120.288055556,,Census,City,WA,"East Wenatchee, Washington",0,0,0,0,0,0,0,0,0,0,0,0,0,0,0.0,268,389,383.0,913.0,1640.0,2701.0,5757.0,13190.0
3435,40691,US,57860,47.0425,-122.893055556,,Census,State capital,WA,"Olympia, Washington",0,0,0,0,0,0,0,0,1203,1232,4698,3863,6996,7795,11733.0,13254,15819,18273.0,23296.0,27447.0,33840.0,42514.0,46478.0
3494,12876,US,137992,47.7341666667,-121.975555556,,Census,City,WA,"Duvall, Washington",0,0,0,0,0,0,0,0,0,0,0,0,0,258,200.0,234,236,345.0,607.0,729.0,2770.0,4616.0,6695.0
3543,10390,US,151279,47.2483333333,-122.3175,,Census,City,WA,"Milton, Washington",0,0,0,0,0,0,0,0,0,0,0,0,448,484,559.0,671,1374,2218.0,2607.0,3162.0,4995.0,5795.0,6968.0
3783,10176,US,138156,47.0033333333,-122.544166667,,Census,City,WA,"Roy, Washington",0,0,0,0,0,0,0,0,0,0,0,0,315,287,284.0,261,263,264.0,381.0,417.0,258.0,260.0,793.0
3894,11917,US,138346,46.7291666667,-120.699166667,,Census,Town,WA,"Naches, Washington",0,0,0,0,0,0,0,0,0,0,0,0,0,0,423.0,536,633,680.0,666.0,644.0,596.0,643.0,795.0
4009,28674,US,91062,46.93,-122.83,,Census,US County,WA,"Thurston County, Washington",0,0,0,0,0,0,0,1507,2246,3270,9675,9927,17581,22366,31351.0,37285,44884,55049.0,76894.0,124264.0,161238.0,207355.0,252264.0
4200,25590,US,91071,,,,Census,US County,WA,"Pacific County, Washington",0,0,0,0,0,0,0,420,738,1645,4358,5983,12532,14891,14970.0,15928,16558,14674.0,15796.0,17237.0,18882.0,20984.0,20920.0
4268,24849,US,91214,46.3,-117.92,,Census,US County,WA,"Columbia County, Washington",0,0,0,0,0,0,0,0,0,7103,6709,7128,7042,6093,5325.0,5549,4860,4569.0,4439.0,4057.0,4027.0,4064.0,4078.0
4311,33056,US,137973,48.1163888889,-122.775277778,,Census,City,WA,"Port Townsend, Washington",0,0,0,0,0,0,0,0,0,917,4558,3443,4181,2847,3979.0,4683,6888,5074.0,5241.0,6067.0,7001.0,8334.0,9113.0
4574,16895,US,138180,48.3905555556,-122.495555556,,Census,Town,WA,"La Conner, Washington",0,0,0,0,0,0,0,0,0,0,398,564,603,516,549.0,624,594,638.0,639.0,633.0,656.0,761.0,891.0
4608,20711,US,138288,46.8566666667,-122.850277778,,Census,City,WA,"Tenino, Washington",0,0,0,0,0,0,0,0,0,0,339,0,1038,850,938.0,952,969,836.0,962.0,1280.0,1292.0,1447.0,1695.0
4635,28010,US,91077,47.12,-120.68,,Census,US County,WA,"Kittitas County, Washington",0,0,0,0,0,0,0,0,0,0,8777,9704,18561,17737,18154.0,20230,22235,20467.0,25039.0,24877.0,26725.0,33362.0,40915.0
4764,22685,US,91070,48.53,-117.28,,Census,US County,WA,"Pend Oreille County, Washington",0,0,0,0,0,0,0,0,0,0,0,0,0,6363,7155.0,7156,7413,6914.0,6025.0,8580.0,8915.0,11732.0,13001.0
4788,29945,US,91067,48.48,-121.78,,Census,US County,WA,"Skagit County, Washington",0,0,0,0,0,0,0,0,0,0,8747,14272,29241,33373,35142.0,37650,43273,51350.0,52381.0,64138.0,79555.0,102979.0,116901.0
4819,25020,US,137907,46.2386111111,-119.108611111,,Census,City,WA,"Pasco, Washington",0,0,0,0,0,0,0,0,0,0,320,254,2083,3362,3496.0,3913,10228,14522.0,13920.0,18428.0,20337.0,32066.0,59781.0
5133,14492,US,137899,47.3744444444,-120.143333333,,Census,City,WA,"Rock Island, Washington",0,0,0,0,0,0,0,0,0,0,0,0,0,0,0.0,377,360,260.0,191.0,491.0,524.0,863.0,788.0
5170,16792,US,138291,46.2038888889,-123.383888889,,Census,Town,WA,"Cathlamet, Washington",0,0,0,0,0,0,0,0,0,133,0,0,362,422,537.0,621,501,615.0,647.0,635.0,508.0,565.0,532.0
5234,62997,US,18592743,45.6333333333,-122.6,,Census,City,WA,"Vancouver, Washington",0,0,0,0,0,0,0,0,0,1722,3545,3126,9300,12637,15766.0,18788,41664,32464.0,41859.0,42834.0,46380.0,143560.0,161791.0
5238,10658,US,138294,46.045,-118.3825,,Census,City,WA,"College Place, Washington",0,0,0,0,0,0,0,0,0,0,0,0,0,0,0.0,1272,3174,4031.0,4510.0,5771.0,6308.0,7818.0,8765.0
5240,8143,US,138153,47.1411111111,-122.437777778,,Census,Parkland is a cdp,WA,"Parkland, Washington",0,0,0,0,0,0,0,0,0,0,0,0,0,0,0.0,0,0,0.0,0.0,23355.0,20882.0,24053.0,35803.0
5613,10273,US,137906,46.5769444444,-119.0025,,Census,City,WA,"Mesa, Washington",0,0,0,0,0,0,0,0,0,0,0,0,0,0,0.0,0,0,263.0,274.0,278.0,252.0,425.0,489.0
5685,27546,US,91074,47.57,-118.41,,Census,US County,WA,"Lincoln County, Washington",0,0,0,0,0,0,0,0,0,0,9312,11969,17539,15141,11876.0,11361,10970,10919.0,9572.0,9604.0,8864.0,10184.0,10570.0
5690,14450,US,138134,47.0797222222,-122.051388889,,Census,Town,WA,"Carbonado, Washington",0,0,0,0,0,0,0,0,0,0,705,0,0,0,0.0,0,412,424.0,394.0,456.0,495.0,621.0,610.0
5752,12776,US,138112,48.3638888889,-120.119722222,,Census,Town,WA,"Twisp, Washington",0,0,0,0,0,0,0,0,0,0,0,0,227,289,335.0,477,776,750.0,756.0,911.0,872.0,938.0,919.0
5819,17523,US,137932,47.3883333333,-119.4875,,Census,City,WA,"Soap Lake, Washington",0,0,0,0,0,0,0,0,0,0,0,0,0,352,282.0,622,2091,1591.0,1064.0,1196.0,1149.0,1733.0,1514.0
5830,6388,US,137830,46.1616666667,-119.114444444,,Census,Unincorporated community,WA,"Highland, Washington",0,0,0,0,0,0,0,0,0,0,0,0,0,0,0.0,0,0,0.0,0.0,0.0,3656.0,3388.0,0.0
5925,25763,US,138239,48.2422222222,-122.351111111,,Census,City,WA,"Stanwood, Washington",0,0,0,0,0,0,0,0,0,0,0,0,544,704,715.0,600,710,646.0,1347.0,1646.0,1961.0,3923.0,6231.0
6024,33580,US,138224,47.9161111111,-122.303055556,,Census,City,WA,"Mukilteo, Washington",0,0,0,0,0,0,0,0,0,0,0,0,0,0,0.0,0,826,1128.0,1369.0,1426.0,7007.0,18019.0,20254.0
6130,29839,US,91057,46.46,-120.74,,Census,US County,WA,"Yakima County, Washington",0,0,0,0,0,0,0,0,432,2811,4429,13462,41709,63710,77402.0,99019,135723,145112.0,144971.0,172508.0,188823.0,222581.0,243231.0
6418,7976,US,42705667,46.2647222222,-123.560555556,"[[y1885,184],[y1887,151]]",Census,Ghost town,WA,"Brookfield, Washington",0,0,0,0,0,0,0,0,0,196,0,479,361,241,90.0,24,0,0.0,0.0,0.0,0.0,0.0,0.0
6524,12207,US,138317,48.9283333333,-122.319444444,,Census,City,WA,"Nooksack, Washington",0,0,0,0,0,0,0,0,0,0,0,0,0,283,293.0,302,323,318.0,322.0,429.0,584.0,851.0,1338.0
6628,16671,US,138090,47.6511111111,-118.151666667,,Census,City,WA,"Davenport, Washington",0,0,0,0,0,0,0,0,0,0,390,1000,1229,1112,987.0,1337,1417,1494.0,1363.0,1559.0,1502.0,1730.0,1734.0
6857,12570,US,138190,45.6961111111,-121.888333333,,Census,City,WA,"Stevenson, Washington",0,0,0,0,0,0,0,0,0,0,0,0,387,348,400.0,563,584,927.0,916.0,1172.0,1147.0,1200.0,1465.0
6921,16223,US,137902,48.6480555556,-118.735,,Census,City,WA,"Republic, Washington",0,0,0,0,0,0,0,0,0,0,0,2050,999,781,710.0,922,895,1064.0,862.0,1018.0,940.0,954.0,1073.0
7227,12641,US,137876,45.8152777778,-122.727777778,,Census,Town,WA,"Ridgefield, Washington",0,0,0,0,0,0,0,0,0,0,0,0,297,620,607.0,643,762,823.0,1004.0,1062.0,1297.0,2147.0,4763.0
7301,25560,US,138350,46.3208333333,-120.012222222,,Census,City,WA,"Sunnyside, Washington",0,0,0,0,0,0,0,0,0,0,0,0,1379,1809,2113.0,2368,4194,6208.0,6751.0,9225.0,11238.0,13905.0,15858.0
7338,19090,US,138017,47.6266666667,-122.232777778,,Census,City,WA,"Medina, Washington",0,0,0,0,0,0,0,0,0,0,0,0,0,0,0.0,0,0,2285.0,3455.0,3220.0,2981.0,3011.0,2969.0
7480,31784,US,138211,48.0197222222,-122.066111111,,Census,City,WA,"Lake Stevens, Washington",0,0,0,0,0,0,0,0,0,0,0,0,0,0,0.0,0,2586,1538.0,1283.0,1660.0,3380.0,6361.0,28069.0
7575,9562,US,138266,47.4508333333,-117.132777778,,Census,Town,WA,"Rockford, Washington",0,0,0,0,0,0,0,0,0,0,644,433,663,435,381.0,130,152,369.0,327.0,442.0,481.0,413.0,470.0
7679,12613,US,138099,48.0986111111,-119.781666667,,Census,City,WA,"Brewster, Washington",0,0,0,0,0,0,0,0,0,0,0,0,296,394,413.0,447,851,940.0,1059.0,1337.0,1633.0,2189.0,2370.0
7819,12923,US,138281,46.8038888889,-123.01,,Census,Cdp,WA,"Grand Mound, Washington",0,0,0,0,0,0,0,0,0,0,0,0,0,0,0.0,0,0,0.0,0.0,0.0,1394.0,1948.0,2981.0
7989,26985,US,91208,47.21,-119.47,,Census,US County,WA,"Grant County, Washington",0,0,0,0,0,0,0,0,0,0,0,0,8698,7771,5666.0,14668,24346,46477.0,41881.0,48522.0,54758.0,74698.0,89120.0
8055,21533,US,138020,47.5333333333,-122.172222222,,Census,City,WA,"Newcastle, Washington",0,0,0,0,0,0,0,0,0,0,0,0,0,0,0.0,0,0,0.0,0.0,12245.0,14736.0,7737.0,10380.0
8074,12078,US,151280,47.2633333333,-122.247777778,,Census,City,WA,"Pacific, Washington",0,0,0,0,0,0,0,0,0,0,0,0,413,320,347.0,357,755,1577.0,1831.0,2261.0,4622.0,5527.0,6606.0
8116,10635,US,138353,46.7030555556,-120.755833333,,Census,City,WA,"Tieton, Washington",0,0,0,0,0,0,0,0,0,0,0,0,0,0,0.0,0,620,479.0,415.0,528.0,693.0,1154.0,1191.0
8178,24987,US,138222,47.8577777778,-121.988333333,,Census,City,WA,"Monroe, Washington",0,0,0,0,0,0,0,0,0,0,0,0,1552,1675,1570.0,1590,1556,1901.0,2687.0,2869.0,4278.0,13795.0,17304.0
8215,25447,US,138238,47.9191666667,-122.091111111,,Census,City,WA,"Snohomish, Washington",0,0,0,0,0,0,0,0,0,149,1903,2101,3244,2985,2688.0,2794,3094,3894.0,5174.0,5294.0,6499.0,8494.0,9098.0
8261,10339,US,138085,46.4013888889,-122.958055556,,Census,City,WA,"Vader, Washington",0,0,0,0,0,0,0,0,0,0,0,0,631,500,465.0,479,426,380.0,387.0,406.0,414.0,590.0,621.0
8270,14980,US,138122,46.6797222222,-123.738055556,,Census,City,WA,"Raymond, Washington",0,0,0,0,0,0,0,0,0,0,0,0,2450,4260,3828.0,4045,4110,3301.0,3126.0,2991.0,2901.0,2975.0,2882.0
8300,20005,US,138203,48.0827777778,-121.969722222,,Census,City,WA,"Granite Falls, Washington",0,0,0,0,0,0,0,0,0,0,0,0,714,632,495.0,683,635,599.0,813.0,911.0,1060.0,2347.0,3364.0
8443,6112,US,138011,47.3316666667,-122.103333333,,Census,Cdp,WA,"Lake Morton-Berrydale, Washington",0,0,0,0,0,0,0,0,0,0,0,0,0,0,0.0,0,0,0.0,0.0,0.0,0.0,9659.0,10160.0
8450,16262,US,138113,48.4736111111,-120.178888889,,Census,Town,WA,"Winthrop, Washington",0,0,0,0,0,0,0,0,0,0,0,0,0,0,270.0,365,396,359.0,371.0,413.0,302.0,349.0,394.0
8472,30346,US,91075,,,,Census,US County,WA,"Lewis County, Washington",0,0,0,0,0,0,558,384,888,2600,11499,15157,32127,36840,40034.0,41393,43755,41858.0,45467.0,56025.0,59358.0,68600.0,75455.0
8491,19469,US,137990,47.3658333333,-122.100277778,,Census,City,WA,"Covington, Washington",0,0,0,0,0,0,0,0,0,0,0,0,0,0,0.0,0,0,0.0,0.0,0.0,0.0,13783.0,17575.0
8558,19165,US,137855,45.7833333333,-122.533333333,,Census,City,WA,"Battle Ground, Washington",0,0,0,0,0,0,0,0,0,0,0,0,0,0,0.0,0,0,888.0,1438.0,2774.0,3758.0,9296.0,17571.0
8565,12121,US,138157,47.2969444444,-122.510555556,,Census,City,WA,"Ruston, Washington",0,0,0,0,0,0,0,0,0,0,0,0,780,1128,818.0,739,838,694.0,668.0,612.0,693.0,738.0,749.0
8624,41772,US,137842,47.4233333333,-120.325277778,,Census,City,WA,"Wenatchee, Washington",0,0,0,0,0,0,0,0,0,0,0,451,4050,6324,11627.0,11620,13072,16726.0,16912.0,17257.0,21756.0,27856.0,31925.0
8718,20490,US,138130,47.3,-122.629166667,,Census,Cdp,WA,"Artondale, Washington",0,0,0,0,0,0,0,0,0,0,0,0,0,0,0.0,0,0,0.0,0.0,0.0,7141.0,8630.0,12653.0
8740,6933,US,137940,46.8694444444,-124.108055556,,Census,Cdp,WA,"Cohassett Beach, Washington",0,0,0,0,0,0,0,0,0,0,0,0,0,0,0.0,0,0,0.0,0.0,0.0,0.0,618.0,722.0
8795,13657,US,138276,48.6058333333,-118.059722222,,Census,City,WA,"Kettle Falls, Washington",0,0,0,0,0,0,0,0,0,0,0,297,377,276,414.0,560,714,905.0,893.0,1087.0,1272.0,1527.0,1595.0
8814,11682,US,138358,46.3944444444,-120.703055556,,Census,Cdp,WA,"White Swan, Washington",0,0,0,0,0,0,0,0,0,0,0,0,0,0,0.0,0,0,0.0,0.0,0.0,2669.0,3033.0,0.0
8835,15765,US,138016,47.3661111111,-122.044722222,,Census,City,WA,"Maple Valley, Washington",0,0,0,0,0,0,0,0,0,0,0,112,112,225,250.0,122,800,800.0,350.0,900.0,1211.0,14209.0,22684.0
8876,26580,US,91063,,,,Census,US County,WA,"Stevens County, Washington",0,0,0,0,0,0,0,996,734,1245,4341,10543,25297,21605,18550.0,19275,18580,17884.0,17405.0,28979.0,30948.0,40066.0,43531.0
9024,6794,US,138226,48.0966666667,-122.155,,Census,Cdp,WA,"North Marysville, Washington",0,0,0,0,0,0,0,0,0,0,0,0,0,0,0.0,0,0,0.0,0.0,15159.0,18711.0,21161.0,108.0
9076,27759,US,91219,46.18,-117.19,,Census,US County,WA,"Asotin County, Washington",0,0,0,0,0,0,0,0,0,0,1580,3366,5831,6539,8136.0,8365,10878,12909.0,13799.0,16823.0,17605.0,20551.0,21623.0
9190,45191,US,91069,,,,Census,US County,WA,"Pierce County, Washington",0,0,0,0,0,0,0,1115,1409,3319,50940,55515,120812,144127,163842.0,182081,275876,321590.0,411027.0,485643.0,586203.0,700820.0,795225.0
9230,11746,US,137981,47.4944444444,-122.236666667,,Census,Cdp,WA,"Bryn Mawr-Skyway, Washington",0,0,0,0,0,0,0,0,0,0,0,0,0,0,0.0,0,0,0.0,0.0,0.0,0.0,13977.0,15645.0
9269,7432,US,137908,46.2525,-119.182777778,,Census,Census-designated place,WA,"West Pasco, Washington",0,0,0,0,0,0,0,0,0,0,0,0,0,0,0.0,0,0,2894.0,3809.0,6210.0,7312.0,4629.0,3739.0
9619,18914,US,137858,45.5911111111,-122.412222222,,Census,City,WA,"Camas, Washington",0,0,0,0,0,0,0,0,0,0,417,0,1125,1843,4230.0,4433,4725,5666.0,5790.0,5681.0,6442.0,12534.0,19355.0
9702,84360,US,57632,46.2236111111,-119.135833333,,Census,Unknown,WA,"Tri-Cities, Washington",0,0,0,0,0,0,0,0,0,0,0,0,3652,5325,5223.0,6078,42143,52314.0,55422.0,86403.0,94807.0,125467.0,181756.0
9818,12487,US,138100,48.5588888889,-119.751111111,,Census,Town,WA,"Conconully, Washington",0,0,0,0,0,0,0,0,0,0,232,0,357,270,102.0,187,141,108.0,122.0,157.0,153.0,185.0,210.0
9846,12464,US,138091,47.4802777778,-118.255555556,,Census,City,WA,"Harrington, Washington",0,0,0,0,0,0,0,0,0,0,0,0,661,882,519.0,545,620,575.0,489.0,507.0,449.0,426.0,424.0
9956,17943,US,138174,48.4720805556,-122.328247222,,Census,City,WA,"Burlington, Washington",0,0,0,0,0,0,0,0,0,0,0,0,1302,1360,1407.0,1632,2350,2968.0,3138.0,3894.0,4349.0,6757.0,8388.0
10076,11074,US,138279,48.0572222222,-117.743611111,,Census,Village,WA,"Springdale, Washington",0,0,0,0,0,0,0,0,0,0,0,0,251,184,215.0,227,268,254.0,215.0,281.0,260.0,283.0,285.0
10234,9949,US,138109,48.5027777778,-119.508611111,,Census,Town,WA,"Riverside, Washington",0,0,0,0,0,0,0,0,0,0,0,0,0,209,218.0,192,149,201.0,228.0,243.0,223.0,348.0,280.0
10299,15402,US,138078,46.66,-122.963333333,,Census,City,WA,"Chehalis, Washington",0,0,0,0,0,0,0,0,0,0,1309,1775,4507,4558,4907.0,4857,5639,5199.0,5727.0,6100.0,6527.0,7057.0,7259.0
10426,134544,US,138106,48.4125,-119.5375,,Census,City,WA,"Omak, Washington",0,0,0,0,0,0,0,0,0,0,0,0,520,525,2547.0,2918,3791,4068.0,4164.0,4007.0,4117.0,4721.0,4845.0
10453,17318,US,138097,47.2136111111,-123.106111111,,Census,City,WA,"Shelton, Washington",0,0,0,0,0,0,0,0,0,0,648,833,1163,984,3091.0,3707,5045,5651.0,6515.0,7629.0,7241.0,8442.0,9834.0
10466,15810,US,137832,46.2922222222,-119.354444444,,Census,City,WA,"West Richland, Washington",0,0,0,0,0,0,0,0,0,0,0,0,0,0,0.0,0,0,1347.0,1107.0,2938.0,3962.0,8385.0,11811.0
10541,8265,US,138147,47.0397222222,-122.278333333,,Census,Cdp,WA,"Graham, Washington",0,0,0,0,0,0,0,0,0,0,0,0,0,0,0.0,0,0,0.0,0.0,0.0,0.0,8739.0,23491.0
10549,10540,US,137823,46.7533333333,-118.312777778,,Census,Town,WA,"Washtucna, Washington",0,0,0,0,0,0,0,0,0,0,0,0,300,359,261.0,285,316,331.0,316.0,266.0,231.0,260.0,208.0
10591,187887,US,138268,47.6588888889,-117.425,,Census,City,WA,"Spokane, Washington",0,0,0,0,0,0,0,0,0,350,19922,36848,104402,104437,115514.0,122001,161721,181608.0,170516.0,171300.0,177196.0,195629.0,208916.0
10631,16631,US,138354,46.3788888889,-120.311944444,,Census,City,WA,"Toppenish, Washington",0,0,0,0,0,0,0,0,0,0,0,0,1598,3120,2774.0,3683,5265,5667.0,5744.0,6517.0,7419.0,8946.0,8949.0
10649,36805,US,138024,47.4866666667,-122.195277778,,Census,City,WA,"Renton, Washington",0,0,0,0,0,0,0,0,0,200,406,412,2740,3301,4062.0,4488,16039,18453.0,25878.0,31031.0,41688.0,50052.0,90927.0
10665,7671,US,137829,46.1755555556,-119.057222222,,Census,Cdp,WA,"Finley, Washington",0,0,0,0,0,0,0,0,0,0,0,0,0,0,0.0,0,0,0.0,0.0,0.0,4897.0,5770.0,6012.0
10747,16948,US,137965,48.2183333333,-122.683611111,,Census,Town,WA,"Coupeville, Washington",0,0,0,0,0,0,0,0,0,90,513,0,310,343,277.0,325,379,740.0,678.0,1006.0,1377.0,1723.0,1831.0
10788,13850,US,137835,47.6777777778,-120.213055556,,Census,City,WA,"Entiat, Washington",0,0,0,0,0,0,0,0,0,0,0,0,0,0,0.0,0,420,357.0,355.0,445.0,449.0,957.0,1112.0
10801,12928,US,137825,46.4136111111,-117.048611111,,Census,City,WA,"Clarkston, Washington",0,0,0,0,0,0,0,0,0,0,0,0,1257,1859,2870.0,3116,5617,6209.0,6312.0,6903.0,6753.0,7337.0,7229.0
10826,37403,US,151275,47.7716666667,-122.204444444,,Census,City,WA,"Bothell, Washington",0,0,0,0,0,0,0,0,0,0,0,0,599,613,818.0,794,1019,2237.0,5420.0,7943.0,12345.0,30150.0,33505.0
10958,108228,US,138219,48.0627777778,-122.163333333,,Census,City,WA,"Marysville, Washington",0,0,0,0,0,0,0,0,0,0,262,728,1239,1244,1354.0,1748,2259,3117.0,4343.0,5080.0,10328.0,25315.0,60020.0
10975,10093,US,137934,47.4236111111,-119.1225,,Census,Town,WA,"Wilson Creek, Washington",0,0,0,0,0,0,0,0,0,0,0,0,405,300,216.0,210,337,252.0,184.0,222.0,148.0,227.0,205.0
10976,10744,US,138323,46.5666666667,-117.133333333,,Census,Town,WA,"Colton, Washington",0,0,0,0,0,0,0,0,0,0,0,251,393,382,269.0,262,207,253.0,279.0,307.0,325.0,386.0,418.0
11157,10621,US,138267,47.4305555556,-117.376944444,,Census,City,WA,"Spangle, Washington",0,0,0,0,0,0,0,0,0,36,303,331,299,291,218.0,203,242,208.0,179.0,276.0,229.0,240.0,278.0
11265,11778,US,137824,46.3388888889,-117.046388889,,Census,City,WA,"Asotin, Washington",0,0,0,0,0,0,0,0,0,0,200,470,820,852,697.0,686,740,745.0,637.0,943.0,981.0,1095.0,1251.0
11295,14737,US,138152,47.0961111111,-122.205277778,,Census,City,WA,"Orting, Washington",0,0,0,0,0,0,0,0,0,0,623,728,799,972,1109.0,1211,1299,1520.0,1643.0,1787.0,2106.0,3760.0,6746.0
11394,27858,US,91068,48.57,-122.97,,Census,US County,WA,"San Juan County, Washington",0,0,0,0,0,0,0,0,554,948,2072,2928,3603,3605,3097.0,3157,3245,2872.0,3856.0,7838.0,10035.0,14077.0,15769.0
11405,25795,US,91216,47.88,-120.64,,Census,US County,WA,"Chelan County, Washington",0,0,0,0,0,0,0,0,0,0,0,3931,15104,20906,31634.0,34412,39301,40744.0,41355.0,45061.0,52250.0,66616.0,72453.0
11504,14559,US,138058,46.9838888889,-120.418333333,,Census,City,WA,"Kittitas, Washington",0,0,0,0,0,0,0,0,0,0,0,0,0,200,244.0,501,586,536.0,637.0,782.0,843.0,1105.0,1381.0
11508,26603,US,137849,48.1130555556,-123.440833333,,Census,City,WA,"Port Angeles, Washington",0,0,0,0,0,0,0,0,0,0,0,2321,2286,5351,10188.0,9409,11233,12653.0,16367.0,17311.0,17710.0,18397.0,19038.0
11868,22821,US,137852,48.0780555556,-123.101388889,,Census,City,WA,"Sequim, Washington",0,0,0,0,0,0,0,0,0,0,0,0,0,402,534.0,676,1044,1164.0,1549.0,3013.0,3616.0,4334.0,6606.0
11907,6140,US,138253,47.7455555556,-117.4175,,Census,Cdp,WA,"Country Homes, Washington",0,0,0,0,0,0,0,0,0,0,0,0,0,0,0.0,0,0,0.0,0.0,0.0,5126.0,5203.0,5841.0
12001,6977,US,137870,45.7491666667,-122.555,,Census,Census-designated place,WA,"Meadow Glade, Washington",0,0,0,0,0,0,0,0,0,0,0,0,0,0,0.0,0,0,0.0,0.0,0.0,1584.0,2225.0,2541.0
12079,27759,US,143079,47.6733333333,-117.239444444,,Census,City,WA,"Spokane Valley, Washington",0,0,0,0,0,0,0,0,0,0,0,0,0,0,0.0,0,0,0.0,0.0,0.0,0.0,80927.0,89755.0
12175,10975,US,138280,46.7977777778,-122.868333333,,Census,Town,WA,"Bucoda, Washington",0,0,0,0,0,0,0,0,0,0,945,0,0,442,703.0,541,473,390.0,421.0,519.0,536.0,628.0,562.0
12209,11958,US,137975,47.2822222222,-122.254166667,,Census,City,WA,"Algona, Washington",0,0,0,0,0,0,0,0,0,0,0,0,0,0,0.0,0,0,1311.0,1276.0,1467.0,1694.0,2460.0,3014.0
12218,10097,US,138327,47.0091666667,-117.141944444,,Census,Town,WA,"Garfield, Washington",0,0,0,0,0,0,0,0,0,0,317,697,932,776,703.0,674,674,607.0,610.0,599.0,544.0,641.0,597.0
12255,11239,US,137901,48.3133333333,-118.221666667,,Census,Cdp,WA,"Inchelium, Washington",0,0,0,0,0,0,0,0,0,0,0,0,0,0,0.0,0,0,0.0,0.0,0.0,0.0,389.0,409.0
12295,7372,US,137862,45.6822222222,-122.569444444,,Census,Census-designated place,WA,"Five Corners, Washington",0,0,0,0,0,0,0,0,0,0,0,0,0,0,0.0,0,0,0.0,0.0,0.0,6776.0,12207.0,18159.0
12322,15283,US,137900,47.6477777778,-120.072777778,,Census,Town,WA,"Waterville, Washington",0,0,0,0,0,0,0,0,0,0,293,482,950,1198,856.0,939,1013,1013.0,919.0,908.0,995.0,1163.0,1138.0
12402,11541,US,138138,47.2319444444,-122.285833333,,Census,City,WA,"Edgewood, Washington",0,0,0,0,0,0,0,0,0,0,0,0,0,0,0.0,0,0,0.0,0.0,0.0,8677.0,9089.0,9387.0
12488,11885,US,138136,46.8683333333,-122.27,,Census,Town,WA,"Eatonville, Washington",0,0,0,0,0,0,0,0,0,0,0,0,754,861,912.0,996,1048,896.0,852.0,998.0,1374.0,2012.0,2758.0
12563,16467,US,137819,46.9725,-118.616388889,,Census,Town,WA,"Lind, Washington",0,0,0,0,0,0,0,0,0,0,0,0,831,724,730.0,679,796,697.0,622.0,567.0,472.0,582.0,564.0
12699,49053,US,91066,,,,Census,US County,WA,"Snohomish County, Washington",0,0,0,0,0,0,0,0,599,1387,8514,23950,59209,67690,78861.0,88754,111580,172199.0,265236.0,337720.0,465642.0,606024.0,713335.0
12805,24023,US,138187,48.509397,-122.237721,,Census,City,WA,"Sedro-Woolley, Washington",0,0,0,0,0,0,0,0,0,0,0,885,2129,2379,2719.0,2954,3299,3705.0,4598.0,6110.0,6031.0,8658.0,10540.0
12910,10308,US,137978,47.5858333333,-122.201944444,,Census,Town,WA,"Beaux Arts Village, Washington",0,0,0,0,0,0,0,0,0,0,0,0,0,0,0.0,0,0,351.0,475.0,328.0,303.0,307.0,299.0
12998,50064,US,137979,47.6,-122.166666667,,Census,City,WA,"Bellevue, Washington",0,0,0,0,0,0,0,0,0,0,0,254,150,1213,1071.0,1177,7658,12809.0,61196.0,73903.0,86874.0,109569.0,122363.0
13103,20935,US,138274,48.2761111111,-117.714166667,,Census,City,WA,"Chewelah, Washington",0,0,0,0,0,0,0,0,0,0,0,0,823,1288,1315.0,1565,1683,1525.0,1365.0,1888.0,1945.0,2186.0,2607.0
13289,10526,US,138330,47.2275,-117.475555556,,Census,Town,WA,"Malden, Washington",0,0,0,0,0,0,0,0,0,0,0,0,798,1005,375.0,325,332,292.0,219.0,200.0,189.0,215.0,203.0
13329,8776,US,137947,47.2316666667,-123.968055556,,Census,Cdp,WA,"Humptulips, Washington",0,0,0,0,0,0,0,0,0,0,0,0,0,0,0.0,0,0,0.0,0.0,0.0,0.0,216.0,255.0
13516,25098,US,138333,46.7333333333,-117.166666667,,Census,City,WA,"Pullman, Washington",0,0,0,0,0,0,0,0,0,0,868,1308,2602,2440,3322.0,4417,12022,12957.0,20509.0,23579.0,23478.0,24675.0,29799.0
13590,14220,US,137943,47.0055555556,-123.406388889,,Census,City,WA,"Elma, Washington",0,0,0,0,0,0,0,0,0,0,345,894,1532,1253,1545.0,1370,1543,1811.0,2227.0,2720.0,3011.0,3049.0,3107.0
13594,16902,US,138129,48.1805555556,-117.0475,,Census,City,WA,"Newport, Washington",0,0,0,0,0,0,0,0,0,0,0,0,1199,950,1080.0,1174,1385,1513.0,1418.0,1665.0,1691.0,1921.0,2126.0
13600,26763,US,138199,47.8078694444,-122.360133333,,Census,City,WA,"Edmonds, Washington",0,0,0,0,0,0,0,0,0,0,0,474,1114,936,1165.0,1288,2057,8016.0,23684.0,27679.0,30744.0,39515.0,39709.0
13630,5879,US,137827,46.4022222222,-117.058888889,,Census,Cdp,WA,"West Clarkston-Highland, Washington",0,0,0,0,0,0,0,0,0,0,0,0,0,0,0.0,0,0,2851.0,3797.0,3683.0,3913.0,4707.0,2265.0
13670,11024,US,138080,46.5577777778,-122.279722222,,Census,City,WA,"Morton, Washington",0,0,0,0,0,0,0,0,0,0,0,0,0,522,461.0,778,1140,1183.0,1134.0,1264.0,1130.0,1045.0,1126.0
13692,15728,US,138278,48.9144444444,-117.782222222,,Census,Town,WA,"Northport, Washington",0,0,0,0,0,0,0,0,0,0,0,787,476,906,391.0,427,487,482.0,423.0,368.0,308.0,336.0,295.0
13838,10406,US,138250,47.79,-122.382222222,,Census,City,WA,"Woodway, Washington",0,0,0,0,0,0,0,0,0,0,0,0,0,0,0.0,0,0,713.0,879.0,832.0,914.0,936.0,1307.0
13868,5896,US,138103,48.1625,-118.988055556,,Census,Cdp,WA,"Nespelem Community, Washington",0,0,0,0,0,0,0,0,0,0,0,0,0,0,0.0,0,0,0.0,0.0,0.0,291.0,290.0,253.0
13923,15326,US,138158,47.1211111111,-122.290555556,,Census,Cdp,WA,"South Hill, Washington",0,0,0,0,0,0,0,0,0,0,0,0,0,0,0.0,0,0,0.0,0.0,7035.0,12963.0,31623.0,52431.0
13943,14083,US,138084,46.4391666667,-122.848055556,,Census,City,WA,"Toledo, Washington",0,0,0,0,0,0,0,0,0,0,276,285,375,324,530.0,523,602,499.0,654.0,637.0,586.0,653.0,725.0
13975,17110,US,138356,46.4455555556,-120.421944444,,Census,City,WA,"Wapato, Washington",0,0,0,0,0,0,0,0,0,0,0,0,400,1128,1222.0,1483,3185,3137.0,2841.0,3307.0,3795.0,4582.0,4997.0
14015,12868,US,138128,48.8613888889,-117.370833333,,Census,Town,WA,"Metaline Falls, Washington",0,0,0,0,0,0,0,0,0,0,0,0,0,153,316.0,453,547,469.0,307.0,296.0,210.0,223.0,238.0
14017,19067,US,138290,46.9413888889,-122.606388889,,Census,City,WA,"Yelm, Washington",0,0,0,0,0,0,0,0,0,0,0,0,0,0,384.0,378,470,479.0,628.0,1294.0,1337.0,3289.0,6848.0
14448,10437,US,138132,47.1869444444,-122.17,,Census,City,WA,"Bonney Lake, Washington",0,0,0,0,0,0,0,0,0,0,0,0,0,0,0.0,0,275,645.0,2700.0,5328.0,7494.0,9687.0,17374.0
14455,31977,US,138060,47.225,-121.003055556,,Census,City,WA,"Roslyn, Washington",0,0,0,0,0,0,0,0,0,0,1484,2786,3126,2673,2063.0,1743,1537,1283.0,1031.0,938.0,869.0,1017.0,893.0
14473,12277,US,138051,47.5316666667,-122.638333333,,Census,City,WA,"Port Orchard, Washington",0,0,0,0,0,0,0,0,0,0,226,254,682,1393,1145.0,1566,2320,2778.0,3904.0,4787.0,4984.0,7693.0,11144.0
14514,13241,US,138344,46.2116666667,-119.996388889,,Census,City,WA,"Mabton, Washington",0,0,0,0,0,0,0,0,0,0,0,0,666,547,423.0,485,831,958.0,926.0,1248.0,1482.0,1891.0,2286.0
14515,5896,US,137939,46.8116666667,-123.165833333,,Census,Former cdp,WA,"Chehalis Village, Washington",0,0,0,0,0,0,0,0,0,0,0,0,0,0,0.0,0,0,0.0,0.0,0.0,282.0,346.0,0.0
14571,13333,US,138105,48.3666666667,-119.581111111,,Census,City,WA,"Okanogan, Washington",0,0,0,0,0,0,0,0,0,0,0,0,611,1015,1519.0,1735,2013,2001.0,2015.0,2326.0,2370.0,2484.0,2552.0
14589,6201,US,137938,46.9688888889,-123.709166667,,Census,Cdp,WA,"Central Park, Washington",0,0,0,0,0,0,0,0,0,0,0,0,0,0,0.0,0,0,1622.0,2720.0,2709.0,2669.0,2558.0,2685.0
14656,28124,US,91064,47.62,-117.4,,Census,US County,WA,"Spokane County, Washington",0,0,0,0,0,0,0,996,2000,4262,37487,57542,139404,141289,150477.0,164652,221561,278333.0,287487.0,341835.0,361364.0,417939.0,471221.0
14700,15211,US,138095,47.7566666667,-118.706388889,,Census,Town,WA,"Wilbur, Washington",0,0,0,0,0,0,0,0,0,0,410,595,757,870,737.0,1011,1043,1138.0,1074.0,1122.0,863.0,914.0,884.0
14719,42943,US,91203,,,,Census,US County,WA,"King County, Washington",0,0,0,0,0,0,0,302,2120,6910,63989,110053,284638,389273,463517.0,504980,732992,935014.0,1156633.0,1269749.0,1507319.0,1737034.0,1931249.0
14767,20463,US,151272,45.9111111111,-122.740833333,,Census,City,WA,"Woodland, Washington",0,0,0,0,0,0,0,0,0,0,0,0,384,521,1094.0,980,1292,1336.0,1622.0,2341.0,2500.0,3780.0,5509.0
14828,24807,US,91060,46.23,-118.48,,Census,US County,WA,"Walla Walla County, Washington",0,0,0,0,0,0,0,1318,5300,8716,12224,18680,31931,27539,28441.0,30547,40135,42195.0,42176.0,47435.0,48439.0,55180.0,58781.0
15056,9925,US,137931,46.9019444444,-119.627222222,,Census,City,WA,"Royal City, Washington",0,0,0,0,0,0,0,0,0,0,0,0,0,0,0.0,0,0,0.0,477.0,676.0,1104.0,1823.0,2140.0
15178,15014,US,138086,46.4913888889,-122.9375,,Census,City,WA,"Winlock, Washington",0,0,0,0,0,0,0,0,0,0,0,655,1140,832,864.0,861,878,808.0,890.0,1052.0,1027.0,1166.0,1339.0
15189,9432,US,138159,47.1383333333,-122.096944444,,Census,Town,WA,"South Prairie, Washington",0,0,0,0,0,0,0,0,0,0,0,0,264,215,204.0,226,207,214.0,206.0,202.0,180.0,382.0,434.0
15192,10023,US,138332,46.91,-117.075277778,,Census,City,WA,"Palouse, Washington",0,0,0,0,0,0,0,0,0,148,1119,929,1549,1179,1151.0,1028,1036,926.0,948.0,1005.0,915.0,1011.0,998.0
15209,45773,US,138300,46.065,-118.330277778,,Census,City,WA,"Walla Walla, Washington",0,0,0,0,0,0,0,0,1394,3588,4709,10049,19364,15503,15976.0,18109,24102,24536.0,23619.0,25618.0,26478.0,29686.0,31731.0
15217,17460,US,138251,47.6436111111,-117.586388889,,Census,City,WA,"Airway Heights, Washington",0,0,0,0,0,0,0,0,0,0,0,0,0,0,0.0,0,0,708.0,744.0,1730.0,1971.0,4500.0,6114.0
15307,13294,US,137818,46.7755555556,-118.828055556,,Census,Town,WA,"Hatton, Washington",0,0,0,0,0,0,0,0,0,0,0,0,161,87,65.0,43,42,65.0,60.0,81.0,71.0,98.0,101.0
15345,27874,US,91076,45.87,-120.79,,Census,US County,WA,"Klickitat County, Washington",0,0,0,0,0,0,0,230,329,4055,5167,6407,10180,9268,9825.0,11357,12049,13455.0,12138.0,15822.0,16616.0,19161.0,20318.0
15607,13840,US,151273,47.9683333333,-118.978055556,,Census,Town,WA,"Coulee Dam, Washington",0,0,0,0,0,0,0,0,0,0,0,0,0,0,0.0,0,0,1344.0,1425.0,1412.0,1087.0,1044.0,1098.0
15616,31193,US,137984,47.4469444444,-122.143611111,,Census,Cdp,WA,"Fairwood, King County, Washington",0,0,0,0,0,0,0,0,0,0,0,0,0,0,0.0,0,0,0.0,0.0,16939.0,30107.0,34580.0,19102.0
15658,23519,US,137836,47.5963888889,-120.665277778,,Census,City,WA,"Leavenworth, Washington",0,0,0,0,0,0,0,0,0,0,0,0,1551,1791,1415.0,1608,1503,1480.0,1322.0,1522.0,1692.0,2074.0,1965.0
15690,13663,US,138000,47.6366666667,-122.230555556,,Census,Town,WA,"Hunts Point, Washington",0,0,0,0,0,0,0,0,0,0,0,0,0,0,0.0,0,0,428.0,578.0,480.0,513.0,443.0,394.0
15726,11791,US,137951,47.0552777778,-123.268888889,,Census,City,WA,"McCleary, Washington",0,0,0,0,0,0,0,0,0,0,0,0,0,0,0.0,0,1175,1115.0,1265.0,1419.0,1235.0,1454.0,1653.0
15734,12575,US,138335,47.0902777778,-117.582222222,,Census,Town,WA,"St. John, Washington",0,0,0,0,0,0,0,0,0,0,0,0,421,597,471.0,526,542,545.0,575.0,529.0,499.0,548.0,537.0
15794,36034,US,91202,47.64,-122.65,,Census,US County,WA,"Kitsap County, Washington",0,0,0,0,0,0,0,544,866,1738,4624,6767,17647,33162,30776.0,44387,75724,84176.0,101732.0,147152.0,189731.0,231969.0,251133.0
15810,13743,US,138359,46.4036111111,-120.260833333,,Census,City,WA,"Zillah, Washington",0,0,0,0,0,0,0,0,0,0,0,0,0,647,728.0,803,911,1059.0,1138.0,1599.0,1911.0,2198.0,2964.0
15891,23336,US,138069,45.8166666667,-120.816666667,,Census,City,WA,"Goldendale, Washington",0,0,0,0,0,0,0,0,0,545,702,738,1203,1274,1116.0,1584,1907,2536.0,2484.0,3575.0,3319.0,3760.0,3407.0
15915,33047,US,91218,46.2036111111,-119.159166667,,Census,City,WA,"Kennewick, Washington",0,0,0,0,0,0,0,0,0,0,0,183,1219,1684,1519.0,1918,10106,14244.0,15212.0,34397.0,42155.0,54693.0,73917.0
15929,32300,US,138077,46.7205555556,-122.961388889,,Census,City,WA,"Centralia, Washington",0,0,0,0,0,0,0,0,0,0,2026,1600,7311,7549,8058.0,7414,8657,8586.0,10054.0,11555.0,12101.0,14742.0,16336.0
16137,15369,US,137952,47.2361111111,-124.212777778,,Census,Census-designated place,WA,"Moclips, Washington",0,0,0,0,0,0,0,0,0,0,0,0,0,0,0.0,0,0,0.0,0.0,0.0,0.0,615.0,207.0
16248,33219,US,138039,47.6552777778,-122.535,,Census,City,WA,"Bainbridge Island, Washington",0,0,0,0,0,0,0,0,0,0,0,0,0,0,0.0,0,637,919.0,1461.0,2196.0,3081.0,20308.0,23025.0
16325,17226,US,137821,46.8236111111,-119.167222222,,Census,City,WA,"Othello, Washington",0,0,0,0,0,0,0,0,0,0,0,0,0,649,397.0,332,526,2669.0,4122.0,4454.0,4638.0,5847.0,7364.0
16436,12913,US,138088,47.7580555556,-118.521111111,,Census,Town,WA,"Creston, Washington",0,0,0,0,0,0,0,0,0,0,0,0,308,317,216.0,281,268,317.0,325.0,309.0,230.0,232.0,236.0
16513,7156,US,138014,47.3261111111,-122.187777778,,Census,Neighborhood,WA,"Lea Hill, Washington",0,0,0,0,0,0,0,0,0,0,0,0,0,0,0.0,0,0,0.0,0.0,0.0,6876.0,10871.0,0.0
16632,40868,US,138007,47.6858333333,-122.191666667,,Census,City,WA,"Kirkland, Washington",0,0,0,0,0,0,0,0,0,0,0,264,532,1354,1714.0,2084,4713,6025.0,14970.0,18785.0,40052.0,45054.0,48787.0
16726,11148,US,137914,47.9308333333,-119.036111111,,Census,City,WA,"Electric City, Washington",0,0,0,0,0,0,0,0,0,0,0,0,0,0,0.0,0,0,404.0,651.0,927.0,910.0,922.0,968.0
16757,8966,US,138191,47.8025,-122.258611111,,Census,Cdp,WA,"Alderwood Manor, Washington",0,0,0,0,0,0,0,0,0,0,0,0,0,0,0.0,0,0,0.0,0.0,16524.0,22945.0,15329.0,8442.0
16771,23637,US,138285,46.8908333333,-122.689722222,,Census,City,WA,"Rainier, Washington",0,0,0,0,0,0,0,0,0,0,0,0,0,0,0.0,0,331,245.0,382.0,891.0,991.0,1492.0,1794.0
16843,15738,US,137967,48.0369222222,-122.4085,,Census,City,WA,"Langley, Washington",0,0,0,0,0,0,0,0,0,0,0,0,0,274,268.0,338,427,448.0,547.0,650.0,845.0,959.0,1035.0
16908,11025,US,138083,46.5713888889,-123.296944444,,Census,Town,WA,"Pe Ell, Washington",0,0,0,0,0,0,0,0,0,0,0,0,838,861,891.0,825,787,593.0,582.0,617.0,547.0,657.0,632.0
16998,99158,US,39300,48.7502777778,-122.475,,Census,City,WA,"Bellingham, Washington",0,0,0,0,0,0,0,0,0,0,8135,11062,24298,25585,30823.0,29314,34112,34688.0,39375.0,45794.0,52179.0,67171.0,80885.0
17046,26782,US,138022,47.4938888889,-121.786111111,,Census,City,WA,"North Bend, Washington",0,0,0,0,0,0,0,0,0,0,0,0,299,387,548.0,646,787,945.0,1625.0,1701.0,2578.0,4746.0,5731.0
17127,9684,US,137924,47.4088888889,-118.988333333,,Census,Town,WA,"Krupp, Washington",0,0,0,0,0,0,0,0,0,0,0,0,0,106,101.0,94,98,99.0,52.0,83.0,53.0,60.0,48.0
17149,41094,US,138005,47.3827777778,-122.226944444,,Census,City,WA,"Kent, Washington",0,0,0,0,0,0,0,0,0,0,853,755,1908,2282,2320.0,2586,3278,9017.0,17711.0,22961.0,37960.0,79524.0,92411.0
17231,31337,US,138306,48.9880555556,-122.743611111,,Census,City,WA,"Blaine, Washington",0,0,0,0,0,0,0,0,0,0,1563,1592,2289,2254,1642.0,1524,1693,1735.0,1955.0,2363.0,2489.0,3770.0,4684.0
17296,14403,US,138141,47.2344444444,-122.359722222,,Census,City,WA,"Fife, Washington",0,0,0,0,0,0,0,0,0,0,0,0,0,0,0.0,0,0,1463.0,1458.0,1823.0,3864.0,4784.0,9173.0
17325,11981,US,138160,47.0977777778,-122.423888889,"[[y2017,31616]]",Census,Cdp,WA,"Spanaway, Washington",0,0,0,0,0,0,0,0,0,0,0,0,0,0,0.0,0,0,0.0,5768.0,8868.0,15001.0,21588.0,27227.0
17356,25109,US,138008,47.7566666667,-122.289722222,,Census,City,WA,"Lake Forest Park, Washington",0,0,0,0,0,0,0,0,0,0,0,0,0,0,0.0,0,0,0.0,2530.0,2485.0,4031.0,13142.0,12598.0
17423,32320,US,91204,47.84,-123.58,,Census,US County,WA,"Jefferson County, Washington",0,0,0,0,0,0,0,531,1268,1712,8368,5712,8337,6557,8346.0,8918,11618,9639.0,10661.0,15965.0,20146.0,25953.0,29872.0
17599,21319,US,137880,45.5819444444,-122.348055556,,Census,City,WA,"Washougal, Washington",0,0,0,0,0,0,0,0,0,0,0,0,456,765,1206.0,1267,1577,2672.0,3388.0,3834.0,4764.0,8595.0,14095.0
17642,12756,US,138166,47.2194444444,-122.541666667,,Census,City,WA,"University Place, Washington",0,0,0,0,0,0,0,0,0,0,0,0,0,0,0.0,0,0,0.0,13230.0,20381.0,27701.0,29933.0,31144.0
18006,30693,US,91072,48.55,-119.75,,Census,US County,WA,"Okanogan County, Washington",0,0,0,0,0,0,0,0,0,0,1467,4689,12887,17094,18519.0,24546,29131,25520.0,25867.0,30639.0,33350.0,39564.0,41120.0
18062,16555,US,137968,48.295,-122.658611111,,Census,City,WA,"Oak Harbor, Washington",0,0,0,0,0,0,0,0,0,0,0,0,0,337,362.0,376,1193,3942.0,9167.0,12271.0,17176.0,19795.0,22075.0
18309,9934,US,138081,46.5297222222,-122.484166667,,Census,City,WA,"Mossyrock, Washington",0,0,0,0,0,0,0,0,0,0,0,0,0,0,0.0,0,356,344.0,409.0,463.0,452.0,486.0,759.0
18329,6774,US,137863,45.6872222222,-122.658055556,,Census,Former cdp,WA,"Hazel Dell North, Washington",0,0,0,0,0,0,0,0,0,0,0,0,0,0,0.0,0,0,0.0,0.0,0.0,6924.0,9261.0,0.0
18371,45164,US,151274,47.3022222222,-122.214722222,,Census,City,WA,"Auburn, Washington",0,0,0,0,0,0,0,0,0,0,740,489,957,3163,3906.0,4211,6497,11933.0,21653.0,26417.0,33102.0,40314.0,70180.0
18379,122034,US,138192,48.1811111111,-122.138888889,, USA,City,WA,"Arlington, Washington",0,0,0,0,0,0,0,0,0,0,0,0,1476,1418,1439.0,1460,1635,2025.0,2261.0,3282.0,4037.0,11713.0,17926.0
18381,8268,US,138292,46.1966666667,-123.358055556,,Census,Cdp,WA,"East Cathlamet, Washington",0,0,0,0,0,0,0,0,0,0,0,0,0,0,0.0,0,0,0.0,0.0,0.0,0.0,491.0,491.0
18504,19647,US,138314,48.9466666667,-122.456944444,,Census,Metropolitan city,WA,"Lynden, Washington",0,0,0,0,0,0,0,0,0,0,560,365,1148,1244,1564.0,1696,2161,2542.0,2808.0,4022.0,5709.0,9020.0,11951.0
18533,5947,US,137950,46.9130555556,-123.985277778,,Census,Cdp,WA,"Markham, Washington",0,0,0,0,0,0,0,0,0,0,0,0,0,0,0.0,0,0,0.0,0.0,0.0,0.0,95.0,111.0
18538,11635,US,138021,47.4372222222,-122.343333333,,Census,City,WA,"Normandy Park, Washington",0,0,0,0,0,0,0,0,0,0,0,0,0,0,0.0,0,0,3224.0,4202.0,4268.0,6709.0,6392.0,6335.0
18640,25736,US,137928,47.1211111111,-119.288333333,,Census,City,WA,"Moses Lake, Washington",0,0,0,0,0,0,0,0,0,0,0,0,0,0,0.0,326,2679,11299.0,10310.0,10629.0,11235.0,14953.0,20366.0
18645,7064,US,138259,47.6633333333,-117.156666667,,Census,Unincorporated community,WA,"Greenacres, Washington",0,0,0,0,0,0,0,0,0,0,0,0,0,0,0.0,0,0,0.0,0.0,0.0,4625.0,5158.0,0.0
18659,20607,US,138052,47.7391666667,-122.639166667,,Census,City,WA,"Poulsbo, Washington",0,0,0,0,0,0,0,0,0,0,0,0,364,546,584.0,639,1014,1505.0,1856.0,3453.0,4848.0,6813.0,9200.0
18682,20682,US,138169,48.5352777778,-123.031111111,,Census,Town,WA,"Friday Harbor, Washington",0,0,0,0,0,0,0,0,0,0,0,0,400,522,601.0,658,783,706.0,803.0,1200.0,1492.0,1989.0,2162.0
19084,17094,US,138197,48.2522222222,-121.603888889,,Census,Town,WA,"Darrington, Washington",0,0,0,0,0,0,0,0,0,0,0,0,0,0,0.0,0,921,1272.0,1094.0,1064.0,1042.0,1136.0,1347.0
19141,38188,US,48943,45.77,-122.48,,Census,US County,WA,"Clark County, Washington",0,0,0,0,0,0,643,2384,3081,5490,11709,13419,26115,32805,40316.0,49852,85307,93809.0,128454.0,192227.0,238053.0,345238.0,425363.0
19389,12346,US,138164,47.2058333333,-122.235833333,,Census,City,WA,"Sumner, Washington",0,0,0,0,0,0,0,0,0,0,580,531,892,1499,1967.0,2140,2816,3156.0,4325.0,4936.0,6281.0,8504.0,9451.0
19415,16808,US,137885,46.0086111111,-122.8425,,Census,City,WA,"Kalama, Washington",0,0,0,0,0,0,0,0,0,129,325,554,816,1228,940.0,1028,1121,1088.0,1106.0,1216.0,1210.0,1783.0,2344.0
19635,22655,US,137946,46.9802777778,-123.885555556,,Census,City,WA,"Hoquiam, Washington",0,0,0,0,0,0,0,0,0,0,1302,2608,8171,10058,12766.0,10835,11123,10762.0,10466.0,9719.0,8972.0,9097.0,8726.0
19788,11041,US,138093,47.6691666667,-117.878333333,,Census,Town,WA,"Reardan, Washington",0,0,0,0,0,0,0,0,0,0,0,0,527,420,422.0,422,410,474.0,389.0,498.0,482.0,608.0,571.0
19950,10508,US,8602840,46.3677777778,-123.581388889,,Census,Cdp,WA,"Grays River, Washington",0,0,0,0,0,0,0,0,0,0,0,0,0,0,0.0,0,0,0.0,0.0,0.0,0.0,0.0,263.0
20267,6866,US,138234,47.8811111111,-122.178611111,,Census,Cdp,WA,"Silver Firs, Washington",0,0,0,0,0,0,0,0,0,0,0,0,0,0,0.0,0,0,0.0,0.0,10299.0,24474.0,35111.0,20891.0
20327,12932,US,138289,47.0077777778,-122.911111111,,Census,City,WA,"Tumwater, Washington",0,0,0,0,0,0,0,0,354,171,410,270,490,472,793.0,955,2725,3885.0,5373.0,6705.0,9976.0,12698.0,17371.0
20472,37660,US,138004,47.7527777778,-122.247222222,,Census,City,WA,"Kenmore, Washington",0,0,0,0,0,0,0,0,0,0,0,0,0,0,0.0,0,0,0.0,0.0,7281.0,8917.0,18678.0,20460.0
20627,6454,US,42980898,46.3152777778,-123.401388889,,Census,Cdp,WA,"Skamokawa Valley, Washington",0,0,0,0,0,0,0,0,0,0,0,0,0,0,0.0,0,0,0.0,0.0,0.0,0.0,0.0,401.0
20657,13852,US,138310,48.8488888889,-122.590277778,,Census,City,WA,"Ferndale, Washington",0,0,0,0,0,0,0,0,0,0,0,0,691,759,752.0,717,979,1442.0,2164.0,3855.0,5398.0,8758.0,11415.0
20681,11124,US,138337,46.5391666667,-117.085277778,,Census,Town,WA,"Uniontown, Washington",0,0,0,0,0,0,0,0,0,0,279,404,426,404,360.0,332,254,242.0,310.0,286.0,277.0,345.0,294.0
20716,25897,US,91073,47.35,-123.18,,Census,US County,WA,"Mason County, Washington",0,0,0,0,0,0,0,162,289,639,2826,3810,5156,4919,10060.0,11603,15022,16251.0,20918.0,31184.0,38341.0,49405.0,60699.0
20903,11710,US,138348,46.6522222222,-120.535,,Census,City,WA,"Selah, Washington",0,0,0,0,0,0,0,0,0,0,0,0,0,0,767.0,1130,2489,2824.0,3311.0,4500.0,5113.0,6310.0,7147.0
20955,6383,US,15489038,46.3536111111,-123.705,,Census,Cdp,WA,"Deep River, Washington",0,0,0,0,0,0,0,0,0,0,0,0,0,0,0.0,0,0,0.0,0.0,0.0,0.0,0.0,204.0
21151,12268,US,138102,48.1663888889,-118.975555556,,Census,Town,WA,"Nespelem, Washington",0,0,0,0,0,0,0,0,0,0,0,0,0,0,0.0,300,425,358.0,323.0,284.0,187.0,212.0,236.0
21307,21614,US,137822,47.1263888889,-118.377222222,,Census,City,WA,"Ritzville, Washington",0,0,0,0,0,0,0,0,0,0,0,761,1859,1900,1777.0,1748,2145,2173.0,1876.0,1800.0,1725.0,1736.0,1673.0
21365,9660,US,138325,47.0905555556,-117.046388889,,Census,Town,WA,"Farmington, Washington",0,0,0,0,0,0,0,0,0,76,418,434,489,479,344.0,341,239,176.0,140.0,176.0,126.0,153.0,146.0
21605,26658,US,137935,46.9758333333,-123.818611111,,Census,City,WA,"Aberdeen, Washington",0,0,0,0,0,0,0,0,0,0,1638,3747,13660,15337,21723.0,18846,19653,18741.0,18489.0,18739.0,16565.0,16461.0,16896.0
21629,16050,US,137909,46.4733333333,-117.598055556,,Census,City,WA,"Pomeroy, Washington",0,0,0,0,0,0,0,0,0,0,661,953,1605,1804,1600.0,1723,1775,1677.0,1823.0,1716.0,1393.0,1517.0,1425.0
21705,13539,US,39416506,,,,Census,Metropolitan region,WA,Greater Omak,0,0,0,0,0,0,0,0,0,0,0,0,0,0,0.0,0,0,0.0,0.0,0.0,0.0,8466.0,8229.0
21815,23562,US,138146,47.3269444444,-122.586388889,,Census,City,WA,"Gig Harbor, Washington",0,0,0,0,0,0,0,0,0,0,321,0,0,0,0.0,0,803,1094.0,1657.0,2429.0,3236.0,6465.0,7126.0
21863,9272,US,137937,46.9961111111,-123.521666667,,Census,Census-designated place,WA,"Brady, Washington",0,0,0,0,0,0,0,0,0,0,0,0,0,0,0.0,0,0,0.0,0.0,0.0,0.0,645.0,676.0
21987,62903,US,138213,47.8277777778,-122.305277778,,Census,City,WA,"Lynnwood, Washington",0,0,0,0,0,0,0,0,0,0,0,0,0,0,0.0,0,0,7207.0,17381.0,22641.0,28695.0,33847.0,35836.0
22034,43941,US,91059,48.83,-121.9,,Census,US County,WA,"Whatcom County, Washington",0,0,0,0,0,0,0,352,534,3137,18591,24116,49511,50600,59128.0,60355,66733,70317.0,81950.0,106701.0,127780.0,166814.0,201140.0
22070,9661,US,137866,45.8638888889,-122.668611111,,Census,Town,WA,"La Center, Washington",0,0,0,0,0,0,0,0,0,0,0,0,288,167,219.0,193,204,244.0,300.0,439.0,451.0,1654.0,2800.0
22199,18061,US,137955,46.8394444444,-123.233611111,,Census,City,WA,"Oakville, Washington",0,0,0,0,0,0,0,0,0,0,0,0,465,396,469.0,418,372,377.0,460.0,537.0,493.0,675.0,684.0
22210,12393,US,138309,48.9175,-122.348888889,,Census,City,WA,"Everson, Washington",0,0,0,0,0,0,0,0,0,0,0,0,0,0,295.0,292,345,431.0,633.0,898.0,1490.0,2035.0,2481.0
22255,27296,US,91065,46.03,-121.91,,Census,US County,WA,"Skamania County, Washington",0,0,0,0,0,0,0,173,133,809,774,1688,2887,2357,2891.0,4633,4788,5207.0,5845.0,7919.0,8289.0,9872.0,11066.0
22365,5850,US,40577031,46.27,-123.615,,Census,Cdp,WA,"Altoona, Washington",0,0,0,0,0,0,0,0,0,0,0,0,0,0,0.0,0,0,0.0,0.0,0.0,0.0,0.0,39.0
22595,29304,US,57243,46.99,-118.56,,Census,US County,WA,"Adams County, Washington",0,0,0,0,0,0,0,0,0,0,2098,4840,10920,9623,7719.0,6209,6584,9929.0,12014.0,13267.0,13603.0,16428.0,18728.0
22618,16963,US,137915,47.3169444444,-119.548055556,,Census,City,WA,"Ephrata, Washington",0,0,0,0,0,0,0,0,0,0,0,0,323,628,516.0,951,4589,6548.0,5255.0,5359.0,5349.0,6808.0,7664.0
22645,13259,US,138189,45.6441666667,-121.968055556,,Census,City,WA,"North Bonneville, Washington",0,0,0,0,0,0,0,0,0,0,0,0,0,0,0.0,643,564,494.0,459.0,394.0,411.0,593.0,956.0
22698,76193,US,138165,47.2413888889,-122.459444444,,Census,City,WA,"Tacoma, Washington",0,0,0,0,0,0,0,0,73,1098,36006,37714,83743,96965,106817.0,109408,143673,147979.0,154407.0,158501.0,176664.0,193556.0,198397.0
22736,17618,US,137904,46.6583333333,-118.860833333,,Census,City,WA,"Connell, Washington",0,0,0,0,0,0,0,0,0,0,0,0,0,311,321.0,365,465,906.0,1161.0,1981.0,2005.0,2956.0,4209.0
22787,10990,US,138142,47.2316666667,-122.514166667,,Census,City,WA,"Fircrest, Washington",0,0,0,0,0,0,0,0,0,0,0,0,0,0,441.0,486,1459,3565.0,5651.0,5477.0,5258.0,5868.0,6497.0
22838,6406,US,138246,48.1597222222,-122.353611111,,Census,Cdp,WA,"Warm Beach, Washington",0,0,0,0,0,0,0,0,0,0,0,0,0,0,0.0,0,0,0.0,0.0,0.0,0.0,2040.0,2437.0
22872,17987,US,138118,46.3508333333,-124.053611111,,Census,City,WA,"Long Beach, Washington",0,0,0,0,0,0,0,0,0,0,0,0,0,0,396.0,620,783,665.0,968.0,1199.0,1236.0,1283.0,1392.0
22898,29209,US,91205,48.15,-122.58,,Census,US County,WA,"Island County, Washington",0,0,0,0,0,0,0,294,626,1087,1787,1870,4704,5489,5369.0,6098,11079,19638.0,27011.0,44048.0,60195.0,71558.0,78506.0
22900,20741,US,137831,46.2069444444,-119.765555556,,Census,City,WA,"Prosser, Washington",0,0,0,0,0,0,0,0,0,0,0,229,1298,1697,1569.0,1719,2636,2763.0,2954.0,3896.0,4476.0,4838.0,5714.0
22946,9900,US,138038,47.6441666667,-122.216666667,,Census,Town,WA,"Yarrow Point, Washington",0,0,0,0,0,0,0,0,0,0,0,0,0,0,0.0,0,0,766.0,1101.0,1064.0,962.0,1008.0,1001.0
22957,9802,US,138036,47.5075,-122.3475,,Census,Cdp,WA,"White Center, Washington",0,0,0,0,0,0,0,0,0,0,0,0,0,0,0.0,0,0,0.0,0.0,19362.0,20531.0,20975.0,13495.0
22979,30564,US,137888,46.1427777778,-122.955555556,,Census,City,WA,"Longview, Washington",0,0,0,0,0,0,0,0,0,0,0,0,0,0,10652.0,12385,20339,23349.0,28373.0,31052.0,31499.0,34660.0,36648.0
23050,10413,US,138331,47.1305555556,-117.244444444,,Census,Town,WA,"Oakesdale, Washington",0,0,0,0,0,0,0,0,0,0,528,928,882,816,637.0,590,576,474.0,447.0,444.0,346.0,420.0,422.0
23055,10046,US,137881,45.8655555556,-122.406944444,,Census,Town,WA,"Yacolt, Washington",0,0,0,0,0,0,0,0,0,0,0,0,435,520,295.0,297,411,375.0,488.0,544.0,600.0,1055.0,1566.0
23357,26633,US,91210,46.54,-118.9,,Census,US County,WA,"Franklin County, Washington",0,0,0,0,0,0,0,0,0,0,696,486,5153,5877,6137.0,6307,13563,23342.0,25816.0,35025.0,37473.0,49347.0,78163.0
23407,18154,US,137930,47.2336111111,-119.852222222,,Census,City,WA,"Quincy, Washington",0,0,0,0,0,0,0,0,0,0,0,0,264,285,266.0,318,804,3269.0,3237.0,3525.0,3738.0,5044.0,6750.0
23435,18419,US,138223,47.7908333333,-122.306666667,,Census,City,WA,"Mountlake Terrace, Washington",0,0,0,0,0,0,0,0,0,0,0,0,0,0,0.0,0,0,9122.0,16600.0,16534.0,19320.0,20362.0,19909.0
23624,19193,US,138028,47.7563888889,-122.339722222,,Census,City,WA,"Shoreline, Washington",0,0,0,0,0,0,0,0,0,0,0,0,0,0,0.0,0,0,0.0,0.0,0.0,52109.0,53025.0,53007.0
23868,25131,US,91209,46.43,-117.53,,Census,US County,WA,"Garfield County, Washington",0,0,0,0,0,0,0,0,0,0,3897,3918,4199,3875,3662.0,3383,3204,2976.0,2911.0,2468.0,2248.0,2397.0,2266.0
23915,14870,US,137983,47.6483333333,-121.908611111,,Census,City,WA,"Carnation, Washington",0,0,0,0,0,0,0,0,0,0,0,0,0,536,360.0,460,446,490.0,530.0,913.0,1243.0,1893.0,1786.0
24064,6814,US,137948,46.9727777778,-123.772777778,,Census,Census-designated place,WA,"Junction City, Washington",0,0,0,0,0,0,0,0,0,0,0,0,0,0,0.0,0,0,0.0,0.0,0.0,0.0,80.0,18.0
24130,9985,US,138127,48.8519444444,-117.389166667,,Census,Town,WA,"Metaline, Washington",0,0,0,0,0,0,0,0,0,0,0,0,0,0,0.0,0,563,299.0,197.0,190.0,198.0,162.0,173.0
24203,37521,US,57637,46.2797222222,-119.281388889,,Census,City,WA,"Richland, Washington",0,0,0,0,0,0,0,0,0,0,0,0,350,279,208.0,247,21809,23548.0,26290.0,33578.0,32315.0,38708.0,48058.0
24280,12297,US,138261,47.6561111111,-117.086388889,,Census,City,WA,"Liberty Lake, Washington",0,0,0,0,0,0,0,0,0,0,0,0,0,0,0.0,0,0,0.0,0.0,1599.0,2015.0,4660.0,7591.0
24316,11789,US,137927,46.7361111111,-119.901944444,,Census,City,WA,"Mattawa, Washington",0,0,0,0,0,0,0,0,0,0,0,0,0,0,0.0,0,0,394.0,180.0,299.0,941.0,2609.0,4437.0
24371,10896,US,138272,47.3397222222,-117.228611111,,Census,Town,WA,"Waverly, Washington",0,0,0,0,0,0,0,0,0,0,0,0,318,234,151.0,131,120,108.0,48.0,99.0,37.0,121.0,106.0
24427,15223,US,137905,46.645,-118.555,,Census,City,WA,"Kahlotus, Washington",0,0,0,0,0,0,0,0,0,0,0,0,132,151,164.0,163,151,131.0,308.0,203.0,167.0,214.0,193.0
24452,22667,US,138171,48.5019444444,-122.623611111,,Census,City,WA,"Anacortes, Washington",0,0,0,0,0,0,0,0,0,0,1131,1476,4168,5284,6564.0,5875,6919,8414.0,7701.0,9013.0,11451.0,14557.0,15778.0
24591,14220,US,138092,47.3333333333,-118.683333333,,Census,Town,WA,"Odessa, Washington",0,0,0,0,0,0,0,0,0,0,0,0,885,1050,830.0,816,1127,1231.0,1074.0,1009.0,935.0,957.0,910.0
24617,18153,US,137991,47.3941666667,-122.318055556,,Census,City,WA,"Des Moines, Washington",0,0,0,0,0,0,0,0,0,0,212,0,0,0,0.0,0,0,1987.0,3951.0,7378.0,17283.0,29267.0,29673.0
24705,11127,US,138341,46.2536111111,-119.91,,Census,City,WA,"Grandview, Washington",0,0,0,0,0,0,0,0,0,0,0,0,320,1011,1085.0,1449,2503,3366.0,3605.0,5615.0,7169.0,8377.0,10862.0
24749,6743,US,137993,47.41,-122.183055556,,Census,Former cdp,WA,"East Hill-Meridian, Washington",0,0,0,0,0,0,0,0,0,0,0,0,0,0,0.0,0,0,0.0,0.0,0.0,42696.0,29308.0,29878.0
24752,17369,US,138275,48.5430555556,-117.904444444,,Census,City,WA,"Colville, Washington",0,0,0,0,0,0,0,0,0,67,539,594,1533,1718,1803.0,2418,3033,3806.0,3742.0,4510.0,4360.0,4988.0,4673.0
24869,12994,US,138062,47.1855555556,-120.953055556,,Census,Town,WA,"South Cle Elum, Washington",0,0,0,0,0,0,0,0,0,0,0,0,0,587,338.0,340,442,383.0,374.0,449.0,457.0,457.0,532.0
24887,13880,US,138328,46.8141666667,-117.88,,Census,Town,WA,"La Crosse, Washington",0,0,0,0,0,0,0,0,0,0,0,0,0,0,471.0,475,457,463.0,426.0,373.0,336.0,380.0,313.0
25071,13382,US,138111,48.7055555556,-119.438611111,,Census,City,WA,"Tonasket, Washington",0,0,0,0,0,0,0,0,0,0,0,0,0,0,513.0,643,957,958.0,951.0,985.0,847.0,994.0,1032.0
25290,12759,US,138262,47.5713888889,-117.683333333,,Census,City,WA,"Medical Lake, Washington",0,0,0,0,0,0,0,0,0,0,617,516,1730,1254,1671.0,2114,4488,4765.0,3529.0,3600.0,3664.0,3758.0,5060.0
25392,19383,US,138237,48.1458333333,-122.194722222,,Census,Cdp,WA,"Smokey Point, Washington",0,0,0,0,0,0,0,0,0,0,0,0,0,0,0.0,0,0,0.0,0.0,0.0,2620.0,1556.0,0.0
25398,184524,US,11388236,47.6097222222,-122.333055556,,Census,City,WA,Seattle,0,0,0,0,0,0,0,188,1107,3533,42837,80671,237194,315312,365583.0,368302,467591,557087.0,530831.0,493846.0,516259.0,563374.0,608660.0
25506,13530,US,138221,47.8616666667,-122.204444444,,Census,City,WA,"Mill Creek, Washington",0,0,0,0,0,0,0,0,0,0,0,0,0,0,0.0,0,0,0.0,0.0,0.0,7172.0,11525.0,18244.0
25575,30826,US,91058,46.89,-117.52,,Census,US County,WA,"Whitman County, Washington",0,0,0,0,0,0,0,0,0,7014,19109,25360,33280,31323,28014.0,27221,32469,31263.0,37900.0,40103.0,38775.0,40740.0,44776.0
25638,19267,US,138027,47.6088888889,-122.042222222,,Census,City,WA,"Sammamish, Washington",0,0,0,0,0,0,0,0,0,0,0,0,0,0,0.0,0,0,0.0,0.0,0.0,0.0,34104.0,45780.0
25749,11148,US,137997,47.5663888889,-121.895,,Census,Cdp,WA,"Fall City, Washington",0,0,0,0,0,0,0,0,0,0,0,0,0,0,0.0,0,0,0.0,0.0,0.0,0.0,1638.0,1993.0
26011,12888,US,138334,47.2363888889,-117.370277778,,Census,Town,WA,"Rosalia, Washington",0,0,0,0,0,0,0,0,0,0,248,379,767,714,633.0,596,660,585.0,569.0,572.0,552.0,648.0,550.0
26055,15315,US,137882,46.3197222222,-117.977777778,,Census,City,WA,"Dayton, Washington",0,0,0,0,0,0,0,0,0,996,1880,2216,2389,2695,2528.0,3026,2979,2913.0,2596.0,2565.0,2468.0,2655.0,2526.0
26122,16014,US,138135,47.0991666667,-122.6375,,Census,City,WA,"DuPont, Washington",0,0,0,0,0,0,0,0,0,0,0,0,0,600,0.0,0,0,354.0,384.0,559.0,592.0,2452.0,8199.0
26163,5220,US,4135591,46.3666666667,-123.05,,Census,Census-designated place,WA,"Ryderwood, Washington",0,0,0,0,0,0,0,0,0,0,0,0,0,0,0.0,0,0,0.0,0.0,0.0,0.0,0.0,395.0
26168,15164,US,137980,47.3177777778,-122.014722222,,Census,City,WA,"Black Diamond, Washington",0,0,0,0,0,0,0,0,0,0,561,0,0,0,0.0,0,0,1026.0,1160.0,1170.0,1422.0,3970.0,4151.0
26323,19640,US,138032,47.4783333333,-122.275555556,,Census,City,WA,"Tukwila, Washington",0,0,0,0,0,0,0,0,0,0,0,0,361,453,424.0,521,800,1804.0,3509.0,3578.0,11874.0,17181.0,19107.0
26465,13073,US,138320,48.9972222222,-122.265555556,,Census,City,WA,"Sumas, Washington",0,0,0,0,0,0,0,0,0,0,0,319,902,854,647.0,650,658,629.0,722.0,712.0,744.0,960.0,1307.0
26567,6589,US,138026,47.5075,-122.311388889,,Census,Former cdp,WA,"Riverton-Boulevard Park, Washington",0,0,0,0,0,0,0,0,0,0,0,0,0,0,0.0,0,0,0.0,0.0,14182.0,15337.0,11188.0,0.0
26593,7047,US,138006,47.7263888889,-122.174166667,,Census,Neighborhood,WA,"Kingsgate, Kirkland, Washington",0,0,0,0,0,0,0,0,0,0,0,0,0,0,0.0,0,0,0.0,0.0,12652.0,14259.0,12222.0,13065.0
26609,19358,US,138037,47.7525,-122.155833333,,Census,City,WA,"Woodinville, Washington",0,0,0,0,0,0,0,0,0,0,0,0,0,0,0.0,0,0,0.0,0.0,0.0,0.0,9194.0,10938.0
26671,6198,US,137936,47.0725,-123.770555556,,Census,Cdp,WA,"Aberdeen Gardens, Washington",0,0,0,0,0,0,0,0,0,0,0,0,0,0,0.0,0,0,0.0,0.0,0.0,0.0,227.0,279.0
26680,19447,US,138149,47.1666666667,-122.533333333,,Census,City,WA,"Lakewood, Washington",0,0,0,0,0,0,0,0,0,0,0,0,0,0,0.0,0,0,0.0,48195.0,54533.0,58412.0,58211.0,58163.0
26933,13237,US,138075,45.7288888889,-121.483611111,,Census,City,WA,"White Salmon, Washington",0,0,0,0,0,0,0,0,0,0,0,0,682,619,798.0,985,1353,1590.0,1585.0,1853.0,1861.0,2193.0,2224.0
26944,28681,US,151278,47.2025,-121.994166667,,Census,City,WA,"Enumclaw, Washington",0,0,0,0,0,0,0,0,0,0,0,483,1129,1378,2084.0,2627,2789,3269.0,4703.0,5427.0,7227.0,11116.0,10669.0
27007,11208,US,138202,47.8541666667,-121.693333333,,Census,City,WA,"Gold Bar, Washington",0,0,0,0,0,0,0,0,0,0,0,0,0,353,304.0,307,305,315.0,504.0,794.0,1078.0,2014.0,2075.0
27132,30143,US,91215,48.1125,-123.440833333,,Census,US County,WA,"Clallam County, Washington",0,0,0,0,0,0,0,149,408,638,2771,5603,6755,11368,20449.0,21848,26396,30022.0,34770.0,51648.0,56464.0,64525.0,71404.0
27134,11975,US,138242,47.8663888889,-121.809166667,,Census,City,WA,"Sultan, Washington",0,0,0,0,0,0,0,0,0,0,0,0,576,687,830.0,961,814,821.0,1119.0,1578.0,2236.0,3344.0,4651.0
27371,14547,US,137988,47.6302777778,-122.216666667,,Census,City,WA,"Clyde Hill, Washington",0,0,0,0,0,0,0,0,0,0,0,0,0,0,0.0,0,0,1871.0,2987.0,3229.0,2972.0,2890.0,2984.0
27373,5914,US,42979004,46.6833333333,-123.666666667,,Census,Cdp,WA,"Willapa, Washington",0,0,0,0,0,0,0,0,0,0,0,0,0,0,0.0,0,0,0.0,0.0,0.0,0.0,0.0,210.0
27376,14691,US,138029,47.71,-121.355833333,,Census,Town,WA,"Skykomish, Washington",0,0,0,0,0,0,0,0,0,0,0,0,238,267,562.0,479,497,366.0,283.0,209.0,273.0,214.0,198.0
27424,10329,US,138096,47.365,-122.835833333,,Census,Former cdp,WA,"Allyn-Grapeview, Washington",0,0,0,0,0,0,0,0,0,0,0,0,0,0,0.0,0,0,0.0,0.0,0.0,1526.0,2004.0,2917.0
27500,40014,US,26558,47.6694444444,-122.123888889,,Census,City,WA,"Redmond, Washington",0,0,0,0,0,0,0,0,0,0,0,116,450,438,460.0,530,573,1426.0,11020.0,23318.0,35800.0,45256.0,54144.0
27506,5697,US,42987860,46.9333333333,-122.3,,Census,Cdp,WA,"Clear Lake, Pierce County, Washington",0,0,0,0,0,0,0,0,0,0,0,0,0,0,0.0,0,0,0.0,0.0,0.0,0.0,0.0,1419.0
27575,10415,US,138257,47.3855555556,-117.173888889,,Census,Town,WA,"Fairfield, Washington",0,0,0,0,0,0,0,0,0,0,0,0,308,413,381.0,364,369,367.0,469.0,582.0,446.0,494.0,612.0
27613,19744,US,138176,48.5391666667,-121.747222222,,Census,Town,WA,"Concrete, Washington",0,0,0,0,0,0,0,0,0,0,0,0,945,924,736.0,859,760,840.0,573.0,592.0,735.0,790.0,705.0
27650,13467,US,138087,47.7105555556,-118.941666667,,Census,Town,WA,"Almira, Washington",0,0,0,0,0,0,0,0,0,0,0,0,368,450,339.0,466,395,414.0,376.0,330.0,310.0,302.0,284.0
27816,10754,US,137942,46.9552777778,-123.773055556,,Census,City,WA,"Cosmopolis, Washington",0,0,0,0,0,0,0,0,0,0,287,1004,1132,1512,1943.0,1207,1164,1312.0,1599.0,1575.0,1372.0,1595.0,1649.0
27874,24822,US,91061,46.29,-123.43,,Census,US County,WA,"Wahkiakum County, Washington",0,0,0,0,0,0,0,42,270,1598,2526,2819,3285,3472,3862.0,4286,3835,3426.0,3592.0,3832.0,3327.0,3824.0,3978.0
27978,7624,US,137941,47.1177777778,-124.178333333,,Census,Cdp,WA,"Copalis Beach, Washington",0,0,0,0,0,0,0,0,0,0,0,0,0,0,0.0,0,0,0.0,0.0,0.0,0.0,489.0,415.0
28150,28151,US,91211,48.47,-118.51,,Census,US County,WA,"Ferry County, Washington",0,0,0,0,0,0,0,0,0,0,0,4562,4800,5143,4292.0,4701,4096,3889.0,3655.0,5811.0,6295.0,7260.0,7551.0
28221,23924,US,137982,47.4683333333,-122.345555556,,Census,City,WA,"Burien, Washington",0,0,0,0,0,0,0,0,0,0,0,0,0,0,0.0,0,0,0.0,0.0,23189.0,25089.0,31881.0,33313.0
28273,14753,US,138345,46.5563888889,-120.387222222,,Census,City,WA,"Moxee, Washington",0,0,0,0,0,0,0,0,0,0,0,0,0,0,283.0,335,543,499.0,600.0,687.0,814.0,821.0,3308.0
28408,13529,US,137933,46.9663888889,-119.043055556,,Census,City,WA,"Warden, Washington",0,0,0,0,0,0,0,0,0,0,0,0,0,173,100.0,78,322,949.0,1254.0,1479.0,1639.0,2544.0,2692.0
28431,16353,US,138282,47.0263888889,-122.807222222,,Census,City,WA,"Lacey, Washington",0,0,0,0,0,0,0,0,0,0,0,0,0,0,0.0,0,0,6630.0,9696.0,13940.0,19279.0,31226.0,42393.0
28539,28154,US,137887,46.1419444444,-122.906111111,,Census,City,WA,"Kelso, Washington",0,0,0,0,0,0,0,0,0,0,354,694,2039,2228,6260.0,6749,7345,8379.0,10296.0,11129.0,11820.0,11895.0,11925.0
28617,31604,US,70528,47.4413888889,-122.293055556,,Census,City,WA,"SeaTac, Washington",0,0,0,0,0,0,0,0,0,0,0,0,0,0,0.0,0,0,0.0,0.0,17961.0,22694.0,25496.0,26909.0
28633,10940,US,138324,46.9288888889,-117.686111111,,Census,Town,WA,"Endicott, Washington",0,0,0,0,0,0,0,0,0,0,0,0,474,634,512.0,495,397,369.0,333.0,290.0,320.0,621.0,289.0
28638,10632,US,138125,48.3366666667,-117.296111111,,Census,Town,WA,"Cusick, Washington",0,0,0,0,0,0,0,0,0,0,0,0,0,0,380.0,404,360,299.0,257.0,246.0,195.0,212.0,207.0
28677,24199,US,138155,47.1758333333,-122.293611111,,Census,City,WA,"Puyallup, Washington",0,0,0,0,0,0,0,0,312,297,1732,1884,4544,6323,7094.0,7889,10010,12063.0,14742.0,18251.0,23875.0,33011.0,37022.0
28758,19355,US,137833,47.5194444444,-120.468888889,,Census,City,WA,"Cashmere, Washington",0,0,0,0,0,0,0,0,0,0,0,0,625,1114,1473.0,1465,1768,1891.0,1976.0,2240.0,2544.0,2965.0,3063.0
28803,8983,US,138001,47.7225,-122.22,,Census,Neighborhood,WA,"Inglewood-Finn Hill, Washington",0,0,0,0,0,0,0,0,0,0,0,0,0,0,0.0,0,0,0.0,0.0,12467.0,29132.0,22661.0,22707.0
28817,9464,US,138053,47.6594444444,-122.676666667,,Census,Cdp,WA,"Silverdale, Washington",0,0,0,0,0,0,0,0,0,0,0,0,0,0,0.0,0,0,0.0,0.0,0.0,7660.0,15816.0,19204.0
28897,44699,US,78146,46.6,-120.5,,Census,City,WA,"Yakima, Washington",0,0,0,0,0,0,0,0,0,0,1535,3154,14082,18539,22101.0,27221,38486,43284.0,45588.0,49826.0,54827.0,71845.0,91067.0
28947,19275,US,138133,47.1622222222,-122.027777778,,Census,City,WA,"Buckley, Washington",0,0,0,0,0,0,0,0,0,0,878,1014,1272,1119,1052.0,1170,2705,3538.0,3446.0,3143.0,3516.0,4145.0,4354.0
28958,14492,US,137884,46.2738888889,-122.905,,Census,City,WA,"Castle Rock, Washington",0,0,0,0,0,0,0,0,0,0,681,750,998,829,1239.0,1182,1255,1424.0,1647.0,2162.0,2067.0,2130.0,1982.0
28960,24660,US,138322,46.8833333333,-117.366666667,,Census,City,WA,"Colfax, Washington",0,0,0,0,0,0,0,0,0,444,1649,2121,2783,3027,2782.0,2853,3057,2860.0,2664.0,2780.0,2713.0,2844.0,2805.0
28962,10896,US,137912,47.6119444444,-119.290833333,,Census,Town,WA,"Coulee City, Washington",0,0,0,0,0,0,0,0,0,0,0,0,276,472,420.0,744,977,654.0,558.0,510.0,568.0,600.0,562.0
29585,23999,US,137847,47.9511111111,-124.384722222,,Census,City,WA,"Forks, Washington",0,0,0,0,0,0,0,0,0,0,0,0,0,0,0.0,0,1120,1156.0,1680.0,3060.0,2862.0,3120.0,3532.0
29725,14202,US,138168,47.1069444444,-122.048333333,,Census,Town,WA,"Wilkeson, Washington",0,0,0,0,0,0,0,0,0,104,0,0,899,803,448.0,369,386,412.0,317.0,316.0,366.0,395.0,477.0
29796,11142,US,137918,47.9397222222,-119.001666667,,Census,City,WA,"Grand Coulee, Washington",0,0,0,0,0,0,0,0,0,0,0,0,0,0,0.0,3659,2741,1058.0,1302.0,1180.0,984.0,897.0,988.0
29877,9420,US,138260,47.2816666667,-117.156666667,,Census,Town,WA,"Latah, Washington",0,0,0,0,0,0,0,0,0,0,232,253,339,330,284.0,270,244,190.0,169.0,155.0,175.0,151.0,183.0
29887,17661,US,138254,47.9569444444,-117.470277778,,Census,City,WA,"Deer Park, Washington",0,0,0,0,0,0,0,0,0,0,0,0,875,1103,1009.0,1070,1167,1333.0,1295.0,2140.0,2278.0,3017.0,3652.0
29962,12425,US,138329,47.2005555556,-117.904444444,,Census,Town,WA,"Lamont, Washington",0,0,0,0,0,0,0,0,0,0,0,0,0,165,130.0,135,101,111.0,88.0,101.0,91.0,106.0,70.0
30053,31934,US,91213,46.19,-122.68,,Census,US County,WA,"Cowlitz County, Washington",0,0,0,0,0,0,0,406,730,2062,5917,7877,12561,11791,31906.0,40155,53369,57801.0,68616.0,79548.0,82119.0,92948.0,102410.0
30084,19614,US,138056,47.2184166667,-120.962911111,,Census,City,WA,"Cle Elum, Washington",0,0,0,0,0,0,0,0,4,543,243,296,2749,2661,2508.0,2230,2206,1816.0,1725.0,1773.0,1778.0,1755.0,1872.0
30175,25427,US,138018,47.5775,-122.212,,Census,City,WA,"Mercer Island, Washington",0,0,0,0,0,0,0,0,0,0,0,0,0,0,0.0,0,0,0.0,19047.0,21522.0,20816.0,22036.0,22699.0
30236,7716,US,137872,45.65,-122.616666667,,Census,Census-designated place,WA,"Minnehaha, Washington",0,0,0,0,0,0,0,0,0,0,0,0,0,0,0.0,0,0,0.0,0.0,0.0,9661.0,7689.0,9771.0
30474,6045,US,138104,48.4322222222,-119.454166667,,Census,Cdp,WA,"North Omak, Washington",0,0,0,0,0,0,0,0,0,0,0,0,0,0,0.0,0,0,0.0,0.0,0.0,515.0,688.0,688.0
30477,55348,US,21131991,47.9633333333,-122.200555556,,Census,City,WA,"Everett, Washington",0,0,0,0,0,0,0,0,0,0,0,7838,24814,27644,30567.0,30224,33849,40304.0,53622.0,54413.0,69961.0,91488.0,103019.0
30541,12426,US,138204,47.8208333333,-121.553888889,,Census,Town,WA,"Index, Washington",0,0,0,0,0,0,0,0,0,0,0,0,417,412,381.0,217,211,158.0,169.0,147.0,139.0,157.0,178.0
30672,14632,US,138107,48.9386111111,-119.435,,Census,City,WA,"Oroville, Washington",0,0,0,0,0,0,0,0,0,0,0,0,495,1013,800.0,1206,1500,1437.0,1555.0,1483.0,1505.0,1653.0,1686.0
30751,11029,US,138336,47.2247222222,-117.073611111,,Census,City,WA,"Tekoa, Washington",0,0,0,0,0,0,0,0,0,0,301,717,1694,1520,1408.0,1383,1189,911.0,808.0,854.0,750.0,826.0,778.0
30758,24878,US,91212,47.74,-119.69,,Census,US County,WA,"Douglas County, Washington",0,0,0,0,0,0,0,0,0,0,3161,4926,9227,9392,7561.0,8651,10817,14890.0,16787.0,22144.0,26205.0,32603.0,38431.0
30765,18003,US,137834,47.8427777778,-120.021388889,,Census,City,WA,"Chelan, Washington",0,0,0,0,0,0,0,0,0,0,0,0,682,896,1403.0,1738,2157,2402.0,2837.0,2802.0,2969.0,3522.0,3890.0
30886,20051,US,137953,46.9858333333,-123.597777778,,Census,City,WA,"Montesano, Washington",0,0,0,0,0,0,0,0,0,0,1632,1194,2488,2158,2460.0,2242,2328,2486.0,2847.0,3247.0,3064.0,3312.0,3976.0
31192,17084,US,138108,48.0533333333,-119.9025,,Census,City,WA,"Pateros, Washington",0,0,0,0,0,0,0,0,0,0,0,0,0,412,486.0,484,866,673.0,472.0,555.0,570.0,643.0,667.0
31297,25023,US,9621,46.9969444444,-120.545,,Census,City,WA,"Ellensburg, Washington",0,0,0,0,0,0,0,0,150,150,2768,1737,4209,3967,4621.0,5944,8430,8625.0,13568.0,11752.0,12361.0,15414.0,18174.0
31333,7341,US,137879,45.6741666667,-122.601388889,,Census,Census-designated place,WA,"Walnut Grove, Washington",0,0,0,0,0,0,0,0,0,0,0,0,0,0,0.0,0,0,0.0,0.0,0.0,3906.0,7164.0,9790.0
31383,25754,US,138030,47.5330555556,-121.844444444,,Census,City,WA,"Snoqualmie, Washington",0,0,0,0,0,0,0,0,0,0,0,0,279,450,752.0,775,806,1216.0,1260.0,1370.0,1546.0,1631.0,10670.0
31413,6534,US,138013,47.2772222222,-122.283888889,,Census,Cdp,WA,"Lakeland South, Washington",0,0,0,0,0,0,0,0,0,0,0,0,0,0,0.0,0,0,0.0,0.0,5225.0,9027.0,11436.0,11574.0
31461,10189,US,138066,45.7152777778,-121.466666667,,Census,City,WA,"Bingen, Washington",0,0,0,0,0,0,0,0,0,0,0,0,0,0,365.0,600,736,636.0,671.0,644.0,645.0,672.0,712.0
31523,10376,US,138355,46.5583333333,-120.490555556,,Census,City,WA,"Union Gap, Washington",0,0,0,0,0,0,0,0,0,267,196,287,263,332,586.0,976,1766,2100.0,2040.0,3184.0,3120.0,5621.0,6047.0
