,article_length,country,id,lat,lon,poptype,settlement_type,state,title,y1790,y1800,y1810,y1820,y1830,y1840,y1850,y1860,y1870,y1880,y1890,y1900,y1910,y1920,y1930,y1940,y1950,y1960,y1970,y1980,y1990,y2000,y2010
78,27170,US,138362,39.1516666667,-80.0433333333,Census,City,WV,"Philippi, West Virginia",0,0,0,0,0,0,0,0,0,0,378,665,1038,1543,1767.0,1955,2531,2228.0,3002.0,3194,3132,2870.0,2966.0
110,11643,US,151285,38.18,-81.3266666667,Census,City,WV,"Montgomery, West Virginia",0,0,0,0,0,0,0,0,0,0,0,1594,1886,2130,2906.0,3231,3484,3000.0,2525.0,3104,2449,1942.0,1638.0
142,10215,US,138470,37.7427777778,-81.8752777778,Census,Town,WV,"Man, West Virginia",0,0,0,0,0,0,0,0,0,0,0,0,0,0,835.0,1342,1632,1486.0,1201.0,1333,914,770.0,759.0
293,11425,US,138413,40.4991666667,-80.6080555556,Census,City,WV,"New Cumberland, West Virginia",0,0,0,0,0,0,0,0,0,1218,2305,2198,1807,1816,2300.0,2098,2119,2076.0,1865.0,1752,1363,1099.0,1103.0
374,10715,US,138601,39.2083333333,-81.1566666667,Census,Town,WV,"Cairo, West Virginia",0,0,0,0,0,0,0,0,0,75,0,653,668,662,607.0,532,500,418.0,412.0,428,290,263.0,281.0
697,9962,US,138596,38.7316666667,-79.9722222222,Census,Town,WV,"Mill Creek, West Virginia",0,0,0,0,0,0,0,0,0,0,0,0,740,762,723.0,732,800,817.0,800.0,801,685,662.0,724.0
698,8707,US,138390,37.8625,-80.8552777778,Census,Town,WV,"Meadow Bridge, West Virginia",0,0,0,0,0,0,0,0,0,0,0,0,0,0,476.0,477,597,426.0,429.0,530,325,321.0,379.0
786,20081,US,91026,39.63,-80.05,Census,US County,WV,"Monongalia County, West Virginia",4768,8540,12793,11060,14056,17368,12387,13048,13547,14985,15705,19049,24334,33618,50083.0,51252,60797,55617.0,63714.0,75024,75509,81866.0,96189.0
1091,9333,US,138369,37.9813888889,-81.5341666667,Census,Town,WV,"Whitesville, West Virginia",0,0,0,0,0,0,0,0,0,0,0,0,0,0,0.0,942,1017,774.0,781.0,689,486,520.0,514.0
1182,15004,US,138407,37.7483333333,-80.47,Census,City,WV,"Ronceverte, West Virginia",0,0,0,0,0,0,0,0,0,395,481,968,2157,2319,2254.0,2265,2301,1882.0,1981.0,2312,1754,1557.0,1765.0
1587,11284,US,138489,39.8266666667,-80.5661111111,Census,City,WV,"Cameron, West Virginia",0,0,0,0,0,0,0,0,0,0,0,964,1660,2404,2281.0,1998,1736,1652.0,1537.0,1474,1177,1212.0,946.0
1654,24276,US,91004,39.1,-79.57,Census,US County,WV,"Tucker County, West Virginia",0,0,0,0,0,0,0,1428,1907,3151,6459,13433,18675,16791,13374.0,13173,10600,7750.0,7447.0,8675,7728,7231.0,7141.0
1841,14233,US,138419,39.2966666667,-80.2513888889,Census,City,WV,"Bridgeport, West Virginia",0,0,0,0,0,0,0,0,0,395,455,464,577,1346,1567.0,1581,2414,4199.0,4777.0,6604,6739,7306.0,8149.0
1921,21774,US,138541,39.6255555556,-78.2269444444,Census,Town,WV,"Berkeley Springs, West Virginia",0,0,0,0,0,0,77,2982,407,534,0,781,864,980,1039.0,1145,1213,1138.0,944.0,789,735,663.0,624.0
1951,12683,US,138372,38.6708333333,-80.7702777778,Census,Town,WV,"Gassaway, West Virginia",0,0,0,0,0,0,0,0,0,0,0,0,1086,1518,1618.0,1429,1306,1223.0,1253.0,1225,946,901.0,908.0
1957,15617,US,138502,37.3613888889,-81.5363888889,Census,City,WV,"Gary, West Virginia",0,0,0,0,0,0,0,0,0,0,0,0,0,0,0.0,0,0,1393.0,0.0,2233,1355,917.0,968.0
2112,10421,US,151286,38.1775,-81.3063888889,Census,,WV,"Smithers, West Virginia",0,0,0,0,0,0,0,0,0,0,0,0,0,0,0.0,2232,2208,1696.0,2020.0,1482,1162,904.0,813.0
2274,11276,US,138528,37.6230555556,-82.1663888889,Census,Town,WV,"Matewan, West Virginia",0,0,0,0,0,0,0,0,0,0,0,0,588,851,932.0,905,989,896.0,651.0,822,619,498.0,499.0
2572,9831,US,138557,39.4936111111,-79.6386111111,Census,Town,WV,"Albright, West Virginia",0,0,0,0,0,0,0,0,0,0,0,0,0,262,343.0,334,396,304.0,319.0,357,195,247.0,299.0
2624,9505,US,138630,39.5622222222,-80.6811111111,Census,Town,WV,"Pine Grove, West Virginia",0,0,0,0,0,0,0,0,0,0,0,0,474,797,820.0,841,877,760.0,630.0,767,701,571.0,552.0
2720,9461,US,138429,39.2025,-80.4036111111,Census,Town,WV,"West Milford, West Virginia",0,0,0,0,0,0,0,0,0,0,210,187,212,0,349.0,389,401,367.0,356.0,510,519,651.0,630.0
2747,12162,US,138494,38.8330555556,-82.1372222222,Census,Town,WV,"Henderson, West Virginia",0,0,0,0,0,0,0,0,0,0,0,304,286,320,330.0,398,483,601.0,496.0,604,549,325.0,271.0
2875,20926,US,90995,37.61,-81.54,Census,US County,WV,"Wyoming County, West Virginia",0,0,0,0,0,0,1645,2861,3171,4322,6247,8380,10392,15180,20926.0,29774,37540,34836.0,30095.0,35993,28990,25708.0,23796.0
2878,10595,US,138617,39.4938888889,-80.9058333333,Census,Town,WV,"Middlebourne, West Virginia",0,0,0,0,0,0,0,247,182,241,0,403,540,929,769.0,733,741,711.0,814.0,941,922,870.0,815.0
2940,13445,US,91037,39.0,-80.51,Census,US County,WV,"Lewis County, West Virginia",0,0,0,4247,6241,8151,10031,7999,10175,13269,15895,16980,18821,20455,21794.0,22271,21074,19711.0,17847.0,18813,17223,16919.0,16372.0
2954,22733,US,138544,38.2236111111,-80.5366666667,Census,City,WV,"Richwood, West Virginia",0,0,0,0,0,0,0,0,0,0,0,0,3061,4331,5720.0,5051,5321,4110.0,3717.0,3568,2808,2477.0,2051.0
3017,16120,US,138395,37.9611111111,-81.0816666667,Census,Town,WV,"Thurmond, West Virginia",0,0,0,0,0,0,0,0,0,0,0,0,315,285,462.0,339,219,189.0,86.0,67,39,7.0,5.0
3062,16696,US,138430,38.9530555556,-81.7613888889,Census,City,WV,"Ravenswood, West Virginia",0,0,0,0,0,0,0,0,362,681,817,1074,1081,1284,1189.0,1061,1175,3410.0,4240.0,4126,4189,4031.0,3876.0
3103,14603,US,138373,38.6644444444,-80.7102777778,Census,Town,WV,"Sutton, West Virginia",0,0,0,0,0,0,0,0,0,279,276,864,1121,947,1205.0,1083,1070,967.0,1031.0,1192,939,1011.0,994.0
3125,9120,US,138501,37.4797222222,-81.65,Census,Town,WV,"Davy, West Virginia",0,0,0,0,0,0,0,0,0,0,0,0,0,0,0.0,0,1650,1331.0,993.0,882,403,373.0,420.0
3233,11009,US,138639,39.3252777778,-81.5427777778,Census,City,WV,"Vienna, West Virginia",0,0,0,0,0,0,0,0,0,0,0,0,0,0,0.0,2338,6020,9381.0,11549.0,11618,10862,10861.0,10749.0
3519,9272,US,138428,39.2519444444,-80.31,Census,City,WV,"Stonewood, West Virginia",0,0,0,0,0,0,0,0,0,0,0,0,0,0,0.0,0,2066,2202.0,1950.0,2058,1996,1815.0,1806.0
3590,17717,US,91000,38.15,-82.43,Census,US County,WV,"Wayne County, West Virginia",0,0,0,0,0,0,4760,6747,7852,14739,18652,23619,24081,26012,31206.0,35566,38696,38977.0,37581.0,46021,41636,42903.0,42481.0
3623,9933,US,138559,39.6591666667,-79.6405555556,Census,Town,WV,"Bruceton Mills, West Virginia",0,0,0,0,0,0,0,0,0,84,0,80,116,106,116.0,165,165,209.0,209.0,296,132,74.0,85.0
3722,10522,US,138398,39.2719444444,-79.365,Census,Town,WV,"Bayard, West Virginia",0,0,0,0,0,0,0,0,0,0,0,540,417,1074,743.0,585,589,484.0,475.0,540,414,299.0,290.0
3862,27335,US,91048,,,Census,US County,WV,"Fayette County, West Virginia",0,0,0,0,0,3924,3955,5997,6647,11560,20542,31987,51903,60377,72050.0,80628,82443,61731.0,49332.0,57863,47952,47579.0,46039.0
3877,10088,US,138567,38.5108333333,-81.8416666667,Census,Town,WV,"Bancroft, West Virginia",0,0,0,0,0,0,0,0,0,0,0,0,0,0,0.0,0,0,469.0,446.0,528,381,367.0,587.0
3885,11779,US,138607,38.8016666667,-81.3516666667,Census,City,WV,"Spencer, West Virginia",0,0,0,0,0,0,0,196,143,226,431,737,1224,1765,2493.0,2497,2587,2660.0,2271.0,2799,2279,2352.0,2322.0
4029,15588,US,138386,39.2955555556,-80.7758333333,Census,Town,WV,"West Union, West Virginia",0,0,0,0,0,0,0,0,0,356,312,623,779,1270,984.0,1020,1341,1186.0,1141.0,1090,830,806.0,825.0
4095,23023,US,138510,37.2622222222,-81.2186111111,Census,City,WV,"Bluefield, West Virginia",0,0,0,0,0,0,0,0,0,0,1775,4644,11188,15282,19339.0,20641,21506,19256.0,15921.0,16060,12756,11451.0,10447.0
4301,29947,US,91022,,,Census,US County,WV,"Pendleton County, West Virginia",2452,3962,4239,4846,6271,6940,5795,6164,6455,8022,8711,9167,9349,9652,9660.0,10884,9313,8093.0,7031.0,7910,8054,8196.0,7695.0
4385,15971,US,91036,38.18,-82.07,Census,US County,WV,"Lincoln County, West Virginia",0,0,0,0,0,0,0,0,5053,8739,11246,15434,20491,19378,19156.0,22886,22466,20267.0,18912.0,23675,21382,22108.0,21720.0
4437,11996,US,138371,38.7213888889,-80.6530555556,Census,Town,WV,"Flatwoods, West Virginia",0,0,0,0,0,0,0,0,0,0,0,0,284,325,299.0,308,288,248.0,220.0,405,324,348.0,277.0
4471,7733,US,138500,37.3516666667,-81.7991666667,Census,Town,WV,"Bradshaw, West Virginia",0,0,0,0,0,0,0,0,0,0,0,0,0,0,0.0,0,0,0.0,0.0,0,394,289.0,337.0
4572,32907,US,138365,39.4591666667,-77.9677777778,Census,City,WV,"Martinsburg, West Virginia",0,0,0,0,0,0,2190,3364,4863,6335,7226,7564,10698,12515,14857.0,15063,15621,15179.0,14626.0,13063,14073,14972.0,17227.0
4851,17054,US,91042,39.01,-78.86,Census,US County,WV,"Hardy County, West Virginia",7336,6627,5525,5700,6798,7622,9543,9864,5518,6794,7567,8449,9163,9601,9816.0,10813,10032,9308.0,8855.0,10030,10977,12669.0,14025.0
4922,11836,US,138415,39.0666666667,-78.9666666667,Census,Town,WV,"Moorefield, West Virginia",0,0,0,0,0,0,0,0,0,554,495,460,646,630,734.0,1291,1405,1434.0,2124.0,2257,2148,2375.0,2544.0
4959,10122,US,138475,39.5027777778,-80.1697222222,Census,Town,WV,"Barrackville, West Virginia",0,0,0,0,0,0,0,91,114,99,0,0,0,0,0.0,0,0,0.0,1545.0,1815,1443,1288.0,1302.0
5104,11791,US,138542,39.5311111111,-78.4569444444,Census,Town,WV,"Paw Paw, West Virginia",0,0,0,0,0,0,0,0,0,0,772,693,725,698,781.0,990,820,789.0,706.0,644,538,524.0,508.0
5117,21079,US,91046,39.1,-79.2,Census,US County,WV,"Grant County, West Virginia",0,0,0,0,0,0,0,0,4467,5542,6802,7275,7838,8993,8441.0,8805,8756,8304.0,8607.0,10210,10428,11299.0,11937.0
5176,9486,US,138506,37.4166666667,-81.4316666667,Census,Town,WV,"Northfork, West Virginia",0,0,0,0,0,0,0,0,0,0,0,0,425,421,494.0,387,994,798.0,737.0,1105,656,519.0,429.0
5191,10862,US,138370,38.8586111111,-80.6555555556,Census,Town,WV,"Burnsville, West Virginia",0,0,0,0,0,0,0,0,0,120,0,0,770,1088,868.0,851,731,728.0,591.0,531,495,481.0,510.0
5264,9568,US,138545,38.2833333333,-80.8441666667,Census,City,WV,"Summersville, West Virginia",0,0,0,0,0,0,0,0,0,165,0,223,204,279,536.0,643,1628,2008.0,2429.0,2972,2906,3294.0,3572.0
5426,15391,US,138434,38.8211111111,-81.7141666667,Census,City,WV,"Ripley, West Virginia",0,0,0,0,0,0,0,0,226,425,417,579,591,580,669.0,759,1813,2756.0,3244.0,3464,3023,3263.0,3252.0
5551,8656,US,138597,39.065,-79.8147222222,Census,Town,WV,"Montrose, West Virginia",0,0,0,0,0,0,0,0,0,0,0,0,112,129,114.0,122,79,114.0,115.0,129,140,156.0,156.0
5615,11610,US,138629,39.6575,-80.8594444444,Census,City,WV,"New Martinsville, West Virginia",0,0,0,0,0,0,228,0,260,778,692,1089,2176,2341,2814.0,3491,4084,5607.0,6528.0,7109,6705,5984.0,5366.0
5683,27834,US,138476,39.4813888889,-80.1433333333,Census,City,WV,"Fairmont, West Virginia",0,0,0,0,0,0,683,704,621,900,1023,5655,9711,17851,23159.0,23105,29346,27477.0,26093.0,23863,20210,19097.0,18704.0
5844,10401,US,138535,39.6433333333,-79.9880555556,Census,Town,WV,"Granville, West Virginia",0,0,0,0,0,0,0,0,0,122,0,0,0,0,0.0,0,1004,806.0,971.0,992,791,778.0,781.0
6034,10835,US,138376,40.3330555556,-80.5941666667,Census,City,WV,"Follansbee, West Virginia",0,0,0,0,0,0,0,0,0,0,0,0,2031,3135,4841.0,4834,4435,4052.0,3883.0,3994,3339,3115.0,2986.0
6079,12698,US,138608,37.6736111111,-80.8888888889,Census,City,WV,"Hinton, West Virginia",0,0,0,0,0,0,0,0,0,879,2570,3763,3656,3912,6654.0,5815,5780,5197.0,4503.0,4428,3433,2880.0,2676.0
6152,11282,US,138366,38.0777777778,-81.8358333333,Census,Town,WV,"Danville, West Virginia",0,0,0,0,0,0,0,0,0,0,0,0,0,327,486.0,417,544,507.0,580.0,727,595,550.0,691.0
6186,23922,US,91019,39.47,-79.67,Census,US County,WV,"Preston County, West Virginia",0,0,0,3422,5144,6866,11708,13312,14555,19091,20355,22727,26341,27996,29043.0,30416,31399,27233.0,25455.0,30460,29037,29334.0,33520.0
6233,27251,US,61368,40.1,-80.62,Census,US County,WV,"Ohio County, West Virginia",5212,4740,9182,9182,15584,13357,18006,22422,28831,37457,41557,48024,57572,62892,72077.0,73115,71672,68437.0,64197.0,61389,50871,47427.0,44443.0
6344,33081,US,91039,,,Census,US County,WV,"Jefferson County, West Virginia",0,0,11851,13087,12927,14082,15357,14535,13219,15005,15553,15935,15889,15729,15780.0,16762,17184,18665.0,21280.0,30302,35926,42190.0,53498.0
6469,14050,US,138570,38.4325,-82.0197222222,Census,City,WV,"Hurricane, West Virginia",0,0,0,0,0,0,0,0,0,67,207,240,422,666,1293.0,1103,1463,1970.0,3491.0,3751,4461,5222.0,6284.0
6572,24804,US,138551,38.6475,-79.3316666667,Census,Town,WV,"Franklin, West Virginia",0,0,0,0,0,0,0,0,0,273,0,205,200,320,431.0,613,777,758.0,695.0,780,914,797.0,721.0
6650,10519,US,138493,39.0036111111,-81.9911111111,Census,Town,WV,"Hartford City, West Virginia",0,0,0,0,0,0,0,0,918,567,446,515,358,430,423.0,467,366,376.0,527.0,556,487,519.0,614.0
6849,9790,US,138397,38.9136111111,-80.75,Census,Town,WV,"Sand Fork, West Virginia",0,0,0,0,0,0,0,0,0,0,0,0,0,0,0.0,0,0,0.0,252.0,280,196,176.0,159.0
6904,13270,US,138615,39.1480555556,-79.4972222222,Census,City,WV,"Thomas, West Virginia",0,0,0,0,0,0,0,0,0,0,269,2126,2354,2099,1660.0,1449,1146,830.0,713.0,747,573,452.0,586.0
7036,9283,US,138539,37.3986111111,-80.795,Census,Town,WV,"Peterstown, West Virginia",0,0,0,0,0,0,0,0,0,228,0,167,257,293,388.0,467,571,616.0,563.0,648,550,499.0,653.0
7143,18048,US,91043,40.52,-80.58,Census,US County,WV,"Hancock County, West Virginia",0,0,0,0,0,0,4050,4445,4363,4882,6414,6693,10465,19975,28511.0,31572,34388,39615.0,39749.0,40418,35233,32667.0,30676.0
7157,11252,US,138391,37.8925,-81.1677777778,Census,City,WV,"Mount Hope, West Virginia",0,0,0,0,0,0,0,0,0,0,0,351,494,1989,2361.0,2431,2588,2000.0,1829.0,1849,1573,1487.0,1414.0
7321,10027,US,138552,39.3802777778,-81.2591666667,Census,City,WV,"Belmont, West Virginia",0,0,0,0,0,0,0,0,0,0,0,0,0,0,0.0,0,215,454.0,802.0,887,912,1036.0,903.0
7340,10874,US,138439,38.2338888889,-81.5416666667,Census,Town,WV,"Belle, West Virginia",0,0,0,0,0,0,0,0,0,0,0,0,0,0,0.0,0,0,2559.0,1786.0,1621,1421,1259.0,1260.0
7430,11778,US,138399,38.9933333333,-79.1266666667,Census,City,WV,"Petersburg, West Virginia",0,0,0,0,0,0,0,0,0,268,0,0,0,834,1410.0,1751,1898,2079.0,2177.0,2084,2360,2423.0,2467.0
7683,37662,US,138638,39.2661111111,-81.5422222222,Census,City,WV,"Parkersburg, West Virginia",0,0,0,0,0,0,1218,2493,5546,6582,8408,11703,17842,20050,29623.0,30103,29684,44797.0,44208.0,39946,33862,33099.0,31492.0
7697,37515,US,91031,,,Census,US County,WV,"McDowell County, West Virginia",0,0,0,0,0,0,0,1535,1952,3074,7300,18747,47856,68571,90479.0,94354,98887,71359.0,50666.0,49899,35233,27329.0,22113.0
7715,15204,US,86949,38.7,-80.73,Census,US County,WV,"Braxton County, West Virginia",0,0,0,0,0,2575,4212,4992,6480,9787,13928,18904,23023,23973,22579.0,21658,18082,15152.0,12666.0,13894,12998,14702.0,14523.0
8144,9545,US,138566,39.395,-79.7463888889,Census,Town,WV,"Tunnelton, West Virginia",0,0,0,0,0,0,0,0,0,0,0,479,792,703,595.0,552,544,359.0,369.0,510,331,336.0,294.0
8279,10157,US,138550,40.1655555556,-80.5947222222,Census,Town,WV,"West Liberty, West Virginia",0,0,0,0,0,0,219,280,251,269,0,0,0,0,0.0,0,0,0.0,0.0,744,1434,1220.0,1542.0
8316,10428,US,138405,38.0580555556,-80.7044444444,Census,Town,WV,"Quinwood, West Virginia",0,0,0,0,0,0,0,0,0,0,0,0,0,0,0.0,0,838,506.0,370.0,460,559,435.0,290.0
8330,9602,US,138507,37.3011111111,-81.6841666667,Census,City,WV,"War, West Virginia",0,0,0,0,0,0,0,0,0,0,0,0,0,0,1392.0,1277,3992,3006.0,2004.0,2158,417,788.0,862.0
8497,9520,US,138495,38.7494444444,-81.9580555556,Census,Town,WV,"Leon, West Virginia",0,0,0,0,0,0,0,0,0,127,242,250,240,299,283.0,219,244,236.0,192.0,228,145,132.0,158.0
8595,15079,US,91047,38.92,-80.85,Census,US County,WV,"Gilmer County, West Virginia",0,0,0,0,0,0,3475,3759,4338,7108,9746,11762,11379,10668,10641.0,12046,9746,8050.0,7782.0,8334,7669,7160.0,8693.0
8778,9503,US,138546,40.0488888889,-80.6936111111,Census,Village,WV,"Bethlehem, West Virginia",0,0,0,0,0,0,0,0,0,0,0,0,0,0,0.0,0,1146,2308.0,2461.0,2677,2694,2651.0,2499.0
8800,23047,US,151282,40.4166666667,-80.5833333333,Census,City,WV,"Weirton, West Virginia",0,0,0,0,0,0,0,0,0,0,0,0,0,0,0.0,0,24005,28201.0,27131.0,24736,22124,20411.0,19746.0
8848,10218,US,138602,39.2677777778,-81.0513888889,Census,Town,WV,"Ellenboro, West Virginia",0,0,0,0,0,0,0,0,0,0,0,0,204,286,330.0,277,307,340.0,267.0,357,453,373.0,363.0
8986,20765,US,138387,38.1361111111,-81.1019444444,Census,Town,WV,"Ansted, West Virginia",0,0,0,0,0,0,0,0,0,0,0,1090,1030,1178,1404.0,1422,1543,1511.0,1511.0,1952,1643,1576.0,1404.0
9048,25133,US,138402,37.8041666667,-80.4402777778,Census,City,WV,"Lewisburg, West Virginia",0,0,0,0,0,0,0,969,875,985,1016,872,803,1202,1293.0,1466,2192,2259.0,2407.0,3065,3598,3624.0,3830.0
9154,32419,US,53271,39.3252777778,-77.7436111111,Census,Town,WV,"Harpers Ferry, West Virginia",0,0,0,0,0,0,1747,1339,0,764,958,896,766,713,705.0,665,822,572.0,423.0,361,308,307.0,286.0
9169,12865,US,138569,38.5391666667,-81.9311111111,Census,Town,WV,"Eleanor, West Virginia",0,0,0,0,0,0,0,0,0,0,0,0,0,0,0.0,0,0,0.0,1035.0,1282,1256,1345.0,1518.0
9311,139829,US,93552,38.4208333333,-82.4236111111,Census,City,WV,"Huntington, West Virginia",0,0,0,0,0,0,0,0,0,3174,10108,11923,31161,50177,75572.0,78836,86353,83627.0,74315.0,63684,54844,51475.0,49138.0
9323,11241,US,138440,38.22,-81.4294444444,Census,Town,WV,"Cedar Grove, West Virginia",0,0,0,0,0,0,0,0,0,0,0,0,679,918,1110.0,1411,1738,1569.0,1275.0,1479,1213,862.0,997.0
9407,13775,US,138509,37.4238888889,-81.0133333333,Census,Town,WV,"Athens, West Virginia",0,0,0,0,0,0,0,0,0,0,0,0,575,552,628.0,682,935,1086.0,967.0,1147,741,1102.0,1048.0
9465,9207,US,138516,39.6319444444,-78.7866666667,Census,Town,WV,"Carpendale, West Virginia",0,0,0,0,0,0,0,0,0,0,0,0,0,0,0.0,0,0,0.0,0.0,0,0,954.0,977.0
9472,10485,US,138456,38.3802777778,-81.8197222222,Census,City,WV,"St. Albans, West Virginia",0,0,0,0,0,0,0,0,0,0,0,816,1209,2825,3254.0,3558,9870,15103.0,14356.0,12402,11194,11567.0,11044.0
9646,17728,US,138481,39.4594444444,-80.2158333333,Census,Town,WV,"Monongah, West Virginia",0,0,0,0,0,0,0,0,0,0,0,1786,2084,2031,1909.0,1790,1622,1321.0,1194.0,1132,1018,939.0,1044.0
9724,8928,US,138562,39.3875,-79.8511111111,Census,Town,WV,"Newburg, West Virginia",0,0,0,0,0,0,0,0,0,802,778,751,823,890,745.0,696,657,494.0,457.0,418,378,360.0,329.0
9748,34083,US,91055,39.47,-78.03,Census,US County,WV,"Berkeley County, West Virginia",19713,22006,11479,11211,10518,10972,11771,12525,14900,17380,18702,19469,21999,24554,28030.0,29016,30359,33791.0,36356.0,46846,59253,75905.0,104169.0
9761,10273,US,138531,39.72,-80.2125,Census,Town,WV,"Blacksville, West Virginia",0,0,0,0,0,0,0,0,0,106,0,180,204,218,269.0,261,241,211.0,264.0,248,168,175.0,171.0
9784,10448,US,138561,39.5519444444,-79.8002777778,Census,Town,WV,"Masontown, West Virginia",0,0,0,0,0,0,0,0,0,0,0,0,520,831,924.0,869,941,841.0,868.0,1052,737,647.0,546.0
9868,12336,US,138568,38.6169444444,-81.98,Census,Town,WV,"Buffalo, West Virginia",0,0,0,0,0,0,0,268,321,351,238,364,384,300,316.0,338,333,396.0,831.0,1034,969,1171.0,1236.0
9897,10472,US,138621,38.1175,-82.5947222222,Census,Town,WV,"Fort Gay, West Virginia",0,0,0,0,0,0,0,0,0,253,266,0,457,617,664.0,645,714,739.0,792.0,886,852,819.0,705.0
9935,11157,US,138491,39.9872222222,-80.7313888889,Census,City,WV,"McMechen, West Virginia",0,0,0,0,0,0,0,0,0,0,427,1465,2921,3356,3710.0,3726,3518,2999.0,2808.0,2402,2130,1937.0,1926.0
9970,14748,US,138642,37.5847222222,-81.3847222222,Census,City,WV,"Mullens, West Virginia",0,0,0,0,0,0,0,0,0,0,0,0,0,1425,2356.0,3026,3470,3544.0,2967.0,2919,2006,1769.0,1559.0
10176,11416,US,138466,37.9716666667,-82.02,Census,Town,WV,"Chapmanville, West Virginia",0,0,0,0,0,0,0,0,0,0,0,0,0,0,0.0,0,1349,1241.0,1175.0,1164,1110,1211.0,1256.0
10221,10346,US,138627,39.6841666667,-80.4572222222,Census,Town,WV,"Hundred, West Virginia",0,0,0,0,0,0,0,0,0,0,0,261,557,710,788.0,706,587,475.0,475.0,485,386,344.0,299.0
10270,11437,US,138392,37.9827777778,-81.1452777778,Census,City,WV,"Oak Hill, West Virginia",0,0,0,0,0,0,0,0,0,0,0,0,764,1037,2076.0,3213,4518,4711.0,4738.0,7120,6812,7589.0,7730.0
10396,24486,US,138610,39.3416666667,-80.0197222222,Census,City,WV,"Grafton, West Virginia",0,0,0,0,0,0,0,891,1987,3030,3159,5650,7563,8517,7737.0,7431,7365,5791.0,6433.0,6845,5524,5489.0,5164.0
10468,10684,US,138571,38.4613888889,-81.8155555556,Census,Town,WV,"Poca, West Virginia",0,0,0,0,0,0,0,0,0,145,284,0,0,0,0.0,0,0,607.0,772.0,1142,1124,1013.0,974.0
10628,18118,US,91006,37.66,-80.86,Census,US County,WV,"Summers County, West Virginia",0,0,0,0,0,0,0,0,0,9033,13117,16265,18429,19092,20469.0,20409,19183,15640.0,13213.0,15875,14204,12999.0,13927.0
10740,9615,US,151292,39.6036111111,-80.9336111111,Census,City,WV,"Paden City, West Virginia",0,0,0,0,0,0,0,0,0,0,0,0,0,1705,2281.0,2215,2588,3137.0,3674.0,3671,2862,2860.0,2633.0
10839,9859,US,138517,39.385,-79.1538888889,Census,Town,WV,"Elk Garden, West Virginia",0,0,0,0,0,0,0,0,0,0,723,581,438,422,299.0,342,318,329.0,291.0,291,261,217.0,232.0
10845,8814,US,138368,38.0102777778,-81.5597222222,Census,Town,WV,"Sylvester, West Virginia",0,0,0,0,0,0,0,0,0,0,0,0,0,0,0.0,0,0,316.0,245.0,256,191,195.0,160.0
10848,18599,US,91025,37.56,-80.54,Census,US County,WV,"Monroe County, West Virginia",0,4188,5444,6620,7798,8422,10204,10757,11124,11501,12429,13130,13055,13141,11949.0,13577,13123,11584.0,11272.0,12873,12406,14583.0,13502.0
10966,10976,US,138375,40.2063888889,-80.5597222222,Census,Town,WV,"Bethany, West Virginia",0,0,0,0,0,0,0,0,0,335,0,245,433,400,439.0,410,1063,992.0,1360.0,1336,1139,985.0,1036.0
11222,10054,US,138590,37.7141666667,-81.2505555556,Census,Town,WV,"Sophia, West Virginia",0,0,0,0,0,0,0,0,0,0,0,0,0,240,611.0,1160,1430,1284.0,1303.0,1216,1182,1301.0,1344.0
11257,12572,US,86739,40.2775,-80.6094444444,Census,City,WV,"Wellsburg, West Virginia",0,0,0,0,0,0,0,0,1366,1815,2235,2588,4189,4918,6398.0,6255,5787,5514.0,4600.0,3963,3385,2891.0,2805.0
11305,16999,US,91010,,,Census,US County,WV,"Raleigh County, West Virginia",0,0,0,0,0,0,1765,3367,3673,7367,9597,12436,25633,42482,68072.0,86687,96273,77826.0,70080.0,86821,76819,79220.0,78859.0
11482,14754,US,138623,38.2283333333,-82.4405555556,Census,Town,WV,"Wayne, West Virginia",0,0,0,0,0,0,0,0,0,157,361,407,384,446,675.0,801,1257,1274.0,1385.0,1495,1128,1105.0,1413.0
11543,31929,US,91045,,,Census,US County,WV,"Greenbrier County, West Virginia",6015,4345,5914,7041,9006,8695,10022,12211,11417,15060,18034,20683,24833,26242,35878.0,38520,39295,34446.0,32090.0,37665,34693,34453.0,35480.0
11640,16410,US,138521,39.6430555556,-78.7691666667,Census,Town,WV,"Ridgeley, West Virginia",0,0,0,0,0,0,0,0,0,0,0,0,0,1709,1972.0,1907,1754,1229.0,1112.0,994,779,762.0,675.0
11679,21013,US,90998,39.61,-80.64,Census,US County,WV,"Wetzel County, West Virginia",0,0,0,0,0,0,4284,6703,8595,13896,16841,22880,23855,23069,22334.0,22342,20154,19347.0,20314.0,21874,19258,17693.0,16583.0
11710,9525,US,138625,38.3688888889,-80.5963888889,Census,Town,WV,"Camden-on-Gauley, West Virginia",0,0,0,0,0,0,0,0,0,0,0,0,263,283,435.0,373,373,301.0,243.0,236,171,157.0,169.0
11813,10606,US,138592,38.8505555556,-79.8675,Census,Town,WV,"Beverly, West Virginia",0,0,0,0,0,0,0,0,0,235,343,464,438,442,431.0,484,515,441.0,470.0,475,696,651.0,702.0
11857,9813,US,138424,39.375,-80.3483333333,Census,Town,WV,"Lumberport, West Virginia",0,0,0,0,0,0,0,0,0,0,0,0,656,900,1298.0,1285,1198,1031.0,957.0,939,1014,937.0,876.0
11871,15536,US,138396,38.9352777778,-80.8372222222,Census,Town,WV,"Glenville, West Virginia",0,0,0,0,0,0,0,398,174,236,329,398,336,327,799.0,588,1789,1828.0,2183.0,2155,1923,1544.0,1537.0
11875,22102,US,91009,38.78,-79.87,Census,US County,WV,"Randolph County, West Virginia",951,1826,2854,3357,5000,6208,5243,4990,5563,8102,11633,17670,26028,26084,25049.0,30259,30558,26349.0,24596.0,28734,27803,28262.0,29405.0
12134,8926,US,138637,39.3108333333,-81.5086111111,Census,Town,WV,"North Hills, West Virginia",0,0,0,0,0,0,0,0,0,0,0,0,0,0,0.0,0,0,0.0,0.0,940,849,880.0,832.0
12231,19165,US,90997,39.02,-81.38,Census,US County,WV,"Wirt County, West Virginia",0,0,0,0,0,0,3353,3751,4804,7104,9411,10284,9047,7536,6358.0,6475,5119,4391.0,4154.0,4922,5192,5873.0,5717.0
12252,8320,US,138598,38.8969444444,-79.9638888889,Census,Town,WV,"Womelsdorf (Coalton), West Virginia",0,0,0,0,0,0,0,0,0,0,0,0,665,833,373.0,417,407,354.0,234.0,306,277,247.0,250.0
12256,37408,US,91044,39.31,-78.61,Census,US County,WV,"Hampshire County, West Virginia",7346,8348,9784,10889,11279,12295,14036,13913,7643,10366,11419,11806,11694,11713,11836.0,12974,12577,11705.0,11710.0,14867,16498,20203.0,23964.0
12385,18513,US,91021,39.37,-81.16,Census,US County,WV,"Pleasants County, West Virginia",0,0,0,0,0,0,0,2945,3012,6256,7539,9345,8074,7379,6545.0,6692,6369,7124.0,7274.0,8236,7546,7514.0,7605.0
12564,21591,US,91050,38.84,-81.12,Census,US County,WV,"Calhoun County, West Virginia",0,0,0,0,0,0,0,2502,2939,6072,8155,10266,11258,10268,10866.0,12455,10259,7948.0,7046.0,8250,7885,7582.0,7627.0
12579,12123,US,138363,39.5541666667,-77.995,Census,Town,WV,"Hedgesville, West Virginia",0,0,0,0,0,0,0,0,0,383,448,342,328,379,361.0,403,419,342.0,274.0,217,227,240.0,318.0
13144,15734,US,91051,38.42,-82.24,Census,US County,WV,"Cabell County, West Virginia",0,0,2717,4789,5884,8163,6299,8020,6429,13744,23595,29252,46685,65746,90786.0,97459,108035,108202.0,106918.0,106835,96827,96784.0,96319.0
13225,9701,US,138554,38.5472222222,-79.8280555556,Census,Town,WV,"Durbin, West Virginia",0,0,0,0,0,0,0,0,0,0,0,0,390,422,498.0,533,540,431.0,347.0,379,278,262.0,293.0
13229,15133,US,138622,38.3997222222,-82.5786111111,Census,City,WV,"Kenova, West Virginia",0,0,0,0,0,0,0,0,0,0,0,863,992,2162,3680.0,3902,4320,4577.0,4860.0,4454,3748,3485.0,3216.0
13381,7597,US,138451,38.2452777778,-81.5675,Census,City,WV,"Marmet, West Virginia",0,0,0,0,0,0,0,0,0,0,0,0,0,0,1200.0,1814,2515,2500.0,2339.0,2196,1879,1693.0,1503.0
13431,28849,US,91024,39.56,-78.26,Census,US County,WV,"Morgan County, West Virginia",0,0,0,2500,2694,4253,3557,3732,4315,5777,6744,7294,7848,8357,8406.0,8743,8276,8376.0,8547.0,10711,12128,14943.0,17541.0
13583,12023,US,138520,39.4802777778,-79.0480555556,Census,Town,WV,"Piedmont, West Virginia",0,0,0,0,0,0,0,0,1366,0,0,2115,2054,2835,2241.0,2677,2565,2307.0,1763.0,1491,1094,1014.0,876.0
13660,11020,US,138425,39.2622222222,-80.3225,Census,Town,WV,"Nutter Fort, West Virginia",0,0,0,0,0,0,0,0,0,0,0,0,0,0,1825.0,1803,2285,2440.0,2379.0,2078,1819,1686.0,1593.0
13714,9174,US,138547,40.1422222222,-80.6908333333,Census,Village,WV,"Clearview, West Virginia",0,0,0,0,0,0,0,0,0,0,0,0,0,0,0.0,0,0,520.0,512.0,740,622,590.0,565.0
13803,29037,US,91028,39.42,-78.94,Census,US County,WV,"Mineral County, West Virginia",0,0,0,0,0,0,0,0,6332,8630,12085,12883,16674,19849,20084.0,22215,22333,22354.0,23109.0,27234,26697,27078.0,28212.0
13823,9447,US,138631,39.4969444444,-80.5611111111,Census,Town,WV,"Smithfield, West Virginia",0,0,0,0,0,0,0,0,0,0,0,0,765,774,609.0,455,390,361.0,294.0,278,205,177.0,145.0
13868,11246,US,138406,37.9697222222,-80.7672222222,Census,Town,WV,"Rainelle, West Virginia",0,0,0,0,0,0,0,0,0,0,0,0,0,566,920.0,985,853,649.0,1826.0,1983,1681,1545.0,1505.0
13922,11906,US,138384,38.9230555556,-81.095,Census,Town,WV,"Grantsville, West Virginia",0,0,0,0,0,0,0,0,0,112,0,225,282,450,1018.0,1052,959,866.0,795.0,788,671,565.0,561.0
13976,23622,US,138438,39.4319444444,-77.8061111111,Census,Town,WV,"Shepherdstown, West Virginia",0,0,0,0,0,0,1561,1219,1389,1533,1515,1184,1070,1063,888.0,945,1173,1328.0,1688.0,1791,1287,803.0,1734.0
14022,17226,US,151289,38.4152777778,-81.8311111111,Census,City,WV,"Nitro, West Virginia",0,0,0,0,0,0,0,0,0,0,0,0,0,0,0.0,2983,3314,6894.0,8019.0,8074,6851,6824.0,7178.0
14080,17041,US,151287,37.7275,-80.6413888889,Census,Town,WV,"Alderson, West Virginia",0,0,0,0,0,0,0,0,0,478,663,518,1252,1401,1458.0,1493,1489,1225.0,1278.0,1375,1152,1091.0,1184.0
14125,16627,US,138519,39.4388888889,-78.9827777778,Census,City,WV,"Keyser, West Virginia",0,0,0,0,0,0,0,0,0,1693,2165,2563,3705,6003,6248.0,6177,6347,6192.0,6586.0,6569,5870,5303.0,5439.0
14365,15943,US,138641,39.3994444444,-81.4505555556,Census,City,WV,"Williamstown, West Virginia",0,0,0,0,0,0,0,209,282,198,376,0,1139,1793,1657.0,1687,2001,2632.0,2743.0,3095,2774,2996.0,2908.0
14532,10832,US,138548,40.0508333333,-80.6269444444,Census,Town,WV,"Triadelphia, West Virginia",0,0,0,0,0,0,242,258,239,313,515,287,261,299,302.0,359,741,600.0,547.0,1461,835,817.0,811.0
14569,54323,US,151290,40.0702777778,-80.6986111111,Census,City,WV,"Wheeling, West Virginia",0,0,0,0,0,7885,11435,14083,19280,30737,34522,38878,41641,56208,61659.0,61099,58891,53400.0,48188.0,43070,34882,31419.0,28486.0
14779,10959,US,138560,39.4716666667,-79.685,Census,City,WV,"Kingwood, West Virginia",0,0,0,0,0,0,0,0,0,365,0,700,800,1417,1709.0,1676,2186,2530.0,2550.0,2877,3243,2944.0,2939.0
14783,19811,US,138575,37.7797222222,-81.1830555556,Census,City,WV,"Beckley, West Virginia",0,0,0,0,0,0,0,0,0,144,158,342,2161,4149,9357.0,12852,19397,18642.0,19884.0,20492,18274,17254.0,17614.0
14825,12185,US,138382,38.4361111111,-82.1333333333,Census,Town,WV,"Milton, West Virginia",0,0,0,0,0,0,0,0,0,377,548,582,837,1023,1305.0,1641,1552,1714.0,1597.0,2178,2242,2206.0,2423.0
15010,10311,US,138616,39.515,-81.0611111111,Census,Town,WV,"Friendly, West Virginia",0,0,0,0,0,0,0,0,0,0,0,253,217,173,170.0,148,216,195.0,190.0,242,146,159.0,132.0
15116,11548,US,138511,37.3255555556,-81.3125,Census,Town,WV,"Bramwell, West Virginia",0,0,0,0,0,0,0,0,0,0,499,825,1458,1690,1574.0,1494,1587,1195.0,1125.0,989,620,426.0,364.0
15195,10793,US,138504,37.415,-81.4461111111,Census,City,WV,"Keystone, West Virginia",0,0,0,0,0,0,0,0,0,0,0,1088,2047,1839,1897.0,2942,2594,1457.0,1008.0,902,627,453.0,282.0
15256,8711,US,138393,37.9111111111,-81.2652777778,Census,Town,WV,"Pax, West Virginia",0,0,0,0,0,0,0,0,0,0,0,0,0,0,608.0,631,561,408.0,288.0,274,167,174.0,167.0
15284,9204,US,138600,39.0955555556,-80.8566666667,Census,Town,WV,"Auburn, West Virginia",0,0,0,0,0,0,0,0,0,109,0,0,199,177,166.0,168,149,139.0,115.0,116,89,103.0,97.0
15362,17424,US,91007,38.72,-81.36,Census,US County,WV,"Roane County, West Virginia",0,0,0,0,0,0,0,5381,7232,12184,15303,19852,21543,20129,19478.0,20787,18408,15720.0,14111.0,15952,15120,15446.0,14926.0
15532,12728,US,138410,39.2983333333,-78.4366666667,Census,Town,WV,"Capon Bridge, West Virginia",0,0,0,0,0,0,0,0,0,0,0,0,213,157,192.0,201,223,198.0,211.0,191,192,200.0,355.0
15546,44304,US,138420,39.2833333333,-80.35,Census,City,WV,"Clarksburg, West Virginia",0,0,0,0,0,0,0,895,0,2307,3008,4050,9201,27869,28866.0,30579,32014,28112.0,24864.0,22371,18059,16743.0,16578.0
15597,11473,US,138618,39.5616666667,-80.9977777778,Census,City,WV,"Sistersville, West Virginia",0,0,0,0,0,0,0,351,304,386,469,2979,2684,3238,3072.0,2702,2313,2331.0,2246.0,2367,1797,1588.0,1396.0
15717,18838,US,91032,38.77,-82.02,Census,US County,WV,"Mason County, West Virginia",0,0,1991,4868,6534,6777,7539,9173,15978,22293,22863,24142,23019,21459,20788.0,22270,23537,24459.0,24306.0,27045,25178,25957.0,27324.0
15762,10970,US,138556,38.2247222222,-80.0947222222,Census,Town,WV,"Marlinton, West Virginia",0,0,0,0,0,0,0,0,0,0,5,171,1045,1177,1586.0,1644,1645,1586.0,1286.0,1352,1148,1204.0,1054.0
15763,27509,US,138411,39.345,-78.7569444444,Census,City,WV,"Romney, West Virginia",0,0,0,0,0,0,456,569,482,371,451,580,1112,1028,1441.0,2013,2059,2203.0,2364.0,2094,1966,1940.0,1848.0
15799,152909,US,32905,,,Census,US State,WV,West Virginia,55873,78592,105469,136808,176924,224537,302313,376688,442014,618457,762794,958800,1221119,1463701,1729205.0,1901974,2005552,1860421.0,1744237.0,1949644,1793477,1808344.0,1852994.0
15817,9747,US,138527,37.8408333333,-82.4094444444,Census,Town,WV,"Kermit, West Virginia",0,0,0,0,0,0,0,0,0,0,0,0,0,636,740.0,811,964,743.0,716.0,705,342,209.0,406.0
15863,68743,US,138536,39.6336111111,-79.9505555556,Census,City,WV,"Morgantown, West Virginia",0,0,0,0,0,0,0,741,797,745,1011,1895,9150,12127,16186.0,16655,25525,22487.0,29431.0,27605,25879,26809.0,29660.0
16248,19453,US,91033,39.87,-80.67,Census,US County,WV,"Marshall County, West Virginia",0,0,0,0,0,6937,10138,12997,14941,18840,20735,26444,32388,33681,39831.0,40189,36893,38041.0,37598.0,41608,37356,35519.0,33107.0
16374,9864,US,138464,38.2855555556,-82.1919444444,Census,Town,WV,"West Hamlin, West Virginia",0,0,0,0,0,0,0,0,0,0,0,0,0,0,0.0,0,793,788.0,715.0,643,423,696.0,774.0
16399,16125,US,138437,39.2986111111,-77.8611111111,Census,City,WV,"Ranson, West Virginia",0,0,0,0,0,0,0,0,0,0,0,0,0,699,1002.0,1171,1436,1974.0,2189.0,2471,2890,2951.0,4440.0
16478,9001,US,138606,38.8988888889,-81.4269444444,Census,Town,WV,"Reedy, West Virginia",0,0,0,0,0,0,0,0,0,0,0,300,313,373,405.0,329,352,352.0,351.0,338,271,198.0,182.0
16594,12061,US,138360,39.0258333333,-79.9380555556,Census,City,WV,"Belington, West Virginia",0,0,0,0,0,0,0,0,0,0,0,430,1481,1766,1571.0,1517,1699,1528.0,1567.0,2038,1850,1788.0,1921.0
16618,10040,US,138477,39.5927777778,-80.2472222222,Census,Town,WV,"Fairview, West Virginia",0,0,0,0,0,0,0,69,72,195,235,0,782,827,836.0,831,775,653.0,640.0,759,513,435.0,408.0
16696,14306,US,138555,38.1380555556,-80.2125,Census,Town,WV,"Hillsboro, West Virginia",0,0,0,0,0,0,0,0,0,99,166,339,181,215,220.0,224,241,210.0,267.0,276,188,243.0,260.0
16861,11253,US,138643,37.6930555556,-81.6344444444,Census,Town,WV,"Oceana, West Virginia",0,0,0,0,0,0,0,0,0,107,0,0,0,0,0.0,0,1373,1303.0,1580.0,2143,1791,1550.0,1394.0
17075,28332,US,91038,38.34,-81.53,Census,US County,WV,"Kanawha County, West Virginia",0,3239,3866,6399,9326,13567,15353,16150,22349,32466,42756,54696,81457,119650,157667.0,195619,239629,252925.0,229515.0,231414,207619,200073.0,193063.0
17116,12011,US,138446,38.2169444444,-81.4441666667,Census,Town,WV,"East Bank, West Virginia",0,0,0,0,0,0,0,0,0,0,0,468,551,586,476.0,601,735,1023.0,1025.0,1155,892,933.0,959.0
17196,21158,US,91040,38.83,-81.67,Census,US County,WV,"Jackson County, West Virginia",0,0,0,0,0,4890,6544,8306,10300,16312,19021,22987,20956,18658,16124.0,16598,15299,18541.0,20903.0,25794,25938,28000.0,29211.0
17233,13185,US,57236,38.51,-81.91,Census,US County,WV,"Putnam County, West Virginia",0,0,0,0,0,0,5335,6301,7794,11375,14342,17330,18587,17531,16737.0,19511,21021,23561.0,27625.0,38181,42835,51589.0,55486.0
17347,9420,US,138487,39.4516666667,-80.2627777778,Census,Town,WV,"Worthington, West Virginia",0,0,0,0,0,0,0,120,127,87,0,0,292,381,405.0,507,544,361.0,288.0,329,233,170.0,158.0
17513,11418,US,138490,39.9486111111,-80.755,Census,Town,WV,"Glen Dale, West Virginia",0,0,0,0,0,0,0,0,0,0,0,0,0,0,1493.0,1348,1467,1905.0,2150.0,1875,1612,1552.0,1526.0
17538,11943,US,138564,39.35,-79.6727777778,Census,Town,WV,"Rowlesburg, West Virginia",0,0,0,0,0,0,0,0,0,402,560,652,936,1225,1573.0,1452,1299,970.0,829.0,966,648,613.0,584.0
17547,33974,US,61370,39.13,-80.0,Census,US County,WV,"Barbour County, West Virginia",0,0,0,0,0,0,9005,8958,10312,11870,12702,14198,15858,18028,18628.0,19869,19745,15474.0,14030.0,16639,15699,15557.0,16589.0
17631,11209,US,138412,40.6127777778,-80.5627777778,Census,City,WV,"Chester, West Virginia",0,0,0,0,0,0,0,0,0,0,0,0,3184,3283,3701.0,3805,3758,3787.0,3614.0,3297,2905,2592.0,2585.0
17660,10099,US,138503,37.4669444444,-81.8086111111,Census,Town,WV,"Iaeger, West Virginia",0,0,0,0,0,0,0,0,0,0,0,0,0,481,1066.0,986,1271,930.0,822.0,833,551,358.0,302.0
17802,9410,US,138563,39.5080555556,-79.8011111111,Census,Town,WV,"Reedsville, West Virginia",0,0,0,0,0,0,0,0,0,0,0,0,208,254,345.0,324,321,398.0,379.0,564,482,517.0,593.0
17859,25386,US,138624,38.4761111111,-80.41,Census,Town,WV,"Webster Springs, West Virginia",0,0,0,0,0,0,0,0,0,120,0,297,500,679,976.0,1133,1313,1132.0,1038.0,939,674,808.0,776.0
17939,14430,US,91003,39.47,-80.88,Census,US County,WV,"Tyler County, West Virginia",0,0,0,2314,4104,6954,5498,6517,7832,11073,11962,18252,16211,14186,12785.0,12559,10535,10026.0,9929.0,11320,9796,9592.0,9208.0
18007,12728,US,138479,39.5572222222,-80.1786111111,Census,Town,WV,"Grant Town, West Virginia",0,0,0,0,0,0,0,0,0,0,0,0,0,0,0.0,0,1273,1105.0,946.0,987,694,657.0,613.0
18089,9420,US,138580,37.7347222222,-81.3011111111,Census,Town,WV,"Lester, West Virginia",0,0,0,0,0,0,0,0,0,0,0,0,0,412,609.0,909,780,626.0,507.0,626,420,322.0,348.0
18163,73072,US,57861,38.3472222222,-81.6333333333,Census,State Capital,WV,"Charleston, West Virginia",0,0,0,0,0,0,1050,1520,3162,4192,6742,11099,22996,39608,60408.0,67914,73501,85796.0,71505.0,63968,57287,53421.0,51400.0
18341,19429,US,90999,38.49,-80.43,Census,US County,WV,"Webster County, West Virginia",0,0,0,0,0,0,0,1555,1730,3207,4783,8862,9680,11562,14216.0,18080,17888,13719.0,9809.0,12245,10729,9719.0,9154.0
18372,10241,US,138441,38.2225,-81.5361111111,Census,Town,WV,"Chesapeake, West Virginia",0,0,0,0,0,0,0,0,0,0,0,0,0,0,0.0,0,2566,2699.0,2428.0,2364,1896,1643.0,1554.0
18395,14000,US,138417,39.0755555556,-78.5944444444,Census,Town,WV,"Wardensville, West Virginia",0,0,0,0,0,0,0,0,0,123,106,152,123,745,189.0,195,171,289.0,288.0,241,140,246.0,271.0
18414,10276,US,138435,39.3233333333,-77.7516666667,Census,Town,WV,"Bolivar, West Virginia",0,0,0,0,0,0,1054,1130,0,822,804,781,687,585,616.0,628,637,754.0,943.0,672,1013,1045.0,1045.0
18477,9841,US,138505,37.4275,-81.5066666667,Census,Town,WV,"Kimball, West Virginia",0,0,0,0,0,0,0,0,0,0,0,0,1630,1428,1467.0,1580,1359,1175.0,962.0,871,550,411.0,194.0
18497,13467,US,138537,39.6580555556,-79.9861111111,Census,Town,WV,"Star City, West Virginia",0,0,0,0,0,0,0,0,0,0,0,0,318,823,1121.0,1175,1205,1236.0,1312.0,1464,1251,1366.0,1825.0
18771,20427,US,138485,39.5302777778,-80.1191666667,Census,Town,WV,"Rivesville, West Virginia",0,0,0,0,0,0,0,54,63,136,165,164,190,1061,1700.0,1552,1343,1191.0,1108.0,1327,1064,913.0,934.0
18956,24551,US,138498,38.8575,-82.1286111111,Census,City,WV,"Point Pleasant, West Virginia",0,0,0,0,0,0,0,0,773,1036,1853,1934,2045,3059,3301.0,3538,4596,5785.0,6122.0,5682,4996,4637.0,4350.0
18970,9070,US,138594,38.9211111111,-79.5252777778,Census,Town,WV,"Harman, West Virginia",0,0,0,0,0,0,0,0,0,0,0,0,149,100,114.0,184,146,128.0,142.0,181,128,126.0,143.0
19034,12751,US,138620,38.3933333333,-82.5602777778,Census,Town,WV,"Ceredo, West Virginia",0,0,0,0,0,0,0,0,0,462,923,1279,1215,1110,1164.0,1212,1399,1387.0,1583.0,2255,1916,1675.0,1450.0
19177,13507,US,138409,37.7938888889,-80.3036111111,Census,City,WV,"White Sulphur Springs, West Virginia",0,0,0,0,0,0,0,0,0,0,0,0,338,837,1484.0,2093,2643,2676.0,2869.0,3371,2779,2595.0,2444.0
19299,12682,US,138401,37.9911111111,-80.3552777778,Census,Town,WV,"Falling Spring, West Virginia",0,0,0,0,0,0,0,0,0,0,0,0,270,263,355.0,388,307,265.0,255.0,240,191,209.0,211.0
19344,9868,US,138453,38.2072222222,-81.3872222222,Census,Town,WV,"Pratt, West Virginia",0,0,0,0,0,0,0,0,0,0,0,0,306,315,325.0,417,457,602.0,671.0,821,640,551.0,602.0
19531,8706,US,138486,39.4261111111,-80.1836111111,Census,Town,WV,"White Hall, West Virginia",0,0,0,0,0,0,0,0,0,0,0,0,0,0,0.0,0,0,0.0,0.0,0,0,595.0,648.0
19723,13809,US,138442,38.4886111111,-81.3488888889,Census,Town,WV,"Clendenin, West Virginia",0,0,0,0,0,0,0,0,0,0,0,0,815,1263,1217.0,1200,1475,1510.0,1438.0,1373,1203,1116.0,1227.0
19737,10526,US,138448,38.2127777778,-81.4241666667,Census,Town,WV,"Glasgow, West Virginia",0,0,0,0,0,0,0,0,0,0,0,0,0,0,614.0,725,881,914.0,904.0,1031,906,783.0,905.0
19863,8347,US,138482,39.4513888889,-80.1491666667,Census,City,WV,"Pleasant Valley, Marion County, West Virginia",0,0,0,0,0,0,0,0,0,0,0,0,0,0,0.0,0,0,0.0,0.0,0,0,3124.0,3149.0
19911,9541,US,138423,39.1583333333,-80.3480555556,Census,Town,WV,"Lost Creek, West Virginia",0,0,0,0,0,0,0,0,0,0,0,0,0,0,0.0,0,798,678.0,571.0,604,413,467.0,496.0
20045,26027,US,91035,37.83,-81.94,Census,US County,WV,"Logan County, West Virginia",0,0,0,0,3680,4309,3620,4938,5124,7329,11101,6955,14476,41006,58534.0,67768,77391,61570.0,46269.0,50679,43032,37710.0,36743.0
20074,20051,US,138427,39.3941666667,-80.3002777778,Census,City,WV,"Shinnston, West Virginia",0,0,0,0,0,0,0,0,0,289,403,535,1224,1679,2802.0,2817,2793,2724.0,2576.0,3059,2543,2295.0,2201.0
20446,20963,US,90996,39.21,-81.51,Census,US County,WV,"Wood County, West Virginia",0,1217,3036,5860,6429,7923,9450,11046,19000,25006,28612,34452,38001,42306,56521.0,62399,66540,78331.0,86818.0,93648,86915,87986.0,86956.0
20541,13063,US,138644,37.5830555556,-81.5352777778,Census,Town,WV,"Pineville, West Virginia",0,0,0,0,0,0,0,0,0,0,0,0,334,304,462.0,769,1082,1137.0,1187.0,1140,865,715.0,668.0
20620,22956,US,91020,,,Census,US County,WV,"Pocahontas County, West Virginia",0,0,0,0,2542,2922,3598,3958,4069,5561,6814,8570,14740,15002,14555.0,13906,12480,10136.0,8870.0,9919,9008,9131.0,8719.0
20664,9565,US,138604,39.2836111111,-80.9672222222,Census,City,WV,"Pennsboro, West Virginia",0,0,0,0,0,0,0,0,0,330,570,738,930,1654,1616.0,1738,1753,1660.0,1614.0,1652,1282,1199.0,1171.0
20789,24040,US,91054,38.02,-81.72,Census,US County,WV,"Boone County, West Virginia",0,0,0,0,0,0,3237,4840,4553,5824,6885,8194,10331,15319,24586.0,28556,33173,28764.0,25118.0,30447,25870,25535.0,24629.0
20937,20062,US,91041,39.29,-80.38,Census,US County,WV,"Harrison County, West Virginia",2080,4848,9958,10932,14722,17669,11728,13790,16714,20181,21919,27690,48381,74793,78567.0,82911,85296,77856.0,73028.0,77710,69371,68652.0,69099.0
21026,10013,US,138418,39.2583333333,-80.2880555556,Census,Town,WV,"Anmoore, West Virginia",0,0,0,0,0,0,0,0,0,0,0,0,0,0,0.0,0,0,1050.0,944.0,865,686,685.0,770.0
21095,19168,US,91034,39.51,-80.24,Census,US County,WV,"Marion County, West Virginia",0,0,0,0,0,0,10552,12722,12107,17198,20721,32430,42794,54571,66655.0,68683,71521,63717.0,61356.0,65789,57249,56598.0,56418.0
21165,15703,US,91005,39.34,-80.05,Census,US County,WV,"Taylor County, West Virginia",0,0,0,0,0,0,5367,7463,9367,11455,12147,14978,16554,18742,19114.0,19919,18422,15010.0,13878.0,16584,15144,16089.0,16895.0
21218,10641,US,138595,38.7133333333,-79.9772222222,Census,Town,WV,"Huttonsville, West Virginia",0,0,0,0,0,0,0,0,0,0,0,0,251,265,303.0,308,227,242.0,167.0,242,211,217.0,221.0
21362,9821,US,138361,38.9775,-79.9502777778,Census,Town,WV,"Junior, West Virginia",0,0,0,0,0,0,0,0,0,0,0,335,435,593,560.0,533,729,552.0,513.0,591,542,450.0,520.0
21520,9521,US,138497,38.9877777778,-81.9641666667,Census,Town,WV,"New Haven, West Virginia",0,0,0,0,0,0,0,0,0,0,0,0,0,0,0.0,606,969,1314.0,1538.0,1723,1632,1559.0,1560.0
21583,9475,US,138524,37.7086111111,-82.1838888889,Census,Town,WV,"Delbarton, West Virginia",0,0,0,0,0,0,0,0,0,0,0,0,0,0,0.0,0,1353,1122.0,903.0,981,705,474.0,579.0
21615,9501,US,138549,40.0877777778,-80.5686111111,Census,Village,WV,"Valley Grove, West Virginia",0,0,0,0,0,0,0,0,0,0,0,0,0,0,0.0,0,0,548.0,509.0,597,569,405.0,378.0
21625,17467,US,91053,40.27,-80.58,Census,US County,WV,"Brooke County, West Virginia",0,4706,5843,6631,7041,7948,5054,5494,5464,6013,6660,7219,11098,16527,24663.0,25513,26904,28940.0,29685.0,31117,26992,25447.0,24069.0
21694,10779,US,138603,39.21,-81.0508333333,Census,Town,WV,"Harrisville, West Virginia",0,0,0,0,0,0,0,0,140,221,361,472,608,1036,1192.0,1338,1387,1428.0,1464.0,1673,1839,1842.0,1876.0
21801,18141,US,91027,37.73,-82.14,Census,US County,WV,"Mingo County, West Virginia",0,0,0,0,0,0,0,0,0,0,0,11359,19431,26384,38319.0,40802,47409,39742.0,32780.0,37336,33739,28253.0,26839.0
21804,28705,US,138515,37.3680555556,-81.0958333333,Census,City,WV,"Princeton, West Virginia",0,0,0,0,0,0,0,0,0,0,320,0,3027,6224,6955.0,7426,8279,8393.0,7253.0,7538,7043,6347.0,6432.0
21960,15993,US,138385,38.4627777778,-81.08,Census,Town,WV,"Clay, West Virginia",0,0,0,0,0,0,0,0,0,0,0,339,392,342,444.0,511,500,486.0,479.0,940,592,593.0,491.0
22074,10471,US,138565,39.4444444444,-79.5438888889,Census,Town,WV,"Terra Alta, West Virginia",0,0,0,0,0,0,0,0,0,0,443,616,1126,1261,1474.0,1471,1649,1504.0,1474.0,1946,1713,1456.0,1477.0
22112,11775,US,138632,39.0627777778,-81.3955555556,Census,Town,WV,"Elizabeth, West Virginia",0,0,0,0,0,0,0,0,0,395,710,657,674,681,716.0,685,755,727.0,821.0,856,900,994.0,823.0
22435,11806,US,138426,39.2833333333,-80.5627777778,Census,City,WV,"Salem, West Virginia",0,0,0,0,0,0,0,0,0,248,310,746,2169,2920,2943.0,2571,2578,2366.0,2597.0,2706,2063,2006.0,1586.0
22454,8848,US,138514,37.3322222222,-80.9688888889,Census,Town,WV,"Oakvale, West Virginia",0,0,0,0,0,0,0,0,0,0,0,0,278,281,261.0,273,239,267.0,292.0,208,165,142.0,121.0
22609,10126,US,138613,39.075,-79.6313888889,Census,Town,WV,"Hendricks, West Virginia",0,0,0,0,0,0,0,0,0,0,0,317,640,622,484.0,539,492,407.0,317.0,390,303,319.0,272.0
22616,9965,US,138525,37.6144444444,-81.8672222222,Census,Town,WV,"Gilbert, West Virginia",0,0,0,0,0,0,0,0,0,0,0,0,0,0,451.0,490,722,874.0,778.0,757,456,417.0,450.0
22645,9509,US,138512,37.4186111111,-81.2419444444,Census,Town,WV,"Matoaka, West Virginia",0,0,0,0,0,0,0,0,0,0,0,0,0,647,929.0,926,1003,613.0,608.0,613,366,317.0,227.0
22918,28923,US,138488,40.0127777778,-80.7338888889,Census,City,WV,"Benwood, West Virginia",0,0,0,0,0,0,0,0,0,0,2934,4511,4976,4773,3950.0,3608,3485,2850.0,2737.0,1994,1669,1585.0,1420.0
23109,8483,US,138380,40.1916666667,-80.6655555556,Census,Village,WV,"Windsor Heights, West Virginia",0,0,0,0,0,0,0,0,0,0,0,0,0,0,0.0,0,0,0.0,0.0,0,0,431.0,423.0
23215,13086,US,138455,38.3525,-81.7119444444,Census,City,WV,"South Charleston, West Virginia",0,0,0,0,0,0,0,0,0,0,0,0,0,3650,5904.0,10377,16686,19180.0,16333.0,15968,13645,13390.0,13450.0
23256,11201,US,138374,40.2241666667,-80.6522222222,Census,Village,WV,"Beech Bottom, West Virginia",0,0,0,0,0,0,0,0,0,0,0,0,0,0,0.0,0,0,506.0,544.0,507,415,606.0,523.0
23259,8138,US,138449,38.1866666667,-81.3638888889,Census,Town,WV,"Handley, West Virginia",0,0,0,0,0,0,0,0,0,0,0,0,0,0,0.0,0,0,0.0,0.0,633,334,362.0,349.0
23332,22306,US,138593,38.9213888889,-79.8508333333,Census,City,WV,"Elkins, West Virginia",0,0,0,0,0,0,0,0,0,0,737,2016,5260,6788,7345.0,8133,9121,8307.0,8287.0,8536,7420,7032.0,7094.0
23637,10261,US,138478,39.5130555556,-80.2519444444,Census,Town,WV,"Farmington, West Virginia",0,0,0,0,0,0,0,0,89,179,0,0,519,679,819.0,880,824,709.0,595.0,583,414,387.0,375.0
23687,12148,US,138611,39.1311111111,-79.4663888889,Census,Town,WV,"Davis, West Virginia",0,0,0,0,0,0,0,0,0,0,918,2391,2615,2491,1656.0,1454,1271,898.0,868.0,979,799,624.0,660.0
23709,9325,US,138499,37.3363888889,-81.4405555556,Census,Town,WV,"Anawalt, West Virginia",0,0,0,0,0,0,0,0,0,0,0,0,0,0,0.0,0,1383,1062.0,801.0,652,329,272.0,226.0
23784,19522,US,138619,38.9891666667,-80.2241666667,Census,City,WV,"Buckhannon, West Virginia",0,0,0,0,0,0,0,427,475,761,1403,1589,2225,3785,4374.0,4450,6016,6386.0,7261.0,6820,5909,5725.0,5639.0
23786,8735,US,138588,37.6080555556,-81.3038888889,Census,Town,WV,"Rhodell, West Virginia",0,0,0,0,0,0,0,0,0,0,0,0,0,0,0.0,995,829,626.0,500.0,472,221,234.0,173.0
23821,11639,US,138367,38.0619444444,-81.8183333333,Census,City,WV,"Madison, West Virginia",0,0,0,0,0,0,0,0,0,0,0,0,295,604,1156.0,1205,2025,2215.0,2342.0,3228,3051,2677.0,3076.0
24013,9871,US,138558,39.6663888889,-79.6213888889,Census,Town,WV,"Brandonville, West Virginia",0,0,0,0,0,0,0,165,100,107,82,68,96,67,82.0,113,100,109.0,82.0,92,73,102.0,101.0
24216,8839,US,138474,37.8694444444,-81.9872222222,Census,Town,WV,"West Logan, West Virginia",0,0,0,0,0,0,0,0,0,0,0,0,0,0,0.0,0,0,855.0,685.0,630,524,418.0,424.0
24534,19575,US,138508,37.4372222222,-81.5788888889,Census,City,WV,"Welch, West Virginia",0,0,0,0,0,0,0,0,0,0,0,442,1525,3232,5376.0,6264,6603,5313.0,4149.0,3885,3028,2683.0,2406.0
24840,13670,US,138460,39.0419444444,-80.47,Census,City,WV,"Weston, West Virginia",0,0,0,0,0,0,0,820,1111,1516,2143,2560,2213,5701,8646.0,8268,8945,8754.0,7323.0,6250,4994,4317.0,4110.0
25089,9513,US,138612,39.0813888889,-79.6458333333,Census,Town,WV,"Hambleton, West Virginia",0,0,0,0,0,0,0,0,0,0,0,0,1300,488,368.0,394,283,275.0,328.0,403,265,246.0,232.0
25108,13412,US,91008,39.18,-81.07,Census,US County,WV,"Ritchie County, West Virginia",0,0,0,0,0,0,3902,6847,9055,13474,16621,18901,17875,16506,15594.0,15389,12535,10877.0,10145.0,11442,10233,10343.0,10449.0
25174,14231,US,57785,38.46,-81.07,Census,US County,WV,"Clay County, West Virginia",0,0,0,0,0,0,0,1787,2196,3460,4659,8248,10233,11486,13125.0,15206,14961,11942.0,9330.0,11265,9983,10330.0,9386.0
25438,10611,US,138389,38.1677777778,-81.1969444444,Census,Town,WV,"Gauley Bridge, West Virginia",0,0,0,0,0,0,0,0,0,0,0,0,0,0,0.0,0,0,0.0,0.0,1177,691,738.0,614.0
25488,8601,US,138605,39.1880555556,-80.9516666667,Census,Town,WV,"Pullman, West Virginia",0,0,0,0,0,0,0,0,0,0,0,0,230,249,184.0,204,210,162.0,157.0,196,109,169.0,154.0
25519,11688,US,138462,38.2788888889,-82.1069444444,Census,Town,WV,"Hamlin, West Virginia",0,0,0,0,0,0,0,0,0,0,0,0,0,516,844.0,850,841,850.0,1024.0,1219,1030,1119.0,1142.0
25817,17077,US,91029,37.41,-81.11,Census,US County,WV,"Mercer County, West Virginia",0,0,0,0,0,2233,4222,6819,7064,7467,16002,23023,38371,49558,61323.0,68289,75013,68206.0,63206.0,73942,64980,62980.0,62264.0
25823,11511,US,138553,39.3963888889,-81.1997222222,Census,City,WV,"St. Marys, West Virginia",0,0,0,0,0,0,0,0,0,350,520,825,1358,1648,2182.0,2201,2196,2443.0,2348.0,2219,2148,2017.0,1860.0
25831,13891,US,138388,38.0511111111,-81.1069444444,Census,Town,WV,"Fayetteville, West Virginia",0,0,0,0,0,0,0,0,0,0,0,413,671,659,1143.0,1347,1952,1848.0,1712.0,2366,2182,2754.0,2892.0
25858,8573,US,138471,37.9069444444,-81.9830555556,Census,Town,WV,"Mitchell Heights, West Virginia",0,0,0,0,0,0,0,0,0,0,0,0,0,0,0.0,0,185,290.0,524.0,342,265,301.0,323.0
25957,17345,US,138480,39.5272222222,-80.3397222222,Census,City,WV,"Mannington, West Virginia",0,0,0,0,0,0,0,241,411,0,908,1681,2672,3673,3261.0,3145,3241,2996.0,2747.0,3036,2184,2124.0,2063.0
26023,10035,US,138609,39.2666666667,-80.1294444444,Census,Town,WV,"Flemington, West Virginia",0,0,0,0,0,0,0,0,0,0,0,0,0,0,617.0,690,572,478.0,458.0,452,352,287.0,312.0
26262,19526,US,138436,39.2841666667,-77.8561111111,Census,City,WV,"Charles Town, West Virginia",0,0,0,0,0,0,1507,1376,1593,2016,2287,2392,2662,2527,2434.0,2926,3035,3329.0,3023.0,2857,3122,2907.0,5259.0
26265,16021,US,138454,38.5047222222,-81.6452777778,Census,Census-designated place (CDP),WV,"Sissonville, West Virginia",0,0,0,0,0,0,0,0,0,0,0,0,0,0,0.0,0,0,0.0,0.0,0,0,4399.0,4028.0
26319,24001,US,91002,38.9,-80.23,Census,US County,WV,"Upshur County, West Virginia",0,0,0,0,0,0,0,7292,8023,10249,12714,14696,16629,17851,17944.0,18360,19242,18292.0,19092.0,23427,22867,23404.0,24254.0
26376,13982,US,138492,39.9213888889,-80.7394444444,Census,City,WV,"Moundsville, West Virginia",0,0,0,0,0,0,445,515,1500,1774,2688,5362,8918,10669,14411.0,14168,14772,15163.0,13560.0,12419,10753,9998.0,9318.0
26422,14549,US,91023,38.29,-80.8,Census,US County,WV,"Nicholas County, West Virginia",0,0,0,1853,3346,2515,3963,4627,4458,7223,9309,11403,17699,20717,20686.0,24070,27696,25414.0,22552.0,28126,26775,26562.0,26233.0
26590,14076,US,138381,38.4111111111,-82.2977777778,Census,Village,WV,"Barboursville, West Virginia",0,0,0,0,0,0,0,341,371,361,0,429,907,974,1508.0,1550,1943,2331.0,2279.0,2871,2774,3183.0,3964.0
26708,13265,US,138540,37.5911111111,-80.5430555556,Census,Town,WV,"Union, West Virginia",0,0,0,0,0,0,0,0,0,356,312,623,779,1270,984.0,1020,1341,1186.0,1141.0,1090,830,806.0,825.0
26972,11594,US,138573,38.5344444444,-81.8922222222,Census,Town,WV,"Winfield, West Virginia",0,0,0,0,0,0,0,0,0,305,302,338,291,253,294.0,318,346,318.0,328.0,329,1164,1858.0,2301.0
27005,15279,US,138530,37.6738888889,-82.2797222222,Census,City,WV,"Williamson, West Virginia",0,0,0,0,0,0,0,0,0,0,0,0,3561,6819,9410.0,8366,8624,6746.0,5831.0,5219,4154,3414.0,3191.0
27068,10523,US,138496,39.0197222222,-82.0308333333,Census,Town,WV,"Mason, West Virginia",0,0,0,0,0,0,0,0,1182,1186,1029,904,784,992,691.0,795,924,1005.0,1319.0,1432,1053,1064.0,968.0
27136,10074,US,138626,38.4105555556,-80.5558333333,Census,Town,WV,"Cowen, West Virginia",0,0,0,0,0,0,0,0,0,0,0,257,312,393,491.0,539,632,475.0,467.0,723,549,513.0,541.0
27239,14146,US,138614,39.0958333333,-79.6794444444,Census,City,WV,"Parsons, West Virginia",0,0,0,0,0,0,0,0,0,0,0,618,1780,2001,2012.0,2077,2009,1798.0,1784.0,1937,1453,1463.0,1485.0
27247,10140,US,138538,39.635,-79.9744444444,Census,City,WV,"Westover, West Virginia",0,0,0,0,0,0,0,0,0,0,0,0,0,721,1633.0,1752,4318,4749.0,5086.0,4884,4201,3941.0,3983.0
27429,11721,US,138459,39.1091666667,-80.4075,Census,Town,WV,"Jane Lew, West Virginia",0,0,0,0,0,0,0,0,0,142,228,0,327,560,445.0,505,491,426.0,397.0,406,439,406.0,409.0
27590,20129,US,91049,39.26,-80.7,Census,US County,WV,"Doddridge County, West Virginia",0,0,0,0,0,0,2750,5203,7076,10552,12183,13689,12672,11976,10488.0,10923,9026,6970.0,6389.0,7433,6994,7403.0,8202.0
27611,9887,US,138408,37.9644444444,-80.6880555556,Census,Town,WV,"Rupert, West Virginia",0,0,0,0,0,0,0,0,0,0,0,0,0,0,0.0,0,952,921.0,1027.0,1276,1104,940.0,942.0
27631,9280,US,138581,37.7694444444,-81.2102777778,Census,Town,WV,"Mabscott, West Virginia",0,0,0,0,0,0,0,0,0,0,0,0,561,1114,1260.0,1473,1665,1591.0,1254.0,1668,1543,1403.0,1408.0
27676,11823,US,138445,38.3644444444,-81.7394444444,Census,City,WV,"Dunbar, West Virginia",0,0,0,0,0,0,0,0,0,0,0,0,0,0,4189.0,5266,8032,11006.0,9151.0,9285,8697,8154.0,7907.0
27753,15317,US,138468,37.8483333333,-81.9877777778,Census,City,WV,"Logan, West Virginia",0,0,0,0,0,0,0,0,0,0,0,444,1640,2998,4396.0,5166,5079,4185.0,3311.0,3029,2206,1630.0,1779.0
