,article_length,country,id,lat,lon,poptype,settlement_type,state,title,y1790,y1800,y1810,y1820,y1830,y1840,y1850,y1860,y1870,y1880,y1890,y1900,y1910,y1920,y1930,y1940,y1950,y1960,y1970,y1980,y1990,y2000,y2010
17,14939,US,108090,35.1208333333,-120.619444444,Census,City,CA,"Grover Beach, California",0,0,0,0,0,0,0,0,0,0,0,0,0,0,0.0,0,0,5210.0,5939.0,8827,11656,13067.0,13156.0
26,12608,US,108313,36.4163888889,-119.099444444,Census,City,CA,"Woodlake, California",0,0,0,0,0,0,0,0,0,0,0,0,0,0,0.0,1146,2525,2623.0,3371.0,4343,5678,6651.0,7279.0
60,22359,US,108236,38.6175,-122.866388889,Census,City,CA,"Healdsburg, California",0,0,0,0,0,0,0,334,959,1133,1485,1869,2011,2412,2296.0,2507,3258,4816.0,5438.0,7217,9469,10722.0,11254.0
107,71988,US,79759,39.66,-121.6,Census,County,CA,"Butte County, California",0,0,0,0,0,0,3574,12106,11403,18721,17939,17117,27301,30030,34093.0,42840,64930,82030.0,101969.0,143851,182120,203171.0,220000.0
147,23173,US,107788,36.4247222222,-121.326388889,Census,City,CA,"Soledad, California",0,0,0,0,0,0,0,0,0,136,217,0,0,0,594.0,861,2441,2837.0,4222.0,5928,7146,11263.0,25738.0
200,12804,US,107698,33.9225,-118.301111111,Census,census-designated place,CA,"West Athens, California",0,0,0,0,0,0,0,0,0,0,0,0,0,0,0.0,0,0,0.0,13286.0,8531,8859,9101.0,8729.0
270,78733,US,108139,34.4258333333,-119.714166667,Census,Charter city,CA,"Santa Barbara, California",0,0,0,0,0,0,0,0,0,3460,5864,6587,11659,19441,33613.0,34958,44854,58768.0,70215.0,74414,85571,92325.0,88410.0
288,18134,US,107848,38.8872222222,-121.296111111,Census,General law city,CA,"Lincoln, California",0,0,0,0,0,0,0,0,0,275,961,1061,1402,1325,2094.0,2044,2410,3197.0,3176.0,4132,7248,11205.0,42819.0
415,13739,US,107384,39.1547222222,-122.149444444,Census,City,CA,"Williams, California",0,0,0,0,0,0,0,0,0,279,461,0,0,0,851.0,814,1134,1370.0,1571.0,1655,2297,3670.0,5123.0
431,25212,US,107613,34.11,-117.719722222,Census,City,CA,"Claremont, California",0,0,0,0,0,0,0,0,0,0,0,0,0,0,2719.0,3057,6327,12633.0,24776.0,31028,32503,33998.0,34926.0
468,17945,US,108223,38.1638888889,-121.695833333,Census,City,CA,"Rio Vista, California",0,0,0,0,0,0,0,0,319,666,648,682,884,1104,1309.0,1666,1831,2616.0,3135.0,3142,3316,4571.0,7360.0
605,18406,US,6790772,33.6908333333,-117.185,Census,City,CA,"Menifee, California",0,0,0,0,0,0,0,0,0,0,0,0,0,0,0.0,0,0,0.0,0.0,0,0,0.0,77519.0
727,14445,US,107566,35.5941666667,-119.340833333,Census,City,CA,"Wasco, California",0,0,0,0,0,0,0,0,0,0,0,0,0,0,0.0,0,5592,6841.0,8269.0,9613,12412,21263.0,25545.0
780,68133,US,82030,39.06,-120.73,Census,County,CA,"Placer County, California",0,0,0,0,0,0,0,13270,11357,14232,15101,15786,18237,18584,24468.0,28108,41649,56998.0,77306.0,117247,172796,248399.0,348432.0
800,16685,US,107790,38.1680555556,-122.2525,Census,City,CA,"American Canyon, California",0,0,0,0,0,0,0,0,0,0,0,0,0,0,0.0,0,0,0.0,0.0,5712,7706,9774.0,19454.0
838,14227,US,107468,39.5244444444,-122.193611111,Census,City,CA,"Willows, California",0,0,0,0,0,0,0,0,0,728,1176,893,1139,2190,2024.0,2215,3019,4139.0,4085.0,4777,5988,6220.0,6166.0
936,47382,US,107662,34.0491666667,-118.135555556,Census,General law city,CA,"Monterey Park, California",0,0,0,0,0,0,0,0,0,0,0,0,0,4108,6406.0,8531,20395,37821.0,49166.0,54338,60738,60051.0,60269.0
951,94262,US,25200461,37.36,-121.97,Census,County,CA,"Santa Clara County, California",0,0,0,0,0,0,0,11912,26246,35039,48005,60216,83539,100676,145118.0,174949,290547,642315.0,1064714.0,1295071,1497577,1682585.0,1781642.0
976,27573,US,108127,37.4208333333,-122.259722222,Census,Town,CA,"Woodside, California",0,0,0,0,0,0,0,0,0,0,0,0,0,0,0.0,0,0,3592.0,4734.0,5291,5035,5352.0,5287.0
1026,46343,US,108161,37.3894444444,-122.081944444,Census,Charter city,CA,"Mountain View, California",0,0,0,0,0,0,0,0,0,250,0,0,0,0,3308.0,3946,6563,30889.0,54132.0,58655,67460,70708.0,74066.0
1058,19823,US,108062,32.9952777778,-117.260277778,Census,City,CA,"Solana Beach, California",0,0,0,0,0,0,0,0,0,0,0,0,0,0,0.0,0,0,0.0,5023.0,13047,12962,12979.0,12867.0
1085,78320,US,108337,34.1913888889,-119.1825,Census,General law city,CA,"Oxnard, California",0,0,0,0,0,0,0,0,0,0,0,0,2555,4417,6285.0,8519,21567,40265.0,71225.0,108195,142216,170358.0,197899.0
1123,54637,US,70957,33.7408333333,-117.881388889,Census,City,CA,"Santa Ana, California",0,0,0,0,0,0,0,0,0,711,3628,4933,8429,15485,30322.0,31921,45533,100350.0,155710.0,204023,293742,337977.0,324528.0
1166,149516,US,79766,,,Census,County,CA,"Contra Costa County, California",0,0,0,0,0,0,0,5328,8461,12525,13515,18046,31674,53889,78608.0,100450,298984,409030.0,558389.0,656380,803732,948816.0,1049025.0
1185,24195,US,107830,33.6413888889,-117.594444444,Census,City,CA,"Rancho Santa Margarita, California",0,0,0,0,0,0,0,0,0,0,0,0,0,0,0.0,0,0,0.0,0.0,0,11390,47214.0,47853.0
1254,19056,US,117264,33.7736111111,-118.360833333,Census,City,CA,"Rolling Hills Estates, California",0,0,0,0,0,0,0,0,0,0,0,0,0,0,0.0,0,0,3941.0,6735.0,7701,7789,7676.0,8067.0
1275,26611,US,107752,39.4097222222,-123.355555556,Census,City,CA,"Willits, California",0,0,0,0,0,0,0,0,0,153,815,791,1153,1468,1424.0,1625,2691,3410.0,3091.0,4008,5027,5073.0,4888.0
1336,38791,US,108336,34.4491666667,-119.246666667,Census,City,CA,"Ojai, California",0,0,0,0,0,0,0,0,0,0,0,0,0,0,1468.0,1622,2519,4495.0,5591.0,6816,7613,7862.0,7461.0
1407,11646,US,107619,33.9161111111,-118.369166667,Census,census-designated place,CA,"Del Aire, California",0,0,0,0,0,0,0,0,0,0,0,0,0,0,0.0,0,0,0.0,11930.0,8487,8040,9012.0,10001.0
1408,40083,US,107555,35.6225,-117.670833333,Census,City,CA,"Ridgecrest, California",0,0,0,0,0,0,0,0,0,0,0,0,0,0,0.0,0,2028,5099.0,7629.0,15929,27725,24927.0,27616.0
1422,24128,US,107983,34.5761111111,-117.432777778,Census,City,CA,"Adelanto, California",0,0,0,0,0,0,0,0,0,0,0,0,0,0,0.0,0,0,0.0,2115.0,2164,8517,18130.0,31765.0
1485,49428,US,82123,40.66,-123.12,Census,County,CA,"Trinity County, California",0,0,0,0,0,0,1635,5125,3213,4999,3719,4383,3301,2551,2809.0,3970,5087,9706.0,7615.0,11858,13063,13022.0,13786.0
1493,20385,US,107667,33.9,-118.166666667,Census,City,CA,"Paramount, California",0,0,0,0,0,0,0,0,0,0,0,0,0,0,0.0,0,0,27249.0,34734.0,36407,47669,55266.0,54098.0
1639,64264,US,80561,36.07,-119.81,Census,County,CA,"Kings County, California",0,0,0,0,0,0,0,0,0,0,0,9871,16230,22031,25385.0,35168,46768,49954.0,64610.0,73738,101469,129461.0,152982.0
1664,65126,US,3052,37.7561111111,-122.274444444,Census,Charter city,CA,"Alameda, California",0,0,0,0,0,0,0,460,1557,5708,11165,16464,23383,28806,35033.0,36256,64430,63855.0,70968.0,63852,76459,72259.0,73812.0
1682,46969,US,107669,34.0608333333,-117.755833333,Census,Charter city,CA,"Pomona, California",0,0,0,0,0,0,0,0,0,0,3634,5526,10207,13505,20804.0,23539,35405,67157.0,87384.0,92742,131723,149473.0,149058.0
1683,26462,US,107780,36.6177777778,-121.916666667,Census,Charter city,CA,"Pacific Grove, California",0,0,0,0,0,0,0,0,0,0,1336,1411,2384,2974,5558.0,6249,9623,12121.0,13505.0,15755,16117,15522.0,15041.0
1796,30385,US,107623,34.1402777778,-117.961666667,Census,City,CA,"Duarte, California",0,0,0,0,0,0,0,0,0,0,0,0,0,0,0.0,0,0,13962.0,14981.0,16766,20688,21486.0,21321.0
1938,205089,US,49728,37.7833333333,-122.416666667, USA,Consolidated city-county,CA,San Francisco,0,0,0,0,0,0,0,56802,149473,233959,298997,342782,416912,506676,634394.0,634536,775357,740316.0,715674.0,678974,723959,776733.0,805235.0
1963,29389,US,60861,38.3538888889,-121.972777778,Census,City,CA,"Vacaville, California",0,0,0,0,0,0,0,0,343,361,725,1220,1177,1254,1556.0,1614,3169,10898.0,21690.0,43367,71479,88625.0,92428.0
2009,27318,US,107339,37.8166666667,-122.233333333,Census,City,CA,"Piedmont, California",0,0,0,0,0,0,0,0,0,0,634,0,1719,4282,9333.0,9866,10132,11117.0,10917.0,10498,10602,10952.0,10667.0
2015,27392,US,107842,38.8986111111,-121.074444444,Census,City,CA,"Auburn, California",0,0,0,0,0,0,0,814,800,1229,1595,2050,2376,2289,2661.0,5013,4653,5586.0,6570.0,7540,10592,12462.0,13330.0
2067,58846,US,26661212,35.6408333333,-120.653888889,Census,City,CA,"Paso Robles, California",0,0,0,0,0,0,0,0,0,0,827,1224,1441,1919,2573.0,3045,4835,6677.0,7168.0,9163,18583,24297.0,29793.0
2358,22363,US,107760,37.0583333333,-120.85,Census,City,CA,"Los Banos, California",0,0,0,0,0,0,0,0,0,0,0,0,745,1276,1875.0,2214,3868,5272.0,9188.0,10341,14519,25869.0,35972.0
2385,55445,US,107985,34.9,-117.016666667,Census,General law city,CA,"Barstow, California",0,0,0,0,0,0,0,0,0,0,0,0,0,0,0.0,0,6135,11644.0,17442.0,17690,21472,21119.0,22639.0
2522,76615,US,107474,40.5766666667,-124.263333333,Census,City,CA,"Ferndale, California",0,0,0,0,0,0,0,0,0,178,763,846,905,919,889.0,901,1032,1371.0,1352.0,1367,1331,1382.0,1371.0
2545,26463,US,107823,33.8022222222,-118.064444444,Census,City,CA,"Los Alamitos, California",0,0,0,0,0,0,0,0,0,0,0,0,0,0,0.0,0,0,4312.0,11346.0,11529,11676,11536.0,11449.0
2575,23637,US,107408,37.835,-122.129722222,Census,Town,CA,"Moraga, California",0,0,0,0,0,0,0,0,0,0,0,0,0,0,0.0,0,0,0.0,14205.0,15014,15852,16290.0,16016.0
2643,19991,US,108217,41.9541666667,-121.475833333,Census,City,CA,"Tulelake, California",0,0,0,0,0,0,0,0,0,0,0,0,0,0,0.0,785,1028,950.0,857.0,783,1010,1020.0,1010.0
2774,69176,US,5201333,33.6694444444,-117.823055556,Census,Charter city,CA,"Irvine, California",0,0,0,0,0,0,0,0,0,0,0,0,0,0,0.0,0,0,0.0,10081.0,62127,110330,143072.0,212375.0
2806,19021,US,107892,39.8102777778,-120.469722222,Census,City,CA,"Portola, California",0,0,0,0,0,0,0,0,0,0,0,0,0,0,0.0,0,2261,1874.0,1625.0,1885,2193,2227.0,2104.0
2857,74613,US,107942,33.9480555556,-117.396111111,Census,Charter city,CA,"Riverside, California",0,0,0,0,0,0,0,0,0,0,4683,7973,15212,19341,29696.0,34696,46764,84332.0,140089.0,170591,226505,255166.0,303871.0
2860,13681,US,108004,34.0775,-117.689722222,Census,City,CA,"Montclair, California",0,0,0,0,0,0,0,0,0,0,0,0,0,0,0.0,0,0,13546.0,22546.0,22628,28434,33049.0,36664.0
2884,21817,US,107907,33.0038888889,-117.061944444,Census,General law city,CA,"Calimesa, California",0,0,0,0,0,0,0,0,0,0,0,0,0,0,0.0,0,0,0.0,0.0,0,4647,7139.0,7879.0
2935,78988,US,107727,37.9061111111,-122.545,Census,City,CA,"Mill Valley, California",0,0,0,0,0,0,0,0,0,0,0,0,2551,2554,4164.0,4847,7331,10411.0,12942.0,12967,13038,13600.0,13903.0
2961,34623,US,107932,33.5694444444,-117.2025,Census,City,CA,"Murrieta, California",0,0,0,0,0,0,0,0,0,0,0,0,0,0,0.0,0,0,0.0,0.0,0,1628,44282.0,103466.0
2978,114379,US,80544,40.8,-123.8,Census,County,CA,"Humboldt County, California",0,0,0,0,0,0,0,2694,6140,15512,23469,27104,33857,37413,43233.0,45812,69241,104892.0,99692.0,108514,119118,126518.0,134623.0
3009,32740,US,107344,37.5963888889,-122.048333333,Census,City,CA,"Union City, California",0,0,0,0,0,0,0,0,0,0,0,0,0,0,0.0,0,0,6618.0,14724.0,39406,53762,66869.0,69516.0
3015,48164,US,108244,38.2888888889,-122.458888889,Census,City,CA,"Sonoma, California",0,0,0,0,0,0,0,0,0,0,757,652,957,801,980.0,1158,2015,3023.0,4259.0,6054,8121,9128.0,10648.0
3020,21628,US,108323,37.9844444444,-120.381666667,Census,City,CA,"Sonora, California",0,0,0,0,0,0,0,1960,1322,1492,1441,1922,2029,1684,2278.0,2257,2448,2725.0,3100.0,3247,4153,4423.0,4903.0
3031,29385,US,107997,34.4127777778,-117.306111111,Census,City,CA,"Hesperia, California",0,0,0,0,0,0,0,0,0,0,0,0,0,0,0.0,0,0,0.0,4592.0,13540,50418,62582.0,90173.0
3151,44508,US,107918,33.7475,-116.971944444,Census,City,CA,"Hemet, California",0,0,0,0,0,0,0,0,0,0,0,0,992,1480,2235.0,2595,3386,5416.0,12252.0,22531,36094,58812.0,78657.0
3167,42788,US,108133,34.6461111111,-120.460277778,Census,City,CA,"Lompoc, California",0,0,0,0,0,0,0,0,0,226,1015,972,1482,1876,2845.0,3379,5520,14415.0,25284.0,26267,37649,41103.0,42434.0
3214,29899,US,108164,37.2725,-122.019444444,Census,City,CA,"Saratoga, California",0,0,0,0,0,0,0,0,0,297,0,0,0,0,0.0,0,0,14861.0,26810.0,29261,28061,29843.0,29926.0
3216,26628,US,108241,38.3472222222,-122.695277778,Census,General law city,CA,"Rohnert Park, California",0,0,0,0,0,0,0,0,0,0,0,0,0,0,0.0,0,0,0.0,6133.0,22965,36326,42236.0,40971.0
3224,9763,US,107409,38.0088888889,-122.1175,Census,Census designated place,CA,"Mountain View, Contra Costa County, California",0,0,0,0,0,0,0,0,0,0,0,0,0,0,0.0,0,0,0.0,0.0,0,0,0.0,0.0
3263,17959,US,107383,39.2144444444,-122.009444444,Census,City,CA,"Colusa, California",0,0,0,0,0,0,0,0,1051,1779,1336,1441,1582,1846,2116.0,2285,3031,3518.0,3842.0,4075,4934,5402.0,5971.0
3290,96672,US,80557,35.34,-118.72,Census,County,CA,"Kern County, California",0,0,0,0,0,0,0,0,2925,5601,9808,16480,37715,54843,82570.0,135124,228309,291984.0,329162.0,403089,543477,661645.0,839631.0
3307,39901,US,107733,37.9736111111,-122.531111111,Census,City,CA,"San Rafael, California",0,0,0,0,0,0,0,0,841,2276,3290,3879,5934,5512,8022.0,8573,13848,20460.0,38977.0,44700,48404,56063.0,57713.0
3336,23891,US,108114,37.6008333333,-122.401388889,Census,General law city,CA,"Millbrae, California",0,0,0,0,0,0,0,0,0,195,243,0,0,0,0.0,0,8972,15873.0,20920.0,20058,20412,20718.0,21532.0
3473,11603,US,107820,33.6091666667,-117.732777778,Census,General law city,CA,"Laguna Woods, California",0,0,0,0,0,0,0,0,0,0,0,0,0,0,0.0,0,0,0.0,0.0,0,0,16507.0,16192.0
3567,49648,US,108124,37.5541666667,-122.313055556,Census,City,CA,"San Mateo, California",0,0,0,0,0,0,0,0,0,932,0,1832,4384,5979,13444.0,19403,41782,69870.0,78991.0,77640,85486,92482.0,97207.0
3622,28877,US,107987,34.2438888889,-116.911388889,Census,City,CA,"Big Bear Lake, California",0,0,0,0,0,0,0,0,0,0,0,0,0,0,0.0,0,0,0.0,0.0,0,5351,5438.0,5019.0
3733,15996,US,107454,36.7536111111,-120.381666667,Census,City,CA,"Mendota, California",0,0,0,0,0,0,0,0,0,0,0,0,0,0,0.0,0,1516,2099.0,2705.0,5038,6821,7890.0,11014.0
3769,22659,US,108206,41.6072222222,-122.841944444,Census,City,CA,"Fort Jones, California",0,0,0,0,0,0,0,0,0,0,266,356,316,331,302.0,360,525,483.0,515.0,544,639,660.0,839.0
3814,31884,US,107433,38.7297222222,-120.798611111,Census,City,CA,"Placerville, California",0,0,0,0,0,0,0,2466,1562,1951,1690,1748,1914,1650,2322.0,3064,3749,4439.0,5416.0,6739,8355,9610.0,10389.0
3850,14627,US,107755,36.9833333333,-120.633333333,Census,City,CA,"Dos Palos, California",0,0,0,0,0,0,0,0,0,0,0,0,0,0,0.0,978,1394,2028.0,2496.0,3121,4196,4581.0,4950.0
3936,20674,US,107934,33.9311111111,-117.548611111,Census,City,CA,"Norco, California",0,0,0,0,0,0,0,0,0,0,0,0,0,0,0.0,0,1584,4964.0,14511.0,19732,23302,24157.0,27063.0
3977,23132,US,60356,37.8869444444,-122.297777778,Census,City,CA,"Albany, California",0,0,0,0,0,0,0,0,0,0,0,0,808,2462,8569.0,11493,17590,14804.0,15561.0,15130,16327,16444.0,18539.0
4127,24187,US,108159,37.2380555556,-121.989444444,Census,City,CA,"Monte Sereno, California",0,0,0,0,0,0,0,0,0,0,0,0,0,0,0.0,0,0,1506.0,2847.0,3434,3287,3483.0,3341.0
4179,28149,US,107668,33.9888888889,-118.089166667,Census,City,CA,"Pico Rivera, California",0,0,0,0,0,0,0,0,0,0,0,0,0,0,0.0,0,0,49150.0,54170.0,53387,59177,63428.0,62942.0
4193,19714,US,107774,36.5066666667,-121.444444444,Census,City,CA,"Gonzales, California",0,0,0,0,0,0,0,0,0,233,359,0,0,0,0.0,0,1821,2138.0,2575.0,2891,4660,7525.0,8187.0
4240,27650,US,107828,33.8825,-117.855,Census,City,CA,"Placentia, California",0,0,0,0,0,0,0,0,0,0,0,0,0,0,1606.0,1472,1682,5861.0,21948.0,35041,41259,46488.0,50533.0
4280,29652,US,107414,38.0280555556,-121.884722222,Census,City,CA,"Pittsburg, California",0,0,0,0,0,0,0,0,0,0,300,603,2372,4715,9610.0,9520,12763,19062.0,21423.0,33034,47564,56769.0,63264.0
4342,29189,US,107597,34.1886111111,-118.134722222,Census,Census-designated place,CA,"Altadena, California",0,0,0,0,0,0,0,0,0,0,0,0,0,0,0.0,0,0,40568.0,42415.0,40983,42658,42610.0,42777.0
4351,30561,US,107905,33.6102777778,-114.596388889,Census,City,CA,"Blythe, California",0,0,0,0,0,0,0,0,0,0,0,0,0,1622,1020.0,2355,4089,6023.0,7047.0,6805,8428,12155.0,20817.0
4498,46884,US,107469,40.8663888889,-124.082777778,Census,General law city,CA,"Arcata, California",0,0,0,0,0,0,0,0,0,702,962,952,1121,1486,1709.0,1855,3729,5235.0,8985.0,12850,15197,16651.0,17231.0
4557,41515,US,107573,36.3275,-119.645555556,Census,City,CA,"Hanford, California",0,0,0,0,0,0,0,0,0,269,942,2929,4829,5888,7028.0,8234,10028,10133.0,15179.0,20958,30897,41686.0,53967.0
4591,35244,US,107854,38.7525,-121.289444444,Census,City,CA,"Roseville, California",0,0,0,0,0,0,0,0,115,258,345,0,2608,4477,6425.0,6653,8723,13421.0,18221.0,24347,44685,79921.0,118788.0
4631,99419,US,107473,40.8019444444,-124.163611111,Census,Charter city,CA,"Eureka, California",0,0,0,0,0,0,0,0,0,2639,4858,7327,11845,12923,15752.0,17055,23058,28137.0,24337.0,24153,27025,26128.0,27191.0
4660,25080,US,107677,34.2872222222,-118.438888889,Census,City,CA,"San Fernando, California",0,0,0,0,0,0,0,0,0,0,0,0,0,3204,7567.0,9094,12992,16093.0,16571.0,17731,22580,23564.0,23645.0
4686,15431,US,107683,34.0488888889,-118.048333333,Census,City,CA,"South El Monte, California",0,0,0,0,0,0,0,0,0,0,0,0,0,0,0.0,0,0,4850.0,13443.0,16623,20850,21144.0,20116.0
4719,39283,US,108130,34.4405555556,-119.813611111,Census,General law city,CA,"Goleta, California",0,0,0,0,0,0,0,0,0,0,0,0,0,0,0.0,0,0,0.0,0.0,0,0,55204.0,29888.0
4729,69535,US,80563,39.09,-122.76,Census,County,CA,"Lake County, California",0,0,0,0,0,0,0,0,2969,6596,7101,6017,5526,5402,7166.0,8069,11481,13786.0,19548.0,36366,50631,58309.0,64665.0
4731,16850,US,108276,39.9261111111,-122.180555556,Census,city,CA,"Corning, California",0,0,0,0,0,0,0,0,0,0,210,0,972,1449,1377.0,1472,2537,3006.0,3573.0,4745,5870,6741.0,7663.0
4789,19140,US,107487,32.9786111111,-115.530277778,Census,City,CA,"Brawley, California",0,0,0,0,0,0,0,0,0,0,0,0,881,5389,10439.0,11718,11922,12703.0,13746.0,14946,18923,22052.0,24953.0
4803,25851,US,107657,33.9794444444,-118.452777778,Census,Census-designated place,CA,"Marina del Rey, California",0,0,0,0,0,0,0,0,0,0,0,0,0,0,0.0,0,0,0.0,0.0,8065,7431,8176.0,8866.0
4808,15340,US,3313909,38.4030555556,-122.362222222,Census,Town,CA,"Yountville, California",0,0,0,0,0,0,0,0,0,256,231,0,0,0,0.0,0,0,0.0,2332.0,2893,3259,2916.0,2933.0
4905,14398,US,107731,37.9625,-122.555,Census,Town,CA,"Ross, California",0,0,0,0,0,0,0,0,0,252,0,0,556,727,1355.0,1751,2179,2551.0,2742.0,2801,2123,2329.0,2415.0
4924,24375,US,107939,33.7966666667,-117.224444444,Census,City,CA,"Perris, California",0,0,0,0,0,0,0,0,0,0,0,0,0,499,763.0,1011,1807,2950.0,4228.0,6827,21460,36189.0,68386.0
4957,24369,US,108105,37.6788888889,-122.455555556,Census,Town,CA,"Colma, California",0,0,0,0,0,0,0,0,0,188,0,0,0,0,369.0,354,297,500.0,537.0,395,1103,1191.0,1792.0
4960,51144,US,79753,38.58,-119.8,Census,County,CA,"Alpine County, California",0,0,0,0,0,0,0,0,685,539,667,509,309,243,241.0,323,241,397.0,484.0,1097,1113,1208.0,1175.0
4962,21107,US,107952,33.5988888889,-117.28,Census,City,CA,"Wildomar, California",0,0,0,0,0,0,0,0,0,0,0,0,0,0,0.0,0,0,0.0,0.0,0,10411,14064.0,32176.0
5010,53151,US,107386,38.005,-121.805833333,Census,City,CA,"Antioch, California",0,0,0,0,0,0,0,0,700,626,635,674,1124,1936,3563.0,5106,11051,17035.0,28060.0,43559,62195,90532.0,102372.0
5018,19129,US,108084,35.1208333333,-120.586666667,Census,City,CA,"Arroyo Grande, California",0,0,0,0,0,0,0,0,0,0,466,0,0,760,892.0,1090,1723,3291.0,7454.0,11290,14378,15851.0,17252.0
5058,61088,US,82097,40.76,-122.04,Census,County,CA,"Shasta County, California",0,0,0,0,0,0,378,4360,4173,9492,12133,17318,18920,13361,13927.0,28800,36413,59468.0,77640.0,115715,147036,163256.0,177223.0
5083,14851,US,107367,38.0683333333,-120.539722222,Census,City,CA,"Angels Camp, California",0,0,0,0,0,0,0,0,0,330,917,0,0,941,915.0,1163,1147,1121.0,1710.0,2302,2409,3004.0,3836.0
5105,37910,US,107972,38.5891666667,-121.302777778,Census,City,CA,"Rancho Cordova, California",0,0,0,0,0,0,0,0,0,0,0,0,0,0,0.0,0,0,7429.0,30451.0,42881,48731,55060.0,64776.0
5209,26152,US,107605,33.9680555556,-118.156111111,Census,City,CA,"Bell Gardens, California",0,0,0,0,0,0,0,0,0,0,0,0,0,0,0.0,0,0,26467.0,29308.0,34117,42355,44054.0,42072.0
5357,41685,US,107426,41.7558333333,-124.201666667,Census,City,CA,"Crescent City, California",0,0,0,0,0,0,0,638,458,0,907,699,1114,955,1720.0,1363,1706,2958.0,2586.0,3075,4380,4006.0,7643.0
5393,21031,US,107603,34.0827777778,-117.971666667,Census,City,CA,"Baldwin Park, California",0,0,0,0,0,0,0,0,0,0,0,0,0,0,0.0,0,0,33951.0,47285.0,50554,69330,75837.0,75390.0
5455,16140,US,107493,32.8111111111,-115.380277778,Census,City,CA,"Holtville, California",0,0,0,0,0,0,0,0,0,0,0,0,729,1347,1758.0,1772,2472,3080.0,3496.0,4399,4820,5612.0,5939.0
5461,69540,US,79758,,,Census,County,CA,"Amador County, California",0,0,0,0,0,0,0,10930,9582,11384,10320,11116,9086,7793,8494.0,8973,9151,9990.0,11821.0,19314,30039,35100.0,38091.0
5524,12078,US,107697,33.9688888889,-118.223888889,Census,census-designated place,CA,"Walnut Park, California",0,0,0,0,0,0,0,0,0,0,0,0,0,0,0.0,0,0,0.0,8925.0,11811,14722,16180.0,15966.0
5549,31107,US,107903,33.9294444444,-116.977222222,Census,City,CA,"Beaumont, California",0,0,0,0,0,0,0,0,0,0,0,0,0,857,1332.0,2208,3152,4288.0,5484.0,6818,9685,11384.0,36877.0
5583,34527,US,108123,37.4955,-122.2668,Census,City,CA,"San Carlos, California",0,0,0,0,0,0,0,0,0,0,0,0,0,0,1132.0,3520,14371,21370.0,26053.0,24710,26167,27718.0,28406.0
5645,36899,US,18627,37.3680555556,-122.0975,Census,City,CA,"Los Altos, California",0,0,0,0,0,0,0,0,0,0,0,0,0,0,0.0,0,0,19696.0,25062.0,25769,26303,27693.0,28976.0
5650,37660,US,90591,37.2361111111,-121.961666667,Census,Town,CA,"Los Gatos, California",0,0,0,0,0,0,0,0,0,555,1652,1915,2232,2317,3168.0,3597,4907,9036.0,22613.0,26906,27357,28592.0,29413.0
5677,31070,US,108267,37.5058333333,-120.848888889,Census,General law city,CA,"Turlock, California",0,0,0,0,0,0,0,0,0,175,203,0,1573,3394,4276.0,4839,6235,9116.0,13992.0,26287,42198,55810.0,68549.0
5687,35711,US,107685,34.1161111111,-118.150277778,Census,General law city,CA,"South Pasadena, California",0,0,0,0,0,0,0,0,0,0,623,1001,4649,7652,13730.0,14356,16935,19706.0,22979.0,22681,23936,24292.0,25619.0
5690,32472,US,107689,34.1027777778,-118.058055556,Census,City,CA,"Temple City, California",0,0,0,0,0,0,0,0,0,0,0,0,0,0,0.0,0,0,31838.0,31034.0,28972,31100,33377.0,35558.0
5775,40628,US,107403,38.0172222222,-122.288611111,Census,City,CA,"Hercules, California",0,0,0,0,0,0,0,0,0,0,0,0,279,373,392.0,343,343,310.0,252.0,5963,16829,19488.0,24060.0
5811,56949,US,107995,34.1,-117.466666667,Census,General law city,CA,"Fontana, California",0,0,0,0,0,0,0,0,0,0,0,0,0,0,0.0,0,0,14659.0,20673.0,36804,87535,128929.0,196069.0
5818,26520,US,107666,33.7869444444,-118.396666667,Census,City,CA,"Palos Verdes Estates, California",0,0,0,0,0,0,0,0,0,0,0,0,0,0,0.0,987,1963,9564.0,13631.0,14376,13512,13340.0,13438.0
5834,14097,US,107579,38.9583333333,-122.626388889,Census,City,CA,"Clearlake, California",0,0,0,0,0,0,0,0,0,0,0,0,0,0,0.0,0,0,0.0,0.0,0,11804,13142.0,15250.0
5970,24538,US,108339,34.1602777778,-119.194444444,Census,Charter city,CA,"Port Hueneme, California",0,0,0,0,0,0,0,0,0,166,0,0,0,0,0.0,0,3024,11067.0,14295.0,17803,20319,21845.0,21723.0
6059,19163,US,108026,33.2472222222,-116.371944444,Census,census-designated place,CA,"Borrego Springs, California",0,0,0,0,0,0,0,0,0,0,0,0,0,0,0.0,0,0,0.0,0.0,0,2244,2535.0,3429.0
6136,54546,US,107949,33.5033333333,-117.123611111,Census,City,CA,"Temecula, California",0,0,0,0,0,0,0,0,0,0,0,0,0,0,0.0,0,0,0.0,0.0,1783,27099,57716.0,100097.0
6155,26387,US,107411,37.8827777778,-122.179722222,Census,City,CA,"Orinda, California",0,0,0,0,0,0,0,0,0,0,0,0,0,0,0.0,0,0,5568.0,6790.0,16825,16642,17599.0,17643.0
6179,10427,US,107628,34.1191666667,-118.081944444,Census,census-designated place,CA,"East San Gabriel, California",0,0,0,0,0,0,0,0,0,0,0,0,0,0,0.0,0,0,0.0,0.0,0,12736,14512.0,14874.0
6194,13265,US,107652,34.525,-117.99,Census,Census-designated place,CA,"Littlerock, California",0,0,0,0,0,0,0,0,0,0,0,0,0,0,0.0,0,0,0.0,0.0,0,1320,1402.0,1377.0
6195,17748,US,107462,36.5708333333,-119.611944444,Census,City,CA,"Selma, California",0,0,0,0,0,0,0,0,0,0,1150,1083,1750,3158,3047.0,3667,5964,6934.0,7459.0,10942,14757,19444.0,23219.0
6210,10699,US,117550,35.3166666667,-120.835555556,Census,Unincorporated community,CA,"Baywood-Los Osos, California",0,0,0,0,0,0,0,0,0,0,0,0,0,0,0.0,0,0,0.0,3487.0,10933,14377,14351.0,0.0
6214,20899,US,107719,37.9255555556,-122.5275,Census,Town,CA,"Corte Madera, California",0,0,0,0,0,0,0,0,0,0,0,0,0,607,1027.0,1098,1933,5962.0,8464.0,8074,8272,9100.0,9253.0
6217,44371,US,107632,33.8936111111,-118.307777778,Census,City,CA,"Gardena, California",0,0,0,0,0,0,0,0,0,0,0,0,0,0,0.0,5909,14405,35943.0,41021.0,45165,49847,57746.0,58829.0
6256,44918,US,107636,33.8663888889,-118.399722222,Census,City,CA,"Hermosa Beach, California",0,0,0,0,0,0,0,0,0,0,0,0,679,2327,4796.0,7197,11826,16115.0,17412.0,18070,18219,18566.0,19506.0
6272,32658,US,108065,33.1936111111,-117.241111111,Census,Charter city,CA,"Vista, California",0,0,0,0,0,0,0,0,0,0,0,0,0,0,0.0,0,1705,14795.0,24688.0,35834,71872,89857.0,93834.0
6333,33547,US,108154,37.0119444444,-121.58,Census,City,CA,"Gilroy, California",0,0,0,0,0,0,0,0,1625,1621,1694,1820,2437,2862,3502.0,3615,4951,7348.0,12684.0,21641,31487,41464.0,48821.0
6372,36364,US,107664,33.9069444444,-118.083333333,Census,General law city,CA,"Norwalk, California",0,0,0,0,0,0,0,0,0,0,0,0,0,0,0.0,0,0,88739.0,90164.0,84901,94279,103298.0,105549.0
6387,39721,US,107794,38.3047222222,-122.298888889,Census,"City, county seat",CA,"Napa, California",0,0,0,0,0,0,159,0,1879,3731,4395,4036,5791,6757,6437.0,7740,13579,22170.0,36103.0,50879,61842,72585.0,76915.0
6429,50747,US,107825,33.6166666667,-117.8975,Census,Charter city,CA,"Newport Beach, California",0,0,0,0,0,0,0,0,0,0,0,0,445,894,2203.0,4438,12120,26564.0,49582.0,62556,66643,70032.0,85186.0
6490,19213,US,108022,34.1141666667,-116.432222222,Census,Town,CA,"Yucca Valley, California",0,0,0,0,0,0,0,0,0,0,0,0,0,0,0.0,0,0,0.0,3893.0,8294,13701,16865.0,20700.0
6541,55468,US,107706,33.9655555556,-118.024444444,Census,Charter city,CA,"Whittier, California",0,0,0,0,0,0,0,0,0,0,585,1590,4550,7997,14822.0,16115,23433,33663.0,72863.0,68558,77671,83680.0,85331.0
6781,11401,US,107460,36.6066666667,-120.189166667,Census,City,CA,"San Joaquin, California",0,0,0,0,0,0,0,0,0,0,0,0,0,0,163.0,240,632,879.0,1506.0,1930,2311,3270.0,4001.0
6840,15970,US,107721,37.9872222222,-122.588888889,Census,Town,CA,"Fairfax, California",0,0,0,0,0,0,0,0,0,0,0,0,0,0,0.0,2198,4078,5813.0,7661.0,7391,6931,7319.0,7441.0
6870,24448,US,108104,37.5833333333,-122.363611111,Census,City,CA,"Burlingame, California",0,0,0,0,0,0,0,0,0,0,0,0,1565,4107,13270.0,15940,19886,24036.0,27320.0,26173,26801,28158.0,28806.0
6878,21639,US,108044,32.5783333333,-117.117222222,Census,City,CA,"Imperial Beach, California",0,0,0,0,0,0,0,0,0,0,0,0,0,0,0.0,0,0,17773.0,20244.0,22689,26512,26992.0,26324.0
6916,16170,US,108268,37.645,-120.7675,Census,City,CA,"Waterford, California",0,0,0,0,0,0,0,0,0,63,0,0,0,0,0.0,0,1777,1780.0,2243.0,2683,4771,6924.0,8456.0
6947,68471,US,75346,34.0730555556,-118.399444444,Census,General law city,CA,"Beverly Hills, California",0,0,0,0,0,0,0,0,0,0,0,0,0,674,17429.0,26823,29032,30817.0,33416.0,32646,31971,33784.0,34109.0
6974,88600,US,92413,36.75,-119.766666667,Census,"Charter city, county seat",CA,"Fresno, California",0,0,0,0,0,0,0,0,0,1112,10818,12470,24892,45086,52513.0,60685,91669,133929.0,165655.0,217491,354202,427652.0,494665.0
6990,28872,US,107832,33.4377777778,-117.620277778,Census,City,CA,"San Clemente, California",0,0,0,0,0,0,0,0,0,0,0,0,0,0,667.0,479,2008,8527.0,17063.0,27325,41100,49936.0,63522.0
7138,23206,US,107707,33.9175,-118.252777778,Census,Census-designated place,CA,"Willowbrook, California",0,0,0,0,0,0,0,0,0,0,0,0,0,0,0.0,0,0,0.0,28705.0,30845,32772,34138.0,35983.0
7151,19172,US,108051,32.7413888889,-117.031666667,Census,City,CA,"Lemon Grove, California",0,0,0,0,0,0,0,0,0,0,0,0,0,0,0.0,0,0,19348.0,19690.0,20780,23984,24918.0,25320.0
7205,47211,US,108151,37.3175,-122.041944444,Census,General law city,CA,"Cupertino, California",0,0,0,0,0,0,0,0,0,0,0,0,0,0,0.0,0,0,3664.0,17895.0,34297,40263,50546.0,58302.0
7217,28582,US,108119,37.375,-122.218611111,Census,Town,CA,"Portola Valley, California",0,0,0,0,0,0,0,0,0,0,0,0,0,0,0.0,0,0,0.0,4996.0,3939,4194,4462.0,4353.0
7287,20378,US,107584,39.0430555556,-122.915833333,Census,City,CA,"Lakeport, California",0,0,0,0,0,0,0,0,0,562,991,726,870,1024,1318.0,1490,1983,2303.0,3005.0,3675,4390,4820.0,4753.0
7292,30669,US,107638,33.9833333333,-118.216666667,Census,General law city,CA,"Huntington Park, California",0,0,0,0,0,0,0,0,0,0,0,0,1299,4513,24591.0,28648,29450,29920.0,33744.0,45932,56065,61348.0,58114.0
7299,31705,US,108100,37.4586111111,-122.2,Census,Town,CA,"Atherton, California",0,0,0,0,0,0,0,0,0,0,0,0,0,0,1324.0,1908,3630,7717.0,8085.0,7797,7163,7194.0,6914.0
7304,27906,US,107765,37.6486111111,-118.971944444,Census,Town,CA,"Mammoth Lakes, California",0,0,0,0,0,0,0,0,0,473,0,0,0,0,0.0,0,0,0.0,0.0,3929,4785,7093.0,8234.0
7476,112976,US,82130,,,Census,County,CA,"Ventura County, California",0,0,0,0,0,0,0,0,0,5073,10071,14367,18347,28724,54976.0,69685,114647,199138.0,376430.0,529174,669016,753197.0,823318.0
7496,35652,US,108349,39.15,-121.583333333,Census,City and county seat,CA,"Marysville, California",0,0,0,0,0,0,0,0,4738,4321,3991,3497,5430,5461,5763.0,6646,7826,9553.0,9353.0,9898,12324,12268.0,12072.0
7501,11054,US,107704,33.9761111111,-118.068888889,Census,Census-designated place,CA,"West Whittier-Los Nietos, California",0,0,0,0,0,0,0,0,0,0,0,0,0,0,0.0,0,0,0.0,20845.0,21001,24164,25129.0,25540.0
7554,73170,US,107337,37.6819444444,-121.768055556,Census,City,CA,"Livermore, California",0,0,0,0,0,0,0,0,0,855,1391,1493,2030,0,3119.0,2885,4364,16058.0,37703.0,48349,56741,73345.0,80968.0
7593,18990,US,107352,38.3488888889,-120.774166667,Census,City,CA,"Jackson, California",0,0,0,0,0,0,0,0,0,1040,0,0,2035,1601,2005.0,2024,1879,1852.0,1924.0,2331,3545,3989.0,4651.0
7702,21686,US,108024,32.6583333333,-117.035277778,Census,census-designated place,CA,"Bonita, California",0,0,0,0,0,0,0,0,0,0,0,0,0,0,0.0,0,0,0.0,0.0,6257,12542,12401.0,12538.0
7860,17789,US,108074,37.8169444444,-121.288611111,Census,City,CA,"Lathrop, California",0,0,0,0,0,0,0,0,0,0,577,0,0,0,0.0,0,0,1123.0,2137.0,3717,6841,10445.0,18023.0
7874,44885,US,107340,37.6625,-121.874722222,Census,City,CA,"Pleasanton, California",0,0,0,0,0,0,0,0,350,600,984,1100,1254,991,1237.0,1278,2244,4203.0,18328.0,35160,50533,63654.0,70285.0
7878,100630,US,27003223,33.02,-116.77,Census,County,CA,"San Diego County, California",0,0,0,0,0,0,798,4324,4951,8018,34987,35090,61665,112248,209659.0,289348,556808,1033011.0,1357854.0,1861846,2498016,2813833.0,3095313.0
7880,36672,US,107341,37.725,-122.156111111,Census,City,CA,"San Leandro, California",0,0,0,0,0,0,0,0,426,1369,0,2253,3471,5703,11455.0,14601,27542,65962.0,68698.0,63952,68223,79452.0,84950.0
7899,33285,US,105222,37.4527777778,-122.183333333,Census,City,CA,"Menlo Park, California",0,0,0,0,0,0,0,0,0,0,0,0,0,0,2254.0,3258,13587,26957.0,26826.0,26438,28040,30785.0,32026.0
7916,25483,US,27003119,33.8475,-118.12,Census,General law city,CA,"Lakewood, California",0,0,0,0,0,0,0,0,0,0,0,0,0,0,0.0,0,0,67126.0,83025.0,74511,73557,79345.0,80048.0
7917,10797,US,107700,33.8941666667,-118.266388889,Census,Census designated place,CA,"West Rancho Dominguez, California",0,0,0,0,0,0,0,0,0,0,0,0,0,0,0.0,0,0,0.0,5748.0,5907,5451,5435.0,5669.0
7961,15279,US,107593,34.4727777778,-118.183611111,Census,Census designated place,CA,"Acton, California",0,0,0,0,0,0,0,0,0,0,0,0,0,0,0.0,0,0,0.0,0.0,0,1471,2390.0,7596.0
7963,37913,US,107925,33.6752777778,-116.2975,Census,City,CA,"La Quinta, California",0,0,0,0,0,0,0,0,0,0,0,0,0,0,0.0,0,0,0.0,0.0,3328,11215,23694.0,37467.0
7970,20326,US,107957,38.7,-121.283333333,Census,City,CA,"Citrus Heights, California",0,0,0,0,0,0,0,0,0,0,0,0,0,0,0.0,0,0,0.0,21760.0,85911,107439,85071.0,83301.0
8046,32392,US,108111,37.4588888889,-122.436944444,Census,City,CA,"Half Moon Bay, California",0,0,0,0,0,0,0,0,0,0,0,0,0,0,0.0,0,0,1957.0,4023.0,7282,8886,11842.0,11324.0
8185,55014,US,82121,40.13,-122.23,Census,County,CA,"Tehama County, California",0,0,0,0,0,0,0,4044,3587,9301,9916,10996,11401,12882,13866.0,14316,19276,25305.0,29517.0,38888,49625,56039.0,63463.0
8351,31592,US,108053,33.2116666667,-117.325833333,Census,City,CA,"Oceanside, California",0,0,0,0,0,0,0,0,0,0,0,330,673,1161,3508.0,4651,12881,24971.0,40494.0,76698,128398,161029.0,167086.0
8377,15726,US,107753,37.3477777778,-120.609166667,Census,City,CA,"Atwater, California",0,0,0,0,0,0,0,0,0,0,0,0,0,0,917.0,1235,2856,7318.0,11640.0,17530,22282,23113.0,28168.0
8428,130875,US,10311463,33.8302777778,-116.545277778,Census,Charter city,CA,"Palm Springs, California",0,0,0,0,0,0,0,0,0,0,0,0,0,0,0.0,3434,7660,13468.0,20936.0,32359,40181,42807.0,44552.0
8434,12462,US,107772,36.5933333333,-121.835,Census,City,CA,"Del Rey Oaks, California",0,0,0,0,0,0,0,0,0,0,0,0,0,0,0.0,0,0,1831.0,1823.0,1557,1661,1650.0,1624.0
8504,16054,US,107816,33.8494444444,-118.043888889,Census,City,CA,"La Palma, California",0,0,0,0,0,0,0,0,0,0,0,0,0,0,0.0,0,0,622.0,9687.0,15399,15392,15408.0,15568.0
8594,11439,US,107688,33.9347222222,-118.030833333,Census,Census designated place,CA,"South Whittier, California",0,0,0,0,0,0,0,0,0,0,0,0,0,0,0.0,0,0,0.0,46461.0,43815,49514,55193.0,57156.0
8607,33165,US,107397,37.8216666667,-122.0,Unknown,Town,CA,"Danville, California",0,0,0,0,0,0,0,0,0,0,0,0,0,0,0.0,0,0,0.0,0.0,0,0,0.0,0.0
8638,93948,US,107521,35.3666666667,-119.016666667,Census,Charter city and county seat,CA,"Bakersfield, California",0,0,0,0,0,0,0,0,0,801,2626,4836,12727,18638,26015.0,29252,34784,56848.0,69515.0,105611,174820,247057.0,347483.0
8657,30278,US,107913,33.9611111111,-116.508055556,Census,City,CA,"Desert Hot Springs, California",0,0,0,0,0,0,0,0,0,0,0,0,0,0,0.0,0,0,1472.0,2738.0,5941,11668,16582.0,25938.0
8691,21809,US,108131,34.9655555556,-120.573055556,Census,City,CA,"Guadalupe, California",0,0,0,0,0,0,0,0,0,174,0,0,0,0,0.0,0,2429,2614.0,3145.0,3629,5479,5659.0,7080.0
8693,48483,US,107618,34.0077777778,-118.400833333,Census,City,CA,"Culver City, California",0,0,0,0,0,0,0,0,0,0,0,0,0,503,5669.0,8976,19720,32163.0,34451.0,38139,38793,38816.0,38883.0
8704,16259,US,108202,41.965,-121.918888889,Census,City,CA,"Dorris, California",0,0,0,0,0,0,0,0,0,0,0,0,214,424,762.0,863,892,973.0,840.0,836,892,886.0,939.0
8863,36970,US,108150,37.2838888889,-121.955,Census,City,CA,"Campbell, California",0,0,0,0,0,0,0,0,0,0,0,0,0,0,0.0,0,0,11863.0,23797.0,26843,36048,38138.0,39349.0
8874,39193,US,108120,37.4827777778,-122.236111111,Census,Charter city,CA,"Redwood City, California",0,0,0,0,0,0,0,0,727,1383,1572,1653,2442,4020,8962.0,12453,25544,46290.0,55686.0,54951,66072,75402.0,76815.0
8895,13310,US,108213,41.7272222222,-122.526388889,Census,City,CA,"Montague, California",0,0,0,0,0,0,0,0,0,0,250,0,274,453,507.0,463,579,782.0,890.0,1285,1415,1456.0,1443.0
8949,33095,US,107635,33.9172222222,-118.348611111,Census,City,CA,"Hawthorne, California",0,0,0,0,0,0,0,0,0,0,0,0,0,0,6596.0,8263,16316,33035.0,53304.0,56437,71349,84112.0,84293.0
8992,87728,US,80545,,,Census,County,CA,"Imperial County, California",0,0,0,0,0,0,0,0,0,0,0,0,13591,43453,60903.0,59740,62975,72105.0,74492.0,92110,109303,142361.0,174528.0
9025,23022,US,108113,37.5602777778,-122.356388889,Census,Town,CA,"Hillsborough, California",0,0,0,0,0,0,0,0,0,0,0,0,0,931,1891.0,2747,3552,7554.0,8753.0,10372,10667,10825.0,10825.0
9076,26497,US,107621,34.0016666667,-117.820833333,Census,City,CA,"Diamond Bar, California",0,0,0,0,0,0,0,0,0,0,0,0,0,0,0.0,0,0,0.0,10576.0,28045,53672,56287.0,55544.0
9102,92413,US,53445,37.4291666667,-122.138055556,Census,Charter city,CA,"Palo Alto, California",0,0,0,0,0,0,0,0,0,0,0,1658,4486,5900,13652.0,16774,25475,52287.0,56040.0,55225,55900,58598.0,64403.0
9155,18956,US,107710,36.9613888889,-120.060833333,Census,City,CA,"Madera, California",0,0,0,0,0,0,0,0,0,217,950,0,2404,3444,4665.0,6457,10497,14430.0,16044.0,21732,29281,43207.0,61416.0
9167,16159,US,108288,36.545,-119.389166667,Census,City,CA,"Dinuba, California",0,0,0,0,0,0,0,0,0,0,0,0,970,3400,2968.0,3790,4971,6103.0,7917.0,9907,12743,16844.0,21453.0
9168,19346,US,108079,37.8027777778,-121.220833333,Census,City,CA,"Manteca, California",0,0,0,0,0,0,0,0,0,0,0,0,0,1286,1614.0,1981,3804,8242.0,13845.0,24925,40773,49258.0,67096.0
9210,78641,US,82075,37.03,-122.01,Census,County,CA,"Santa Cruz County, California",0,0,0,0,0,0,643,4944,8743,12802,19270,21512,26140,26269,37433.0,45057,66534,84219.0,123790.0,188141,229734,255602.0,262382.0
9262,17270,US,107849,38.8163888889,-121.192777778,Census,Town,CA,"Loomis, California",0,0,0,0,0,0,0,0,0,0,0,0,0,0,0.0,0,0,0.0,1108.0,1284,5705,6260.0,6430.0
9280,13464,US,107471,40.8827777778,-123.983888889,Census,City,CA,"Blue Lake, California",0,0,0,0,0,0,0,0,0,0,0,0,507,441,555.0,503,824,1234.0,1112.0,1201,1235,1135.0,1253.0
9298,17789,US,107647,33.9888888889,-118.374166667,Census,Census-designated place,CA,"Ladera Heights, California",0,0,0,0,0,0,0,0,0,0,0,0,0,0,0.0,0,0,0.0,6079.0,6647,6316,6568.0,6498.0
9305,13507,US,108351,39.01,-121.423055556,Census,City,CA,"Wheatland, California",0,0,0,0,0,0,0,0,0,635,630,492,481,435,479.0,496,581,813.0,1280.0,1474,1631,2275.0,3456.0
9313,33298,US,107633,34.1361111111,-117.865277778,Census,City,CA,"Glendora, California",0,0,0,0,0,0,0,0,0,0,0,0,0,0,2761.0,2822,3988,20752.0,31380.0,38500,47828,49415.0,50073.0
9327,36378,US,107491,32.8,-115.566666667,Census,City,CA,"El Centro, California",0,0,0,0,0,0,0,0,0,0,0,0,1618,5790,8437.0,10174,12548,16830.0,19973.0,24829,32192,37294.0,42598.0
9367,64197,US,107783,36.6777777778,-121.655555556,Census,Charter city and county seat,CA,"Salinas, California",0,0,0,0,0,0,0,0,599,1854,2339,3304,3736,4308,10263.0,11586,13917,28957.0,58896.0,80479,108777,151060.0,150441.0
9489,49751,US,108142,34.5938888889,-120.139722222,Census,City,CA,"Solvang, California",0,0,0,0,0,0,0,0,0,0,0,0,0,0,0.0,0,0,1325.0,2004.0,3091,4741,5332.0,5245.0
9499,55140,US,107735,37.8591666667,-122.485277778,Census,City,CA,"Sausalito, California",0,0,0,0,0,0,0,0,0,476,1334,1628,2383,2790,3667.0,354,4828,5331.0,6158.0,7338,7152,7330.0,7061.0
9507,56548,US,108340,34.275,-119.227777778,Census,Charter city and county seat,CA,"Ventura, California",0,0,0,0,0,0,0,0,0,1370,2320,2470,2901,4156,11603.0,13264,16534,29114.0,57964.0,73774,92575,100916.0,106433.0
9543,11447,US,108069,37.7916666667,-120.991666667,Census,City,CA,"Escalon, California",0,0,0,0,0,0,0,0,0,0,0,0,0,0,0.0,0,0,1763.0,2366.0,3127,4437,5963.0,7132.0
9567,5964,US,107914,33.6105555556,-114.573888889,Census,Former Census-designated place (CDP),CA,"East Blythe, California",0,0,0,0,0,0,0,0,0,0,0,0,0,0,0.0,0,0,0.0,0.0,1660,1511,3.0,0.0
9574,26600,US,108083,37.7380555556,-121.433888889,Census,General law city,CA,"Tracy, California",0,0,0,0,0,0,0,0,0,0,0,0,0,0,3829.0,4056,8410,11289.0,14724.0,18428,33558,56929.0,82922.0
9605,48319,US,107672,33.8580555556,-118.378888889,Census,City,CA,"Redondo Beach, California",0,0,0,0,0,0,0,0,0,0,603,855,2935,4913,9347.0,13092,25226,46986.0,57451.0,57102,60167,63261.0,66748.0
9614,30928,US,107911,33.6794444444,-116.174444444,Census,City,CA,"Coachella, California",0,0,0,0,0,0,0,0,0,0,0,0,0,0,0.0,0,2755,4854.0,8353.0,9129,16896,22724.0,40704.0
9641,45941,US,107679,34.1227777778,-118.113055556,Census,City,CA,"San Marino, California",0,0,0,0,0,0,0,0,0,0,0,0,0,584,3730.0,8175,11230,13658.0,14177.0,13307,12959,12945.0,13147.0
9642,129482,US,50548,37.8044444444,-122.270833333,Census,Charter city,CA,"Oakland, California",0,0,0,0,0,0,0,1543,10500,34555,48682,66960,150174,216261,284063.0,302163,384575,367548.0,361561.0,339337,372242,399484.0,390724.0
9689,51643,US,108186,36.92,-121.763611111,Census,Charter city,CA,"Watsonville, California",0,0,0,0,0,0,0,398,1151,1799,2149,3528,4446,5013,8344.0,8937,11572,13293.0,14719.0,23662,31099,44265.0,51199.0
9729,37142,US,108228,38.3277777778,-122.709166667,Census,City,CA,"Cotati, California",0,0,0,0,0,0,0,0,0,0,0,0,0,0,0.0,0,0,1852.0,1368.0,3346,5714,6471.0,7265.0
9786,35098,US,108311,36.2066666667,-119.3425,Census,City,CA,"Tulare, California",0,0,0,0,0,0,0,0,0,447,2697,2216,2758,3539,6207.0,8259,12445,13824.0,16235.0,22530,33249,43994.0,59278.0
9800,24015,US,107410,37.9975,-121.7125,Census,City,CA,"Oakley, California",0,0,0,0,0,0,0,0,0,0,0,0,0,0,0.0,0,0,0.0,1306.0,2816,18374,25619.0,35432.0
9821,22249,US,107364,39.7597222222,-121.621388889,Census,Town,CA,"Paradise, California",0,0,0,0,0,0,0,0,0,0,0,0,0,0,0.0,0,0,8268.0,14539.0,22571,25408,26408.0,26218.0
9863,63848,US,79770,38.78,-120.53,Census,County,CA,"El Dorado County, California",0,0,0,0,0,0,20057,20562,10309,10683,9232,8986,7492,6426,8325.0,13229,16207,29390.0,43833.0,85812,125955,156299.0,181058.0
9932,14170,US,107417,38.0330555556,-122.266944444,Census,Census-designated place,CA,"Rodeo, California",0,0,0,0,0,0,0,0,0,0,0,0,0,0,0.0,0,0,0.0,5356.0,8286,7589,8717.0,8679.0
9934,54285,US,80566,40.65,-120.58,Census,County,CA,"Lassen County, California",0,0,0,0,0,0,0,0,1327,3340,4239,4511,4802,8507,12589.0,14479,18474,13597.0,14960.0,21661,27598,33828.0,34895.0
9958,74972,US,52826,37.5483333333,-121.988611111,Census,City,CA,"Fremont, California",0,0,0,0,0,0,0,0,0,0,0,0,0,0,0.0,0,0,43790.0,100869.0,131945,173339,203413.0,214089.0
9966,62899,US,108037,33.1247222222,-117.080833333,Census,City,CA,"Escondido, California",0,0,0,0,0,0,0,0,0,0,541,755,0,0,3421.0,4560,6544,16377.0,36792.0,64355,108635,133559.0,143911.0
9967,11198,US,107456,36.6116666667,-119.526944444,Census,City,CA,"Parlier, California",0,0,0,0,0,0,0,0,0,0,0,0,0,0,564.0,776,1419,1366.0,1993.0,2902,7938,11145.0,14494.0
10018,72527,US,80551,36.5833333333,-117.416666667,Census,County,CA,"Inyo County, California",0,0,0,0,0,0,0,0,1956,2928,3544,4377,6974,7031,6555.0,7625,11658,11684.0,15571.0,17895,18281,17945.0,18546.0
10084,25056,US,107503,37.3635,-118.3951,Census,City,CA,"Bishop, California",0,0,0,0,0,0,0,0,0,152,340,0,1199,1304,1159.0,1490,2891,2875.0,3498.0,3333,3475,3575.0,3879.0
10103,25146,US,108061,32.8697222222,-116.971111111,Census,City,CA,"Santee, California",0,0,0,0,0,0,0,0,0,0,0,0,0,0,0.0,0,0,0.0,21107.0,47080,52902,52975.0,53413.0
10132,78000,US,82055,,,Census,County,CA,"San Joaquin County, California",0,0,0,0,0,0,3647,9435,21050,24349,28629,35452,50731,79905,102940.0,134207,200750,249989.0,290208.0,347342,480628,563598.0,685306.0
10148,48129,US,108125,37.6561111111,-122.425555556,Census,General law city,CA,"South San Francisco, California",0,0,0,0,0,0,0,0,0,0,0,0,1989,4411,6193.0,6629,19351,39418.0,46646.0,49393,54312,60552.0,63632.0
10232,37463,US,332055,38.2122222222,-119.012222222,Census,Ghost town,CA,"Bodie, California",0,0,0,0,0,0,0,0,0,2712,1595,965,698,110,228.0,90,0,0.0,0.0,0,0,0.0,0.0
10294,52467,US,107841,33.888551,-117.813231,Census,City,CA,"Yorba Linda, California",0,0,0,0,0,0,0,0,0,0,0,0,0,0,0.0,0,0,1198.0,11856.0,28254,52422,58918.0,64234.0
10298,65548,US,108032,32.6277777778,-117.048055556,Census,City,CA,"Chula Vista, California",0,0,0,0,0,0,0,0,0,0,0,0,0,1718,3869.0,5138,15927,42034.0,67901.0,83927,135163,173556.0,243916.0
10300,20261,US,60864,38.4491666667,-121.826944444,Census,City,CA,"Dixon, California",0,0,0,0,0,0,0,0,317,0,1082,788,827,926,1000.0,1108,1714,2970.0,4432.0,7541,10401,16103.0,18351.0
10384,42608,US,107931,33.9430555556,-117.228333333,Census,General law city,CA,"Moreno Valley, California",0,0,0,0,0,0,0,0,0,0,0,0,0,0,0.0,0,0,0.0,0.0,0,118779,142381.0,193365.0
10421,20351,US,107486,33.3508333333,-115.729722222,Unknown,census-designated place,CA,"Bombay Beach, California",0,0,0,0,0,0,0,0,0,0,0,0,0,0,0.0,0,0,0.0,0.0,0,0,0.0,0.0
10453,15601,US,107839,33.8161111111,-117.811111111,Census,General law city,CA,"Villa Park, California",0,0,0,0,0,0,0,0,0,0,0,0,0,0,0.0,0,0,0.0,2723.0,7137,6299,5999.0,5812.0
10469,32726,US,107385,37.8502777778,-122.032222222,Census,census-designated place,CA,"Alamo, California",0,0,0,0,0,0,0,0,0,0,0,0,0,0,0.0,0,0,1791.0,0.0,8505,12277,15626.0,14570.0
10470,26176,US,52825,33.7086111111,-117.956388889,Census,City,CA,"Fountain Valley, California",0,0,0,0,0,0,0,0,0,0,0,0,0,0,0.0,0,0,2068.0,31886.0,55080,53691,54978.0,55313.0
10474,15748,US,108187,40.4522222222,-122.296666667,Census,City,CA,"Anderson, California",0,0,0,0,0,0,0,0,0,0,508,0,0,0,0.0,0,0,4492.0,5492.0,7381,8299,9022.0,9932.0
10490,10362,US,107687,34.0113888889,-117.904722222,Census,census-designated place,CA,"South San Jose Hills, California",0,0,0,0,0,0,0,0,0,0,0,0,0,0,0.0,0,0,0.0,12386.0,16049,17814,20218.0,20551.0
10544,77650,US,82118,37.56,-120.99,Census,County,CA,"Stanislaus County, California",0,0,0,0,0,0,0,2245,6499,8751,10040,9550,22522,43557,56641.0,74866,127231,157294.0,194506.0,265900,370522,446997.0,514453.0
10595,18653,US,107526,35.1258333333,-117.985833333,Census,City,CA,"California City, California",0,0,0,0,0,0,0,0,0,0,0,0,0,0,0.0,0,0,0.0,1309.0,2743,5955,8385.0,14120.0
10615,89157,US,4860,37.8716666667,-122.272777778,Census,Charter city,CA,"Berkeley, California",0,0,0,0,0,0,0,0,0,0,5101,13214,40434,56036,82109.0,85547,113805,111268.0,114091.0,103328,102724,102743.0,112580.0
10646,14643,US,108198,40.6780555556,-122.37,Census,City,CA,"Shasta Lake, California",0,0,0,0,0,0,0,0,0,0,0,0,0,0,0.0,0,0,0.0,0.0,0,0,9008.0,10164.0
10647,11575,US,107627,34.14,-118.077777778,Census,census-designated place,CA,"East Pasadena, California",0,0,0,0,0,0,0,0,0,0,0,0,0,0,0.0,0,0,0.0,0.0,0,5910,6045.0,6144.0
10722,21138,US,107792,38.5813888889,-122.582777778,Census,City,CA,"Calistoga, California",0,0,0,0,0,0,0,0,0,407,0,690,751,850,1000.0,1124,1418,1514.0,1882.0,3879,4468,5190.0,5155.0
10761,55827,US,107649,34.6833333333,-118.15,Census,Charter city,CA,"Lancaster, California",0,0,0,0,0,0,0,0,0,0,0,0,0,0,0.0,0,0,26012.0,30948.0,48027,97291,118718.0,156633.0
10771,31921,US,107803,39.3422222222,-120.203611111,Census,Town,CA,"Truckee, California",0,0,0,0,0,0,0,0,0,1147,1350,0,0,0,0.0,0,0,0.0,1392.0,2389,3484,13864.0,16180.0
10818,42561,US,107630,33.9213888889,-118.406111111,Census,City,CA,"El Segundo, California",0,0,0,0,0,0,0,0,0,0,0,0,0,1563,3503.0,3738,8011,14219.0,15620.0,13752,15223,16033.0,16654.0
10834,24424,US,107814,33.7788888889,-117.960277778,Census,City,CA,"Garden Grove, California",0,0,0,0,0,0,0,0,0,0,0,0,0,0,0.0,0,0,84238.0,121155.0,123307,143050,165196.0,170883.0
10938,24984,US,107979,36.8525,-121.401666667,Census,City,CA,"Hollister, California",0,0,0,0,0,0,0,0,0,1034,1234,1315,2308,2781,3757.0,3881,4903,6071.0,7663.0,11488,19212,34413.0,34928.0
11037,10505,US,107692,34.0377777778,-117.928888889,Census,census-designated place,CA,"Valinda, California",0,0,0,0,0,0,0,0,0,0,0,0,0,0,0.0,0,0,0.0,18837.0,18700,18735,21776.0,22822.0
11088,32294,US,60867,38.0633333333,-122.156111111,Census,City,CA,"Benicia, California",0,0,0,0,0,0,0,0,0,1794,2361,2751,2360,2693,2913.0,2419,7284,6070.0,7349.0,15376,24437,26865.0,26997.0
11115,20281,US,60865,38.525,-121.970833333,Census,City,CA,"Winters, California",0,0,0,0,0,0,0,0,0,523,0,785,910,903,896.0,1133,1265,1700.0,2419.0,2652,4639,6125.0,6624.0
11125,41817,US,107424,37.9063888889,-122.065,Census,City,CA,"Walnut Creek, California",0,0,0,0,0,0,0,0,0,94,0,0,0,538,1014.0,1578,2420,9903.0,39844.0,54033,60569,64296.0,64173.0
11160,15309,US,107998,34.1283333333,-117.208611111,Census,City,CA,"Highland, California",0,0,0,0,0,0,0,0,0,0,0,0,0,0,0.0,0,0,0.0,12669.0,10908,34439,44605.0,53104.0
11166,41728,US,108030,33.1219444444,-117.296944444,Census,Charter city,CA,"Carlsbad, California",0,0,0,0,0,0,0,0,0,0,0,0,0,0,0.0,0,0,9253.0,14944.0,35490,63126,78247.0,105328.0
11178,17255,US,117150,34.0005555556,-117.969444444,Census,census-designated place,CA,"Hacienda Heights, California",0,0,0,0,0,0,0,0,0,0,0,0,0,0,0.0,0,0,0.0,35969.0,49422,52354,53122.0,54038.0
11196,30045,US,107595,34.0819444444,-118.135,Census,City,CA,"Alhambra, California",0,0,0,0,0,0,0,0,0,0,808,0,5021,9096,29472.0,38935,51359,54807.0,62125.0,64767,82106,85804.0,83089.0
11239,23305,US,107606,33.8880555556,-118.1275,Census,City,CA,"Bellflower, California",0,0,0,0,0,0,0,0,0,0,0,0,0,0,0.0,0,0,45909.0,52334.0,53441,61815,72878.0,76616.0
11420,42238,US,108106,37.6863888889,-122.468333333,Census,City,CA,"Daly City, California",0,0,0,0,0,0,0,0,0,0,0,0,0,3779,7838.0,9625,15191,44791.0,66922.0,78519,92311,103621.0,101123.0
11480,33261,US,108019,34.5361111111,-117.291111111,Census,City,CA,"Victorville, California",0,0,0,0,0,0,0,0,0,0,0,0,0,0,0.0,0,0,0.0,10845.0,14220,40674,64029.0,115903.0
11515,74858,US,107702,34.0877777778,-118.372222222,Census,General law city,CA,"West Hollywood, California",0,0,0,0,0,0,0,0,0,0,0,0,0,0,0.0,0,0,28870.0,34622.0,35703,36118,35716.0,34399.0
11536,20382,US,107776,36.2127777778,-121.126111111,Census,City,CA,"King City, California",0,0,0,0,0,0,0,0,0,0,253,0,0,1048,1483.0,1768,2347,2937.0,3717.0,5495,7634,11094.0,12874.0
11556,59173,US,79768,41.74,-123.96,Census,County,CA,"Del Norte County, California",0,0,0,0,0,0,0,1993,2022,2584,2592,2408,2417,2759,4739.0,4745,8078,17771.0,14580.0,18217,23460,27507.0,28610.0
11559,26757,US,107729,38.1075,-122.569722222,Census,City,CA,"Novato, California",0,0,0,0,0,0,0,0,0,0,0,0,0,0,0.0,0,0,17881.0,31006.0,43916,47585,47630.0,51904.0
11566,30038,US,107406,37.8858333333,-122.118055556,Census,City,CA,"Lafayette, California",0,0,0,0,0,0,0,0,0,0,0,0,0,0,0.0,0,0,7114.0,20484.0,20837,23501,23908.0,23893.0
11621,31045,US,107642,34.207721,-118.206979,Census,City,CA,"La Ca√±ada Flintridge, California",0,0,0,0,0,0,0,0,0,0,0,0,0,0,0.0,0,0,18338.0,20652.0,20153,19378,20318.0,20246.0
11712,17002,US,107451,36.5138888889,-119.553888889,Census,City,CA,"Kingsburg, California",0,0,0,0,0,0,0,0,0,88,291,0,634,1316,1322.0,1504,2310,3093.0,3843.0,5115,7205,9199.0,11382.0
11835,48361,US,82120,39.04,-121.69,Census,County,CA,"Sutter County, California",0,0,0,0,0,0,3444,3390,5030,5159,5469,5886,6328,10115,14618.0,18680,26239,33380.0,41935.0,52246,64415,78930.0,94737.0
11838,29547,US,107576,36.3008333333,-119.782777778,Census,Charter city,CA,"Lemoore, California",0,0,0,0,0,0,0,0,0,463,651,0,1000,1355,1399.0,1711,2153,2561.0,4219.0,8832,13622,19712.0,24531.0
11864,21393,US,107764,41.4872222222,-120.5425,Census,General law city,CA,"Alturas, California",0,0,0,0,0,0,0,0,0,148,0,0,916,979,2338.0,2090,2819,2819.0,2799.0,3025,3231,2892.0,2827.0
11971,20739,US,107958,38.4383333333,-121.381944444,Census,General law city,CA,"Elk Grove, California",0,0,0,0,0,0,0,0,0,0,0,0,0,0,0.0,0,0,2205.0,3721.0,10959,17483,59984.0,153015.0
12037,50748,US,107622,33.9380555556,-118.130833333,Census,City,CA,"Downey, California",0,0,0,0,0,0,0,0,0,0,0,0,0,0,0.0,0,0,82505.0,88573.0,82602,91444,107323.0,111772.0
12117,71381,US,107690,33.8347222222,-118.341388889,Census,Charter city,CA,"Torrance, California",0,0,0,0,0,0,0,0,0,0,0,0,0,0,7271.0,9950,22241,100991.0,134968.0,129881,133107,137946.0,145438.0
12158,32599,US,107992,33.9938888889,-117.758888889,Census,City,CA,"Chino Hills, California",0,0,0,0,0,0,0,0,0,0,0,0,0,0,0.0,0,0,0.0,0.0,0,27608,66787.0,74799.0
12222,14893,US,108184,36.9869444444,-121.945555556,Census,Census-designated place,CA,"Soquel, California",0,0,0,0,0,0,0,0,0,328,2982,2987,0,0,0.0,0,0,0.0,5795.0,6212,9188,5081.0,9644.0
12227,14325,US,107400,37.945,-122.313611111,Census,Census-designated place,CA,"East Richmond Heights, California",0,0,0,0,0,0,0,0,0,0,0,0,0,0,0.0,0,0,0.0,0.0,0,3266,3357.0,3280.0
12230,71394,US,107665,34.5811111111,-118.100555556,Census,Charter city,CA,"Palmdale, California",0,0,0,0,0,0,0,0,0,0,0,0,0,0,0.0,0,0,11522.0,8511.0,12277,68842,116670.0,152750.0
12249,59820,US,108012,34.0547222222,-117.1825,Census,General law city,CA,"Redlands, California",0,0,0,0,0,0,0,0,0,0,1904,4797,10449,9571,14177.0,14324,18429,26829.0,36355.0,43619,60394,63591.0,68747.0
12265,20872,US,107645,34.0325,-117.955277778,Census,City,CA,"La Puente, California",0,0,0,0,0,0,0,0,0,0,0,0,0,0,0.0,0,0,24723.0,31092.0,30882,36955,41063.0,39816.0
12276,57297,US,108342,34.1894444444,-118.875,Census,General law city,CA,"Thousand Oaks, California",0,0,0,0,0,0,0,0,0,0,0,0,0,0,0.0,0,1243,2934.0,35873.0,77072,104352,117005.0,126683.0
12284,18926,US,108293,36.3011111111,-119.2075,Census,City,CA,"Farmersville, California",0,0,0,0,0,0,0,0,0,0,0,0,0,0,0.0,0,0,3101.0,3456.0,5544,6235,8737.0,10588.0
12308,34447,US,108219,41.4241666667,-122.384444444,Census,City,CA,"Weed, California",0,0,0,0,0,0,0,0,0,0,0,0,0,0,0.0,0,2739,3223.0,2983.0,2879,3062,2978.0,2967.0
12321,21469,US,107923,33.7186111111,-116.308333333,Census,City,CA,"Indian Wells, California",0,0,0,0,0,0,0,0,0,0,0,0,0,0,0.0,0,0,0.0,760.0,1394,2647,3816.0,4958.0
12336,51398,US,107610,33.8683333333,-118.0675,Census,Charter city,CA,"Cerritos, California",0,0,0,0,0,0,0,0,0,166,0,0,0,0,0.0,0,0,3508.0,15856.0,53020,53240,51488.0,49041.0
12353,13859,US,107455,36.6244444444,-119.313611111,Census,City,CA,"Orange Cove, California",0,0,0,0,0,0,0,0,0,0,0,0,0,0,0.0,0,2395,2885.0,3392.0,4026,5604,7722.0,9078.0
12402,18462,US,107759,37.3869444444,-120.723611111,Census,City,CA,"Livingston, California",0,0,0,0,0,0,0,0,0,0,0,0,0,0,803.0,895,1502,2188.0,2588.0,5326,7317,10473.0,13058.0
12449,36112,US,107602,34.1305555556,-117.906944444,Census,City,CA,"Azusa, California",0,0,0,0,0,0,0,363,320,0,0,863,1477,2460,4808.0,5209,11042,20497.0,25217.0,29380,41333,44712.0,46361.0
12567,13646,US,107544,35.0588888889,-119.400833333,Census,City,CA,"Maricopa, California",0,0,0,0,0,0,0,0,0,0,0,0,0,1121,1071.0,670,800,648.0,740.0,946,1193,1111.0,1154.0
12641,29075,US,107563,35.1322222222,-118.448888889,Census,General law city,CA,"Tehachapi, California",0,0,0,0,0,0,0,0,0,0,255,0,385,458,736.0,1264,1685,3161.0,4211.0,4126,5791,10957.0,14414.0
12708,25582,US,116844,38.94,-119.976944444,Census,City,CA,"South Lake Tahoe, California",0,0,0,0,0,0,0,0,0,0,0,0,0,0,0.0,0,0,0.0,12921.0,20681,21586,23609.0,21403.0
12756,48745,US,80540,39.59,-122.39,Census,County,CA,"Glenn County, California",0,0,0,0,0,0,0,0,0,0,0,5150,7172,11853,10935.0,12195,15448,17245.0,17521.0,21350,24798,26453.0,28122.0
12825,39161,US,107391,37.9319444444,-121.695833333,Census,City,CA,"Brentwood, California",0,0,0,0,0,0,0,0,0,0,0,0,0,0,0.0,0,1729,2186.0,2649.0,4434,7563,23302.0,51481.0
12850,54109,US,6024874,34.4166666667,-118.506388889,Census,City,CA,"Santa Clarita, California",0,0,0,0,0,0,0,0,0,0,0,0,0,0,0.0,0,0,0.0,0.0,0,110642,151088.0,176320.0
12873,20983,US,21985451,33.9247222222,-118.201944444,Census,City,CA,"Lynwood, California",0,0,0,0,0,0,0,0,0,0,0,0,0,0,7323.0,10982,25823,31614.0,43354.0,48289,61945,69845.0,69772.0
12883,19722,US,107653,33.7933333333,-118.316111111,Census,City,CA,"Lomita, California",0,0,0,0,0,0,0,0,0,0,0,0,0,0,0.0,0,0,14983.0,19784.0,18807,19382,20046.0,20256.0
12911,10531,US,107620,34.5897222222,-118.153611111,Census,Census designated place,CA,"Desert View Highlands, California",0,0,0,0,0,0,0,0,0,0,0,0,0,0,0.0,0,0,0.0,0.0,2175,2154,2337.0,2360.0
12985,62820,US,108096,35.2741666667,-120.663055556,Census,Charter city,CA,"San Luis Obispo, California",0,0,0,0,0,0,0,0,0,2243,2995,3021,5157,5895,8276.0,8881,14180,20437.0,28036.0,34252,41958,44174.0,45119.0
13029,24019,US,107338,37.5333333333,-122.033333333,Census,City,CA,"Newark, California",0,0,0,0,0,0,0,0,0,179,0,0,0,0,0.0,0,1532,9884.0,27153.0,32126,37861,42471.0,42573.0
13051,44843,US,108167,37.3711111111,-122.0375,Census,Charter city,CA,"Sunnyvale, California",0,0,0,0,0,0,0,0,0,0,0,0,0,0,3094.0,4373,9829,59898.0,95976.0,106618,117229,131760.0,140081.0
13103,59269,US,108132,34.4133333333,-119.860833333,Census,census-designated place,CA,"Isla Vista, California",0,0,0,0,0,0,0,0,0,0,0,0,0,0,0.0,0,0,0.0,13441.0,0,20395,18344.0,23096.0
13261,59375,US,60866,38.1130555556,-122.235833333,Census,City,CA,"Vallejo, California",0,0,0,0,0,0,0,0,0,5987,6343,7965,11340,21107,16072.0,20072,26038,60877.0,71710.0,80303,109199,116760.0,115942.0
13301,23398,US,20661694,34.0483333333,-117.250555556,Census,City,CA,"Loma Linda, California",0,0,0,0,0,0,0,0,0,0,0,0,0,0,0.0,0,0,0.0,9797.0,10694,17400,18681.0,23261.0
13319,13482,US,107596,33.8908333333,-118.334166667,Census,Census designated place,CA,"Alondra Park, California",0,0,0,0,0,0,0,0,0,0,0,0,0,0,0.0,0,0,0.0,12193.0,12096,12215,8622.0,8592.0
13323,49694,US,107817,33.5313888889,-117.769166667,Census,City,CA,"Laguna Beach, California",0,0,0,0,0,0,0,0,0,0,0,0,0,0,1981.0,4460,6661,9288.0,14550.0,17858,23170,23727.0,22723.0
13370,36768,US,108013,34.1113888889,-117.3825,Census,City,CA,"Rialto, California",0,0,0,0,0,0,0,0,0,0,0,0,0,961,1642.0,1770,3156,18567.0,28370.0,37862,72388,91873.0,99171.0
13373,31568,US,108275,39.1347222222,-121.626111111,Census,City,CA,"Yuba City, California",0,0,0,0,0,0,0,0,0,0,562,0,1160,1708,3605.0,4968,7861,11507.0,13986.0,18736,27437,36758.0,64925.0
13388,61067,US,82022,37.19,-120.71,Census,County,CA,"Merced County, California",0,0,0,0,0,0,0,1141,2807,5656,8085,9215,15148,24579,36748.0,46988,69780,90446.0,104629.0,134560,178403,210554.0,255793.0
13419,138918,US,82117,38.51,-122.93,Census,County,CA,"Sonoma County, California",0,0,0,0,0,0,560,11867,19819,25926,32721,38480,48394,52090,62222.0,69052,103405,147375.0,204885.0,299681,388222,458614.0,483878.0
13421,16642,US,107965,38.1619444444,-121.609166667,Census,City,CA,"Isleton, California",0,0,0,0,0,0,0,0,0,0,0,0,0,0,2090.0,1837,1597,1039.0,909.0,914,833,828.0,804.0
13434,14726,US,107756,37.2577777778,-120.998888889,Census,City,CA,"Gustine, California",0,0,0,0,0,0,0,0,0,0,0,0,0,716,1016.0,1355,1984,2300.0,2793.0,3142,3931,4698.0,5520.0
13494,142587,US,27003186,,,Census,County,CA,"Riverside County, California",0,0,0,0,0,0,0,0,0,0,0,17897,34696,50297,81024.0,105524,170046,306191.0,459074.0,663166,1170413,1545387.0,2189641.0
13514,14849,US,108256,37.6030555556,-120.866944444,Census,City,CA,"Hughson, California",0,0,0,0,0,0,0,0,0,0,0,0,0,0,0.0,0,0,1898.0,2144.0,2943,3259,3980.0,6640.0
13517,107966,US,82017,38.04,-122.74,Census,County,CA,"Marin County, California",0,0,0,0,0,0,323,3334,6903,11324,13072,15702,25114,27342,41648.0,52907,85619,146820.0,206038.0,222568,230096,247289.0,252409.0
13528,37335,US,107824,33.6127777778,-117.656111111,Census,City,CA,"Mission Viejo, California",0,0,0,0,0,0,0,0,0,0,0,0,0,0,0.0,0,0,0.0,11933.0,50666,72820,93102.0,93305.0
13624,58268,US,74406,38.5538888889,-121.738055556,Census,County,CA,"Yolo County, California",0,0,0,0,0,0,1086,4716,9899,11772,12684,13618,13926,17105,23644.0,27243,40640,65727.0,91788.0,113374,141092,168660.0,200849.0
13646,30781,US,107701,34.0566666667,-117.918611111,Census,General law city,CA,"West Covina, California",0,0,0,0,0,0,0,0,0,0,0,0,0,0,769.0,1072,4499,50645.0,68034.0,80292,96086,105080.0,106098.0
13673,20225,US,107475,40.5980555556,-124.157222222,Census,City,CA,"Fortuna, California",0,0,0,0,0,0,0,0,0,0,0,0,383,986,1239.0,1413,1762,3523.0,4203.0,7591,8788,10497.0,11926.0
13736,11818,US,108173,37.1313888889,-122.124444444,Census,Census-designated place,CA,"Boulder Creek, California",0,0,0,0,0,0,0,0,0,0,489,0,544,0,0.0,0,1497,1306.0,1806.0,5662,6725,4081.0,4923.0
13855,20755,US,108035,32.955,-117.263888889,Census,City,CA,"Del Mar, California",0,0,0,0,0,0,0,0,0,0,0,0,0,0,0.0,0,0,3124.0,3956.0,5017,4860,4389.0,4161.0
13865,32646,US,107420,37.78,-121.978055556,Census,City,CA,"San Ramon, California",0,0,0,0,0,0,0,0,0,75,0,0,0,0,0.0,0,0,0.0,4084.0,22356,35303,44722.0,72148.0
13876,22819,US,107443,36.1397222222,-120.360277778,Census,City,CA,"Coalinga, California",0,0,0,0,0,0,0,0,0,0,0,0,4199,2934,2851.0,5026,5539,5965.0,6161.0,6593,8212,11668.0,13380.0
13937,78823,US,107655,34.03,-118.75,Census,City,CA,"Malibu, California",0,0,0,0,0,0,0,0,0,0,0,0,0,0,0.0,0,0,0.0,0.0,0,0,12575.0,12645.0
13980,18514,US,108249,37.6013888889,-120.957222222,Census,City,CA,"Ceres, California",0,0,0,0,0,0,0,0,0,0,0,0,0,637,981.0,1332,2351,4406.0,6029.0,13281,26314,34609.0,45417.0
13990,33149,US,108333,34.2811111111,-118.873611111,Census,General law city,CA,"Moorpark, California",0,0,0,0,0,0,0,0,0,0,0,0,0,0,0.0,0,0,2902.0,3380.0,4030,25494,31415.0,34421.0
14099,20331,US,107843,39.0972222222,-120.953888889,Census,City,CA,"Colfax, California",0,0,0,0,0,0,0,0,0,591,670,0,621,573,912.0,794,820,915.0,798.0,981,1306,1496.0,1963.0
14316,31019,US,108118,37.6227777778,-122.485555556,Census,City,CA,"Pacifica, California",0,0,0,0,0,0,0,0,0,0,0,0,0,0,0.0,0,0,20995.0,36020.0,36866,37670,38390.0,37234.0
14350,28412,US,107415,37.9480555556,-122.0525,Census,City,CA,"Pleasant Hill, California",0,0,0,0,0,0,0,0,0,0,0,0,0,0,0.0,0,5686,23844.0,24610.0,25547,31585,32837.0,33152.0
14384,104061,US,82127,36.23,-118.8,Census,County,CA,"Tulare County, California",0,0,0,0,0,0,0,4638,4533,11281,24574,18375,35440,59031,77442.0,107152,149264,168403.0,188322.0,245738,311921,368021.0,442179.0
14389,26168,US,107558,35.5005555556,-119.271666667,Census,City,CA,"Shafter, California",0,0,0,0,0,0,0,0,0,0,0,0,0,0,0.0,1258,2207,4576.0,5327.0,7010,8409,12736.0,16988.0
14413,10746,US,107703,34.0508333333,-117.969722222,Census,census-designated place,CA,"West Puente Valley, California",0,0,0,0,0,0,0,0,0,0,0,0,0,0,0.0,0,0,0.0,20733.0,20445,20254,22589.0,22636.0
14427,10948,US,107705,33.9413888889,-118.302222222,Census,Census designated place,CA,"Westmont, California",0,0,0,0,0,0,0,0,0,0,0,0,0,0,0.0,0,0,0.0,29310.0,27916,31044,31623.0,31853.0
14448,26679,US,107676,34.1027777778,-117.816111111,Census,City,CA,"San Dimas, California",0,0,0,0,0,0,0,0,0,0,0,0,0,0,0.0,0,0,0.0,15692.0,24014,32397,34980.0,33371.0
14455,49115,US,9123,38.5538888889,-121.738055556,Census,City,CA,"Davis, California",0,0,0,0,0,0,0,0,0,441,547,0,0,939,1243.0,1672,3554,8910.0,23488.0,36640,46209,60308.0,65622.0
14456,35057,US,107594,34.1533333333,-118.761666667,Census,General law city,CA,"Agoura Hills, California",0,0,0,0,0,0,0,0,0,0,0,0,0,0,0.0,0,0,0.0,0.0,0,20390,20537.0,20330.0
14514,32823,US,107984,34.5008333333,-117.185833333,Census,Town,CA,"Apple Valley, California",0,0,0,0,0,0,0,0,0,0,0,0,0,0,0.0,0,0,0.0,6702.0,14305,46079,54239.0,69135.0
14515,20803,US,107673,33.7594444444,-118.341666667,Census,General law city,CA,"Rolling Hills, California",0,0,0,0,0,0,0,0,0,0,0,0,0,0,0.0,0,0,1664.0,2050.0,2049,1871,1871.0,1860.0
14618,17313,US,107351,38.3527777778,-120.932777778,Census,City,CA,"Ione, California",0,0,0,0,0,0,0,0,0,686,806,0,0,0,0.0,0,0,1118.0,2369.0,2207,6516,7129.0,7918.0
14624,9289,US,107422,38.0086111111,-122.096111111,Census,census-designated place,CA,"Vine Hill, California",0,0,0,0,0,0,0,0,0,0,0,0,0,0,0.0,0,0,0.0,0.0,0,3214,3260.0,3761.0
14708,62617,US,81602,34.1461111111,-118.255,Census,Charter city,CA,"Glendale, California",0,0,0,0,0,0,0,0,0,0,0,0,2746,13536,62736.0,82582,95702,119442.0,132664.0,139060,180038,194973.0,191719.0
14800,14211,US,108081,37.7405555556,-121.128333333,Census,City,CA,"Ripon, California",0,0,0,0,0,0,0,0,0,0,0,0,0,0,0.0,0,1550,1894.0,2679.0,3509,7455,10146.0,14297.0
14954,21639,US,107836,33.8025,-117.994444444,Census,City,CA,"Stanton, California",0,0,0,0,0,0,0,0,0,0,0,0,0,0,0.0,0,0,11163.0,18186.0,23723,30491,37403.0,38186.0
15163,67581,US,107336,37.66882,-122.080796,Census,City,CA,"Hayward, California",0,0,0,0,0,0,0,0,504,1231,1419,1965,2746,3487,5530.0,6736,14272,72700.0,93058.0,93585,111498,140030.0,144186.0
15164,39752,US,107395,37.9780555556,-122.031111111,Census,General law city,CA,"Concord, California",0,0,0,0,0,0,0,0,400,399,373,586,703,912,1125.0,1373,6953,36208.0,85164.0,103251,111348,121780.0,122067.0
15171,50761,US,82019,37.58,-119.91,Census,County,CA,"Mariposa County, California",0,0,0,0,0,0,4379,6243,4572,4339,3787,4720,3956,2775,3233.0,5605,5145,5064.0,6015.0,11108,14302,17130.0,18251.0
15274,14516,US,107461,36.7080555556,-119.555833333,Census,City,CA,"Sanger, California",0,0,0,0,0,0,0,0,0,0,0,0,0,2578,2967.0,4017,6400,8072.0,10088.0,12542,16839,18931.0,24270.0
15305,64219,US,82028,,,Census,County,CA,"Nevada County, California",0,0,0,0,0,0,0,16446,19134,20823,17369,17789,14955,10850,10596.0,19283,19888,20911.0,26346.0,51645,78510,92033.0,98764.0
15348,27749,US,108110,37.5513888889,-122.266388889,Census,City,CA,"Foster City, California",0,0,0,0,0,0,0,0,0,0,0,0,0,0,0.0,0,0,0.0,9327.0,23287,28176,28803.0,30567.0
15379,24684,US,107614,34.0005555556,-118.154722222,Census,City,CA,"Commerce, California",0,0,0,0,0,0,0,0,0,0,0,0,0,0,0.0,0,0,9555.0,10635.0,10509,12135,12568.0,12823.0
15442,22317,US,107483,41.0591666667,-124.143055556,Census,City,CA,"Trinidad, California",0,0,0,0,0,0,0,0,0,104,0,0,0,0,107.0,94,188,289.0,300.0,379,362,311.0,367.0
15523,15355,US,107446,36.8588888889,-120.456111111,Census,City,CA,"Firebaugh, California",0,0,0,0,0,0,0,0,0,0,0,0,0,0,506.0,704,821,2070.0,2517.0,3740,4429,5743.0,7549.0
15582,93462,US,82025,36.24,-121.31,Census,County,CA,"Monterey County, California",0,0,0,0,0,0,1872,4739,9876,11302,18637,19380,24146,27980,53705.0,73032,130498,198351.0,250071.0,290444,355660,401762.0,415057.0
15608,64006,US,108259,37.6613888889,-120.994444444,Census,City,CA,"Modesto, California",0,0,0,0,0,0,0,0,0,1693,2402,2024,4034,9241,13842.0,16379,17389,36585.0,61712.0,106963,164730,188856.0,201165.0
15620,23206,US,108281,40.1766666667,-122.238055556,Census,City,CA,"Red Bluff, California",0,0,0,0,0,0,0,0,992,2106,2608,2750,3530,3104,3517.0,3824,4905,7202.0,7676.0,9490,12363,13147.0,14076.0
15649,58439,US,107926,33.6813888889,-117.345277778,Census,City,CA,"Lake Elsinore, California",0,0,0,0,0,0,0,0,0,0,0,279,488,633,1350.0,1552,2068,2432.0,3530.0,5982,18285,28928.0,51821.0
15726,47971,US,108011,34.1233333333,-117.579444444,Census,City,CA,"Rancho Cucamonga, California",0,0,0,0,0,0,0,0,0,0,0,0,0,0,0.0,0,0,0.0,0.0,55250,101409,127743.0,165269.0
15739,53710,US,82041,36.61,-121.08,Census,County,CA,"San Benito County, California",0,0,0,0,0,0,0,0,0,5584,6412,6633,8041,8995,11311.0,11392,14370,15396.0,18226.0,25005,36697,53234.0,55269.0
15741,17581,US,107963,38.2608333333,-121.303055556,Census,City,CA,"Galt, California",0,0,0,0,0,0,0,0,0,0,0,0,0,0,0.0,0,1333,1868.0,3200.0,5514,8889,19472.0,23647.0
15774,14368,US,108282,40.0244444444,-122.123888889,Census,City,CA,"Tehama, California",0,0,0,0,0,0,0,0,0,328,0,0,221,196,190.0,175,314,261.0,317.0,365,401,432.0,418.0
15795,21887,US,107809,33.8183333333,-118.039166667,Census,Charter city,CA,"Cypress, California",0,0,0,0,0,0,0,0,0,0,0,0,0,0,0.0,0,0,1753.0,31569.0,40738,42655,46229.0,47802.0
15881,24380,US,108047,32.7713888889,-117.022777778,Census,General law city,CA,"La Mesa, California",0,0,0,0,0,0,0,0,0,0,0,0,0,1004,2513.0,3925,10946,30441.0,39178.0,50308,52931,54749.0,57065.0
15926,99358,US,92408,34.1561111111,-118.131944444,Census,City,CA,"Pasadena, California",0,0,0,0,0,0,0,0,0,391,4882,9117,30291,45354,76086.0,81864,104577,116407.0,112951.0,118072,131591,133936.0,137122.0
15950,53325,US,82128,38.02,-119.94,Census,County,CA,"Tuolumne County, California",0,0,0,0,0,0,8351,16229,8150,7848,6082,11166,9979,7768,9271.0,10887,12584,14404.0,22169.0,33928,48456,54501.0,55365.0
15974,44784,US,107819,33.5319444444,-117.7025,Census,City,CA,"Laguna Niguel, California",0,0,0,0,0,0,0,0,0,0,0,0,0,0,0.0,0,0,0.0,4644.0,12237,44400,61891.0,62979.0
15979,83134,US,63816,33.6927777778,-118.000277778,Census,Charter city,CA,"Huntington Beach, California",0,0,0,0,0,0,0,0,0,0,0,0,0,0,3690.0,3738,5237,11492.0,115960.0,170505,181519,189594.0,189992.0
16071,11290,US,108027,32.8188888889,-116.960277778,Census,Census designated place,CA,"Bostonia, California",0,0,0,0,0,0,0,0,0,0,0,0,0,0,0.0,0,0,0.0,0.0,0,13670,15169.0,15379.0
16141,16071,US,107545,35.6780555556,-119.229166667,Census,City,CA,"McFarland, California",0,0,0,0,0,0,0,0,0,0,0,0,0,0,0.0,0,0,3686.0,4177.0,5151,7005,9618.0,12707.0
16281,18970,US,107646,34.1144444444,-117.771388889,Census,City,CA,"La Verne, California",0,0,0,0,0,0,0,0,0,0,0,0,954,1698,2860.0,3092,4198,6516.0,12965.0,23508,30897,31638.0,31063.0
16311,87341,US,81726,36.9719444444,-122.026388889,Census,"Charter city,",CA,"Santa Cruz, California",0,0,0,0,0,0,0,950,2561,3898,5596,5659,11146,10917,14395.0,16896,21970,25596.0,32076.0,41483,49040,54593.0,59946.0
16666,26471,US,107807,33.665,-117.912222222,Census,City,CA,"Costa Mesa, California",0,0,0,0,0,0,0,0,0,0,0,0,0,0,0.0,0,0,37550.0,72660.0,82562,96357,108724.0,109960.0
16709,30827,US,108036,32.7983333333,-116.96,Census,City,CA,"El Cajon, California",0,0,0,0,0,0,0,0,0,0,0,0,0,469,1050.0,1471,5600,37618.0,52273.0,73892,88693,94869.0,99478.0
16734,45568,US,107739,37.8736111111,-122.456666667,Census,Town,CA,"Tiburon, California",0,0,0,0,0,0,0,0,0,0,0,0,0,0,0.0,0,0,0.0,6209.0,6685,7532,8666.0,8962.0
16803,13560,US,107773,36.8244444444,-121.740555556,Census,census-designated place,CA,"Elkhorn, California",0,0,0,0,0,0,0,0,0,0,0,0,0,0,0.0,0,0,0.0,0.0,0,1458,1591.0,1565.0
16804,15928,US,27003059,33.7888888889,-118.079722222,Census,census-designated place,CA,"Rossmoor, California",0,0,0,0,0,0,0,0,0,0,0,0,0,0,0.0,0,0,0.0,12922.0,10457,9893,10298.0,10244.0
16819,38754,US,107674,34.0666666667,-118.083333333,Census,City,CA,"Rosemead, California",0,0,0,0,0,0,0,0,0,0,0,0,0,0,0.0,0,0,15476.0,40972.0,42604,51638,53505.0,53764.0
16833,37749,US,108078,38.1288888889,-121.280833333,Census,City,CA,"Lodi, California",0,0,0,0,0,0,0,0,0,606,1013,0,2697,4850,6788.0,11079,13798,22229.0,28691.0,35221,51874,56999.0,62134.0
16847,36771,US,117337,34.1419444444,-118.819444444,Census,City,CA,"Westlake Village, California",0,0,0,0,0,0,0,0,0,0,0,0,0,0,0.0,0,0,0.0,0.0,0,7455,8368.0,8270.0
16882,25493,US,107837,33.7397222222,-117.813611111,Census,City,CA,"Tustin, California",0,0,0,0,0,0,0,0,0,227,0,0,0,0,926.0,953,1143,2006.0,22190.0,32248,50689,67504.0,75540.0
16910,9887,US,107447,36.6333333333,-119.683333333,Census,City,CA,"Fowler, California",0,0,0,0,0,0,0,0,0,0,0,0,675,1528,1171.0,1531,1857,1892.0,2239.0,2496,3208,3979.0,5570.0
16929,12608,US,108205,41.4572222222,-122.896944444,Census,City,CA,"Etna, California",0,0,0,0,0,0,0,0,0,361,271,500,518,425,379.0,456,649,596.0,667.0,754,835,781.0,737.0
16962,116978,US,29631,38.5555555556,-121.468888889,Census,State capital and charter city,CA,"Sacramento, California",0,0,0,0,0,0,6820,13785,16283,21420,26386,29282,44696,65908,93750.0,105958,137572,191667.0,257105.0,275741,369365,407018.0,466488.0
17036,26448,US,94298,38.3991666667,-122.826944444,Census,City,CA,"Sebastopol, California",0,0,0,0,0,0,0,0,0,197,0,0,1233,1493,1762.0,1856,2601,2694.0,3993.0,5595,7004,7774.0,7379.0
17119,57532,US,82024,37.9166666667,-118.866666667,Census,County,CA,"Mono County, California",0,0,0,0,0,0,0,0,430,7499,2002,2167,2042,960,1360.0,2299,2115,2213.0,4016.0,8577,9956,12853.0,14202.0
17207,21407,US,107815,33.9319444444,-117.946111111,Census,City,CA,"La Habra, California",0,0,0,0,0,0,0,0,0,0,0,0,0,0,2273.0,2499,4961,25136.0,41350.0,45232,51266,58974.0,60239.0
17248,27815,US,102391,37.9747222222,-122.561666667,Census,Town,CA,"San Anselmo, California",0,0,0,0,0,0,0,0,0,0,0,0,1531,2475,4650.0,5790,9188,11584.0,13031.0,12067,11743,12378.0,12336.0
17307,14585,US,107482,40.4991666667,-124.106388889,Census,City,CA,"Rio Dell, California",0,0,0,0,0,0,0,0,0,0,213,0,0,0,0.0,0,1862,3222.0,2817.0,2687,3012,3174.0,3368.0
17391,23522,US,107650,33.8866666667,-118.353611111,Census,City,CA,"Lawndale, California",0,0,0,0,0,0,0,0,0,0,0,0,0,0,3119.0,2885,4364,16058.0,24825.0,23460,27331,31711.0,32769.0
17447,21146,US,108021,34.0336111111,-117.043055556,Census,City,CA,"Yucaipa, California",0,0,0,0,0,0,0,0,0,0,0,0,0,0,0.0,0,0,0.0,19284.0,23345,32824,41207.0,51367.0
17535,110059,US,79734,34.05,-118.25,Census,County,CA,"Los Angeles County, California",0,0,0,0,0,0,3530,11333,15309,33381,101454,170298,504131,936455,2208492.0,2785643,4151687,6038771.0,7041980.0,7477421,8863164,9519338.0,9818605.0
17778,65436,US,107769,36.5552777778,-121.923333333,Census,General law city,CA,"Carmel-by-the-Sea, California",0,0,0,0,0,0,0,0,0,0,0,0,0,638,2260.0,2837,4351,4580.0,4525.0,4707,4239,4081.0,3722.0
17814,23306,US,107945,33.7872222222,-116.966666667,Census,City,CA,"San Jacinto, California",0,0,0,0,0,0,0,0,0,0,661,583,898,945,1346.0,1356,1778,2553.0,4385.0,7098,16210,23779.0,44199.0
17933,62572,US,108327,34.2333333333,-119.033333333,Census,City,CA,"Camarillo, California",0,0,0,0,0,0,0,0,0,0,0,0,0,0,0.0,0,0,2359.0,19219.0,37797,52303,57077.0,65201.0
17959,22273,US,107671,33.7583333333,-118.364166667,Census,City,CA,"Rancho Palos Verdes, California",0,0,0,0,0,0,0,0,0,0,0,0,0,0,0.0,0,0,0.0,0.0,36577,41659,41145.0,41643.0
17972,46966,US,107693,34.0011111111,-118.211111111,Census,City,CA,"Vernon, California",0,0,0,0,0,0,0,0,0,0,0,0,772,1005,1269.0,850,432,229.0,261.0,90,152,91.0,112.0
18008,50112,US,79762,39.18,-122.24,Census,County,CA,"Colusa County, California",0,0,0,0,0,0,115,2274,6165,13118,14640,7364,7732,9290,10258.0,9788,11651,12075.0,12430.0,12791,16275,18804.0,21419.0
18138,89294,US,18593507,34.2711111111,-118.739444444,Census,General law city,CA,"Simi Valley, California",0,0,0,0,0,0,0,0,0,0,0,0,0,0,0.0,0,0,0.0,59832.0,77500,100217,111351.0,124237.0
18191,22809,US,108261,37.7691666667,-120.856944444,Census,City,CA,"Oakdale, California",0,0,0,0,0,0,0,0,0,376,1012,0,1035,1745,2112.0,2592,4064,4980.0,6594.0,8474,11961,15503.0,20675.0
18226,41869,US,107407,38.0194444444,-122.134166667,Census,City,CA,"Martinez, California",0,0,0,0,0,0,0,0,560,0,1609,1380,2115,3858,6569.0,7381,8268,9604.0,16506.0,22582,31808,35866.0,35824.0
18259,49354,US,107600,33.3408333333,-118.327777778,Census,City,CA,"Avalon, California",0,0,0,0,0,0,0,0,0,0,0,0,0,586,1897.0,1637,1506,1536.0,1520.0,2022,2918,3127.0,3728.0
18286,18129,US,107631,33.9694444444,-118.243888889,Census,Census-designated place,CA,"Florence-Graham, California",0,0,0,0,0,0,0,0,0,0,0,0,0,0,0.0,0,0,38164.0,42895.0,48662,57147,60197.0,63387.0
18297,65457,US,79760,38.21,-120.55,Census,County,CA,"Calaveras County, California",0,0,0,0,0,0,16884,16299,8895,9094,8882,11200,9171,6183,6008.0,8221,9902,10289.0,13585.0,20710,31998,40554.0,45578.0
18310,12375,US,107500,33.0372222222,-115.621388889,Census,City,CA,"Westmorland, California",0,0,0,0,0,0,0,0,0,0,0,0,0,0,0.0,1010,1213,1404.0,1175.0,1590,1380,2131.0,2225.0
18321,27489,US,108330,34.4013888889,-118.917777778,Census,City,CA,"Fillmore, California",0,0,0,0,0,0,0,0,0,0,0,0,0,1597,2893.0,3252,3884,4808.0,6285.0,9602,11992,13643.0,15002.0
18330,27592,US,107804,33.575,-117.725555556,Census,City,CA,"Aliso Viejo, California",0,0,0,0,0,0,0,0,0,0,0,0,0,0,0.0,0,0,0.0,0.0,0,7612,40166.0,47823.0
18401,36506,US,108009,34.8480555556,-114.614166667,Census,Charter city,CA,"Needles, California",0,0,0,0,0,0,0,0,0,0,0,0,0,2807,3144.0,3624,4051,4590.0,4051.0,4120,5191,4830.0,4844.0
18447,25174,US,107637,34.1675,-118.660833333,Census,General law city,CA,"Hidden Hills, California",0,0,0,0,0,0,0,0,0,0,0,0,0,0,0.0,0,0,0.0,1529.0,1760,1729,1875.0,1856.0
18449,19910,US,107725,37.9341666667,-122.535277778,Census,City,CA,"Larkspur, California",0,0,0,0,0,0,0,0,0,0,0,0,594,612,1241.0,1558,2905,5710.0,10487.0,11064,11070,12014.0,11926.0
18478,108402,US,99302,37.9755555556,-121.300833333,Census,City and county seat,CA,"Stockton, California",0,0,0,0,0,0,0,3679,10066,10282,14424,17506,23253,40296,47963.0,54714,70853,86321.0,109963.0,148283,210943,243771.0,291707.0
18530,13235,US,117171,34.6177777778,-117.833611111,Census,Census-designated place,CA,"Lake Los Angeles, California",0,0,0,0,0,0,0,0,0,0,0,0,0,0,0.0,0,0,0.0,0.0,0,7977,11523.0,12328.0
18696,132472,US,94240,33.7683333333,-118.195555556,Census,Charter city,CA,"Long Beach, California",0,0,0,0,0,0,0,0,0,0,564,2252,17809,55593,142032.0,164271,250767,334168.0,358879.0,361498,429433,461522.0,462257.0
18740,18270,US,108262,37.4730555556,-121.132777778,Census,City,CA,"Patterson, California",0,0,0,0,0,0,0,0,0,0,0,0,0,694,905.0,1109,1343,2246.0,3147.0,3908,8626,11606.0,20413.0
18759,19818,US,107787,36.6111111111,-121.844722222,Census,City,CA,"Seaside, California",0,0,0,0,0,0,0,0,0,0,0,0,0,0,0.0,0,0,19353.0,36883.0,36567,38901,31696.0,33025.0
18793,78455,US,28208,34.0219444444,-118.481388889,Census,Charter city,CA,"Santa Monica, California",0,0,0,0,0,0,0,0,0,417,1580,3057,7847,15252,37146.0,53500,71595,83249.0,88289.0,88314,86905,84084.0,89736.0
18812,42102,US,107334,37.8313888889,-122.285277778,Census,City,CA,"Emeryville, California",0,0,0,0,0,0,0,0,0,0,228,1016,2613,2390,2336.0,2521,2889,2686.0,2681.0,3714,5740,6882.0,10080.0
18829,17447,US,107818,33.5997222222,-117.699444444,Census,City,CA,"Laguna Hills, California",0,0,0,0,0,0,0,0,0,0,0,0,0,0,0.0,0,0,0.0,0.0,0,0,31178.0,30344.0
18839,19643,US,107354,38.3930555556,-120.8025,Census,City,CA,"Sutter Creek, California",0,0,0,0,0,0,0,0,0,1324,1351,0,0,920,1013.0,1134,1151,1161.0,1508.0,1705,1835,2303.0,2501.0
18878,31312,US,52989811,34.05,-118.25,Census,County,CA,Wikipedia:WikiProject U.S. counties/Guideline,0,0,0,0,0,0,0,0,0,0,0,0,0,0,0.0,0,35830,36023.0,37329.0,38582,40325,41683.0,42184.0
18898,23392,US,107617,33.9641666667,-118.1825,Census,City,CA,"Cudahy, California",0,0,0,0,0,0,0,0,0,0,0,0,0,0,0.0,0,0,0.0,16998.0,18275,22817,24208.0,23805.0
18972,21133,US,107993,34.0738888889,-117.313611111,Census,City,CA,"Colton, California",0,0,0,0,0,0,0,0,0,0,1315,1285,3980,4282,8014.0,9686,14465,18666.0,20016.0,21310,40213,47662.0,52154.0
18982,40648,US,107604,33.9833333333,-118.183333333,Census,City,CA,"Bell, California",0,0,0,0,0,0,0,0,0,0,0,0,0,0,7884.0,11264,15430,19450.0,21836.0,25450,34365,36664.0,35477.0
19004,64432,US,107356,39.74,-121.835555556,Census,Charter city,CA,"Chico, California",0,0,0,0,0,0,0,0,0,3300,2894,2640,3750,9339,7961.0,9287,12272,14757.0,19580.0,26716,40079,59954.0,86187.0
19010,42405,US,107912,33.8666666667,-117.566666667,Census,General law city,CA,"Corona, California",0,0,0,0,0,0,0,0,0,0,0,1434,3540,4129,7018.0,8764,10223,13336.0,27519.0,37791,76095,124966.0,152374.0
19118,6963,US,12605047,35.3830555556,-118.985,Census,Region in Bakersfield,CA,East Bakersfield,0,0,0,0,0,0,0,0,0,242,622,1291,0,0,0.0,0,0,0.0,0.0,0,0,0.0,0.0
19132,37552,US,108203,41.2216666667,-122.273055556,Census,City,CA,"Dunsmuir, California",0,0,0,0,0,0,0,0,0,0,0,0,1719,2528,2610.0,2359,2256,2873.0,2214.0,2253,2129,1923.0,1650.0
19182,10831,US,107612,34.115,-117.891666667,Census,Census-designated place,CA,"Citrus, California",0,0,0,0,0,0,0,0,0,0,0,0,0,0,0.0,0,0,0.0,0.0,12450,9481,10581.0,10866.0
19195,38173,US,107751,39.1502777778,-123.207777778,Census,City,CA,"Ukiah, California",0,0,0,0,0,0,0,0,0,933,1627,1850,2136,2305,3124.0,3731,6120,9900.0,10095.0,12035,14599,15497.0,16075.0
19205,92035,US,82063,37.44,-122.36,Census,County,CA,"San Mateo County, California",0,0,0,0,0,0,0,3214,6635,8669,10087,12094,26585,36781,77405.0,111782,235659,444387.0,556234.0,587329,649623,707161.0,718451.0
19280,36293,US,79007,34.1383333333,-118.660833333,Census,City,CA,"Calabasas, California",0,0,0,0,0,0,0,0,0,0,0,0,0,0,0.0,0,0,0.0,0.0,0,0,20033.0,23058.0
19283,30903,US,117162,34.225,-118.236944444,Census,census-designated place &amp; unincorporated community,CA,"La Crescenta-Montrose, California",0,0,0,0,0,0,0,0,0,0,0,0,0,0,0.0,0,0,0.0,19594.0,16531,16968,18532.0,19653.0
19315,14453,US,107624,33.8977777778,-118.194166667,Census,Census designated place,CA,"East Rancho Dominguez, California",0,0,0,0,0,0,0,0,0,0,0,0,0,0,0.0,0,0,0.0,5853.0,6435,7967,9286.0,15135.0
19350,12234,US,107355,39.4138888889,-121.710277778,Census,City,CA,"Biggs, California",0,0,0,0,0,0,0,0,0,95,571,0,403,683,463.0,547,784,831.0,1115.0,1413,1581,1793.0,1707.0
19372,36310,US,108033,32.6780555556,-117.1725,Census,City,CA,"Coronado, California",0,0,0,0,0,0,0,276,229,0,0,935,1477,3289,5425.0,6932,12700,18039.0,20020.0,18790,26540,24100.0,24697.0
19387,52859,US,84148,34.1,-117.65,Census,City,CA,"Upland, California",0,0,0,0,0,0,0,0,0,0,0,0,2384,2912,4713.0,6316,9203,15918.0,32551.0,47647,63374,68393.0,73732.0
19415,10645,US,107686,34.0491666667,-118.095277778,Census,census-designated place,CA,"South San Gabriel, California",0,0,0,0,0,0,0,0,0,0,0,0,0,0,0.0,0,0,0.0,5051.0,5421,7700,7595.0,0.0
19433,24465,US,108095,35.1483333333,-120.648055556,Census,General law city,CA,"Pismo Beach, California",0,0,0,0,0,0,0,0,0,0,0,0,0,0,0.0,0,1425,1762.0,4043.0,5364,7669,8551.0,7655.0
19454,20471,US,108227,38.7991666667,-123.017222222,Census,General law city,CA,"Cloverdale, California",0,0,0,0,0,0,0,0,0,430,763,750,823,718,759.0,809,1292,2848.0,3251.0,3989,4924,6831.0,8618.0
19468,15458,US,107449,36.2027777778,-120.103055556,Census,City,CA,"Huron, California",0,0,0,0,0,0,0,0,0,0,0,0,0,0,0.0,0,0,1269.0,1525.0,2768,4766,6306.0,6754.0
19617,44068,US,108052,32.6780555556,-117.099166667,Census,City,CA,"National City, California",0,0,0,0,0,0,0,0,0,248,1353,1086,1733,3116,7301.0,10344,21199,32771.0,43184.0,48772,54249,54260.0,58582.0
19619,17971,US,108292,36.2941666667,-119.142777778,Census,City,CA,"Exeter, California",0,0,0,0,0,0,0,0,0,0,0,0,0,1852,2685.0,3883,4078,4264.0,4475.0,5606,7276,9168.0,10334.0
19634,20487,US,107716,37.8727777778,-122.464444444,Census,General law city,CA,"Belvedere, California",0,0,0,0,0,0,0,0,0,0,0,434,481,616,500.0,457,800,2148.0,2599.0,2401,2147,2125.0,2068.0
19638,9842,US,107695,34.0986111111,-117.924444444,Census,census-designated place,CA,"Vincent, California",0,0,0,0,0,0,0,0,0,0,0,0,0,0,0.0,0,0,0.0,0.0,0,13713,15097.0,15922.0
19653,24411,US,107401,37.9158333333,-122.311666667,Census,City,CA,"El Cerrito, California",0,0,0,0,0,0,0,0,0,0,0,0,0,1505,3870.0,6137,18011,25437.0,25190.0,22731,22869,23171.0,23549.0
19664,12677,US,108260,37.315,-121.0225,Census,City,CA,"Newman, California",0,0,0,0,0,0,0,0,0,0,621,0,892,1251,1269.0,1214,1815,2148.0,2505.0,2785,4151,7093.0,10224.0
19730,13891,US,108128,34.6141666667,-120.193888889,Census,City,CA,"Buellton, California",0,0,0,0,0,0,0,0,0,0,0,0,0,0,0.0,0,0,0.0,1402.0,2364,3506,3828.0,4828.0
19758,25596,US,107639,34.0166666667,-117.95,Census,City,CA,"City of Industry, California",0,0,0,0,0,0,0,0,0,0,0,0,0,0,0.0,0,0,778.0,712.0,412,631,777.0,219.0
19793,19851,US,107840,33.7513888889,-117.993888889,Census,City,CA,"Westminster, California",0,0,0,0,0,0,0,0,0,0,585,1590,4550,7997,14822.0,16115,23433,33663.0,60076.0,71133,78118,88207.0,89701.0
19813,54430,US,107598,34.1327777778,-118.036388889,Census,Charter city,CA,"Arcadia, California",0,0,0,0,0,0,0,0,0,0,0,0,696,2239,5216.0,9122,23066,41005.0,45138.0,45993,48290,53054.0,56364.0
19851,78722,US,82020,39.43,-123.43,Census,County,CA,"Mendocino County, California",0,0,0,0,0,0,55,3967,7545,12800,17612,20465,23929,24116,23505.0,27864,40854,51059.0,51101.0,66738,80345,86265.0,87841.0
19884,38131,US,107361,39.5166666667,-121.55,Census,City,CA,"Oroville, California",0,0,0,0,0,0,0,2429,1425,1743,1787,0,3859,3340,3698.0,4421,5387,6115.0,7536.0,8683,11960,13004.0,15546.0
19898,59470,US,82114,,,Census,County,CA,"Solano County, California",0,0,0,0,0,0,580,7169,16871,18475,20946,24143,27559,40602,40834.0,49118,104833,134597.0,169941.0,235203,340421,394542.0,413344.0
20019,25117,US,107908,33.6841666667,-117.255555556,Census,City,CA,"Canyon Lake, California",0,0,0,0,0,0,0,0,0,0,0,0,0,0,0.0,0,0,0.0,0.0,2039,7938,9952.0,10561.0
20073,42908,US,108140,34.9513888889,-120.433333333,Census,Charter city,CA,"Santa Maria, California",0,0,0,0,0,0,0,0,0,0,0,0,2260,3943,7057.0,8522,10440,20027.0,32749.0,39685,61284,77423.0,99553.0
20075,53780,US,82016,,,Census,County,CA,"Madera County, California",0,0,0,0,0,0,0,0,0,0,0,6364,8368,12203,17164.0,23314,36964,40468.0,41519.0,63116,88090,123109.0,150865.0
20100,70530,US,108196,40.5833333333,-122.366666667,Census,General law city,CA,"Redding, California",0,0,0,0,0,0,0,0,0,600,1821,2946,3572,2962,4188.0,8109,10256,12773.0,16659.0,42103,66462,80865.0,89861.0
20111,34011,US,107746,39.4458333333,-123.805277778,Census,City,CA,"Fort Bragg, California",0,0,0,0,0,0,0,0,0,0,945,1590,2408,2616,3022.0,3235,3826,4433.0,4455.0,5019,6078,7026.0,7273.0
20158,29866,US,107644,33.9022222222,-118.009722222,Census,General law city,CA,"La Mirada, California",0,0,0,0,0,0,0,0,0,0,0,0,0,0,0.0,0,0,22444.0,30808.0,40986,40452,46783.0,48527.0
20173,48444,US,108341,34.3558333333,-119.068333333,Census,General law city,CA,"Santa Paula, California",0,0,0,0,0,0,0,0,0,188,1047,0,2216,3967,7452.0,8986,11049,13279.0,18001.0,20658,25062,28598.0,29321.0
20200,23885,US,107961,38.6722222222,-121.157777778,Census,City,CA,"Folsom, California",0,0,0,0,0,0,0,0,0,0,609,0,0,0,0.0,0,1690,3925.0,5810.0,11003,29802,51884.0,72203.0
20222,32423,US,107696,34.0333333333,-117.866666667,Census,General law city,CA,"Walnut, California",0,0,0,0,0,0,0,0,0,0,0,0,0,0,0.0,0,0,934.0,5992.0,12478,29105,30004.0,29172.0
20249,20458,US,107996,34.0338888889,-117.313611111,Census,City,CA,"Grand Terrace, California",0,0,0,0,0,0,0,0,0,0,0,0,0,0,0.0,0,0,0.0,5901.0,8498,10946,11626.0,12040.0
20302,36626,US,107656,33.8888888889,-118.405277778,Census,City,CA,"Manhattan Beach, California",0,0,0,0,0,0,0,0,0,0,0,0,0,859,1891.0,6398,17330,33934.0,35352.0,31542,32063,33852.0,35135.0
20357,23101,US,107488,32.6788888889,-115.498888889,Census,City,CA,"Calexico, California",0,0,0,0,0,0,0,0,0,0,0,0,797,6223,6299.0,5415,6433,7992.0,10625.0,14412,18633,27109.0,38572.0
20373,161639,US,107608,34.1802777778,-118.328333333,Census,Charter city,CA,"Burbank, California",0,0,0,0,0,0,0,0,0,0,0,0,0,2913,16662.0,34337,78577,90155.0,88871.0,84625,93643,100316.0,103340.0
20504,27000,US,107599,33.8672222222,-118.080555556,Census,City,CA,"Artesia, California",0,0,0,0,0,0,0,0,0,0,0,0,0,0,0.0,0,0,9993.0,14757.0,14301,15464,16380.0,16522.0
20677,66754,US,82107,41.5833333333,-122.5,Census,County,CA,"Siskiyou County, California",0,0,0,0,0,0,0,7629,6848,8610,12163,16962,18801,18545,25480.0,28598,30733,32885.0,33225.0,39732,43531,44301.0,44900.0
20697,67132,US,147675,,,Census,Unknown,CA,Northern California,0,0,0,0,0,0,86105,346714,516089,772778,961628,1147725,1569141,2003075,2632273.0,3066654,4654248,6318482.0,7849575.0,9359160,11490926,13234136.0,14573946.0
20771,39186,US,108055,32.97,-117.038611111,Census,General law city,CA,"Poway, California",0,0,0,0,0,0,0,0,0,0,0,0,0,0,0.0,0,0,1921.0,9422.0,32263,43516,48044.0,47811.0
20801,30026,US,107571,36.0041666667,-120.128888889,Census,City,CA,"Avenal, California",0,0,0,0,0,0,0,0,0,0,0,0,0,0,0.0,0,0,3147.0,3035.0,4137,9770,14674.0,15505.0
20831,199941,US,5407,,,Census,US State,CA,California,0,0,0,0,0,0,92597,379994,560247,864694,1213398,1485053,2377549,3426861,5677251.0,6907387,10586223,15717204.0,19953134.0,23667902,29760021,33871648.0,37253956.0
20869,54052,US,82133,39.27,-121.35,Census,County,CA,"Yuba County, California",0,0,0,0,0,0,9673,13668,10851,11284,9636,8620,10042,10375,11331.0,17034,24420,33859.0,44736.0,49733,58228,60219.0,72155.0
20892,99841,US,79772,36.75,-119.65,Census,County,CA,"Fresno County, California",0,0,0,0,0,0,0,4605,6336,9478,32026,37862,75657,128779,144379.0,178565,276515,365945.0,413053.0,514621,667490,799407.0,930450.0
20908,15545,US,107393,37.9411111111,-121.935833333,Census,City,CA,"Clayton, California",0,0,0,0,0,0,0,0,0,0,0,0,0,0,0.0,0,0,0.0,1385.0,4325,7317,10762.0,10897.0
20910,33263,US,103667,33.0444444444,-117.271666667,Census,City,CA,"Encinitas, California",0,0,0,0,0,0,0,0,0,0,0,0,0,0,0.0,0,0,2786.0,5375.0,10796,55386,58014.0,59518.0
20915,131586,US,60341,37.9358333333,-122.347777778,Census,City,CA,"Richmond, California",0,0,0,0,0,0,0,0,0,0,0,0,6802,16843,20093.0,23642,99545,71854.0,79043.0,74676,87425,99216.0,103701.0
21046,147195,US,53446,37.3333333333,-121.9,Census,Metropolitan City and County seat,CA,"San Jose, California",0,0,0,0,0,0,0,0,9089,12567,18060,21500,28946,39642,57651.0,68457,95280,204196.0,459913.0,629400,782248,894943.0,945942.0
21071,47671,US,108240,38.2458333333,-122.631388889,Census,City,CA,"Petaluma, California",0,0,0,0,0,0,0,0,0,3326,3692,3871,5880,6226,8245.0,8034,10315,14035.0,24870.0,33834,43184,54548.0,57941.0
21094,19031,US,107419,37.9622222222,-122.345555556,Census,City,CA,"San Pablo, California",0,0,0,0,0,0,0,0,1075,0,367,0,0,0,0.0,0,14476,19687.0,21461.0,19750,25158,30215.0,29139.0
21280,161408,US,45330,33.67,-117.78,Census,County,CA,"Orange County, California",0,0,0,0,0,0,0,0,0,0,13589,19696,34436,61375,118674.0,130760,216224,703925.0,1420386.0,1932709,2410556,2846289.0,3010232.0
21312,39432,US,43896,37.3,-120.483333333,Census,Charter city and county seat,CA,"Merced, California",0,0,0,0,0,0,0,0,0,1446,2009,1969,3102,3974,7066.0,10135,15278,20068.0,22670.0,36423,56216,63893.0,78958.0
21491,15100,US,107981,36.8441666667,-121.537222222,Census,City,CA,"San Juan Bautista, California",0,0,0,0,0,0,0,0,0,484,463,449,326,501,772.0,678,1031,1046.0,1164.0,1276,1570,1549.0,1862.0
21534,12154,US,108063,32.7344444444,-116.981388889,Census,census-designated place,CA,"Spring Valley, San Diego County, California",0,0,0,0,0,0,0,0,0,0,0,0,0,0,0.0,0,0,0.0,29742.0,40191,55331,26663.0,28205.0
21631,90879,US,108016,34.1,-117.3,Census,Charter city,CA,"San Bernardino, California",0,0,0,0,0,0,0,0,0,1673,4012,6150,12779,18721,37481.0,43646,63058,91922.0,106869.0,118794,164164,185401.0,209924.0
21670,34684,US,108107,37.4669444444,-122.139722222,Census,City,CA,"East Palo Alto, California",0,0,0,0,0,0,0,0,0,0,0,0,0,0,0.0,0,0,0.0,18727.0,18191,23451,29506.0,28155.0
21749,29779,US,107955,38.6052777778,-121.379722222,Census,census-designated place,CA,"Arden-Arcade, California",0,0,0,0,0,0,0,0,0,0,0,0,0,0,0.0,0,0,73352.0,82492.0,87570,92040,96025.0,92186.0
21765,66501,US,82023,,,Census,County,CA,"Modoc County, California",0,0,0,0,0,0,0,0,0,4399,4986,5076,6191,5425,8038.0,8713,9678,8308.0,7469.0,8610,9678,9449.0,9686.0
21873,41138,US,107333,37.7022222222,-121.935833333,Census,City,CA,"Dublin, California",0,0,0,0,0,0,0,0,0,0,0,0,0,0,0.0,0,0,0.0,13641.0,13496,23229,29973.0,46036.0
21900,30823,US,107991,34.0177777778,-117.69,Census,City,CA,"Chino, California",0,0,0,0,0,0,0,0,0,0,0,0,0,0,3118.0,4204,5784,10305.0,20411.0,40165,59682,67168.0,77983.0
22017,55356,US,107615,33.8966666667,-118.225,Census,Charter city,CA,"Compton, California",0,0,0,0,0,0,0,0,160,0,636,0,922,1478,12516.0,16198,47991,71812.0,78547.0,81350,90454,93493.0,96455.0
22105,21981,US,107359,39.3638888889,-121.693611111,Census,General Law City,CA,"Gridley, California",0,0,0,0,0,0,0,0,0,352,686,0,987,1636,1941.0,2338,3054,3343.0,3534.0,3982,4631,5382.0,6584.0
22156,24261,US,108060,33.1419444444,-117.170277778,Census,Charter city,CA,"San Marcos, California",0,0,0,0,0,0,0,0,0,0,0,0,0,0,0.0,0,0,0.0,3896.0,17479,38974,54977.0,83781.0
22269,44878,US,107629,34.0733333333,-118.0275,Census,City,CA,"El Monte, California",0,0,0,0,0,0,0,0,0,0,0,0,0,1283,3479.0,4746,8101,13163.0,69892.0,79494,106209,115965.0,113475.0
22376,24063,US,107682,33.79935,-118.16558,Census,City,CA,"Signal Hill, California",0,0,0,0,0,0,0,0,0,0,0,0,0,0,2932.0,3184,4040,4627.0,5588.0,5734,8371,9333.0,11016.0
22406,12935,US,107625,33.9244444444,-117.988888889,Census,census-designated place,CA,"East Whittier, California",0,0,0,0,0,0,0,0,0,0,0,0,0,0,0.0,0,0,0.0,12339.0,9688,9367,9538.0,9757.0
22465,28900,US,108344,38.5805555556,-121.530277778,Census,City,CA,"West Sacramento, California",0,0,0,0,0,0,0,0,0,0,0,0,0,0,0.0,0,0,0.0,12002.0,10875,28898,31615.0,48744.0
22480,64018,US,40444,36.6,-121.9,Census,City,CA,"Monterey, California",0,0,0,0,0,0,1092,0,1112,1396,1662,1748,4923,5479,9141.0,10084,16205,22618.0,26302.0,27558,31954,29674.0,27810.0
22501,18046,US,108101,37.5180555556,-122.291666667,Census,City,CA,"Belmont, California",0,0,0,0,0,0,0,0,0,202,0,0,0,0,984.0,1229,5567,15996.0,23538.0,24505,24127,25123.0,25835.0
22529,26171,US,108215,41.3144444444,-122.311388889,Census,City,CA,"Mount Shasta, California",0,0,0,0,0,0,0,0,0,0,556,0,636,542,1009.0,1618,1909,1936.0,2256.0,2837,3460,3621.0,3394.0
22556,16464,US,108271,39.2758333333,-121.66,Census,City,CA,"Live Oak, Sutter County, California",0,0,0,0,0,0,0,0,0,0,0,0,0,0,0.0,0,1770,2276.0,2645.0,3103,4320,6229.0,8392.0
22610,17582,US,108156,37.3713888889,-122.1375,Census,Town,CA,"Los Altos Hills, California",0,0,0,0,0,0,0,0,0,0,0,0,0,0,0.0,0,0,3412.0,6871.0,7421,7514,7902.0,7922.0
22663,26005,US,107442,36.8252777778,-119.703055556,Census,City,CA,"Clovis, California",0,0,0,0,0,0,0,0,0,0,0,0,0,1157,1316.0,1626,2766,5546.0,13856.0,33021,50323,68468.0,95631.0
22691,22138,US,107749,38.9088888889,-123.693055556,Census,City,CA,"Point Arena, California",0,0,0,0,0,0,0,0,0,198,709,0,497,394,385.0,374,372,596.0,424.0,425,407,474.0,449.0
22789,31043,US,60863,38.2577777778,-122.054166667,Census,General law city,CA,"Fairfield, California",0,0,0,0,0,0,0,0,329,424,0,0,834,1008,1131.0,1312,3118,14968.0,44146.0,58099,77211,96178.0,105321.0
22955,35586,US,107801,39.2613888889,-121.018611111,Census,City,CA,"Nevada City, California",0,0,0,0,0,0,0,0,0,4022,2524,3250,2689,1782,1701.0,2445,2505,2353.0,2314.0,2431,2855,3001.0,3068.0
22982,45865,US,107684,33.9441666667,-118.195,Census,City,CA,"South Gate, California",0,0,0,0,0,0,0,0,0,0,0,0,0,0,19632.0,26945,51116,53831.0,56909.0,66784,86284,96375.0,94396.0
23075,88791,US,82034,40.01,-120.83,Census,County,CA,"Plumas County, California",0,0,0,0,0,0,0,4363,4489,6180,4933,4657,5259,5681,7913.0,11548,13519,11620.0,11707.0,17340,19739,20824.0,20007.0
23111,57771,US,107924,33.7205555556,-116.215555556,Census,City,CA,"Indio, California",0,0,0,0,0,0,0,0,0,0,0,0,0,0,0.0,2296,5300,9745.0,14459.0,21611,36793,49116.0,76036.0
23112,10029,US,107663,34.1030555556,-118.023333333,Census,census-designated place,CA,"North El Monte, California",0,0,0,0,0,0,0,0,0,0,0,0,0,0,0.0,0,0,0.0,0.0,0,3384,3703.0,3723.0
23372,15447,US,107489,33.1255555556,-115.514166667,Census,City,CA,"Calipatria, California",0,0,0,0,0,0,0,0,0,0,0,0,0,785,1554.0,1799,1428,2548.0,1824.0,2636,2690,7289.0,7705.0
23387,26548,US,107902,33.9316666667,-116.8975,Census,City,CA,"Banning, California",0,0,0,0,0,0,0,0,0,0,0,0,0,0,2752.0,3874,7034,10250.0,12034.0,14020,20570,23562.0,29603.0
23400,46822,US,108010,34.0527777778,-117.627777778,Census,City,CA,"Ontario, California",0,0,0,0,0,0,0,0,0,0,683,722,4274,7280,13583.0,14197,22872,46617.0,64118.0,88820,133179,158007.0,163924.0
23460,51409,US,82103,39.59,-120.5,Census,County,CA,"Sierra County, California",0,0,0,0,0,0,0,11387,5619,6623,5051,4017,4098,1783,2422.0,3025,2410,2247.0,2365.0,3073,3318,3555.0,3240.0
23539,51051,US,108303,36.0686111111,-119.0275,Census,City,CA,"Porterville, California",0,0,0,0,0,0,0,0,0,202,606,0,2696,4097,5303.0,6270,6904,7991.0,12602.0,19707,29563,39615.0,54165.0
23556,17673,US,107778,36.6844444444,-121.802222222,Census,City,CA,"Marina, California",0,0,0,0,0,0,0,0,0,0,0,0,0,0,0.0,0,0,3310.0,8343.0,20647,26436,25101.0,19718.0
23581,16792,US,107413,38.0044444444,-122.291111111,Census,City,CA,"Pinole, California",0,0,0,0,0,0,0,0,0,0,340,0,798,967,781.0,934,1147,6064.0,13266.0,14253,17460,19039.0,18390.0
23607,43732,US,107827,33.8030555556,-117.8325,Census,City,CA,"Orange, California",0,0,0,0,0,0,0,0,0,679,866,1216,2920,4884,8066.0,7901,10027,26444.0,77365.0,91450,110658,128821.0,136416.0
23645,15847,US,107494,32.8475,-115.569444444,Census,City,CA,"Imperial, California",0,0,0,0,0,0,0,0,0,0,0,0,1257,1885,1943.0,1493,1759,2658.0,3094.0,3451,4113,7560.0,14758.0
23651,36236,US,107936,33.7222222222,-116.374444444,Census,City,CA,"Palm Desert, California",0,0,0,0,0,0,0,0,0,0,0,0,0,0,0.0,0,0,0.0,0.0,11801,23252,41155.0,48445.0
23719,26265,US,107821,33.6416666667,-117.690833333,Census,City,CA,"Lake Forest, California",0,0,0,0,0,0,0,0,0,0,0,0,0,0,0.0,0,0,0.0,0.0,0,0,58707.0,77264.0
23723,73444,US,107640,33.9575,-118.346111111,Census,Charter city,CA,"Inglewood, California",0,0,0,0,0,0,0,0,0,0,0,0,1536,3286,19480.0,30114,46185,63390.0,89985.0,94162,109602,112580.0,109673.0
23727,27124,US,107591,40.4163888889,-120.653055556,Census,City,CA,"Susanville, California",0,0,0,0,0,0,0,0,0,0,882,0,688,918,1358.0,1575,5338,5598.0,6608.0,6520,7279,13541.0,17947.0
23850,32987,US,107835,33.7591666667,-118.0825,Census,Charter city,CA,"Seal Beach, California",0,0,0,0,0,0,0,0,0,0,0,0,0,669,1156.0,1553,3553,6994.0,24441.0,25975,25098,24157.0,24168.0
23941,30498,US,108183,37.0513888889,-122.013333333,Census,City,CA,"Scotts Valley, California",0,0,0,0,0,0,0,0,0,0,0,0,0,0,0.0,0,0,0.0,3621.0,6891,8615,11385.0,11580.0
23944,14170,US,107601,34.0386111111,-118.004444444,Census,Census-designated place,CA,"Avocado Heights, California",0,0,0,0,0,0,0,0,0,0,0,0,0,0,0.0,0,0,0.0,9810.0,11721,14232,15148.0,15411.0
24028,21106,US,107607,34.1494444444,-117.974444444,Census,City,CA,"Bradbury, California",0,0,0,0,0,0,0,0,0,0,0,0,0,0,0.0,0,0,618.0,838.0,846,829,855.0,1048.0
24080,11308,US,107786,36.6172222222,-121.848333333,Census,City,CA,"Sand City, California",0,0,0,0,0,0,0,0,0,0,0,0,0,0,0.0,0,0,0.0,212.0,182,192,261.0,334.0
24201,14972,US,107350,38.4194444444,-120.824166667,Census,City,CA,"Amador City, California",0,0,0,0,0,0,0,0,0,824,984,0,0,377,171.0,249,151,202.0,156.0,136,196,196.0,185.0
24321,14805,US,108177,37.0513888889,-122.055833333,Census,census-designated place,CA,"Felton, California",0,0,0,0,0,0,0,0,0,271,259,0,0,0,0.0,0,0,1380.0,2062.0,4564,5350,1051.0,4057.0
24393,30067,US,108085,35.4841666667,-120.6725,Census,City,CA,"Atascadero, California",0,0,0,0,0,0,0,0,0,0,0,0,0,0,0.0,0,3443,5983.0,10293.0,16232,23138,26411.0,28310.0
24495,13482,US,108298,36.2,-119.083333333,Census,City,CA,"Lindsay, California",0,0,0,0,0,0,0,0,0,0,0,0,1814,2576,3878.0,4397,5060,5397.0,5206.0,6936,8338,10297.0,11768.0
24518,20486,US,107458,36.5963888889,-119.450277778,Census,City,CA,"Reedley, California",0,0,0,0,0,0,0,0,0,0,0,0,0,2447,2589.0,3170,4135,5850.0,8131.0,11071,15791,20756.0,24194.0
24556,26764,US,107660,34.1459111111,-118.00095,Census,City,CA,"Monrovia, California",0,0,0,0,0,0,0,0,0,0,907,1205,3576,5480,10890.0,12807,20186,27079.0,30562.0,30531,35761,36929.0,36590.0
24576,44025,US,108220,41.7266666667,-122.6375,Census,City,CA,"Yreka, California",0,0,0,0,0,0,0,1327,1063,1059,1100,1254,1134,1277,2126.0,2485,3227,4759.0,5394.0,5916,6948,7290.0,7765.0
24626,12668,US,107651,33.9397222222,-118.3575,Census,Census-designated place,CA,"Lennox, California",0,0,0,0,0,0,0,0,0,0,0,0,0,0,0.0,0,0,31224.0,16121.0,18445,22757,22950.0,22753.0
24660,32593,US,108163,37.3544444444,-121.969166667,Census,City,CA,"Santa Clara, California",0,0,0,0,0,0,0,0,0,2416,2891,3650,4348,5220,6302.0,6650,11702,58880.0,86118.0,87700,93613,102361.0,116468.0
24716,20455,US,107808,33.5958333333,-117.587777778,Census,Census-designated place,CA,"Coto de Caza, California",0,0,0,0,0,0,0,0,0,0,0,0,0,0,0.0,0,0,0.0,0.0,0,2853,13057.0,14866.0
24778,157960,US,28504,32.715,-117.1625,Census,City,CA,San Diego,0,0,0,0,0,0,500,731,2300,2637,16159,17700,39578,74361,147995.0,203341,334387,573224.0,696769.0,875538,1110549,1223400.0,1307402.0
24826,16205,US,107467,39.7475,-122.196388889,Census,City,CA,"Orland, California",0,0,0,0,0,0,0,0,0,292,440,0,836,1582,1195.0,1366,2067,2534.0,2884.0,4031,5052,6281.0,7291.0
24880,27778,US,107805,33.9233333333,-117.888888889,Census,City,CA,"Brea, California",0,0,0,0,0,0,0,0,0,0,0,0,0,1037,2435.0,2567,3208,8487.0,18447.0,27913,32873,35410.0,39282.0
24906,23865,US,107834,33.4994444444,-117.661666667,Census,City,CA,"San Juan Capistrano, California",0,0,0,0,0,0,0,0,0,376,0,0,0,0,0.0,0,0,1120.0,3781.0,18959,26183,33826.0,34593.0
24983,27527,US,107641,34.1166666667,-117.966666667,Census,Charter city,CA,"Irwindale, California",0,0,0,0,0,0,0,0,0,0,0,0,0,0,0.0,0,0,1518.0,784.0,1030,1050,1446.0,1422.0
25015,15525,US,107450,36.7236111111,-120.06,Census,City,CA,"Kerman, California",0,0,0,0,0,0,0,0,0,0,0,0,0,0,0.0,0,1563,1970.0,2667.0,4002,5448,8551.0,13544.0
25040,96984,US,47523622,34.121611,-116.93,Census,Metropolitan area,CA,Inland Empire,0,0,0,0,0,0,0,0,0,0,0,45826,91402,123698,214924.0,266632,451688,809782.0,1143146.0,1558182,2588793,3254821.0,4224851.0
25070,86921,US,79752,,,Census,County,CA,"Alameda County, California",0,0,0,0,0,0,0,8927,24237,62976,93864,130197,246131,344177,474883.0,513011,740315,908209.0,1073184.0,1105379,1279182,1443741.0,1510271.0
25103,58395,US,108312,36.3166666667,-119.3,Census,City,CA,"Visalia, California",0,0,0,0,0,0,0,548,913,1412,2885,3085,4550,5753,7263.0,8904,11749,15791.0,27130.0,49729,75636,91565.0,124442.0
25160,15018,US,108200,39.6766666667,-120.243055556,Census,City,CA,"Loyalton, California",0,0,0,0,0,0,0,0,0,84,0,0,983,442,837.0,925,911,936.0,945.0,1030,931,862.0,769.0
25275,23557,US,107852,38.8,-121.246666667,Census,City,CA,"Rocklin, California",0,0,0,0,0,0,0,0,542,624,1056,1050,1026,643,724.0,795,1155,1495.0,3039.0,7344,19033,36330.0,56974.0
25279,26176,US,108174,36.9763888889,-121.954722222,Census,City,CA,"Capitola, California",0,0,0,0,0,0,0,0,0,0,0,0,0,0,0.0,0,1848,2021.0,5080.0,9095,10171,10033.0,9918.0
25294,16683,US,108050,32.8494444444,-116.905555556,Census,Census designated place,CA,"Lakeside, California",0,0,0,0,0,0,0,0,0,0,0,0,0,0,0.0,0,0,0.0,11991.0,23921,19412,19560.0,20648.0
25342,13156,US,107670,34.6522222222,-118.220555556,Census,Census-designated place,CA,"Quartz Hill, California",0,0,0,0,0,0,0,0,0,0,0,0,0,0,0.0,0,0,3325.0,4935.0,7421,9626,9890.0,10912.0
25412,92968,US,82026,38.5,-122.32,Census,County,CA,"Napa County, California",0,0,0,0,0,0,405,5521,7163,13235,16411,16451,19800,20678,22897.0,28503,46603,65890.0,79140.0,99199,110765,124279.0,136484.0
25480,119860,US,80674,,,Census,County,CA,"San Bernardino County, California",0,0,0,0,0,0,0,5551,3988,7786,25497,27929,56706,73401,133900.0,161108,281642,503591.0,684072.0,895016,1418380,1709434.0,2035210.0
25499,13152,US,108155,37.1577777778,-121.983888889,Census,census-designated place,CA,"Lexington Hills, California",0,0,0,0,0,0,0,0,0,0,0,0,0,0,0.0,0,0,0.0,0.0,0,2064,2454.0,2421.0
25503,16777,US,108263,37.7313888889,-120.943611111,Census,City,CA,"Riverbank, California",0,0,0,0,0,0,0,0,0,0,0,0,0,0,803.0,1130,2662,2786.0,3949.0,5695,8547,15826.0,22678.0
25556,64521,US,77520,33.8361111111,-117.889722222,Census,Charter city,CA,"Anaheim, California",0,0,0,0,0,0,0,0,881,833,1273,1456,2628,5526,10995.0,11031,14556,104184.0,166408.0,219494,266406,328014.0,336265.0
25569,68581,US,108243,38.4486111111,-122.704722222,Census,"Charter city, county seat",CA,"Santa Rosa, California",0,0,0,0,0,0,0,1623,2898,3616,5220,6673,7817,8758,10636.0,12605,17902,31027.0,50006.0,82658,113313,147595.0,167815.0
25695,49137,US,107812,33.88,-117.928611111,Census,City,CA,"Fullerton, California",0,0,0,0,0,0,0,0,0,0,0,0,1725,4415,10860.0,10442,13958,56180.0,85987.0,102246,114144,126003.0,135161.0
25786,16788,US,107587,38.7525,-122.615,Census,Census-designated place,CA,"Middletown, California",0,0,0,0,0,0,0,0,0,0,0,0,0,0,0.0,0,0,0.0,0.0,0,0,1020.0,1323.0
25807,25877,US,107941,33.7691666667,-116.421111111,Census,City,CA,"Rancho Mirage, California",0,0,0,0,0,0,0,0,0,0,0,0,0,0,0.0,0,0,0.0,1298.0,6281,9778,13249.0,17218.0
25812,71777,US,82059,35.38,-120.45,Census,County,CA,"San Luis Obispo County, California",0,0,0,0,0,0,336,1782,4772,9142,16072,16637,19383,21893,29613.0,33246,51417,81044.0,105690.0,155435,217162,246681.0,269637.0
25870,19081,US,107498,33.2986111111,-115.956111111,Unknown,Census designated place,CA,"Salton City, California",0,0,0,0,0,0,0,0,0,0,0,0,0,0,0.0,0,0,0.0,0.0,0,0,0.0,0.0
25895,27087,US,107798,39.2191666667,-121.058333333,Census,City,CA,"Grass Valley, California",0,0,0,0,0,0,0,0,0,0,0,4719,4520,4006,3817.0,5701,5283,4876.0,5149.0,6697,9048,10922.0,12860.0
25921,21252,US,107795,38.5052777778,-122.470277778,Census,General law city,CA,"St. Helena, California",0,0,0,0,0,0,0,0,0,1339,1705,1582,1603,1346,1582.0,1758,2297,2722.0,3173.0,4898,4990,5950.0,5814.0
25961,26131,US,7882568,33.9636111111,-117.564166667,Census,City,CA,"Eastvale, California",0,0,0,0,0,0,0,0,0,0,0,0,0,0,0.0,0,0,0.0,0.0,0,0,0.0,0.0
26010,33686,US,107616,34.0916666667,-117.879166667,Census,City,CA,"Covina, California",0,0,0,0,0,0,0,0,0,0,0,0,0,0,2774.0,3049,3956,20124.0,30395.0,32746,43207,46837.0,47796.0
26044,17992,US,107634,33.8286111111,-118.073611111,Census,City,CA,"Hawaiian Gardens, California",0,0,0,0,0,0,0,0,0,0,0,0,0,0,0.0,0,0,0.0,9052.0,10548,13639,14779.0,14254.0
26059,18895,US,107709,37.1166666667,-120.266666667,Census,City,CA,"Chowchilla, California",0,0,0,0,0,0,0,0,0,0,0,0,0,0,847.0,1957,3893,4525.0,4349.0,5122,5930,11127.0,18720.0
26066,86195,US,82068,34.54,-120.03,Census,County,CA,"Santa Barbara County, California",0,0,0,0,0,0,1185,3543,7784,9513,15754,18934,27738,41097,65167.0,70555,98220,168962.0,264324.0,298694,369608,399347.0,423895.0
26091,17304,US,107572,36.0980555556,-119.560277778,Census,City,CA,"Corcoran, California",0,0,0,0,0,0,0,0,0,0,0,0,0,1101,1768.0,2092,3150,4976.0,5249.0,6454,13364,14458.0,24813.0
26132,8090,US,31134451,34.0,-117.483333333,Census,City,CA,"Jurupa Valley, California",0,0,0,0,0,0,0,0,0,0,0,0,0,0,0.0,0,0,0.0,0.0,0,0,0.0,0.0
26233,13149,US,107611,34.1013888889,-117.857777778,Census,Census designated place,CA,"Charter Oak, California",0,0,0,0,0,0,0,0,0,0,0,0,0,0,0.0,0,0,0.0,0.0,6840,8858,9027.0,9310.0
26241,69686,US,20949251,37.4347222222,-121.895,Census,City,CA,"Milpitas, California",0,0,0,0,0,0,0,0,0,0,0,0,0,0,0.0,0,0,6572.0,26561.0,37820,50686,62698.0,66790.0
26246,42734,US,108160,37.1305555556,-121.654444444,Census,City,CA,"Morgan Hill, California",0,0,0,0,0,0,0,0,0,0,0,0,607,646,908.0,1014,1627,3151.0,5579.0,17060,23928,33556.0,37882.0
26313,12646,US,107353,38.4819444444,-120.844722222,Census,City,CA,"Plymouth, California",0,0,0,0,0,0,0,0,0,740,768,0,0,657,343.0,460,382,489.0,501.0,699,811,980.0,1005.0
26329,13607,US,107838,33.765,-117.799166667,Census,census-designated place,CA,"North Tustin, California",0,0,0,0,0,0,0,0,0,0,0,0,0,0,0.0,0,0,0.0,26598.0,26174,24358,24044.0,24917.0
26338,36205,US,107678,34.1028166667,-118.099691667,Census,City,CA,"San Gabriel, California",0,0,0,0,0,0,0,0,0,0,0,737,0,2640,7224.0,11867,20343,22561.0,29336.0,30072,37120,39804.0,39718.0
26345,36613,US,108092,35.3791666667,-120.853333333,Census,City,CA,"Morro Bay, California",0,0,0,0,0,0,0,0,0,0,0,0,0,0,0.0,0,1659,3692.0,7109.0,9064,9664,10350.0,10234.0
26443,18883,US,107520,35.2091666667,-118.828333333,Census,City,CA,"Arvin, California",0,0,0,0,0,0,0,0,0,0,0,0,0,0,0.0,4042,5007,0.0,5199.0,6863,9286,12956.0,19304.0
26507,19256,US,107527,35.7688888889,-119.246944444,Census,City,CA,"Delano, California",0,0,0,0,0,0,0,0,0,0,0,0,0,805,2632.0,4573,8717,11913.0,14559.0,16491,22762,38824.0,53041.0
26530,80518,US,43537,38.45,-121.35,Census,County,CA,"Sacramento County, California",0,0,0,0,0,0,9087,24142,26830,34390,40339,45915,67806,91029,141999.0,170333,277140,502778.0,631498.0,783381,1041219,1223499.0,1418788.0
26569,25483,US,107806,33.8561111111,-118.004166667,Census,City,CA,"Buena Park, California",0,0,0,0,0,0,0,0,0,0,0,0,0,0,0.0,0,0,46401.0,63646.0,64165,68784,78282.0,80530.0
26673,15348,US,107737,37.8969444444,-122.508888889,Census,CDP,CA,"Strawberry, Marin County, California",0,0,0,0,0,0,0,0,0,0,0,0,0,0,0.0,0,0,0.0,0.0,0,4377,5302.0,5393.0
26701,38877,US,107626,34.0333333333,-118.166666667,Census,Unincorporated area,CA,"East Los Angeles, California",0,0,0,0,0,0,0,0,0,0,0,0,0,0,0.0,0,0,104270.0,104881.0,110017,126379,124283.0,126496.0
26856,14723,US,108224,38.245,-122.016944444,Census,General law city,CA,"Suisun City, California",0,0,0,0,0,0,0,0,462,554,499,625,641,769,905.0,706,946,2470.0,2917.0,11087,22686,26118.0,28111.0
26864,19452,US,107909,33.7797222222,-116.465277778,Census,City,CA,"Cathedral City, California",0,0,0,0,0,0,0,0,0,0,0,0,0,0,0.0,0,0,1855.0,3640.0,4130,30085,42647.0,51200.0
26911,27678,US,108246,38.5472222222,-122.816388889,Census,Town,CA,"Windsor, California",0,0,0,0,0,0,0,0,0,0,0,0,0,0,0.0,0,0,0.0,0.0,0,0,22744.0,26801.0
26917,52988,US,108121,37.6252777778,-122.425277778,Census,City,CA,"San Bruno, California",0,0,0,0,0,0,0,0,0,0,0,0,0,1562,3610.0,6519,12478,29063.0,36254.0,35417,38961,40165.0,41114.0
27097,33470,US,107810,33.4672222222,-117.698055556,Census,General law city,CA,"Dana Point, California",0,0,0,0,0,0,0,0,0,0,0,0,0,0,0.0,0,0,1186.0,4745.0,10602,31896,35110.0,33351.0
27154,21938,US,108102,37.6808333333,-122.419166667,Census,City,CA,"Brisbane, California",0,0,0,0,0,0,0,0,0,0,0,0,0,0,0.0,0,0,0.0,3003.0,2969,2952,3597.0,4282.0
27326,19714,US,107680,33.9375,-118.067222222,Census,City,CA,"Santa Fe Springs, California",0,0,0,0,0,0,0,0,0,0,0,0,0,0,0.0,0,0,16342.0,14750.0,14520,15520,17438.0,16223.0
27330,21012,US,107775,36.3208333333,-121.243888889,Census,City,CA,"Greenfield, California",0,0,0,0,0,0,0,0,0,0,0,0,0,0,0.0,0,1309,1680.0,2608.0,4181,7464,12583.0,16330.0
27336,12493,US,107699,33.8263888889,-118.2925,Census,census-designated place,CA,"West Carson, California",0,0,0,0,0,0,0,0,0,0,0,0,0,0,0.0,0,0,0.0,15918.0,17997,20143,21138.0,21699.0
27408,50657,US,107659,33.9877777778,-118.186666667,Census,City,CA,"Maywood, California",0,0,0,0,0,0,0,0,0,0,0,0,0,0,6794.0,10731,13292,14588.0,16996.0,21810,27850,28083.0,27395.0
27480,36371,US,107609,33.8397222222,-118.259722222,Census,City,CA,"Carson, California",0,0,0,0,0,0,0,0,0,0,0,0,0,0,0.0,0,0,38059.0,71150.0,81221,83995,89730.0,91714.0
27534,18563,US,107643,33.9638888889,-117.952777778,Census,City,CA,"La Habra Heights, California",0,0,0,0,0,0,0,0,0,0,0,0,0,0,0.0,0,0,0.0,0.0,4786,6226,5712.0,5325.0
27555,27021,US,108129,34.3991666667,-119.516388889,Census,City,CA,"Carpinteria, California",0,0,0,0,0,0,0,0,0,0,0,0,0,0,0.0,0,2864,4998.0,6982.0,10835,13747,14194.0,13040.0
27567,46874,US,108345,38.6786111111,-121.773333333,Census,City,CA,"Woodland, California",0,0,0,0,0,0,0,0,0,2257,3069,2886,3187,4147,5542.0,6637,9386,13524.0,20677.0,30235,39802,49151.0,55468.0
27616,21937,US,117495,34.1355555556,-116.054166667,Census,City,CA,"Twentynine Palms, California",0,0,0,0,0,0,0,0,0,0,0,0,0,0,0.0,0,0,0.0,5667.0,7465,11821,14764.0,25048.0
27742,138836,US,18110,34.05,-118.25,Census,Metropolitan City,CA,Los Angeles,0,0,0,0,0,0,1610,4385,5728,11183,50395,102479,319198,576673,1238048.0,1504277,1970358,2479015.0,2811801.0,2968528,3485398,3694820.0,3792621.0
27795,30369,US,107561,35.1425,-119.456388889,Census,City,CA,"Taft, California",0,0,0,0,0,0,0,0,0,0,0,0,0,3317,3442.0,3205,3707,3822.0,4285.0,5316,5902,6400.0,9327.0
27797,48024,US,107661,34.0144444444,-118.114444444,Census,City,CA,"Montebello, California",0,0,0,0,0,0,0,0,0,0,0,0,0,0,5498.0,8016,21735,32097.0,42807.0,52929,59564,62150.0,62500.0
27798,44645,US,107681,34.1647222222,-118.050833333,Census,City,CA,"Sierra Madre, California",0,0,0,0,0,0,0,0,0,0,0,0,1303,2026,3550.0,4581,7273,9732.0,12140.0,10837,10762,10578.0,10917.0
