,article_length,country,id,lat,lon,poptype,settlement_type,state,title,y1790,y1800,y1810,y1820,y1830,y1840,y1850,y1860,y1870,y1880,y1890,y1900,y1910,y1920,y1930,y1940,y1950,y1960,y1970,y1980,y1990,y2000,y2010
203,14918,US,93404,35.87,-106.31,Census,US County,NM,"Los Alamos County, New Mexico",0,0,0,0,0,0,0,0,0,0,0,0,0,0,0.0,0,10476,13037.0,15198.0,17599,18115,18343.0,17950.0
244,9231,US,125988,36.0183333333,-106.959722222,Census,Village,NM,"Cuba, New Mexico",0,0,0,0,0,0,0,0,0,0,0,0,0,0,0.0,0,0,0.0,415.0,609,760,590.0,731.0
263,11468,US,93384,34.72,-106.8,Census,US County,NM,"Valencia County, New Mexico",0,0,0,0,0,0,0,0,0,0,0,0,13320,13795,16186.0,20245,22481,39085.0,40539.0,61115,45235,66152.0,76569.0
621,21304,US,125927,35.5236111111,-108.734166667,Census,City,NM,"Gallup, New Mexico",0,0,0,0,0,0,0,0,0,0,0,2948,2264,3920,5992.0,7041,9133,14089.0,14596.0,18167,19154,20209.0,21678.0
783,14378,US,93391,35.51,-105.98,Census,US County,NM,"Santa Fe County, New Mexico",0,0,0,0,0,0,0,0,0,0,0,0,14770,15030,19567.0,30826,38153,44970.0,53756.0,75360,98928,129292.0,144170.0
981,17702,US,126033,33.1336111111,-107.252777778,Census,City,NM,"Truth or Consequences, New Mexico",0,0,0,0,0,0,0,0,0,0,0,0,0,455,1336.0,2940,4700,5000.0,4656.0,5219,6221,7289.0,6475.0
1081,12627,US,93388,36.57,-105.63,Census,US County,NM,"Taos County, New Mexico",0,0,0,0,0,0,0,0,0,0,0,0,12008,12773,14394.0,18528,17146,15934.0,17516.0,19456,23118,29979.0,32937.0
1354,8281,US,125895,32.7594444444,-108.134166667,Census,city,NM,"Bayard, New Mexico",0,0,0,0,0,0,0,0,0,0,0,0,0,0,0.0,764,2119,2327.0,2908.0,3036,2598,2534.0,2328.0
1471,121104,US,51278,35.1108333333,-106.61,Census,City,NM,"Albuquerque, New Mexico",0,0,0,0,0,0,0,0,0,2315,3785,6238,11020,15157,26570.0,35449,96815,201189.0,244501.0,332920,384736,448607.0,545852.0
1765,36896,US,125888,32.4119444444,-104.236388889,Census,City,NM,"Carlsbad, New Mexico",0,0,0,0,0,0,0,0,0,0,0,963,1736,2205,3708.0,7116,17975,25541.0,21297.0,25496,24952,25625.0,26138.0
1964,8183,US,125972,36.7397222222,-108.345,Census,town,NM,"Kirtland, New Mexico",0,0,0,0,0,0,0,0,0,0,0,0,0,0,0.0,0,0,0.0,0.0,0,0,0.0,0.0
1966,11777,US,93386,36.48,-103.47,Census,US County,NM,"Union County, New Mexico",0,0,0,0,0,0,0,0,0,0,0,0,11404,16680,11036.0,9095,7372,6068.0,4925.0,4725,4124,4174.0,4549.0
2182,16202,US,126038,34.1125,-107.237777778,Census,Village,NM,"Magdalena, New Mexico",0,0,0,0,0,0,0,0,0,0,0,0,0,1867,1371.0,1323,1297,1211.0,652.0,1022,861,913.0,938.0
2253,6285,US,125961,33.8791666667,-103.126388889,Census,Village,NM,"Causey, New Mexico",0,0,0,0,0,0,0,0,0,0,0,0,0,0,0.0,0,0,38.0,150.0,81,57,52.0,104.0
2375,23611,US,3553766,35.2861111111,-106.670555556,Census,City,NM,"Rio Rancho, New Mexico",0,0,0,0,0,0,0,0,0,0,0,0,0,0,0.0,0,0,0.0,0.0,9985,32551,51765.0,87521.0
2529,16602,US,93420,35.05,-106.67,Census,US County,NM,"Bernalillo County, New Mexico",0,0,0,0,0,0,7751,8769,7591,17225,20913,28630,23606,29855,45430.0,69391,145673,262199.0,315774.0,419700,480577,556678.0,662564.0
2547,7357,US,125999,35.5533333333,-106.770555556,Census,Village,NM,"San Ysidro, New Mexico",0,0,0,0,0,0,0,0,0,0,0,0,0,0,0.0,0,0,0.0,182.0,199,233,238.0,193.0
3364,7963,US,125897,32.7755555556,-108.153611111,Census,Village,NM,"Santa Clara, New Mexico",0,0,0,0,0,0,0,0,0,0,0,0,0,0,0.0,0,0,0.0,0.0,0,0,1944.0,1686.0
3471,11368,US,126049,36.5977777778,-105.445,Census,Village,NM,"Taos Ski Valley, New Mexico",0,0,0,0,0,0,0,0,0,0,0,0,0,0,0.0,0,0,0.0,0.0,0,0,56.0,69.0
3504,9924,US,125910,32.1122222222,-103.193055556,Census,City,NM,"Jal, New Mexico",0,0,0,0,0,0,0,0,0,0,0,0,0,0,404.0,1157,2047,3051.0,2602.0,2675,2156,1996.0,2047.0
3544,6487,US,126051,34.6513888889,-105.4625,Census,Village,NM,"Encino, New Mexico",0,0,0,0,0,0,0,0,0,0,0,0,0,0,0.0,652,408,346.0,250.0,155,131,94.0,82.0
3630,9488,US,125883,31.8066666667,-106.58,Census,City,NM,"Sunland Park, New Mexico",0,0,0,0,0,0,0,0,0,0,0,0,0,0,0.0,0,0,0.0,0.0,0,8179,13309.0,14106.0
4093,11803,US,93415,34.57,-103.35,Census,US County,NM,"Curry County, New Mexico",0,0,0,0,0,0,0,0,0,0,0,0,11443,11236,15809.0,18159,23351,32691.0,39517.0,42019,42207,45044.0,48376.0
4297,7812,US,125911,32.9463888889,-103.353611111,Census,City,NM,"Lovington, New Mexico",0,0,0,0,0,0,0,0,0,0,0,0,0,411,961.0,1916,3134,9660.0,8915.0,9727,9322,9471.0,11009.0
4371,10465,US,125917,33.3316666667,-105.596111111,Census,City,NM,"Ruidoso Downs, New Mexico",0,0,0,0,0,0,0,0,0,0,0,0,0,0,0.0,0,363,407.0,702.0,949,920,1824.0,2815.0
5196,22501,US,126039,34.0616666667,-106.899444444,Census,City,NM,"Socorro, New Mexico",0,0,0,0,0,0,0,0,0,1272,2295,1512,1560,1256,2058.0,3712,4334,5271.0,5849.0,7173,8159,8877.0,9051.0
5822,6795,US,125842,32.9994444444,-104.365277778,Census,Town,NM,"Lake Arthur, New Mexico",0,0,0,0,0,0,0,0,0,0,0,0,344,141,215.0,279,380,387.0,306.0,327,336,432.0,436.0
5879,10679,US,125873,32.665,-107.158611111,Census,Village,NM,"Hatch, New Mexico",0,0,0,0,0,0,0,0,0,0,0,0,0,0,364.0,822,1064,888.0,867.0,1028,1136,1673.0,1648.0
6127,7394,US,125904,32.44,-103.1625,Census,City,NM,"Eunice, New Mexico",0,0,0,0,0,0,0,0,0,0,0,0,0,0,0.0,1227,2352,3531.0,2641.0,2970,2676,2562.0,2922.0
6222,16308,US,125857,36.5094444444,-104.915555556,Census,Village,NM,"Cimarron, New Mexico",0,0,0,0,0,0,0,0,0,290,0,0,791,481,698.0,744,855,997.0,927.0,888,774,917.0,1021.0
6230,19716,US,93419,33.92,-108.42,Census,US County,NM,"Catron County, New Mexico",0,0,0,0,0,0,0,0,0,0,0,0,0,0,3282.0,4881,3533,2773.0,2198.0,2720,2563,3543.0,3725.0
6450,9026,US,125862,36.3638888889,-104.593611111,Census,Town,NM,"Springer, New Mexico",0,0,0,0,0,0,0,0,0,0,0,0,550,915,957.0,1314,1558,1564.0,1574.0,1657,1262,1285.0,1047.0
6750,12880,US,93405,33.74,-105.46,Census,US County,NM,"Lincoln County, New Mexico",0,0,0,0,0,0,0,0,0,0,0,0,7822,7823,7198.0,8557,7409,7744.0,7560.0,10997,12219,19411.0,20497.0
6936,12602,US,125905,32.7122222222,-103.140555556,Census,City,NM,"Hobbs, New Mexico",0,0,0,0,0,0,0,0,0,0,0,0,0,0,598.0,10619,13875,26275.0,26025.0,29153,29115,28657.0,34122.0
7051,10425,US,93408,35.86,-103.82,Census,US County,NM,"Harding County, New Mexico",0,0,0,0,0,0,0,0,0,0,0,0,0,0,4421.0,4374,3013,1874.0,1348.0,1090,987,810.0,695.0
7191,12429,US,125899,34.9422222222,-104.683888889,Census,City,NM,"Santa Rosa, New Mexico",0,0,0,0,0,0,0,0,0,0,0,0,0,1093,1127.0,2310,2199,2220.0,2485.0,2469,2263,2744.0,2848.0
7260,16873,US,125946,32.9547222222,-105.740555556,Census,Village,NM,"Cloudcroft, New Mexico",0,0,0,0,0,0,0,0,0,0,0,0,0,0,0.0,0,251,464.0,525.0,521,636,749.0,674.0
7332,21927,US,125965,34.1822222222,-103.338611111,Census,City,NM,"Portales, New Mexico",0,0,0,0,0,0,0,0,0,0,0,0,1292,1154,2519.0,5104,8112,9695.0,10554.0,9940,10690,11131.0,12280.0
7538,24743,US,26598672,32.3122222222,-106.778333333,Census,US County,NM,"Doña Ana County, New Mexico",0,0,0,0,0,0,0,0,0,0,0,0,12893,16548,27455.0,30411,39557,59948.0,69773.0,96340,135510,174682.0,209233.0
7710,6146,US,126062,36.5933333333,-103.614444444,Census,Village,NM,"Grenville, New Mexico",0,0,0,0,0,0,0,0,0,0,0,0,0,0,231.0,143,102,55.0,21.0,39,24,25.0,38.0
8448,12217,US,125877,32.2727777778,-106.800833333,Census,Town,NM,"Mesilla, New Mexico",0,0,0,0,0,0,0,0,0,0,0,0,0,0,0.0,0,1264,1264.0,1713.0,2029,1975,2180.0,2196.0
8545,7084,US,126032,33.1897222222,-107.222777778,Census,City,NM,"Elephant Butte, New Mexico",0,0,0,0,0,0,0,0,0,0,0,0,0,0,0.0,0,0,0.0,0.0,0,0,1390.0,1431.0
8553,11082,US,126054,35.0,-106.046666667,Census,City,NM,"Moriarty, New Mexico",0,0,0,0,0,0,0,0,0,0,0,0,0,0,0.0,0,0,720.0,758.0,1276,1399,1765.0,1910.0
8554,8038,US,125859,36.5394444444,-104.5425,Census,Village,NM,"Maxwell, New Mexico",0,0,0,0,0,0,0,0,0,0,0,0,0,384,439.0,483,404,392.0,393.0,316,247,274.0,254.0
8568,13809,US,93394,36.51,-108.32,Census,US County,NM,"San Juan County, New Mexico",0,0,0,0,0,0,0,0,0,0,0,0,8504,8333,14701.0,17115,18292,53306.0,52517.0,81433,91605,113801.0,130044.0
8725,10993,US,26598717,34.4716666667,-104.245555556,Census,US County,NM,"De Baca County, New Mexico",0,0,0,0,0,0,0,0,0,0,0,0,0,3196,2893.0,3725,3464,2991.0,2547.0,2454,2252,2240.0,2022.0
8842,49476,US,53717,36.3938888889,-105.576666667,Census,Town,NM,"Taos, New Mexico",0,0,0,0,0,0,0,0,0,0,0,0,0,0,0.0,965,1815,2163.0,2475.0,3369,4065,4700.0,5716.0
8852,35501,US,150792,36.0019444444,-106.064722222,Census,City,NM,"Española, New Mexico",0,0,0,0,0,0,0,0,0,0,398,1405,1802,2412,4269.0,2984,2489,3472.0,7923.0,8127,8828,9504.0,10495.0
8948,12012,US,93389,33.14,-107.19,Census,US County,NM,"Sierra County, New Mexico",0,0,0,0,0,0,0,0,0,0,0,0,3536,4619,5184.0,6962,7186,6409.0,7189.0,8454,9912,13270.0,11988.0
9242,14283,US,93417,34.92,-107.99,Census,US County,NM,"Cibola County, New Mexico",0,0,0,0,0,0,0,0,0,0,0,0,0,0,0.0,0,0,0.0,0.0,0,23794,25595.0,27213.0
9560,13759,US,93392,,,Census,US County,NM,"Sandoval County, New Mexico",0,0,0,0,0,0,0,0,0,0,0,0,8579,8863,11144.0,13898,12438,14201.0,17492.0,34799,63319,89908.0,131561.0
9779,28727,US,125955,35.1694444444,-103.725555556,Census,City,NM,"Tucumcari, New Mexico",0,0,0,0,0,0,0,0,0,0,0,0,2526,3117,4143.0,6194,8419,8143.0,7189.0,6765,6831,5989.0,5363.0
9870,7895,US,125953,35.3613888889,-103.447777778,Census,Village,NM,"Logan, New Mexico",0,0,0,0,0,0,0,0,0,0,0,0,0,0,0.0,0,0,0.0,386.0,735,870,1094.0,1042.0
10329,14032,US,125835,35.1616666667,-106.646388889,Census,Village,NM,"Los Ranchos de Albuquerque, New Mexico",0,0,0,0,0,0,0,0,0,400,0,0,0,0,0.0,0,0,0.0,1900.0,2741,3955,5092.0,6024.0
10707,15918,US,125845,35.1552777778,-107.842222222,Census,City,NM,"Grants, New Mexico",0,0,0,0,0,0,0,0,0,0,0,0,0,0,0.0,0,2251,10274.0,8768.0,11439,8626,8806.0,9182.0
10943,6687,US,125964,34.2291666667,-103.528611111,Census,Village,NM,"Floyd, New Mexico",0,0,0,0,0,0,0,0,0,0,0,0,0,0,0.0,0,0,423.0,248.0,146,117,78.0,133.0
11066,8951,US,22774647,33.5438888889,-105.583055556,Census,Village,NM,"Capitan, New Mexico",0,0,0,0,0,0,0,0,0,0,0,0,0,0,0.0,932,575,552.0,439.0,762,842,1443.0,1489.0
11129,15136,US,125966,36.8222222222,-107.992777778,Census,County Seat,NM,"Aztec, New Mexico",0,0,0,0,0,0,0,0,0,0,0,0,509,489,740.0,756,885,4137.0,3354.0,5512,5479,6378.0,6763.0
11260,7184,US,126072,34.8263888889,-106.688888889,Census,Town,NM,"Peralta, New Mexico",0,0,0,0,0,0,0,0,0,0,0,0,0,0,0.0,0,0,0.0,0.0,0,0,0.0,3660.0
11444,7906,US,125984,35.5808333333,-105.678611111,Census,Village,NM,"Pecos, New Mexico",0,0,0,0,0,0,0,0,0,241,0,0,0,0,0.0,0,0,584.0,598.0,885,1012,1441.0,1392.0
11571,12351,US,125868,34.4730555556,-104.242222222,Census,Village,NM,"Fort Sumner, New Mexico",0,0,0,0,0,0,0,0,0,0,0,0,0,777,839.0,1669,1982,1809.0,1615.0,1421,1269,1249.0,1031.0
11906,12540,US,125839,33.7086111111,-108.760833333,Census,Village,NM,"Reserve, New Mexico",0,0,0,0,0,0,0,0,0,0,0,0,0,0,0.0,0,0,0.0,0.0,439,319,387.0,289.0
11945,6738,US,126058,34.5963888889,-106.033055556,Census,Village,NM,"Willard, New Mexico",0,0,0,0,0,0,0,0,0,0,0,0,0,421,482.0,462,296,294.0,209.0,166,183,240.0,253.0
12730,7494,US,125865,34.8219444444,-103.316666667,Census,Village,NM,"Grady, New Mexico",0,0,0,0,0,0,0,0,0,0,0,0,0,0,0.0,237,180,100.0,104.0,122,110,98.0,107.0
12807,12144,US,125858,36.5522222222,-105.261388889,Census,Village,NM,"Eagle Nest, New Mexico",0,0,0,0,0,0,0,0,0,0,0,0,0,0,0.0,0,0,0.0,0.0,202,189,306.0,290.0
13033,15524,US,93411,32.47,-104.3,Census,US County,NM,"Eddy County, New Mexico",0,0,0,0,0,0,0,0,0,0,0,0,12420,9116,15842.0,24311,40640,50783.0,41119.0,47855,48605,51658.0,53829.0
13090,14882,US,93416,36.61,-104.64,Census,US County,NM,"Colfax County, New Mexico",0,0,0,0,0,0,0,0,0,0,0,0,16460,21550,19157.0,18718,16761,13806.0,12170.0,13667,12925,14189.0,13750.0
13181,6443,US,125962,33.9313888889,-103.3375,Census,Village,NM,"Dora, New Mexico",0,0,0,0,0,0,0,0,0,0,0,0,0,0,0.0,0,0,113.0,196.0,168,167,130.0,133.0
13799,7347,US,125841,33.1122222222,-104.328055556,Census,Town,NM,"Hagerman, New Mexico",0,0,0,0,0,0,0,0,0,0,0,0,449,476,609.0,854,1024,1144.0,953.0,936,961,1168.0,1257.0
13843,12051,US,93387,34.64,-105.85,Census,US County,NM,"Torrance County, New Mexico",0,0,0,0,0,0,0,0,0,0,0,0,10119,9731,9269.0,11026,8012,6497.0,5290.0,7491,10285,16911.0,16383.0
14306,12598,US,126012,35.0677777778,-106.191388889,Census,Town,NM,"Edgewood, New Mexico",0,0,0,0,0,0,0,0,0,0,0,0,0,0,0.0,0,0,0.0,0.0,0,0,1893.0,3735.0
14342,9275,US,125900,34.6013888889,-105.206388889,Census,Town,NM,"Vaughn, New Mexico",0,0,0,0,0,0,0,0,0,0,0,0,0,888,968.0,1331,1356,1170.0,867.0,737,633,539.0,446.0
14641,6198,US,125952,34.6480555556,-103.903888889,Census,Village,NM,"House, New Mexico",0,0,0,0,0,0,0,0,0,0,0,0,0,0,0.0,0,0,139.0,119.0,117,85,72.0,68.0
14662,12300,US,93410,32.73,-108.38,Census,US County,NM,"Grant County, New Mexico",0,0,0,0,0,0,0,0,0,0,0,0,14813,21939,19050.0,20050,21649,18700.0,22030.0,26204,27676,31002.0,29514.0
14920,13371,US,126069,34.8094444444,-106.735277778,Census,Village,NM,"Los Lunas, New Mexico",0,0,0,0,0,0,0,0,0,876,0,0,0,0,513.0,686,889,1186.0,973.0,3525,6013,10034.0,14835.0
15127,9306,US,125968,36.7108333333,-107.982777778,Census,City,NM,"Bloomfield, New Mexico",0,0,0,0,0,0,0,0,0,0,0,0,0,0,0.0,0,0,1292.0,1574.0,4881,5214,6417.0,8112.0
15214,7678,US,126073,34.6419444444,-106.726944444,Census,City,NM,"Rio Communities, New Mexico",0,0,0,0,0,0,0,0,0,0,0,0,0,0,0.0,0,0,0.0,0.0,0,0,0.0,0.0
15241,6787,US,126036,33.1166666667,-107.2925,Census,Village,NM,"Williamsburg, New Mexico",0,0,0,0,0,0,0,0,0,0,0,0,0,0,0.0,0,0,0.0,367.0,433,456,527.0,449.0
15482,29992,US,125898,32.7780555556,-108.274166667,Census,Town,NM,"Silver City, New Mexico",0,0,0,0,0,0,0,0,0,1800,2102,2735,3217,2662,3519.0,5044,7022,6972.0,8557.0,9887,10683,10545.0,10315.0
15829,8445,US,126064,34.8533333333,-106.699166667,Census,Village,NM,"Bosque Farms, New Mexico",0,0,0,0,0,0,0,0,0,0,0,0,0,0,0.0,0,0,0.0,0.0,3353,3791,3931.0,3904.0
15882,25234,US,26186,33.3872222222,-104.528055556,Census,City,NM,"Roswell, New Mexico",0,0,0,0,0,0,0,0,0,0,0,2049,6172,7033,11173.0,13482,25738,39593.0,33908.0,39676,44654,45293.0,48411.0
16015,9387,US,125957,36.8947222222,-106.584444444,Census,Village,NM,"Chama, New Mexico",0,0,0,0,0,0,0,0,0,0,0,0,0,0,0.0,0,0,0.0,899.0,1090,1048,1199.0,1022.0
16115,10411,US,125870,32.0061111111,-106.600555556,Census,City,NM,"Anthony, New Mexico",0,0,0,0,0,0,0,0,0,0,0,0,0,0,0.0,0,0,0.0,0.0,0,0,0.0,9360.0
16381,22365,US,18952840,32.2611111111,-107.755833333,Census,City,NM,"Deming, New Mexico",0,0,0,0,0,0,0,0,0,0,0,0,1864,3212,3377.0,3608,5672,5764.0,8343.0,9964,10970,14116.0,14855.0
16563,11993,US,93406,32.8,-103.42,Census,US County,NM,"Lea County, New Mexico",0,0,0,0,0,0,0,0,0,0,0,0,0,3545,6144.0,21154,30717,53429.0,49554.0,55993,55765,55511.0,64727.0
16582,23487,US,126059,36.4497222222,-103.180833333,Census,Town,NM,"Clayton, New Mexico",0,0,0,0,0,0,0,0,0,0,0,0,970,2157,2518.0,3188,3515,3314.0,2931.0,2968,2484,2524.0,2980.0
16935,33864,US,25378263,35.8911111111,-106.297777778,USA,Census-designated place,NM,"Los Alamos, New Mexico",0,0,0,0,0,0,0,0,0,0,0,0,0,0,0.0,0,0,0.0,11310.0,11039,11455,11909.0,12019.0
16971,10007,US,126045,36.7063888889,-105.405277778,Census,Town,NM,"Red River, New Mexico",0,0,0,0,0,0,0,0,0,0,0,0,0,0,0.0,0,0,0.0,0.0,332,387,484.0,477.0
18119,29473,US,125864,34.4125,-103.204722222,Census,City,NM,"Clovis, New Mexico",0,0,0,0,0,0,0,0,0,0,0,0,3255,4904,8027.0,10065,17318,23713.0,28495.0,31194,30954,32667.0,37775.0
18170,11388,US,93393,35.47,-104.83,Census,US County,NM,"San Miguel County, New Mexico",0,0,0,0,0,0,0,0,0,0,0,0,22930,22867,23636.0,27910,26512,23468.0,21951.0,22751,25743,30126.0,29393.0
18294,9455,US,125838,35.0875,-106.377222222,Census,Village,NM,"Tijeras, New Mexico",0,0,0,0,0,0,0,0,0,0,0,0,0,0,0.0,0,0,0.0,0.0,311,340,474.0,541.0
18353,7507,US,125840,33.1961111111,-104.370277778,Census,Town,NM,"Dexter, New Mexico",0,0,0,0,0,0,0,0,0,0,0,0,242,333,459.0,734,784,885.0,746.0,882,898,1235.0,1266.0
18369,11951,US,126061,36.8480555556,-103.918055556,Census,Village,NM,"Folsom, New Mexico",0,0,0,0,0,0,0,0,0,0,0,0,484,0,0.0,360,206,142.0,75.0,73,71,75.0,56.0
18592,12015,US,93409,34.86,-104.78,Census,US County,NM,"Guadalupe County, New Mexico",0,0,0,0,0,0,0,0,0,0,0,0,10927,8015,7027.0,8646,6772,5610.0,4969.0,4496,4156,4680.0,4687.0
19031,17619,US,93397,36.51,-106.7,Census,US County,NM,"Rio Arriba County, New Mexico",0,0,0,0,0,0,0,0,0,0,0,0,16624,19552,21381.0,25352,24997,24193.0,25170.0,29282,34365,41190.0,40246.0
19075,13511,US,125856,36.3788888889,-105.285555556,Census,Village,NM,"Angel Fire, New Mexico",0,0,0,0,0,0,0,0,0,0,0,0,0,0,0.0,0,0,0.0,0.0,0,93,1048.0,1216.0
19217,16732,US,125887,32.8427777778,-104.412222222,Census,City,NM,"Artesia, New Mexico",0,0,0,0,0,0,0,0,0,0,0,0,1883,1115,2427.0,4071,8244,12000.0,10315.0,10385,10610,10692.0,11301.0
19534,8894,US,125867,34.3911111111,-103.048333333,Census,City,NM,"Texico, New Mexico",0,0,0,0,0,0,0,0,0,0,0,0,409,381,569.0,478,691,889.0,772.0,958,966,1065.0,1130.0
19768,7271,US,125903,32.6886111111,-109.0025,Census,Village,NM,"Virden, New Mexico",0,0,0,0,0,0,0,0,0,0,0,0,0,0,196.0,206,146,135.0,151.0,246,108,143.0,152.0
20059,12629,US,125990,35.7708333333,-106.6925,Census,Village,NM,"Jemez Springs, New Mexico",0,0,0,0,0,0,0,0,0,0,0,0,0,0,0.0,0,0,223.0,356.0,316,413,375.0,250.0
20063,11500,US,93399,32.62,-105.73,Census,US County,NM,"Otero County, New Mexico",0,0,0,0,0,0,0,0,0,0,0,0,7069,7902,9779.0,10522,14909,36976.0,41097.0,44665,51928,62298.0,63797.0
20107,7360,US,20635586,34.5197222222,-106.243333333,Census,Town,NM,"Mountainair, New Mexico",0,0,0,0,0,0,0,0,0,0,0,0,0,577,1027.0,1477,1418,1605.0,1022.0,1170,926,1116.0,928.0
20185,85111,US,125874,32.3144444444,-106.778888889,Census,City,NM,"Las Cruces, New Mexico",0,0,0,0,0,0,0,0,0,0,0,0,3836,3989,5811.0,8385,12325,29387.0,37857.0,43377,57866,74267.0,97618.0
20204,8594,US,150786,35.2347222222,-106.618055556,Census,Village,NM,"Corrales, New Mexico",0,0,0,0,0,0,0,0,0,0,0,0,0,0,0.0,0,0,0.0,0.0,2791,5453,7334.0,8329.0
20375,6946,US,150789,35.7763888889,-103.957222222,Census,Village,NM,"Mosquero, New Mexico",0,0,0,0,0,0,0,0,0,0,0,0,0,0,401.0,742,583,310.0,244.0,197,164,120.0,93.0
20460,32359,US,126063,34.6655555556,-106.776111111,Census,City,NM,"Belen, New Mexico",0,0,0,0,0,0,0,0,0,0,0,0,0,1306,2116.0,3038,4495,5031.0,4823.0,5617,6547,6901.0,7269.0
20522,15809,US,93418,33.36,-104.47,Census,US County,NM,"Chaves County, New Mexico",0,0,0,0,0,0,0,0,0,0,0,0,16850,12075,19549.0,23980,40605,57649.0,43335.0,51103,57849,61382.0,65645.0
20775,7736,US,125849,35.1769444444,-107.895277778,Census,Village,NM,"Milan, New Mexico",0,0,0,0,0,0,0,0,0,0,0,0,0,0,0.0,0,0,2658.0,2222.0,3747,1911,1891.0,3245.0
21029,20446,US,125969,36.7516666667,-108.189722222,Census,City,NM,"Farmington, New Mexico",0,0,0,0,0,0,0,0,0,0,0,0,785,728,1350.0,2161,3637,23786.0,21979.0,31222,33997,37844.0,45877.0
21041,9314,US,126052,34.7602777778,-106.060833333,Census,Town,NM,"Estancia, New Mexico",0,0,0,0,0,0,0,0,0,0,0,0,517,578,634.0,668,916,797.0,721.0,830,792,1584.0,1655.0
21393,14557,US,125951,33.0763888889,-106.021666667,Census,Village,NM,"Tularosa, New Mexico",0,0,0,0,0,0,0,0,0,549,0,0,0,1096,1406.0,1446,1642,3200.0,2851.0,2536,2615,2864.0,2842.0
21723,6123,US,126078,34.7952777778,-106.6925,Census,CDP,NM,"Valencia, New Mexico",0,0,0,0,0,0,0,0,0,0,0,0,0,0,0.0,0,0,0.0,0.0,0,3917,4500.0,2192.0
21727,7848,US,125943,36.0072222222,-104.707222222,Census,Village,NM,"Wagon Mound, New Mexico",0,0,0,0,0,0,0,0,0,0,0,0,0,875,852.0,979,1120,760.0,630.0,416,319,369.0,314.0
22050,13685,US,93400,,,Census,US County,NM,"Mora County, New Mexico",0,0,0,0,0,0,0,0,0,0,0,0,12611,13915,10322.0,10981,8720,6028.0,4673.0,4205,4264,5180.0,4881.0
22106,68372,US,19284345,35.6672222222,-105.964444444,Census,State Capital,NM,"Santa Fe, New Mexico",0,0,0,0,0,0,4846,4635,4756,6635,6185,5603,5073,7326,11176.0,20325,27998,34394.0,41167.0,48053,52303,61109.0,67947.0
22576,12349,US,93403,32.18,-107.75,Census,US County,NM,"Luna County, New Mexico",0,0,0,0,0,0,0,0,0,0,0,0,3913,12270,6247.0,6457,8753,9839.0,11706.0,15585,18110,25016.0,25095.0
22639,6637,US,125912,33.2552777778,-103.316111111,Census,Town,NM,"Tatum, New Mexico",0,0,0,0,0,0,0,0,0,0,0,0,0,0,0.0,0,688,1168.0,982.0,896,768,683.0,798.0
22958,8062,US,125893,32.8119444444,-104.733611111,Census,Village,NM,"Hope, New Mexico",0,0,0,0,0,0,0,0,0,0,0,0,417,430,275.0,289,186,108.0,90.0,111,101,107.0,105.0
23041,7343,US,125866,34.4280555556,-103.628055556,Census,Village,NM,"Melrose, New Mexico",0,0,0,0,0,0,0,0,0,0,0,0,0,364,655.0,851,936,698.0,636.0,649,662,736.0,651.0
23173,25480,US,126043,36.7063888889,-105.593055556,Census,Village,NM,"Questa, New Mexico",0,0,0,0,0,0,0,0,0,0,0,0,0,0,0.0,0,0,0.0,1095.0,1202,1707,1864.0,1770.0
23336,11249,US,93398,35.11,-103.55,Census,US County,NM,"Quay County, New Mexico",0,0,0,0,0,0,0,0,0,0,0,0,14912,10444,10828.0,12111,13971,12279.0,10903.0,10577,10823,10155.0,9041.0
24027,14302,US,125860,36.8969444444,-104.44,Census,City,NM,"Raton, New Mexico",0,0,0,0,0,0,0,0,0,0,1255,3540,4539,5544,6090.0,7607,8241,8146.0,6962.0,8225,7372,7282.0,6885.0
24044,7470,US,125894,32.2855555556,-104.096666667,Census,Village,NM,"Loving, New Mexico",0,0,0,0,0,0,0,0,0,0,0,0,0,0,0.0,0,1487,1646.0,1192.0,1355,1243,1326.0,1413.0
24140,18658,US,125916,33.3413888889,-105.666111111,Census,Village,NM,"Ruidoso, New Mexico",0,0,0,0,0,0,0,0,0,0,0,0,0,0,0.0,0,806,1557.0,2216.0,4260,4600,7698.0,8029.0
24377,11468,US,93396,34.02,-103.48,Census,US County,NM,"Roosevelt County, New Mexico",0,0,0,0,0,0,0,0,0,0,0,0,12064,6548,11109.0,14549,16409,16198.0,16479.0,15695,16702,18018.0,19846.0
24722,7891,US,125954,35.1075,-103.330277778,Census,Village,NM,"San Jon, New Mexico",0,0,0,0,0,0,0,0,0,0,0,0,0,0,0.0,0,362,411.0,308.0,341,277,306.0,216.0
24803,29261,US,57749,34.02,-106.93,Census,US County,NM,"Socorro County, New Mexico",0,0,0,0,0,0,0,0,0,0,0,0,14761,14061,9611.0,11422,9670,10168.0,9763.0,12566,14764,18078.0,17866.0
24832,7266,US,125896,32.6997222222,-108.128611111,Census,Town,NM,"Hurley, New Mexico",0,0,0,0,0,0,0,0,0,0,0,0,0,0,0.0,0,2079,1851.0,1796.0,1616,1534,1464.0,1297.0
24870,131903,US,21649,,,Census,US State,NM,New Mexico,0,0,0,0,0,0,61547,93516,91874,119565,160282,195310,327301,360350,423317.0,531818,681187,951023.0,1017055.0,1303302,1515069,1819046.0,2059179.0
25146,12278,US,93407,31.92,-108.71,Census,US County,NM,"Hidalgo County, New Mexico",0,0,0,0,0,0,0,0,0,0,0,0,0,4338,5023.0,4821,5095,4961.0,4734.0,6049,5958,5932.0,4894.0
25539,6586,US,125963,33.9452777778,-103.654166667,Census,Town,NM,"Elida, New Mexico",0,0,0,0,0,0,0,0,0,0,0,0,327,300,325.0,330,430,534.0,233.0,202,201,183.0,197.0
25727,6979,US,125901,35.9438888889,-104.193055556,Census,Village,NM,"Roy, New Mexico",0,0,0,0,0,0,0,0,0,0,0,0,0,564,713.0,1138,1074,633.0,476.0,381,362,304.0,234.0
26087,17067,US,125902,32.3469444444,-108.707222222,Census,City,NM,"Lordsburg, New Mexico",0,0,0,0,0,0,0,0,0,0,0,0,0,1325,2069.0,3101,3525,3436.0,3429.0,3195,2951,3379.0,2797.0
26389,92544,US,125944,32.9004111111,-105.960477778,Census,City,NM,"Alamogordo, New Mexico",0,0,0,0,0,0,0,0,0,0,0,0,0,2363,3096.0,3950,6783,21723.0,23035.0,24024,27596,35582.0,30403.0
26823,24580,US,125983,35.5969444444,-105.2225,Census,City,NM,"Las Vegas, New Mexico",0,0,0,0,0,0,0,0,0,0,2312,3552,3755,4304,4719.0,5941,7494,7790.0,7528.0,14322,14753,14565.0,13753.0
26974,12701,US,93402,35.58,-108.26,Census,US County,NM,"McKinley County, New Mexico",0,0,0,0,0,0,0,0,0,0,0,0,12963,13731,20643.0,23641,27451,37209.0,43208.0,56449,60686,74798.0,71492.0
27125,7088,US,125915,34.2505555556,-105.595555556,Census,Village,NM,"Corona, New Mexico",0,0,0,0,0,0,0,0,0,0,0,0,0,0,0.0,0,530,420.0,262.0,236,215,165.0,172.0
27256,10071,US,125986,35.3094444444,-106.551944444,Census,Town,NM,"Bernalillo, New Mexico",0,0,0,0,0,0,0,0,0,1223,0,0,0,0,0.0,0,1922,2574.0,2016.0,2988,5960,6611.0,8320.0
27584,17381,US,125914,33.6438888889,-105.8775,Census,Town,NM,"Carrizozo, New Mexico",0,0,0,0,0,0,0,0,0,0,0,0,0,1301,1171.0,1457,1389,1546.0,1123.0,1222,1075,1036.0,996.0
27601,18297,US,125919,31.8308333333,-107.641666667,Census,Village,NM,"Columbus, New Mexico",0,0,0,0,0,0,0,0,0,0,0,0,0,2110,391.0,265,251,307.0,241.0,414,641,1765.0,1664.0
27635,7542,US,126060,36.7602777778,-103.835277778,Census,Village,NM,"Des Moines, New Mexico",0,0,0,0,0,0,0,0,0,0,0,0,0,0,362.0,289,282,207.0,204.0,178,168,177.0,143.0
