,article_length,country,id,lat,lon,poptype,settlement_type,state,title,y1790,y1800,y1810,y1820,y1830,y1840,y1850,y1860,y1870,y1880,y1890,y1900,y1910,y1920,y1930,y1940,y1950,y1960,y1970,y1980,y1990,y2000,y2010
57,5633,US,139011,44.8083333333,-92.0602777778,Census,Town,WI,"Weston, Dunn County, Wisconsin",0,0,0,0,0,0,0,0,0,0,0,0,0,0,0.0,0,0,0.0,0.0,0,560,630.0,594.0
68,10674,US,260360,43.1366666667,-89.7475,Census,Village,WI,"Black Earth, Wisconsin",0,0,0,0,0,0,0,0,0,0,355,0,479,464,490.0,531,655,784.0,1114.0,1145,1248,1320.0,1338.0
76,10682,US,139194,43.9211111111,-90.27,Census,Village,WI,"Camp Douglas, Wisconsin",0,0,0,0,0,0,0,0,0,0,225,432,473,471,438.0,445,556,489.0,547.0,589,512,592.0,601.0
94,16136,US,139707,43.2741666667,-89.7283333333,Census,Village,WI,"Sauk City, Wisconsin",0,0,0,0,0,0,0,0,0,917,876,810,867,1162,1137.0,1325,1755,2095.0,2385.0,2703,3019,3109.0,3410.0
100,31809,US,100265,43.6374,-89.7788,Census,City,WI,"Wisconsin Dells, Wisconsin",0,0,0,0,0,0,0,0,1114,945,961,1134,1170,1206,1489.0,1762,1957,2105.0,2401.0,2521,2393,2418.0,2678.0
158,9187,US,139136,42.8427777778,-90.3963888889,Census,Village,WI,"Rewey, Wisconsin",0,0,0,0,0,0,0,0,0,0,0,0,329,324,249.0,267,252,219.0,232.0,233,220,311.0,292.0
272,10220,US,139966,43.135,-88.2202777778,Census,Village,WI,"Sussex, Wisconsin",0,0,0,0,0,0,0,0,0,131,0,0,0,0,496.0,548,679,1087.0,2758.0,3482,5039,8828.0,10518.0
285,14536,US,529459,44.832346,-87.372076,Census,City,WI,"Sturgeon Bay, Wisconsin",0,0,0,0,0,0,0,0,0,1199,2195,3372,4262,4553,4983.0,5439,7054,7353.0,6776.0,8847,9176,9437.0,9144.0
291,9562,US,138818,44.9030555556,-91.5591666667,Census,Town,WI,"Wheaton, Wisconsin",0,0,0,0,0,0,0,0,0,0,0,0,0,0,0.0,0,0,0.0,1652.0,2017,2279,2366.0,2701.0
303,18265,US,57248,43.97,-89.77,Census,US County,WI,"Adams County, Wisconsin",0,0,0,0,0,0,187,6492,6601,6741,6889,9141,8604,9287,8003.0,8449,7906,7566.0,9234.0,13457,15682,18643.0,20875.0
309,11005,US,260586,44.875,-88.1427777778,Census,City,WI,"Oconto Falls, Wisconsin",0,0,0,0,0,0,0,0,0,0,0,0,1427,1914,1921.0,1888,2050,2331.0,2517.0,2500,2584,2843.0,2891.0
328,9221,US,139857,43.6558333333,-91.0972222222,Census,Village,WI,"Chaseburg, Wisconsin",0,0,0,0,0,0,0,0,0,125,0,0,0,0,218.0,258,219,242.0,224.0,279,365,306.0,284.0
390,12413,US,260298,45.4983333333,-91.7388888889,Census,City,WI,"Rice Lake, Wisconsin",0,0,0,0,0,0,0,0,0,362,2130,3002,3968,4457,5177.0,5719,6898,7303.0,7278.0,7691,7998,8320.0,8438.0
412,13186,US,260496,43.08,-88.9091666667,Census,City,WI,"Lake Mills, Wisconsin",0,0,0,0,0,0,0,0,590,671,1053,1387,1672,1754,2007.0,2219,2516,2951.0,3556.0,3670,4143,4843.0,5708.0
497,19605,US,260592,44.5086111111,-88.3283333333,Census,City,WI,"Seymour, Wisconsin",0,0,0,0,0,0,0,0,0,850,733,1026,1109,1280,1201.0,1365,1760,2045.0,2194.0,2530,2782,3335.0,3451.0
537,9472,US,260523,42.5680555556,-90.0413888889,Census,Village,WI,"Gratiot, Wisconsin",0,0,0,0,0,0,0,0,0,191,0,335,368,338,287.0,297,323,294.0,249.0,280,207,252.0,236.0
548,30692,US,90930,45.21,-90.5,Census,US County,WI,"Taylor County, Wisconsin",0,0,0,0,0,0,0,0,0,2311,6731,11262,13641,18045,17685.0,20105,18456,17843.0,16958.0,18817,18901,19680.0,20689.0
644,12318,US,139766,43.5683333333,-87.8227777778,Census,Village,WI,"Cedar Grove, Wisconsin",0,0,0,0,0,0,0,0,0,0,0,327,498,654,814.0,907,1010,1175.0,1276.0,1420,1521,1887.0,2113.0
656,10001,US,152246,44.8472222222,-92.24,Census,Village,WI,"Spring Valley, Wisconsin",0,0,0,0,0,0,0,0,0,0,0,1021,972,939,896.0,973,975,977.0,995.0,982,1051,1189.0,1352.0
696,8709,US,139066,45.6563888889,-88.6758333333,Census,Town,WI,"Caswell, Wisconsin",0,0,0,0,0,0,0,0,0,0,0,0,216,798,244.0,199,133,107.0,96.0,85,94,102.0,91.0
732,24478,US,260757,,,Census,City,WI,"Oconomowoc, Wisconsin",0,0,0,0,0,0,0,699,1408,2174,2729,2880,3054,3301,4190.0,4562,5345,6682.0,8742.0,9909,10993,12383.0,15759.0
749,11038,US,138748,44.2330555556,-91.8622222222,Census,City,WI,"Buffalo City, Wisconsin",0,0,0,0,0,0,0,184,268,248,223,254,255,286,261.0,293,319,484.0,671.0,894,915,1040.0,1023.0
823,12879,US,139127,43.0141666667,-89.8955555556,Census,Village,WI,"Barneveld, Wisconsin",0,0,0,0,0,0,0,0,0,0,0,0,317,289,301.0,358,373,420.0,528.0,579,660,1088.0,1231.0
825,8859,US,139174,44.3219444444,-91.1213888889,Census,Village,WI,"Taylor, Wisconsin",0,0,0,0,0,0,0,0,0,54,0,0,0,313,339.0,314,350,334.0,322.0,411,419,513.0,476.0
836,10055,US,151318,43.5075,-90.6702777778,Census,Village,WI,"Viola, Wisconsin",0,0,0,0,0,0,0,0,0,0,0,432,671,858,699.0,825,785,721.0,659.0,696,644,667.0,699.0
846,12940,US,90929,44.3,-91.35,Census,US County,WI,"Trempealeau County, Wisconsin",0,0,0,0,0,0,0,2560,10732,17189,18920,23114,22928,24506,23910.0,24381,23730,23377.0,23344.0,26158,25263,27010.0,28816.0
924,13899,US,139014,44.8041666667,-91.4422222222,Census,City,WI,"Altoona, Wisconsin",0,0,0,0,0,0,0,0,0,0,805,721,824,960,1044.0,1239,1713,2114.0,2842.0,4393,5889,6698.0,6706.0
965,12198,US,139326,45.0327777778,-90.0763888889,Census,Village,WI,"Athens, Wisconsin",0,0,0,0,0,0,0,0,0,0,0,0,904,940,936.0,856,823,770.0,856.0,988,951,1095.0,1105.0
988,15297,US,260601,43.3191666667,-87.9316666667,Census,Village,WI,"Grafton, Wisconsin",0,0,0,0,0,0,0,0,0,415,434,478,818,898,1065.0,1150,1489,3748.0,5998.0,8381,9340,10312.0,11459.0
1014,17453,US,260292,45.5358333333,-92.0233333333,Census,City,WI,"Cumberland, Wisconsin",0,0,0,0,0,0,0,0,0,246,1219,1328,1445,1528,1532.0,1539,1872,1860.0,1839.0,1983,2163,2280.0,2170.0
1030,12948,US,138921,43.0786111111,-89.4452777778,Census,Village,WI,"Shorewood Hills, Wisconsin",0,0,0,0,0,0,0,0,0,0,0,0,0,0,347.0,1064,1594,2320.0,2206.0,1837,1680,1732.0,1565.0
1046,14012,US,138841,44.5611111111,-90.5958333333,Census,City,WI,"Neillsville, Wisconsin",0,0,0,0,0,0,0,0,0,1050,1936,2104,1957,2160,2118.0,2562,2663,2728.0,2750.0,2780,2680,2731.0,2463.0
1049,14631,US,260726,42.6330555556,-88.6436111111,Census,city,WI,"Delavan, Wisconsin",0,0,0,0,0,0,0,1549,1688,1798,2038,2244,2450,3016,3301.0,3444,4007,4846.0,5526.0,5684,6073,7956.0,8463.0
1070,9566,US,260284,45.4241666667,-92.0919444444,Census,Village,WI,"Almena, Wisconsin",0,0,0,0,0,0,0,0,0,0,0,0,0,0,0.0,0,406,398.0,423.0,526,625,720.0,677.0
1073,9454,US,260766,44.4711111111,-89.1558333333,Census,Village,WI,"Scandinavia, Wisconsin",0,0,0,0,0,0,0,0,0,94,0,320,355,373,350.0,295,286,266.0,268.0,292,298,349.0,363.0
1092,10103,US,260665,43.5830555556,-90.1297222222,Census,Village,WI,"La Valle, Wisconsin",0,0,0,0,0,0,0,0,0,306,333,386,421,447,415.0,408,448,417.0,411.0,412,446,326.0,367.0
1144,16339,US,90992,46.63,-91.18,Census,US County,WI,"Bayfield County, Wisconsin",0,0,0,0,0,0,489,353,344,564,7390,14392,15987,17201,15006.0,15827,13760,11910.0,11683.0,13822,14008,15013.0,15014.0
1148,13131,US,138886,43.3183333333,-90.8466666667,Census,Village,WI,"Gays Mills, Wisconsin",0,0,0,0,0,0,0,0,0,0,0,0,557,652,579.0,737,662,634.0,623.0,627,578,625.0,491.0
1209,13065,US,260780,44.0713888889,-89.2897222222,Census,City,WI,"Wautoma, Wisconsin",0,0,0,0,0,0,0,0,0,295,0,0,964,1046,1044.0,1180,1376,1466.0,1624.0,1629,1784,1998.0,2218.0
1256,9819,US,260316,44.4569444444,-91.9738888889,Census,Village,WI,"Nelson, Wisconsin",0,0,0,0,0,0,0,0,0,0,0,0,0,0,0.0,0,0,0.0,0.0,389,388,395.0,374.0
1300,9783,US,138786,44.14,-88.1622222222,Census,Village,WI,"Hilbert, Wisconsin",0,0,0,0,0,0,0,0,0,0,0,497,572,614,519.0,607,648,736.0,896.0,1176,1211,1089.0,1132.0
1321,18718,US,90973,42.86,-90.71,Census,US County,WI,"Grant County, Wisconsin",0,0,0,0,0,3926,16169,31189,37979,37852,36651,38881,39007,39044,38469.0,40639,41460,44419.0,48398.0,51736,49264,49597.0,51208.0
1322,6288,US,139792,45.0819444444,-92.3269444444,Census,Town,WI,"Emerald, Wisconsin",0,0,0,0,0,0,0,0,0,0,0,0,0,0,0.0,0,0,0.0,0.0,0,0,0.0,853.0
1425,33192,US,139385,45.1,-87.6305555556,Census,City,WI,"Marinette, Wisconsin",0,0,0,0,0,0,0,0,0,5412,11523,16195,14610,13610,13734.0,14183,14178,13329.0,12696.0,11965,11843,11749.0,10968.0
1428,16673,US,260376,43.0602777778,-89.5716666667,Census,City,WI,"Middleton, Wisconsin",0,0,0,0,0,0,0,0,285,295,0,0,679,791,983.0,1358,2110,4410.0,8246.0,11851,13289,15770.0,17442.0
1438,10799,US,151299,45.0022222222,-90.3319444444,Census,Village,WI,"Dorchester, Wisconsin",0,0,0,0,0,0,0,0,0,244,350,0,476,519,400.0,456,457,504.0,491.0,613,697,827.0,876.0
1444,12883,US,139416,42.9630555556,-87.9958333333,Census,City,WI,"Greenfield, Wisconsin",0,0,0,0,0,0,0,0,0,0,0,0,0,0,0.0,0,0,17636.0,24424.0,31353,33403,35476.0,36720.0
1448,10402,US,139796,45.0572222222,-92.17,Census,City,WI,"Glenwood City, Wisconsin",0,0,0,0,0,0,0,0,0,0,0,1789,954,779,771.0,811,778,835.0,822.0,950,1026,1183.0,1242.0
1473,10577,US,139704,43.4608333333,-89.8658333333,Census,Village,WI,"North Freedom, Wisconsin",0,0,0,0,0,0,0,0,0,0,316,485,647,621,554.0,547,611,579.0,596.0,616,591,649.0,701.0
1481,12540,US,139705,43.2775,-90.0444444444,Census,Village,WI,"Plain, Wisconsin",0,0,0,0,0,0,0,0,0,0,0,0,0,324,331.0,405,512,677.0,688.0,676,691,792.0,773.0
1529,9367,US,138814,45.2544444444,-91.4141666667,Census,Town,WI,"Sampson, Wisconsin",0,0,0,0,0,0,0,0,0,0,0,0,0,0,0.0,0,0,0.0,0.0,0,817,816.0,892.0
1530,11428,US,260631,45.4119444444,-92.6388888889,Census,City,WI,"St. Croix Falls, Wisconsin",0,0,0,0,0,0,0,0,288,216,745,622,569,825,952.0,1007,1065,1249.0,1425.0,1497,1640,2033.0,2133.0
1569,22795,US,90952,43.0,-87.96713,Census,US County,WI,"Milwaukee County, Wisconsin",0,0,0,0,0,0,31077,62518,89930,138537,236101,330017,433187,539449,725263.0,766885,871047,1036041.0,1054063.0,964988,959275,940164.0,947735.0
1579,5824,US,139010,45.0819444444,-92.075,Census,Town,WI,"Tiffany, Wisconsin",0,0,0,0,0,0,0,0,0,0,0,0,0,0,0.0,0,0,0.0,0.0,0,594,633.0,618.0
1595,12600,US,260321,45.7722222222,-92.3575,Census,Village,WI,"Siren, Wisconsin",0,0,0,0,0,0,0,0,0,0,0,0,0,0,0.0,0,613,679.0,639.0,896,863,988.0,806.0
1638,11716,US,90920,44.48,-88.97,Census,US County,WI,"Waupaca County, Wisconsin",0,0,0,0,0,0,0,8851,15539,20955,26794,31615,32782,34200,33513.0,34614,35056,35340.0,37780.0,42831,46104,51731.0,52410.0
1655,10354,US,138672,46.3241666667,-90.6591666667,Census,City,WI,"Mellen, Wisconsin",0,0,0,0,0,0,0,0,0,0,0,0,1833,1981,1629.0,1598,1306,1182.0,1168.0,1046,935,845.0,731.0
1659,11076,US,151313,43.1802777778,-87.9047222222,Census,Village,WI,"Bayside, Wisconsin",0,0,0,0,0,0,0,0,0,0,0,0,0,0,0.0,0,0,3181.0,4461.0,4724,4789,4518.0,4389.0
1668,11048,US,140030,44.64,-90.1072222222,Census,Village,WI,"Hewitt, Wood County, Wisconsin",0,0,0,0,0,0,0,0,0,0,0,0,0,0,0.0,0,0,0.0,0.0,470,595,670.0,828.0
1688,14296,US,151297,44.9466666667,-90.3183333333,Census,City,WI,"Abbotsford, Wisconsin",0,0,0,0,0,0,0,0,0,0,0,443,947,782,781.0,920,1013,1171.0,1375.0,1901,1916,1956.0,2310.0
1696,19073,US,260596,43.2883333333,-87.9875,Census,City,WI,"Cedarburg, Wisconsin",0,0,0,0,0,0,0,0,0,945,1361,1626,1777,1738,2055.0,2245,2810,5191.0,7697.0,9005,9895,10908.0,11412.0
1725,14059,US,139183,43.0791666667,-88.7711111111,Census,Village,WI,"Johnson Creek, Wisconsin",0,0,0,0,0,0,0,0,0,208,176,0,425,493,457.0,511,575,686.0,790.0,1136,1259,1581.0,2738.0
1739,11840,US,260536,44.2380555556,-87.6411111111,Census,Village,WI,"Mishicot, Wisconsin",0,0,0,0,0,0,0,0,0,159,0,0,0,0,0.0,0,0,762.0,938.0,1503,1296,1422.0,1442.0
1740,12317,US,139146,46.4291666667,-90.2388888889,Census,City,WI,"Montreal, Wisconsin",0,0,0,0,0,0,0,0,0,0,0,0,0,1890,1819.0,1700,1439,1361.0,877.0,887,838,838.0,807.0
1759,13895,US,138745,44.635,-88.0708333333,Census,Village,WI,"Suamico, Wisconsin",0,0,0,0,0,0,0,0,0,0,0,0,0,0,0.0,0,0,0.0,0.0,0,0,0.0,11346.0
1801,10385,US,139706,43.4777777778,-89.9169444444,Census,Village,WI,"Rock Springs, Wisconsin",0,0,0,0,0,0,0,0,0,163,332,430,444,542,470.0,395,442,463.0,432.0,426,432,425.0,362.0
1855,10426,US,139231,42.5216666667,-88.2627777778,Census,Village,WI,"Twin Lakes, Wisconsin",0,0,0,0,0,0,0,0,0,0,0,0,0,0,0.0,409,637,1497.0,2276.0,3474,3989,5124.0,5989.0
1867,9823,US,139575,44.5913888889,-89.7644444444,Census,Village,WI,"Junction City, Wisconsin",0,0,0,0,0,0,0,0,0,39,0,0,0,275,275.0,308,330,381.0,396.0,523,502,440.0,439.0
1931,9540,US,139663,45.4572222222,-91.2730555556,Census,Village,WI,"Bruce, Wisconsin",0,0,0,0,0,0,0,0,0,0,0,0,565,561,548.0,596,867,815.0,799.0,905,844,787.0,779.0
2025,12869,US,90994,46.71,-90.56,Census,US County,WI,"Ashland County, Wisconsin",0,0,0,0,0,0,0,515,221,1559,20063,20176,21965,24538,21054.0,21801,19461,17375.0,16743.0,16783,16307,16866.0,16157.0
2138,10905,US,260613,44.7325,-92.48,Census,Village,WI,"Ellsworth, Wisconsin",0,0,0,0,0,0,0,0,0,432,670,1052,1005,1043,1124.0,1340,1475,1701.0,1983.0,2143,2706,2909.0,3284.0
2178,27473,US,151304,42.8361111111,-89.0730555556,Census,City,WI,"Edgerton, Wisconsin",0,0,0,0,0,0,0,0,0,869,1595,2192,2513,2688,2906.0,3266,3507,4000.0,4118.0,4335,4254,4933.0,5461.0
2254,19468,US,90978,44.73,-91.29,Census,US County,WI,"Eau Claire County, Wisconsin",0,0,0,0,0,0,0,3162,10769,19993,30673,31692,32721,35771,41087.0,46999,54187,58300.0,67219.0,78805,85183,93142.0,98736.0
2258,13393,US,260708,45.3269444444,-90.1558333333,Census,Village,WI,"Rib Lake, Wisconsin",0,0,0,0,0,0,0,0,0,0,0,0,1018,1020,1180.0,1042,853,794.0,782.0,945,887,878.0,910.0
2286,13080,US,260313,44.34,-91.9244444444,Census,City,WI,"Alma, Wisconsin",0,0,0,0,0,0,0,0,565,1244,1428,1201,1011,970,1009.0,1139,1068,1008.0,956.0,848,790,942.0,781.0
2328,10169,US,139553,45.3572222222,-92.6344444444,Census,Village,WI,"Dresser, Wisconsin",0,0,0,0,0,0,0,0,0,0,0,0,0,0,285.0,294,365,498.0,533.0,670,614,732.0,895.0
2331,6632,US,139251,43.9125,-91.0961111111,USA,Town,WI,"Hamilton, Wisconsin",0,0,0,0,0,0,0,0,0,0,0,0,0,0,0.0,0,0,0.0,0.0,0,2149,2301.0,2561.0
2338,18698,US,260573,43.985,-90.5038888889,Census,City,WI,"Tomah, Wisconsin",0,0,0,0,0,0,0,0,837,1245,2199,2840,3419,3257,3354.0,3817,4760,5321.0,5647.0,7204,7570,8419.0,9093.0
2391,12202,US,139844,44.0836111111,-91.3536111111,Census,City,WI,"Galesville, Wisconsin",0,0,0,0,0,0,0,0,1068,410,537,862,973,952,1069.0,1147,1193,1199.0,1162.0,1239,1278,1427.0,1481.0
2538,10921,US,90942,45.68,-90.36,Census,US County,WI,"Price County, Wisconsin",0,0,0,0,0,0,0,0,0,785,5258,9106,13795,18517,17284.0,18467,16344,14370.0,14520.0,15788,15600,15822.0,14159.0
2541,11077,US,90956,45.34,-88.0,Census,US County,WI,"Marinette County, Wisconsin",0,0,0,0,0,0,0,0,0,8929,20304,30822,33812,34361,33530.0,36225,35748,34660.0,35810.0,39314,40548,43384.0,41749.0
2552,9787,US,138796,44.9519444444,-91.0391666667,Census,Village,WI,"Boyd, Wisconsin",0,0,0,0,0,0,0,0,0,0,545,674,527,478,540.0,618,619,622.0,574.0,660,683,680.0,552.0
2571,9266,US,260454,43.0636111111,-90.8230555556,Census,Village,WI,"Woodman, Wisconsin",0,0,0,0,0,0,0,0,0,111,0,0,0,138,101.0,108,149,112.0,102.0,116,120,96.0,132.0
2606,2946,US,139006,44.8069444444,-91.7416666667,Census,town,WI,"Spring Brook, Wisconsin",0,0,0,0,0,0,0,0,0,0,0,0,0,0,0.0,0,0,0.0,0.0,0,1293,1320.0,1558.0
2725,11635,US,260696,44.9975,-92.3288888889,Census,Village,WI,"Baldwin, Wisconsin",0,0,0,0,0,0,0,0,0,591,482,631,584,666,808.0,918,1100,1184.0,1399.0,1620,2022,2667.0,3957.0
2775,25664,US,90936,43.43,-89.94,Census,US County,WI,"Sauk County, Wisconsin",0,0,0,0,0,102,4371,18963,23860,28729,30575,33006,32869,32548,32030.0,33700,38120,36179.0,39057.0,43469,46975,55225.0,61976.0
2805,7953,US,139896,42.5416666667,-88.3527777778,Census,Town,WI,"Bloomfield, Walworth County, Wisconsin",0,0,0,0,0,0,0,0,0,0,0,0,0,0,0.0,0,0,0.0,0.0,0,0,0.0,0.0
2811,11464,US,260499,42.9686111111,-88.6088888889,Census,Village,WI,"Sullivan, Wisconsin",0,0,0,0,0,0,0,0,0,0,0,0,0,320,323.0,286,349,418.0,467.0,434,432,688.0,669.0
2820,9942,US,260778,44.1991666667,-89.5377777778,Census,Village,WI,"Plainfield, Wisconsin",0,0,0,0,0,0,0,0,0,348,459,728,723,580,537.0,571,680,660.0,642.0,813,839,899.0,862.0
2858,7040,US,138794,45.165,-91.6188888889,Census,Town,WI,"Auburn, Chippewa County, Wisconsin",0,0,0,0,0,0,0,0,0,0,0,0,0,0,0.0,0,0,0.0,0.0,0,474,580.0,697.0
2874,10407,US,260723,42.615,-88.7205555556,Census,Village,WI,"Darien, Wisconsin",0,0,0,0,0,0,0,0,0,427,354,0,0,0,0.0,0,0,805.0,839.0,1152,1158,1572.0,1580.0
2931,11494,US,260441,42.9822222222,-90.6530555556,Census,City,WI,"Fennimore, Wisconsin",0,0,0,0,0,0,0,0,0,295,616,1035,1159,1383,1341.0,1592,1696,1747.0,1861.0,2212,2378,2387.0,2497.0
2947,10084,US,139953,43.1455555556,-88.5258333333,Census,Village,WI,"Lac La Belle, Wisconsin",0,0,0,0,0,0,0,0,0,0,0,0,0,0,0.0,66,174,276.0,227.0,289,258,329.0,290.0
3012,9667,US,139900,42.5441666667,-88.5661111111,Census,Village,WI,"Fontana-on-Geneva Lake, Wisconsin",0,0,0,0,0,0,0,0,0,0,0,0,0,0,385.0,461,726,1326.0,1464.0,1764,1635,1754.0,1672.0
3024,6301,US,258274,44.8338888889,-91.3744444444,Census,Town,WI,"Seymour, Eau Claire County, Wisconsin",0,0,0,0,0,0,0,0,0,0,0,0,0,0,570.0,1283,1248,1879.0,2217.0,2599,2757,2978.0,3209.0
3055,14146,US,90982,43.42,-88.71,Census,US County,WI,"Dodge County, Wisconsin",0,0,0,0,0,67,19138,42818,47035,45931,44984,46631,47436,49742,52092.0,54280,57611,63170.0,69004.0,75064,76559,85897.0,88759.0
3075,13973,US,151303,43.0041666667,-89.0172222222,Census,Village,WI,"Cambridge, Wisconsin",0,0,0,0,0,0,0,0,0,303,452,0,507,490,500.0,577,552,605.0,689.0,844,963,1101.0,1457.0
3077,10446,US,138735,44.5136111111,-88.1430555556,Census,Village,WI,"Hobart, Wisconsin",0,0,0,0,0,0,0,0,0,0,0,0,0,0,0.0,0,0,0.0,0.0,0,0,5090.0,6182.0
3095,9921,US,90923,45.9,-91.79,Census,US County,WI,"Washburn County, Wisconsin",0,0,0,0,0,0,0,0,0,0,2926,5521,8196,11377,11103.0,12496,11665,10301.0,10601.0,13174,13772,16036.0,15911.0
3132,16881,US,139960,42.9791666667,-88.1091666667,Census,City,WI,"New Berlin, Wisconsin",0,0,0,0,0,0,0,0,0,0,0,0,0,0,0.0,0,0,15788.0,26910.0,30529,33592,38193.0,39584.0
3143,11578,US,545398,44.2519444444,-91.495,Census,City,WI,"Arcadia, Wisconsin",0,0,0,0,0,0,0,0,0,665,659,1273,1212,1418,1499.0,1830,1949,2084.0,2159.0,2109,2166,2402.0,2925.0
3146,13759,US,139817,45.165,-90.8097222222,Census,Village,WI,"Gilman, Taylor County, Wisconsin",0,0,0,0,0,0,0,0,0,0,0,0,0,522,414.0,440,402,379.0,328.0,436,412,474.0,410.0
3149,9756,US,139719,45.6686111111,-91.2430555556,Census,Village,WI,"Exeland, Wisconsin",0,0,0,0,0,0,0,0,0,0,0,0,0,211,196.0,194,211,214.0,189.0,219,180,212.0,196.0
3163,10751,US,260791,44.65,-90.0355555556,Census,Village,WI,"Auburndale, Wisconsin",0,0,0,0,0,0,0,0,0,0,253,241,297,334,294.0,342,325,396.0,468.0,641,665,738.0,703.0
3228,13079,US,139197,43.7419444444,-90.2697222222,Census,City,WI,"Elroy, Wisconsin",0,0,0,0,0,0,0,0,0,663,1413,1685,1729,1713,1546.0,1850,1654,1505.0,1513.0,1504,1533,1578.0,1442.0
3234,11018,US,90949,45.7,-89.52,Census,US County,WI,"Oneida County, Wisconsin",0,0,0,0,0,0,0,0,0,0,5010,8875,11433,13996,15899.0,18938,20648,22112.0,24427.0,31216,31679,36776.0,35998.0
3242,15178,US,90957,44.9,-89.76,Census,US County,WI,"Marathon County, Wisconsin",0,0,0,0,0,0,508,2892,5885,17121,30369,43256,55054,65259,70629.0,75915,80337,88874.0,97457.0,111270,115400,125834.0,134063.0
3269,9115,US,138983,46.5819444444,-91.7936111111,Census,Village,WI,"Poplar, Wisconsin",0,0,0,0,0,0,0,0,0,0,0,0,0,357,449.0,462,489,475.0,455.0,569,516,552.0,603.0
3293,19995,US,138798,44.9333333333,-91.4,Census,City,WI,"Chippewa Falls, Wisconsin",0,0,0,0,0,0,0,0,2507,3982,8670,8094,8893,9130,9539.0,10368,11088,11708.0,12351.0,12270,12727,12925.0,13661.0
3440,20364,US,139181,42.9272222222,-88.8405555556,Census,City,WI,"Fort Atkinson, Wisconsin",0,0,0,0,0,0,334,0,2010,1969,2283,3043,3877,4915,5793.0,6153,6280,7908.0,9164.0,9785,10227,11621.0,12368.0
3445,9566,US,260567,43.8852777778,-89.4897222222,Census,Village,WI,"Westfield, Wisconsin",0,0,0,0,0,0,0,0,0,283,500,0,729,858,769.0,851,935,919.0,884.0,1033,1125,1217.0,1254.0
3454,10516,US,139123,43.7058333333,-88.9883333333,Census,City,WI,"Markesan, Wisconsin",0,0,0,0,0,0,0,0,0,361,475,706,802,959,872.0,912,1010,1060.0,1285.0,1446,1496,1396.0,1476.0
3511,9444,US,139619,42.7825,-87.7741666667,Census,Village,WI,"Wind Point, Wisconsin",0,0,0,0,0,0,0,0,0,0,0,0,0,0,0.0,0,0,463.0,1251.0,1695,1941,1853.0,1723.0
3669,3730,US,38650980,42.5488888889,-88.3522222222,Census,Village,WI,"Bloomfield (village), Wisconsin",0,0,0,0,0,0,0,0,0,0,0,0,0,0,0.0,0,0,0.0,0.0,0,0,0.0,0.0
3681,14281,US,260378,42.9044444444,-89.4297222222,Census,Village,WI,"Oregon, Wisconsin",0,0,0,0,0,0,0,0,0,527,595,697,712,871,857.0,1005,1341,1701.0,2553.0,3876,4519,7514.0,9231.0
3738,16686,US,139412,43.1602777778,-87.9038888889,Census,Village,WI,"Fox Point, Wisconsin",0,0,0,0,0,0,0,0,0,0,0,0,0,0,474.0,1180,2585,7315.0,7939.0,7649,7238,7012.0,6701.0
3752,10532,US,151306,42.9008333333,-90.4316666667,Census,Village,WI,"Livingston, Wisconsin",0,0,0,0,0,0,0,0,0,28,0,0,0,545,470.0,520,452,488.0,503.0,642,576,597.0,664.0
3772,3244,US,260417,44.6447222222,-90.9866666667,Census,town,WI,"Fairchild (town), Wisconsin",0,0,0,0,0,0,0,0,0,0,0,0,0,0,0.0,0,0,0.0,0.0,0,312,351.0,343.0
3803,10146,US,138884,43.3416666667,-91.0838888889,Census,Village,WI,"Ferryville, Wisconsin",0,0,0,0,0,0,0,0,0,0,0,0,0,203,266.0,306,216,194.0,183.0,227,154,174.0,176.0
3830,13090,US,139948,43.0147222222,-88.4725,Census,Village,WI,"Dousman, Wisconsin",0,0,0,0,0,0,0,0,0,0,0,0,0,235,256.0,272,328,410.0,451.0,1153,1277,1584.0,2302.0
3831,9638,US,260555,45.0688888889,-88.0477777778,Census,Village,WI,"Pound, Wisconsin",0,0,0,0,0,0,0,0,0,0,0,0,0,228,246.0,310,354,273.0,284.0,407,434,355.0,377.0
3891,9428,US,138966,45.1872222222,-87.1238888889,Census,Village,WI,"Sister Bay, Wisconsin",0,0,0,0,0,0,0,0,0,0,0,0,0,190,238.0,309,429,520.0,483.0,564,675,886.0,876.0
3908,9595,US,139377,45.0697222222,-88.0341666667,Census,Village,WI,"Coleman, Wisconsin",0,0,0,0,0,0,0,0,0,0,0,0,436,305,407.0,562,668,718.0,683.0,852,839,716.0,724.0
4039,14198,US,139258,43.8997222222,-91.0866666667,Census,Village,WI,"West Salem, Wisconsin",0,0,0,0,0,0,0,0,0,432,542,725,840,1027,1011.0,1254,1376,1707.0,2180.0,3276,3611,4540.0,4799.0
4051,11440,US,139784,43.6755555556,-87.9466666667,Census,Village,WI,"Waldo, Wisconsin",0,0,0,0,0,0,0,0,0,110,0,0,0,0,315.0,324,367,403.0,408.0,416,442,450.0,503.0
4092,5744,US,139808,44.9905555556,-92.5555555556,Census,Town,WI,"Warren, St. Croix County, Wisconsin",0,0,0,0,0,0,0,0,0,0,0,0,0,0,0.0,0,0,0.0,0.0,0,0,0.0,1591.0
4106,16084,US,90941,42.78,-87.76,Census,US County,WI,"Racine County, Wisconsin",0,0,0,0,0,3475,14973,21360,26740,30922,36268,45644,57424,78961,90217.0,94047,109585,141781.0,170838.0,173132,175034,188831.0,195408.0
4158,9235,US,260662,43.5213888889,-90.1469444444,Census,Village,WI,"Ironton, Wisconsin",0,0,0,0,0,0,0,0,0,232,237,0,0,199,184.0,213,176,167.0,195.0,206,200,250.0,253.0
4168,12341,US,139956,43.1788888889,-88.1172222222,Census,Village,WI,"Menomonee Falls, Wisconsin",0,0,0,0,0,0,0,0,0,366,422,687,919,1019,1291.0,1469,2469,18276.0,31697.0,27845,26840,32647.0,35626.0
4229,10332,US,139976,44.6708333333,-88.7033333333,Census,Village,WI,"Embarrass, Wisconsin",0,0,0,0,0,0,0,0,0,61,0,270,283,296,256.0,335,303,306.0,472.0,496,461,399.0,404.0
4266,9782,US,260711,44.1911111111,-91.2494444444,Census,Village,WI,"Ettrick, Wisconsin",0,0,0,0,0,0,0,0,0,0,0,0,0,0,0.0,0,415,479.0,463.0,462,461,521.0,524.0
4274,10887,US,139422,42.9697222222,-87.8766666667,Census,City,WI,"St. Francis, Wisconsin",0,0,0,0,0,0,0,0,0,0,0,0,0,0,0.0,0,0,10065.0,10460.0,10095,9245,8662.0,9363.0
4353,8825,US,138807,44.9811111111,-91.1575,Census,Town,WI,"Goetz, Wisconsin",0,0,0,0,0,0,0,0,0,0,0,0,0,0,0.0,0,0,0.0,0.0,0,640,695.0,762.0
4376,9360,US,139580,44.52,-89.5463888889,Census,Village,WI,"Park Ridge, Wisconsin",0,0,0,0,0,0,0,0,0,0,0,0,0,0,0.0,210,314,504.0,817.0,643,546,488.0,491.0
4392,9167,US,139825,45.0833333333,-90.7166666667,Census,Village,WI,"Lublin, Wisconsin",0,0,0,0,0,0,0,0,0,0,0,0,0,209,159.0,148,161,160.0,143.0,142,129,110.0,118.0
4409,13137,US,260465,43.8427777778,-88.9577777778,Census,City,WI,"Green Lake, Wisconsin",0,0,0,0,0,0,0,0,0,241,204,450,563,456,569.0,661,728,953.0,1109.0,1208,1064,1100.0,960.0
4445,8924,US,138918,42.9725,-89.0338888889,Census,Village,WI,"Rockdale, Wisconsin",0,0,0,0,0,0,0,0,0,0,0,0,0,139,135.0,136,161,191.0,172.0,200,235,214.0,214.0
4453,13388,US,260607,44.6286111111,-91.9616666667,Census,City,WI,"Durand, Wisconsin",0,0,0,0,0,0,0,0,0,642,1154,1458,1503,1517,1590.0,1858,1961,2039.0,2103.0,2047,2003,1968.0,1931.0
4478,16106,US,139904,42.5925,-88.4344444444,Census,City,WI,"Lake Geneva, Wisconsin",0,0,0,0,0,0,0,1097,997,1969,2297,2585,3079,2632,3073.0,3238,4300,4929.0,4890.0,5612,5979,7148.0,7651.0
4520,12005,US,151310,42.5036111111,-88.3261111111,Census,Village,WI,"Genoa City, Wisconsin",0,0,0,0,0,0,0,0,0,303,0,0,709,656,683.0,715,866,1005.0,1085.0,1202,1277,1949.0,3042.0
4542,10134,US,140010,44.1769444444,-89.2461111111,Census,Village,WI,"Wild Rose, Wisconsin",0,0,0,0,0,0,0,0,0,25,0,0,551,576,512.0,559,582,594.0,585.0,741,676,765.0,725.0
4562,10419,US,139738,44.8625,-88.9808333333,Census,Village,WI,"Bowler, Wisconsin",0,0,0,0,0,0,0,0,0,0,0,0,0,0,318.0,315,344,274.0,272.0,339,279,343.0,302.0
4585,11943,US,139610,42.7177777778,-87.8863888889,Census,Village,WI,"Mount Pleasant, Wisconsin",0,0,0,0,0,0,0,0,0,0,0,0,0,0,0.0,0,0,0.0,0.0,19340,20084,23142.0,26197.0
4597,11201,US,139021,44.7630555556,-91.2761111111,Census,Village,WI,"Fall Creek, Wisconsin",0,0,0,0,0,0,0,0,0,0,0,0,523,507,528.0,572,584,710.0,825.0,1148,1034,1236.0,1315.0
4632,10533,US,139049,43.7411111111,-88.8688888889,Census,Village,WI,"Fairwater, Wisconsin",0,0,0,0,0,0,0,0,0,0,0,0,0,0,301.0,293,311,330.0,373.0,310,302,350.0,371.0
4685,13160,US,260437,43.1363888889,-90.7041666667,Census,City,WI,"Boscobel, Wisconsin",0,0,0,0,0,0,0,0,1509,1428,1570,1637,1525,1670,1762.0,2008,2347,2608.0,2510.0,2662,2706,3047.0,3231.0
4701,11828,US,139041,43.7355555556,-88.7822222222,Census,Village,WI,"Brandon, Wisconsin",0,0,0,0,0,0,0,0,0,601,660,663,684,682,646.0,708,728,758.0,872.0,862,872,912.0,879.0
4726,10345,US,260502,43.1836111111,-88.99,Census,City,WI,"Waterloo, Wisconsin",0,0,0,0,0,0,0,0,727,719,862,1137,1220,1262,1272.0,1474,1667,1947.0,2253.0,2393,2712,3259.0,3333.0
4747,18539,US,260590,44.2833333333,-88.2666666667,Census,City,WI,"Kaukauna, Wisconsin",0,0,0,0,0,0,0,0,0,834,4667,5115,4717,5951,6581.0,7382,8337,10096.0,11308.0,11310,11982,12983.0,15462.0
4882,8424,US,138806,45.1738888889,-91.1211111111,Census,Town,WI,"Estella, Wisconsin",0,0,0,0,0,0,0,0,0,0,0,0,0,0,0.0,0,0,0.0,0.0,0,449,469.0,433.0
4887,15455,US,90968,46.33,-90.26,Census,US County,WI,"Iron County, Wisconsin",0,0,0,0,0,0,0,0,0,0,0,6616,8306,10261,9933.0,10049,8714,7830.0,6533.0,6730,6153,6861.0,5916.0
4889,9884,US,139810,44.9491666667,-92.2891666667,Census,Village,WI,"Woodville, Wisconsin",0,0,0,0,0,0,0,0,0,0,0,0,0,298,403.0,408,410,430.0,522.0,725,942,1104.0,1344.0
4951,10893,US,139056,43.8102777778,-88.4822222222,Census,Village,WI,"North Fond du Lac, Wisconsin",0,0,0,0,0,0,0,0,0,0,0,0,1960,2150,2244.0,2083,2291,2549.0,3286.0,3844,4292,4557.0,5014.0
4976,14427,US,139378,45.2338888889,-88.0069444444,Census,Village,WI,"Crivitz, Wisconsin",0,0,0,0,0,0,0,0,0,0,0,0,0,0,0.0,0,0,0.0,0.0,1041,996,998.0,984.0
4983,5888,US,139787,45.1672222222,-92.3463888889,Census,Town,WI,"Cylon, Wisconsin",0,0,0,0,0,0,0,0,0,0,0,0,0,0,0.0,0,0,0.0,0.0,0,0,0.0,683.0
5004,11881,US,260290,45.3186111111,-91.6544444444,Census,City,WI,"Chetek, Wisconsin",0,0,0,0,0,0,0,0,0,0,406,531,829,1154,1076.0,1227,1585,1729.0,1630.0,1931,1953,2180.0,2221.0
5122,10916,US,260629,45.3225,-92.6986111111,Census,Village,WI,"Osceola, Wisconsin",0,0,0,0,0,0,0,0,0,311,384,466,634,674,607.0,642,700,942.0,1152.0,1581,2075,2421.0,2568.0
5162,6993,US,138989,44.7247222222,-92.05,Census,Town,WI,"Eau Galle, Dunn County, Wisconsin",0,0,0,0,0,0,0,0,0,0,0,0,0,0,0.0,0,0,0.0,0.0,0,854,797.0,757.0
5181,7194,US,139357,45.0305555556,-89.6722222222,Census,Village,WI,"Maine, Marathon County, Wisconsin",0,0,0,0,0,0,0,0,0,0,0,0,0,0,0.0,0,0,0.0,0.0,0,0,2407.0,2337.0
5229,12163,US,152244,44.9311111111,-89.2097222222,Census,Village,WI,"Birnamwood, Wisconsin",0,0,0,0,0,0,0,0,0,0,0,475,678,651,557.0,556,561,568.0,632.0,688,693,795.0,818.0
5250,20549,US,260661,43.4680555556,-89.7416666667,Census,City,WI,"Baraboo, Wisconsin",0,0,0,0,0,0,255,1360,1528,3266,4605,5751,6324,5538,5545.0,6415,7264,7660.0,7931.0,8081,9203,10711.0,12048.0
5260,17389,US,260617,44.8586111111,-92.625,Census,City,WI,"River Falls, Wisconsin",0,0,0,0,0,0,0,272,741,1499,1783,2008,1991,2273,2363.0,2806,3877,4857.0,7238.0,9019,10610,12560.0,15000.0
5293,5814,US,139255,43.8572222222,-91.1852777778,USA,Town,WI,"Medary, Wisconsin",0,0,0,0,0,0,0,0,0,0,0,0,0,0,0.0,0,0,0.0,0.0,2333,1794,1463.0,1461.0
5341,9728,US,139945,42.8877777778,-88.2113888889,Census,Village,WI,"Big Bend, Waukesha County, Wisconsin",0,0,0,0,0,0,0,0,0,0,0,0,0,0,309.0,298,480,797.0,1148.0,1345,1299,1278.0,1290.0
5350,10509,US,260350,43.5777777778,-89.0541666667,Census,Village,WI,"Randolph, Wisconsin",0,0,0,0,0,0,0,0,61,421,405,738,937,1183,1161.0,1146,1350,1507.0,1582.0,1691,1729,1869.0,1811.0
5409,5626,US,139957,42.8658333333,-88.3338888889,Census,Town,WI,"Mukwonago (town), Wisconsin",0,0,0,0,0,0,0,0,0,0,0,0,0,0,0.0,0,0,0.0,0.0,4979,5967,6868.0,7959.0
5481,12037,US,138977,46.5127777778,-91.7002777778,Census,Village,WI,"Lake Nebagamon, Wisconsin",0,0,0,0,0,0,0,0,0,0,0,0,483,458,367.0,357,340,346.0,523.0,780,900,1015.0,1069.0
5540,18371,US,90980,46.45,-91.91,Census,US County,WI,"Douglas County, Wisconsin",0,0,0,0,0,0,0,812,1122,655,13468,36335,47422,49771,46583.0,47119,46715,45008.0,44657.0,44421,41758,43287.0,44159.0
5545,10884,US,260340,44.9808333333,-90.73,Census,Village,WI,"Withee, Wisconsin",0,0,0,0,0,0,0,0,0,0,0,0,443,380,380.0,329,421,442.0,480.0,509,503,508.0,487.0
5607,8492,US,260444,42.9808333333,-90.8344444444,Census,Village,WI,"Mount Hope, Wisconsin",0,0,0,0,0,0,0,0,0,75,0,0,0,215,256.0,256,232,218.0,176.0,197,173,186.0,225.0
5617,6133,US,138998,44.8911111111,-91.8444444444,Census,Town,WI,"Red Cedar, Wisconsin",0,0,0,0,0,0,0,0,0,0,0,0,0,0,0.0,0,0,0.0,0.0,0,1417,1673.0,2086.0
5745,9127,US,139230,42.6213888889,-87.8713888889,Census,Village and Town,WI,"Somers, Wisconsin",0,0,0,0,0,0,0,0,0,0,0,0,0,0,0.0,0,0,0.0,0.0,0,0,0.0,0.0
5793,9809,US,138793,45.0716666667,-91.155,Census,Town,WI,"Arthur, Wisconsin",0,0,0,0,0,0,0,0,0,0,0,0,0,0,0.0,0,0,0.0,0.0,0,756,710.0,759.0
5796,11482,US,90967,44.32,-90.81,Census,US County,WI,"Jackson County, Wisconsin",0,0,0,0,0,0,0,4170,7687,13285,15797,17466,17075,17746,16468.0,16599,16073,15151.0,15325.0,16831,16588,19100.0,20449.0
5853,12330,US,90939,43.38,-90.43,Census,US County,WI,"Richland County, Wisconsin",0,0,0,0,0,0,903,9732,15731,18174,19121,19483,18809,19823,19525.0,20381,19245,17684.0,17079.0,17476,17521,17924.0,18021.0
5894,10258,US,139113,42.7486111111,-89.5919444444,Census,Village,WI,"Monticello, Green County, Wisconsin",0,0,0,0,0,0,0,0,0,156,407,559,671,677,644.0,716,792,789.0,870.0,1021,1140,1146.0,1217.0
5962,5801,US,139028,44.8369444444,-91.0063888889,Census,Town,WI,"Wilson, Eau Claire County, Wisconsin",0,0,0,0,0,0,0,0,0,0,0,0,0,0,0.0,0,0,0.0,513.0,516,477,420.0,485.0
6105,12736,US,90943,44.48,-89.5,Census,US County,WI,"Portage County, Wisconsin",0,0,0,0,0,1623,1250,7507,10634,17731,24798,29483,30945,33649,33827.0,35800,34858,36964.0,47541.0,57420,61405,67182.0,70019.0
6153,10479,US,545431,45.1022222222,-91.4916666667,Census,City,WI,"Bloomer, Wisconsin",0,0,0,0,0,0,0,0,0,304,631,811,1204,1648,1865.0,2204,2556,2834.0,3143.0,3342,3085,3347.0,3539.0
6181,6358,US,139964,42.9736111111,-88.4622222222,Census,Town,WI,"Ottawa, Wisconsin",0,0,0,0,0,0,0,0,0,0,0,0,0,0,0.0,0,0,0.0,0.0,2795,2988,3758.0,3859.0
6187,8941,US,138999,45.2041666667,-91.8975,Census,Village,WI,"Ridgeland, Wisconsin",0,0,0,0,0,0,0,0,0,0,0,0,0,0,197.0,242,273,288.0,266.0,300,246,265.0,273.0
6302,9713,US,260484,42.9930555556,-89.9805555556,Census,Village,WI,"Ridgeway, Wisconsin",0,0,0,0,0,0,0,0,0,0,0,0,437,428,365.0,431,410,455.0,463.0,503,577,689.0,653.0
6430,13118,US,138958,45.1563888889,-87.1711111111,Census,Village,WI,"Ephraim, Wisconsin",0,0,0,0,0,0,0,0,0,0,0,0,0,196,191.0,254,244,221.0,236.0,319,261,353.0,288.0
6442,12277,US,260412,44.9027777778,-91.7080555556,Census,Village,WI,"Elk Mound, Wisconsin",0,0,0,0,0,0,0,0,0,48,0,0,302,357,376.0,338,390,379.0,471.0,737,765,785.0,878.0
6472,11004,US,90951,43.95,-90.62,Census,US County,WI,"Monroe County, Wisconsin",0,0,0,0,0,0,0,8410,16550,21607,23211,28103,28881,28666,28739.0,30080,31378,31241.0,31610.0,35074,36633,40899.0,44673.0
6516,10306,US,260443,42.5572222222,-90.4830555556,Census,Village,WI,"Hazel Green, Wisconsin",0,0,0,0,0,0,0,0,723,598,426,442,621,647,601.0,582,635,807.0,982.0,1282,1171,1183.0,1256.0
6540,4619,US,39034158,44.2266666667,-88.3333333333,Census,Village,WI,"Harrison (village), Wisconsin",0,0,0,0,0,0,0,0,0,0,0,0,0,0,0.0,0,0,0.0,0.0,0,0,0.0,0.0
6546,10570,US,138750,44.2277777778,-91.8358333333,Census,Village,WI,"Cochrane, Wisconsin",0,0,0,0,0,0,0,0,0,0,0,0,0,305,418.0,458,444,455.0,506.0,512,475,435.0,450.0
6566,14193,US,139798,45.1197222222,-92.5391666667,Census,City,WI,"New Richmond, Wisconsin",0,0,0,0,0,0,0,0,0,729,1408,1631,1988,2248,2112.0,2388,2886,3316.0,3707.0,4306,5106,6310.0,8375.0
6575,10974,US,90919,44.11,-89.24,Census,US County,WI,"Waushara County, Wisconsin",0,0,0,0,0,0,0,8770,11279,12687,13507,15972,18886,16712,14427.0,14268,13920,13497.0,14795.0,18526,19385,23154.0,24496.0
6589,10626,US,138859,43.3852777778,-89.0458333333,Census,Village,WI,"Fall River, Wisconsin",0,0,0,0,0,0,126,0,259,0,0,0,360,400,375.0,425,479,584.0,633.0,850,842,1097.0,1712.0
6647,6660,US,139027,44.77,-91.4208333333,Census,Town,WI,"Washington, Eau Claire County, Wisconsin",0,0,0,0,0,0,0,0,0,0,0,0,0,0,0.0,0,0,0.0,0.0,0,6226,6995.0,7182.0
6690,8729,US,138792,45.0166666667,-91.2775,Census,Town,WI,"Anson, Wisconsin",0,0,0,0,0,0,0,0,0,0,0,0,0,0,0.0,0,0,0.0,0.0,0,1634,1881.0,2076.0
6783,10653,US,260539,44.8111111111,-89.2711111111,Census,Village,WI,"Elderon, Wisconsin",0,0,0,0,0,0,0,0,0,0,0,0,0,215,181.0,249,212,177.0,185.0,191,175,189.0,179.0
6793,9680,US,152243,43.9061111111,-90.9183333333,Census,Village,WI,"Rockland, La Crosse County, Wisconsin",0,0,0,0,0,0,0,0,0,0,0,0,0,164,190.0,171,216,257.0,278.0,383,509,628.0,594.0
6929,10229,US,139454,44.0277777778,-90.3858333333,Census,Village,WI,"Wyeville, Wisconsin",0,0,0,0,0,0,0,0,0,0,0,0,0,0,140.0,219,195,220.0,203.0,163,154,146.0,147.0
6970,11391,US,139616,42.6852777778,-88.0494444444,Census,Village,WI,"Union Grove, Wisconsin",0,0,0,0,0,0,0,0,0,412,432,520,616,729,755.0,971,1358,1970.0,2703.0,3517,3669,4322.0,4915.0
6973,10963,US,90974,45.67,-88.78,Census,US County,WI,"Forest County, Wisconsin",0,0,0,0,0,0,0,0,0,0,1012,1396,6782,9850,11118.0,11805,9437,7542.0,7691.0,9044,8776,10024.0,9304.0
7009,8603,US,138813,45.2452777778,-90.975,Census,Town,WI,"Ruby, Wisconsin",0,0,0,0,0,0,0,0,0,0,0,0,0,0,0.0,0,0,0.0,0.0,0,464,446.0,494.0
7047,11403,US,260594,43.4941666667,-87.8591666667,Census,Village,WI,"Belgium, Wisconsin",0,0,0,0,0,0,0,0,0,0,0,0,0,0,268.0,356,460,643.0,809.0,892,928,1678.0,2245.0
7098,7286,US,260753,42.8789,-88.4715,Census,Town,WI,"Eagle (town), Wisconsin",0,0,0,0,0,0,0,0,0,0,0,0,0,0,0.0,0,0,0.0,0.0,1758,2028,3117.0,3507.0
7126,9964,US,151293,45.2038888889,-91.5616666667,Census,Village,WI,"New Auburn, Wisconsin",0,0,0,0,0,0,0,0,0,0,0,0,364,386,376.0,398,371,383.0,368.0,466,485,562.0,548.0
7127,5429,US,139800,44.8994444444,-92.4633333333,Census,Town,WI,"Pleasant Valley, St. Croix County, Wisconsin",0,0,0,0,0,0,0,0,0,0,0,0,0,0,0.0,0,0,0.0,0.0,0,0,0.0,515.0
7153,10278,US,139855,44.3666666667,-91.3163888889,Census,City,WI,"Whitehall, Wisconsin",0,0,0,0,0,0,0,0,0,267,304,600,703,851,915.0,1035,1379,1446.0,1486.0,1530,1494,1651.0,1558.0
7180,29978,US,288141,46.7068805556,-92.0852555556,Census,City,WI,"Superior, Wisconsin",0,0,0,0,0,0,0,0,0,0,11983,31091,40384,39671,36133.0,35136,35325,33563.0,32237.0,29571,27134,27368.0,27244.0
7216,10419,US,139741,44.8702777778,-89.2147222222,Census,Village,WI,"Eland, Wisconsin",0,0,0,0,0,0,0,0,0,0,0,0,368,344,319.0,296,232,213.0,229.0,230,247,251.0,202.0
7239,11671,US,139367,44.8816666667,-89.6205555556,Census,Village,WI,"Rothschild, Wisconsin",0,0,0,0,0,0,0,0,0,0,0,0,0,413,499.0,812,1425,2550.0,3141.0,3338,3310,4970.0,5269.0
7248,12275,US,260713,44.0436111111,-91.4511111111,Census,Village,WI,"Trempealeau, Wisconsin",0,0,0,0,0,0,0,0,0,615,0,609,535,536,541.0,527,645,704.0,743.0,956,1039,1319.0,1529.0
7249,10250,US,260335,44.7375,-90.4966666667,Census,City,WI,"Loyal, Wisconsin",0,0,0,0,0,0,0,0,0,46,0,645,677,735,862.0,921,1104,1146.0,1126.0,1252,1244,1308.0,1261.0
7253,5729,US,139018,44.6441666667,-91.3422222222,Census,Town,WI,"Clear Creek, Wisconsin",0,0,0,0,0,0,0,0,0,0,0,0,0,0,0.0,0,0,0.0,0.0,0,692,712.0,821.0
7263,9687,US,139430,43.7430555556,-90.7816666667,Census,Village,WI,"Cashton, Wisconsin",0,0,0,0,0,0,0,0,0,45,0,510,568,753,680.0,706,836,828.0,824.0,827,780,1005.0,1102.0
7278,16130,US,152241,43.6316666667,-88.7358333333,Census,City,WI,"Waupun, Wisconsin",0,0,0,0,0,0,0,1736,1935,2353,2757,3185,3362,4440,5768.0,6798,6725,7935.0,7946.0,8132,8207,10718.0,11340.0
7316,13055,US,260637,44.4544444444,-89.5836111111,Census,Village,WI,"Plover, Wisconsin",0,0,0,0,0,0,0,0,0,412,319,0,0,0,0.0,0,0,0.0,0.0,5310,8176,10520.0,12123.0
7346,20644,US,260482,42.8602777778,-90.1830555556,Census,City,WI,"Mineral Point, Wisconsin",0,0,0,0,0,0,0,2389,3275,2915,2694,2991,2925,2569,2274.0,2275,2284,2385.0,2305.0,2259,2428,2617.0,2487.0
7454,9132,US,260353,43.1577777778,-90.9972222222,Census,Village,WI,"Eastman, Wisconsin",0,0,0,0,0,0,0,0,0,0,0,0,233,286,271.0,348,359,348.0,319.0,371,369,437.0,428.0
7462,10301,US,260683,45.8208333333,-91.0111111111,Census,Village,WI,"Winter, Wisconsin",0,0,0,0,0,0,0,0,0,0,0,0,0,0,0.0,0,0,0.0,0.0,376,383,344.0,313.0
7467,19720,US,260748,43.0580555556,-88.1147222222,Census,City,WI,"Brookfield, Wisconsin",0,0,0,0,0,0,0,0,0,0,0,0,0,0,0.0,0,0,19812.0,31761.0,34035,35184,38649.0,37920.0
7475,17433,US,260706,45.1380555556,-90.3452777778,Census,City,WI,"Medford, Wisconsin",0,0,0,0,0,0,0,0,0,504,1193,1758,1846,1881,1918.0,2361,2799,3260.0,3454.0,4035,4283,4350.0,4326.0
7500,9870,US,260718,43.6527777778,-90.3413888889,Census,City,WI,"Hillsboro, Wisconsin",0,0,0,0,0,0,0,0,0,195,461,785,804,950,972.0,1146,1341,1366.0,1231.0,1263,1288,1302.0,1417.0
7505,10587,US,139567,44.4694444444,-89.3169444444,Census,Village,WI,"Amherst Junction, Wisconsin",0,0,0,0,0,0,0,0,0,49,0,0,0,192,210.0,197,185,131.0,141.0,225,269,305.0,377.0
7510,11824,US,138651,43.9716666667,-89.8186111111,Census,Village,WI,"Friendship, Wisconsin",0,0,0,0,0,0,0,0,76,137,156,0,276,442,438.0,453,566,560.0,641.0,744,728,698.0,725.0
7576,10615,US,260598,43.4683333333,-87.9516666667,Census,Village,WI,"Fredonia, Wisconsin",0,0,0,0,0,0,0,0,0,0,0,0,0,0,312.0,356,471,710.0,1045.0,1437,1558,1934.0,2160.0
7595,18354,US,260720,43.5566666667,-90.8877777778,Census,City,WI,"Viroqua, Wisconsin",0,0,0,0,0,0,0,0,0,762,1270,1950,2059,2574,2792.0,3549,3795,3926.0,3739.0,3716,3922,4335.0,4362.0
7611,10016,US,139740,44.8094444444,-88.4522222222,Census,Village,WI,"Cecil, Wisconsin",0,0,0,0,0,0,0,0,0,0,0,0,351,379,356.0,370,395,357.0,369.0,445,373,466.0,570.0
7634,20154,US,260673,43.5338888889,-90.0027777778,Census,City,WI,"Reedsburg, Wisconsin",0,0,0,0,0,0,0,461,547,1331,1737,2225,2615,2997,2967.0,3608,4072,4371.0,4585.0,5038,5834,7827.0,9200.0
7640,12370,US,260506,43.6666666667,-90.2333333333,Census,Village,WI,"Wonewoc, Wisconsin",0,0,0,0,0,0,0,0,0,635,619,811,789,798,717.0,793,961,878.0,835.0,842,793,834.0,816.0
7661,13931,US,260734,45.7258333333,-91.6088888889,Census,Village,WI,"Birchwood, Wisconsin",0,0,0,0,0,0,0,0,0,0,0,0,0,0,565.0,531,502,433.0,394.0,437,443,518.0,442.0
7717,11777,US,138726,44.4736111111,-88.025,Census,Village,WI,"Allouez, Wisconsin",0,0,0,0,0,0,0,0,0,0,0,0,0,0,0.0,0,0,0.0,0.0,0,14431,15443.0,13975.0
7732,10190,US,139778,43.6241666667,-87.7977777778,Census,Village,WI,"Oostburg, Wisconsin",0,0,0,0,0,0,0,0,0,0,0,0,380,497,671.0,742,895,1065.0,1309.0,1647,1931,2660.0,2887.0
7763,9020,US,139665,45.3847222222,-91.0358333333,Census,Village,WI,"Conrath, Wisconsin",0,0,0,0,0,0,0,0,0,0,0,0,0,145,97.0,128,114,121.0,114.0,86,92,98.0,95.0
7768,12012,US,260471,43.8502777778,-89.1297222222,Census,City,WI,"Princeton, Wisconsin",0,0,0,0,0,0,0,0,705,961,986,1202,1269,1275,1183.0,1247,1371,1509.0,1446.0,1479,1458,1504.0,1214.0
7778,12181,US,138941,43.4063888889,-88.7033333333,Census,City,WI,"Juneau, Wisconsin",0,0,0,0,0,0,0,0,300,454,701,891,1003,1159,1154.0,1301,1444,1718.0,2043.0,2045,2157,2485.0,2814.0
7815,13307,US,138938,43.45,-88.65,Census,City,WI,"Horicon, Wisconsin",0,0,0,0,0,0,0,0,0,1250,1354,1376,1881,2134,2214.0,2253,2664,2996.0,3356.0,3584,3873,3775.0,3655.0
7822,5452,US,138992,45.0802777778,-91.9402777778,Census,Town,WI,"Hay River, Wisconsin",0,0,0,0,0,0,0,0,0,0,0,0,0,0,0.0,0,0,0.0,0.0,0,510,546.0,558.0
7830,9066,US,139965,43.0544444444,-88.4638888889,Census,Village,WI,"Summit, Waukesha County, Wisconsin",0,0,0,0,0,0,0,0,0,0,0,0,0,0,0.0,0,0,0.0,0.0,0,0,0.0,0.0
7848,10556,US,260398,43.5058333333,-88.4591666667,Census,Village,WI,"Theresa, Wisconsin",0,0,0,0,0,0,0,0,0,277,0,355,345,381,427.0,418,461,576.0,611.0,766,771,1252.0,1262.0
7895,14419,US,139958,42.9012361111,-88.1246388889,Census,City,WI,"Muskego, Wisconsin",0,0,0,0,0,0,0,0,0,0,0,0,0,0,0.0,0,0,8858.0,11573.0,15277,16813,21397.0,24135.0
7939,12586,US,260418,44.6252777778,-91.0005555556,Census,Village,WI,"Fairchild, Wisconsin",0,0,0,0,0,0,0,0,0,304,645,947,678,704,1007.0,1098,1120,1016.0,1020.0,714,504,564.0,550.0
7986,8023,US,138795,45.2383333333,-91.2213888889,Census,Town,WI,"Birch Creek, Wisconsin",0,0,0,0,0,0,0,0,0,0,0,0,0,0,0.0,0,0,0.0,0.0,0,500,520.0,517.0
8020,9916,US,139201,43.8786111111,-90.2697222222,Census,Village,WI,"Hustler, Wisconsin",0,0,0,0,0,0,0,0,0,0,0,0,0,163,161.0,167,194,177.0,190.0,170,156,113.0,194.0
8054,9723,US,139987,44.4522222222,-89.0330555556,Census,Village,WI,"Ogdensburg, Wisconsin",0,0,0,0,0,0,0,0,0,0,0,0,0,237,176.0,207,221,181.0,206.0,214,220,224.0,185.0
8141,11275,US,90935,45.9,-91.14,Census,US County,WI,"Sawyer County, Wisconsin",0,0,0,0,0,0,0,0,0,0,1977,3593,6227,8243,8878.0,11540,10323,9475.0,9670.0,12843,14181,16196.0,16557.0
8162,12401,US,90944,45.46,-92.44,Census,US County,WI,"Polk County, Wisconsin",0,0,0,0,0,0,0,1400,3422,10018,12968,17801,21367,26870,26567.0,26197,24944,24968.0,26666.0,32351,34773,41319.0,44205.0
8196,10619,US,139155,44.4380555556,-90.9119444444,Census,Village,WI,"Alma Center, Wisconsin",0,0,0,0,0,0,0,0,0,170,0,0,417,461,383.0,431,441,464.0,495.0,454,416,446.0,503.0
8222,12785,US,25796409,42.5588888889,-88.0491666667,Census,Village,WI,"Bristol (village), Wisconsin",0,0,0,0,0,0,0,0,0,0,0,0,0,0,0.0,0,0,0.0,0.0,0,0,0.0,2584.0
8225,11197,US,260688,44.8233333333,-89.1569444444,Census,Village,WI,"Wittenberg, Wisconsin",0,0,0,0,0,0,0,0,0,0,726,798,1090,854,863.0,900,874,892.0,895.0,997,1145,1177.0,1081.0
8231,11333,US,139417,42.9413888889,-88.0511111111,Census,Village,WI,"Hales Corners, Wisconsin",0,0,0,0,0,0,0,0,0,0,0,0,0,0,0.0,0,0,5549.0,7771.0,7110,7623,7765.0,7692.0
8266,8896,US,138803,44.9666666667,-91.0,Census,Town,WI,"Delmar, Wisconsin",0,0,0,0,0,0,0,0,0,0,0,0,0,0,0.0,0,0,0.0,0.0,0,994,941.0,936.0
8300,14529,US,139930,45.7336111111,-91.9175,Census,City,WI,"Shell Lake, Wisconsin",0,0,0,0,0,0,0,0,0,0,0,0,902,920,826.0,872,954,1016.0,928.0,1135,1161,1309.0,1347.0
8310,8891,US,260295,45.2519444444,-91.9775,Census,Village,WI,"Prairie Farm, Wisconsin",0,0,0,0,0,0,0,0,0,80,0,0,368,299,301.0,335,343,350.0,426.0,387,494,508.0,473.0
8327,10183,US,152249,44.6725,-88.8863888889,Census,City,WI,"Marion, Wisconsin",0,0,0,0,0,0,0,0,0,161,470,602,798,875,992.0,1034,1118,1200.0,1218.0,1348,1242,1297.0,1260.0
8372,11321,US,152236,44.6691666667,-88.2369444444,Census,Village,WI,"Pulaski, Wisconsin",0,0,0,0,0,0,0,0,0,0,0,0,436,718,839.0,979,1210,1540.0,1717.0,1875,2200,3060.0,3539.0
8394,12004,US,139531,44.7788888889,-92.1491666667,Census,Village,WI,"Elmwood, Wisconsin",0,0,0,0,0,0,0,0,0,0,0,0,585,632,737.0,828,772,776.0,737.0,885,775,841.0,817.0
8403,18179,US,260345,43.3388888889,-89.0152777778,Census,City,WI,"Columbus, Wisconsin",0,0,0,0,0,0,288,892,1888,1876,1977,2349,2523,2460,2514.0,2760,3250,3467.0,3789.0,4049,4093,4479.0,4991.0
8446,18043,US,139420,43.0919444444,-87.8863888889,Census,Village,WI,"Shorewood, Wisconsin",0,0,0,0,0,0,0,0,0,0,0,0,707,2650,13479.0,15184,16199,15990.0,15576.0,14327,14116,13763.0,13162.0
8466,62360,US,151296,44.8166666667,-91.5,Census,City,WI,"Eau Claire, Wisconsin",0,0,0,0,0,0,0,0,2293,10119,17415,17517,18310,20906,26287.0,30745,36058,37987.0,44619.0,51509,56856,61704.0,65883.0
8476,7384,US,260513,43.9336111111,-91.2591666667,USA,Town,WI,"Onalaska (town), Wisconsin",0,0,0,0,0,0,0,0,0,0,0,0,0,0,0.0,0,0,0.0,0.0,0,4679,5210.0,5623.0
8482,9980,US,260614,44.5711111111,-92.2436111111,Census,Village,WI,"Maiden Rock, Wisconsin",0,0,0,0,0,0,0,0,0,319,343,304,337,293,311.0,291,269,189.0,172.0,172,146,121.0,119.0
8574,11669,US,260579,44.9852777778,-88.0561111111,Census,Village,WI,"Lena, Wisconsin",0,0,0,0,0,0,0,0,0,0,0,0,0,0,413.0,469,526,506.0,569.0,585,590,510.0,564.0
8749,34851,US,260534,44.0963888889,-87.675,Census,City,WI,"Manitowoc, Wisconsin",0,0,0,0,0,0,0,3059,5168,6367,7710,11786,13027,17563,22963.0,24404,27598,32275.0,33430.0,32547,32520,34053.0,33736.0
8759,25376,US,95063,42.5083333333,-89.0316666667,Census,city,WI,"Beloit, Wisconsin",0,0,0,0,0,0,0,4098,4396,4790,6315,10436,15125,21284,23611.0,25365,29590,32846.0,35729.0,35207,35573,35775.0,36966.0
8814,9807,US,139870,43.5766666667,-90.6383333333,Census,Village,WI,"La Farge, Wisconsin",0,0,0,0,0,0,0,0,0,0,0,488,654,788,756.0,921,905,833.0,748.0,746,766,775.0,746.0
8821,6576,US,139009,44.9772222222,-91.8494444444,Census,CDP,WI,"Tainter Lake, Wisconsin",0,0,0,0,0,0,0,0,0,0,0,0,0,0,0.0,0,0,0.0,0.0,0,1716,2089.0,2242.0
8846,12592,US,139914,42.5741666667,-88.5436111111,Census,Village,WI,"Williams Bay, Wisconsin",0,0,0,0,0,0,0,0,0,0,0,0,0,436,630.0,717,1118,1347.0,1554.0,1763,2108,2415.0,2564.0
8879,6286,US,139246,43.9522222222,-90.9663888889,USA,Town,WI,"Burns, Wisconsin",0,0,0,0,0,0,0,0,0,0,0,0,0,0,0.0,0,0,0.0,0.0,984,977,979.0,949.0
8921,6151,US,138801,45.0775,-91.5833333333,Census,Town,WI,"Cooks Valley, Wisconsin",0,0,0,0,0,0,0,0,0,0,0,0,0,0,0.0,0,0,0.0,0.0,0,594,632.0,805.0
9020,17608,US,90918,44.06,-88.64,Census,US County,WI,"Winnebago County, Wisconsin",0,0,0,0,0,135,10167,23770,37279,42740,50097,58225,62116,63897,76622.0,80507,91103,107928.0,129931.0,131703,140320,156763.0,166994.0
9074,12309,US,138797,44.9486111111,-91.1513888889,Census,Village,WI,"Cadott, Wisconsin",0,0,0,0,0,0,0,0,0,72,889,840,765,723,631.0,314,250,262.0,977.0,1247,1328,1345.0,1437.0
9104,10068,US,138790,44.1736111111,-88.2752777778,Census,Village,WI,"Sherwood, Wisconsin",0,0,0,0,0,0,0,0,0,0,0,0,0,0,0.0,0,0,0.0,350.0,372,837,1550.0,2713.0
9113,8965,US,139578,44.4930555556,-89.3122222222,Census,Village,WI,"Nelsonville, Wisconsin",0,0,0,0,0,0,0,0,0,0,0,0,0,187,198.0,180,188,170.0,152.0,199,171,191.0,155.0
9126,15286,US,260789,44.55,-90.03,Census,Village,WI,"Arpin, Wisconsin",0,0,0,0,0,0,0,0,0,0,0,0,0,0,0.0,0,0,0.0,0.0,361,312,337.0,333.0
9194,5355,US,139617,42.8288888889,-88.1975,Census,Census-designated place,WI,"Tichigan, Wisconsin",0,0,0,0,0,0,0,0,0,0,0,0,0,0,0.0,0,0,0.0,0.0,0,1604,4761.0,5133.0
9353,11389,US,138842,44.9483333333,-90.5647222222,Census,City,WI,"Owen, Wisconsin",0,0,0,0,0,0,0,0,0,0,0,0,745,1083,1102.0,1083,1034,1098.0,1031.0,998,895,936.0,940.0
9390,10180,US,260620,45.3266666667,-92.1730555556,Census,Village,WI,"Clayton (village), Wisconsin",0,0,0,0,0,0,0,0,0,0,0,0,220,304,341.0,367,350,324.0,306.0,425,450,507.0,571.0
9400,11561,US,260618,45.4506814,-92.4548533,Census,Village,WI,"Balsam Lake, Wisconsin",0,0,0,0,0,0,0,0,0,0,0,0,279,251,315.0,452,488,541.0,648.0,749,792,950.0,1009.0
9411,11343,US,138986,45.0433333333,-92.0402777778,Census,Village,WI,"Boyceville, Wisconsin",0,0,0,0,0,0,0,0,0,0,0,0,0,0,573.0,533,645,660.0,725.0,862,913,1043.0,1086.0
9439,9083,US,139668,45.4966666667,-90.8930555556,Census,Village,WI,"Glen Flora, Wisconsin",0,0,0,0,0,0,0,0,0,0,0,0,0,174,137.0,140,91,75.0,69.0,83,108,93.0,92.0
9450,11433,US,139075,42.9027777778,-91.1008333333,Census,Village,WI,"Bagley, Wisconsin",0,0,0,0,0,0,0,0,0,0,0,0,0,315,284.0,293,329,275.0,271.0,317,306,339.0,379.0
9531,12671,US,260306,46.6738888889,-90.8977777778,Census,City,WI,"Washburn, Wisconsin",0,0,0,0,0,0,0,0,0,0,3039,0,3830,3707,2238.0,2363,2070,1896.0,1957.0,2080,2285,2280.0,2117.0
9533,13213,US,139104,42.6186111111,-89.3763888889,Census,City,WI,"Brodhead, Wisconsin",0,0,0,0,0,0,0,0,1548,1254,1461,1584,1517,1600,1533.0,1750,2016,2444.0,2515.0,3153,3165,3180.0,3293.0
9587,12571,US,90993,45.42,-91.85,Census,US County,WI,"Barron County, Wisconsin",0,0,0,0,0,0,0,13,538,7024,15416,23677,29114,34281,34301.0,34289,34703,34270.0,33955.0,38730,40750,44963.0,45870.0
9628,11264,US,139942,43.3283333333,-88.2833333333,Census,Village,WI,"Slinger, Wisconsin",0,0,0,0,0,0,0,0,0,358,432,549,538,730,769.0,775,919,1161.0,1216.0,1612,2340,3901.0,5068.0
9664,10404,US,138685,45.408807,-91.742489,Census,Village,WI,"Cameron, Barron County, Wisconsin",0,0,0,0,0,0,0,0,0,0,0,394,562,572,760.0,807,963,982.0,893.0,1115,1273,1546.0,1783.0
9671,9049,US,260703,45.1675,-92.5869444444,Census,Village,WI,"Star Prairie, Wisconsin",0,0,0,0,0,0,0,0,0,0,0,0,253,265,250.0,250,288,331.0,362.0,420,507,574.0,561.0
9738,9420,US,260358,43.0830555556,-90.9311111111,Census,Village,WI,"Wauzeka, Wisconsin",0,0,0,0,0,0,0,0,0,0,0,471,476,479,519.0,513,564,494.0,437.0,580,595,768.0,711.0
9755,19402,US,9725836,44.2972222222,-90.8491666667,Census,City,WI,"Black River Falls, Wisconsin",0,0,0,0,0,0,0,570,1101,1427,2261,1938,1917,1796,1950.0,2539,2824,3195.0,3273.0,3434,3490,3618.0,3622.0
9788,21531,US,139225,42.5388888889,-87.8702777778,Census,Village,WI,"Pleasant Prairie, Wisconsin",0,0,0,0,0,0,0,0,0,0,0,0,0,0,0.0,0,0,0.0,0.0,0,11961,16136.0,19719.0
9792,21350,US,260451,42.7370694444,-90.4775027778,Census,City,WI,"Platteville, Wisconsin",0,0,0,0,0,0,0,0,2537,2687,2740,3340,4452,4353,4047.0,4762,5751,6957.0,9599.0,9580,9708,9989.0,11224.0
9850,22854,US,90917,44.45,-90.04,Census,US County,WI,"Wood County, Wisconsin",0,0,0,0,0,0,0,2425,3912,8981,18127,25865,30583,34643,37865.0,44465,50500,59105.0,65362.0,72799,73605,75555.0,74749.0
9855,13774,US,138940,43.3991666667,-88.5311111111,Census,Village,WI,"Iron Ridge, Wisconsin",0,0,0,0,0,0,0,0,0,138,0,0,0,287,260.0,273,341,419.0,480.0,766,887,998.0,929.0
9889,8465,US,139640,43.5388888889,-90.4272222222,Census,Village,WI,"Yuba, Wisconsin",0,0,0,0,0,0,0,0,0,0,0,0,0,0,0.0,116,119,91.0,79.0,72,77,92.0,74.0
9892,10136,US,139333,45.0283333333,-89.6563888889,Census,Village,WI,"Brokaw, Wisconsin",0,0,0,0,0,0,0,0,0,0,0,0,458,493,514.0,477,380,319.0,312.0,298,224,107.0,251.0
9902,12946,US,337470,45.0538888889,-87.7461111111,Census,City,WI,"Peshtigo, Wisconsin",0,0,0,0,0,0,0,0,0,0,1719,0,1975,1440,1579.0,1947,2279,2504.0,2836.0,2807,3154,3357.0,3502.0
9907,10761,US,139212,43.8769444444,-90.1658333333,Census,City,WI,"New Lisbon, Wisconsin",0,0,0,0,0,0,0,0,1221,1024,990,1014,1074,994,1076.0,1215,1482,1337.0,1361.0,1390,1491,1436.0,2554.0
9938,9660,US,260754,43.145,-88.3611111111,Census,Village,WI,"Merton, Wisconsin",0,0,0,0,0,0,0,0,0,210,0,0,0,0,232.0,254,343,407.0,646.0,1045,1199,1926.0,3346.0
9946,10871,US,260439,42.7153722222,-90.9905777778,Census,Village,WI,"Cassville, Wisconsin",0,0,0,0,0,0,0,0,551,610,886,979,890,899,875.0,956,984,1290.0,1343.0,1270,1144,1085.0,947.0
9989,13257,US,139673,45.4638888889,-91.1,Census,City,WI,"Ladysmith, Wisconsin",0,0,0,0,0,0,0,0,0,0,0,0,2352,3581,3493.0,3671,3924,3584.0,3674.0,3826,3938,3932.0,3414.0
10070,12819,US,260447,43.1747222222,-90.4722222222,Census,Village,WI,"Muscoda, Wisconsin",0,0,0,0,0,0,0,0,0,740,605,743,798,903,900.0,902,1046,927.0,1099.0,1331,1287,1453.0,1299.0
10075,12106,US,260516,42.7369444444,-89.9013888889,Census,Village,WI,"Argyle, Wisconsin",0,0,0,0,0,0,0,0,0,322,411,0,603,701,692.0,735,702,786.0,673.0,720,798,823.0,857.0
10083,10578,US,138876,43.3922222222,-89.4008333333,Census,Village,WI,"Poynette, Wisconsin",0,0,0,0,0,0,0,0,300,366,517,533,656,724,672.0,870,969,1090.0,1118.0,1447,1662,2266.0,2528.0
10094,10160,US,138906,43.0063888889,-89.4313888889,Census,City,WI,"Fitchburg, Wisconsin",0,0,0,0,0,0,0,0,0,0,0,0,0,0,0.0,0,0,0.0,0.0,0,15648,20501.0,25260.0
10116,10512,US,260337,44.9597222222,-90.8011111111,Census,City,WI,"Thorp, Wisconsin",0,0,0,0,0,0,0,0,0,0,723,838,741,796,892.0,1052,1383,1496.0,1469.0,1635,1657,1536.0,1621.0
10135,12617,US,260701,45.1416666667,-92.7025,Census,Village,WI,"Somerset, Wisconsin",0,0,0,0,0,0,0,0,0,77,0,0,0,406,480.0,476,531,729.0,778.0,860,1072,1556.0,2635.0
10220,15882,US,90933,43.72,-87.66,Census,County,WI,"Sheboygan County, Wisconsin",0,0,0,0,0,133,8379,26875,31749,34206,42489,50345,54888,59913,71235.0,76221,80631,86484.0,96660.0,100935,103877,112646.0,115507.0
10247,8796,US,139684,45.4811111111,-90.9947222222,Census,Village,WI,"Tony, Wisconsin",0,0,0,0,0,0,0,0,0,0,0,0,0,216,160.0,186,182,162.0,144.0,146,114,105.0,113.0
10288,15552,US,152233,44.5630555556,-88.0819444444,Census,Village,WI,"Howard, Wisconsin",0,0,0,0,0,0,0,0,0,0,0,0,0,0,0.0,0,0,3485.0,4911.0,8240,9874,13546.0,17399.0
10299,9832,US,139126,43.1838888889,-90.3252777778,Census,Village,WI,"Avoca, Wisconsin",0,0,0,0,0,0,0,0,418,362,278,406,436,432,342.0,417,424,363.0,421.0,505,474,608.0,637.0
10304,9805,US,151307,42.9713888889,-90.4330555556,Census,Village,WI,"Montfort, Wisconsin",0,0,0,0,0,0,0,0,0,64,407,627,558,598,554.0,615,576,538.0,518.0,616,676,663.0,718.0
10313,8280,US,139249,43.8572222222,-91.2627777778,USA,CDP,WI,"French Island, Wisconsin",0,0,0,0,0,0,0,0,0,0,0,0,0,0,0.0,0,0,0.0,0.0,0,0,4410.0,4207.0
10334,3110,US,260697,44.9788888889,-92.4358333333,Census,town,WI,"Hammond (town), Wisconsin",0,0,0,0,0,0,0,0,0,0,0,0,0,0,0.0,0,0,0.0,0.0,0,0,0.0,2102.0
10353,10668,US,260364,43.0713888889,-89.1858333333,Census,Village,WI,"Cottage Grove, Wisconsin",0,0,0,0,0,0,0,0,0,0,0,0,0,0,261.0,310,372,413.0,478.0,888,1131,4059.0,6192.0
10379,14499,US,90953,45.02,-88.7,Census,US County,WI,"Menominee County, Wisconsin",0,0,0,0,0,0,0,0,0,0,0,0,0,0,0.0,0,0,0.0,2607.0,3373,3890,4562.0,4232.0
10423,9771,US,139438,43.7938888889,-90.3691666667,Census,Village,WI,"Kendall, Monroe County, Wisconsin",0,0,0,0,0,0,0,0,0,282,304,460,477,506,517.0,478,558,528.0,468.0,486,453,469.0,472.0
10431,9971,US,260667,43.3644444444,-89.6908333333,Census,Village,WI,"Merrimac, Wisconsin",0,0,0,0,0,0,0,0,0,147,0,350,312,270,250.0,234,317,297.0,376.0,365,392,416.0,420.0
10439,12315,US,139510,44.2666666667,-88.3333333333,Census,Village,WI,"Kimberly, Wisconsin",0,0,0,0,0,0,0,0,0,0,0,0,600,1382,2256.0,2618,3179,5322.0,6131.0,5881,5406,6146.0,6468.0
10447,5334,US,138996,45.0744444444,-91.8344444444,Census,Town,WI,"Otter Creek, Dunn County, Wisconsin",0,0,0,0,0,0,0,0,0,0,0,0,0,0,0.0,0,0,0.0,0.0,0,339,474.0,501.0
10472,8510,US,260458,42.7055555556,-89.4358333333,Census,Village,WI,"Albany, Wisconsin",0,0,0,0,0,0,0,0,0,267,698,797,669,741,728.0,741,839,892.0,875.0,1051,1140,1191.0,1018.0
10541,23327,US,452473,45.1411111111,-89.1533333333,Census,City,WI,"Antigo, Wisconsin",0,0,0,0,0,0,0,0,0,0,4424,5145,7196,8451,8610.0,9495,9902,9691.0,9005.0,8653,8276,8560.0,8234.0
10563,32171,US,139512,44.2841666667,-88.3136111111,Census,Village,WI,"Little Chute, Wisconsin",0,0,0,0,0,0,0,0,0,0,380,944,1354,2017,2833.0,3360,4152,5099.0,5522.0,7907,9207,10476.0,10449.0
10569,9251,US,138802,45.1666666667,-91.1497222222,Census,City,WI,"Cornell, Wisconsin",0,0,0,0,0,0,0,0,0,0,0,0,0,1337,1510.0,1759,1944,1685.0,1616.0,1578,1541,1466.0,1467.0
10604,9325,US,139077,43.1869444444,-90.57,Census,Village,WI,"Blue River, Wisconsin",0,0,0,0,0,0,0,0,0,0,0,0,0,396,346.0,381,425,356.0,369.0,412,438,429.0,434.0
10681,10860,US,139653,42.6291666667,-89.2566666667,Census,Village,WI,"Orfordville, Wisconsin",0,0,0,0,0,0,0,0,0,153,0,0,449,496,502.0,510,543,665.0,888.0,1143,1219,1272.0,1442.0
10730,56865,US,139221,42.5822222222,-87.8455555556,Census,City,WI,"Kenosha, Wisconsin",0,0,0,0,0,0,3455,3990,4309,4039,6532,11606,21371,40472,50262.0,48765,54368,67899.0,78805.0,77685,80352,90352.0,99218.0
10798,15921,US,90932,45.04,-92.45,Census,US County,WI,"St. Croix County, Wisconsin",0,0,0,0,0,809,624,5392,11035,18956,23139,26830,25910,26106,25455.0,24842,25905,29164.0,34354.0,43262,50251,63155.0,84345.0
10883,13423,US,260452,42.7027777778,-90.7155555556,Census,Village,WI,"Potosi, Wisconsin",0,0,0,0,0,0,0,0,0,466,0,434,464,501,447.0,506,556,589.0,713.0,736,654,711.0,688.0
10951,8140,US,139805,45.0494444444,-92.7108333333,Census,Town,WI,"St. Joseph, Wisconsin",0,0,0,0,0,0,0,0,0,0,0,0,0,0,0.0,0,0,0.0,0.0,0,0,0.0,3842.0
10954,16057,US,260769,44.355,-89.0816666667,Census,City,WI,"Waupaca, Wisconsin",0,0,0,0,0,0,0,0,0,1392,2127,2912,2789,2839,3131.0,3458,3921,3984.0,4342.0,4472,4957,5676.0,6069.0
10962,14403,US,260542,44.7916666667,-89.7052777778,Census,City,WI,"Mosinee, Wisconsin",0,0,0,0,0,0,0,0,0,201,427,657,482,1161,1229.0,1361,1453,2067.0,2395.0,3015,3820,4063.0,3988.0
10968,10117,US,260473,43.1402777778,-89.9313888889,Census,Village,WI,"Arena, Wisconsin",0,0,0,0,0,0,0,0,0,266,354,0,0,0,273.0,278,296,309.0,377.0,451,525,685.0,834.0
11070,9526,US,138881,43.2919444444,-90.8305555556,Census,Village,WI,"Bell Center, Wisconsin",0,0,0,0,0,0,0,0,0,94,0,0,216,210,177.0,264,195,155.0,110.0,124,127,116.0,117.0
11120,10345,US,139876,43.6627777778,-91.2197222222,Census,Village,WI,"Stoddard, Wisconsin",0,0,0,0,0,0,0,0,0,0,0,0,343,305,316.0,368,459,552.0,750.0,762,775,815.0,774.0
11121,21273,US,90991,44.48,-87.99,Census,US County,WI,"Brown County, Wisconsin",0,0,0,0,0,2107,6215,11795,25168,34078,39164,46359,54098,61889,70249.0,83109,98314,125082.0,158244.0,175280,194594,226778.0,248007.0
11128,10627,US,260281,43.9572222222,-89.8175,Census,City,WI,"Adams, Wisconsin",0,0,0,0,0,0,0,0,0,0,0,0,0,1119,1231.0,1310,1425,1301.0,1440.0,1744,1715,1914.0,1967.0
11153,14023,US,139835,44.295,-91.23,Census,City,WI,"Blair, Wisconsin",0,0,0,0,0,0,0,0,0,184,0,438,486,657,702.0,856,873,909.0,1036.0,1142,1126,1273.0,1366.0
11161,10611,US,140045,44.4811111111,-89.9675,Census,Village,WI,"Vesper, Wisconsin",0,0,0,0,0,0,0,0,0,0,0,0,0,0,0.0,0,342,351.0,355.0,554,598,541.0,584.0
11171,9777,US,260507,44.5377777778,-87.5930555556,Census,Village,WI,"Casco, Wisconsin",0,0,0,0,0,0,0,0,0,0,0,0,0,0,246.0,292,389,460.0,481.0,484,544,572.0,583.0
11214,13827,US,138945,43.4969444444,-88.5477777778,Census,City,WI,"Mayville, Wisconsin",0,0,0,0,0,0,0,0,0,1051,1165,1815,2282,3011,2521.0,2754,3010,3607.0,4139.0,4333,4374,4902.0,5154.0
11228,30533,US,139520,43.2241666667,-87.96,Census,City,WI,"Mequon, Wisconsin",0,0,0,0,0,0,0,0,0,0,0,0,0,0,0.0,3068,4065,8543.0,15150.0,16193,18885,21823.0,23132.0
11269,10072,US,260588,44.4583333333,-88.4558333333,Census,Town,WI,"Black Creek (town), Wisconsin",0,0,0,0,0,0,0,0,528,1285,1377,1482,1006,950,843.0,854,880,884.0,968.0,0,1169,1268.0,1259.0
11377,12221,US,90984,43.23,-90.93,Census,US County,WI,"Crawford County, Wisconsin",0,0,0,0,0,1502,2498,8068,13075,15644,15987,17286,16288,16772,16781.0,18328,17652,16351.0,15252.0,16556,15940,17243.0,16644.0
11449,17199,US,90948,44.41,-88.46,Census,US County,WI,"Outagamie County, Wisconsin",0,0,0,0,0,0,0,9587,18430,28716,38690,46247,49102,55113,62790.0,70032,81722,101794.0,119356.0,128799,140510,160971.0,176695.0
11467,6684,US,139016,44.6863888889,-91.0666666667,Census,Town,WI,"Bridge Creek, Wisconsin",0,0,0,0,0,0,0,0,0,0,0,0,0,0,0.0,0,0,0.0,0.0,0,1440,1844.0,1900.0
11485,10324,US,139319,44.1538888889,-87.9555555556,Census,Village,WI,"Reedsville, Wisconsin",0,0,0,0,0,0,0,0,0,140,0,428,550,571,617.0,729,691,830.0,994.0,1134,1182,1187.0,1206.0
11523,17789,US,139424,43.0080555556,-88.0183333333,Census,City,WI,"West Allis, Wisconsin",0,0,0,0,0,0,0,0,0,0,0,0,6645,13745,34671.0,36364,42959,68157.0,71723.0,63982,63221,61254.0,60411.0
11526,10211,US,139080,42.6275,-90.5927777778,Census,Village,WI,"Dickeyville, Wisconsin",0,0,0,0,0,0,0,0,0,0,0,0,0,0,0.0,0,269,671.0,1057.0,1156,862,1043.0,1061.0
11538,10333,US,90959,45.33,-89.73,Census,US County,WI,"Lincoln County, Wisconsin",0,0,0,0,0,0,0,0,0,2011,12008,16269,19064,21084,21072.0,22536,22235,22338.0,23499.0,26555,26993,29641.0,28743.0
11593,5720,US,138995,45.1586111111,-92.1113888889,Census,Town,WI,"New Haven, Dunn County, Wisconsin",0,0,0,0,0,0,0,0,0,0,0,0,0,0,0.0,0,0,0.0,0.0,0,658,656.0,677.0
11607,9782,US,260564,43.7725,-89.5452777778,Census,Village,WI,"Oxford, Wisconsin",0,0,0,0,0,0,0,0,0,0,0,0,0,416,397.0,404,509,548.0,453.0,432,499,536.0,607.0
11635,12697,US,139984,44.4605555556,-88.9191666667,Census,City,WI,"Manawa, Wisconsin",0,0,0,0,0,0,0,0,0,364,350,744,820,727,711.0,791,990,1037.0,1105.0,1205,1169,1330.0,1371.0
11718,11360,US,260323,44.175,-88.0661111111,Census,City,WI,"Brillion, Wisconsin",0,0,0,0,0,0,0,0,0,278,582,855,998,1102,1167.0,1200,1390,1783.0,2588.0,2907,2840,2937.0,3148.0
11743,21508,US,141723,43.3183333333,-88.3788888889,Census,City,WI,"Hartford, Wisconsin",0,0,0,0,0,0,0,0,0,1343,1296,1632,2982,4515,3754.0,3910,2549,5627.0,6499.0,7159,8188,10978.0,14223.0
11744,10999,US,260520,42.5597222222,-90.3969444444,Census,Village,WI,"Benton, Wisconsin",0,0,0,0,0,0,0,0,0,254,414,546,652,874,869.0,835,842,837.0,873.0,983,898,976.0,973.0
11790,5713,US,139244,43.8375,-91.1030555556,USA,Town,WI,"Barre, Wisconsin",0,0,0,0,0,0,0,0,0,0,0,0,0,0,0.0,0,0,0.0,0.0,0,908,1014.0,1234.0
11825,8076,US,260448,42.9394638889,-90.9722916667,Census,Village,WI,"Patch Grove, Wisconsin",0,0,0,0,0,0,0,0,177,0,0,0,0,0,243.0,195,203,208.0,187.0,259,202,166.0,198.0
11851,12665,US,260794,44.2997222222,-89.9730555556,Census,Village,WI,"Port Edwards, Wisconsin",0,0,0,0,0,0,0,0,0,136,0,0,758,755,988.0,1192,1336,1849.0,2126.0,2077,1848,1944.0,1818.0
11910,9999,US,139368,44.9152777778,-89.6119444444,Census,City,WI,"Schofield, Wisconsin",0,0,0,0,0,0,0,0,0,0,0,0,889,1049,1287.0,1536,1948,3038.0,2577.0,2226,2415,2117.0,2169.0
11922,12444,US,138927,43.1872222222,-89.4522222222,Census,Village,WI,"Waunakee, Wisconsin",0,0,0,0,0,0,0,0,0,279,312,443,550,560,640.0,773,1042,1611.0,2181.0,3866,5897,8995.0,12097.0
12003,124956,US,33127,,,Census,US State,WI,Wisconsin,0,0,0,1444,3635,30945,305391,775881,1054670,1315457,1693330,2069042,2333860,2632067,2939006.0,3137587,3434575,3951777.0,4417731.0,4705767,4891769,5363675.0,5686986.0
12010,12203,US,260671,43.2788888889,-89.7877777778,Census,Village,WI,"Prairie du Sac, Wisconsin",0,0,0,0,0,0,0,0,0,433,562,656,699,866,949.0,1001,1402,1676.0,1902.0,2145,2380,3231.0,3972.0
12040,5616,US,139786,44.9047222222,-92.2016666667,Census,Town,WI,"Cady, Wisconsin",0,0,0,0,0,0,0,0,0,0,0,0,0,0,0.0,0,0,0.0,0.0,0,0,0.0,821.0
12105,6704,US,139256,43.7697222222,-91.1980555556,USA,Town,WI,"Shelby, Wisconsin",0,0,0,0,0,0,0,0,0,0,0,0,0,0,0.0,0,0,0.0,0.0,0,4435,4687.0,4715.0
12106,10156,US,139316,44.2763888889,-87.8072222222,Census,Village,WI,"Maribel, Wisconsin",0,0,0,0,0,0,0,0,0,0,0,0,0,0,0.0,0,0,0.0,316.0,363,372,264.0,351.0
12111,10350,US,138728,44.4638888889,-87.965,Census,Village,WI,"Bellevue, Wisconsin",0,0,0,0,0,0,0,0,0,0,0,0,0,0,0.0,0,0,0.0,0.0,0,0,0.0,14570.0
12143,11262,US,139768,43.7966666667,-88.0458333333,Census,Village,WI,"Glenbeulah, Wisconsin",0,0,0,0,0,0,0,0,0,375,0,0,0,298,284.0,357,384,428.0,496.0,423,386,378.0,463.0
12171,8420,US,138891,43.3161111111,-90.9286111111,Census,Village,WI,"Mount Sterling, Wisconsin",0,0,0,0,0,0,0,0,0,95,0,0,0,0,0.0,264,205,161.0,181.0,223,217,215.0,211.0
12178,5320,US,139013,45.1761111111,-91.8402777778,Census,Town,WI,"Wilson, Dunn County, Wisconsin",0,0,0,0,0,0,0,0,0,0,0,0,0,0,0.0,0,0,0.0,0.0,0,490,500.0,531.0
12180,21010,US,138875,43.55,-89.4666666667,Census,City,WI,"Portage, Wisconsin",0,0,0,0,0,0,603,2879,3945,4346,5143,5459,5440,5582,6308.0,7016,7334,7822.0,7821.0,7896,8640,9728.0,10324.0
12183,5428,US,139803,44.9016666667,-92.41,Census,Town,WI,"Rush River, Wisconsin",0,0,0,0,0,0,0,0,0,0,0,0,0,0,0.0,0,0,0.0,0.0,0,0,0.0,508.0
12357,9867,US,138808,44.8713888889,-91.3777777778,Census,Town,WI,"Hallie, Wisconsin",0,0,0,0,0,0,0,0,0,0,0,0,0,0,0.0,0,0,0.0,0.0,0,4531,4703.0,161.0
12371,11411,US,139414,43.13,-87.9277777778,Census,City,WI,"Glendale, Wisconsin",0,0,0,0,0,0,0,0,0,0,0,0,0,0,0.0,0,0,9537.0,13426.0,13882,14088,13367.0,12872.0
12485,12324,US,260382,42.9897222222,-89.5355555556,Census,City,WI,"Verona, Wisconsin",0,0,0,0,0,0,0,0,0,0,0,0,0,0,455.0,535,748,1471.0,2334.0,3336,5374,7052.0,10619.0
12496,18227,US,260738,45.8258333333,-91.8911111111,Census,City,WI,"Spooner, Wisconsin",0,0,0,0,0,0,0,0,0,0,0,0,1453,2293,2426.0,2639,2597,2398.0,2444.0,2365,2464,2653.0,2682.0
12524,3480,US,260410,44.9880555556,-91.7083333333,Census,town,WI,"Colfax (town), Wisconsin",0,0,0,0,0,0,0,0,0,0,0,0,0,0,0.0,0,0,0.0,0.0,0,691,909.0,1186.0
12574,12719,US,260634,44.4563888889,-89.3055555556,Census,Village,WI,"Amherst, Wisconsin",0,0,0,0,0,0,0,0,0,298,438,558,629,588,577.0,611,608,596.0,585.0,701,792,964.0,1035.0
12676,9069,US,139872,43.7233333333,-90.5919444444,Census,Village,WI,"Ontario, Wisconsin",0,0,0,0,0,0,0,0,0,179,0,389,304,311,330.0,533,527,448.0,392.0,398,407,476.0,554.0
12764,18254,US,138894,43.3958333333,-90.7722222222,Census,Village,WI,"Soldiers Grove, Wisconsin",0,0,0,0,0,0,0,0,0,196,0,680,667,653,710.0,77,781,663.0,514.0,622,564,653.0,592.0
12776,12279,US,260744,43.5141666667,-88.2233333333,Census,Village,WI,"Kewaskum, Wisconsin",0,0,0,0,0,0,0,0,0,471,557,679,625,707,799.0,880,1183,1572.0,1926.0,2394,2515,3274.0,4004.0
12782,9168,US,139253,43.9552777778,-91.2591666667,Census,Village,WI,"Holmen, Wisconsin",0,0,0,0,0,0,0,0,0,0,0,0,0,0,0.0,0,584,635.0,1081.0,2411,3220,6200.0,9005.0
12827,11842,US,139701,43.5966666667,-89.7877777778,Census,Village,WI,"Lake Delton, Wisconsin",0,0,0,0,0,0,0,0,0,0,0,0,0,0,0.0,0,0,714.0,1059.0,1158,1470,1982.0,2914.0
12841,38699,US,260645,42.6777777778,-88.2780555556,Census,City,WI,"Burlington, Wisconsin",0,0,0,0,0,0,0,993,1589,1611,2043,2256,3212,3626,4114.0,4414,4780,5856.0,7479.0,8385,8855,9936.0,10464.0
12848,9664,US,260562,43.9527777778,-89.2155555556,Census,Village,WI,"Neshkoro, Wisconsin",0,0,0,0,0,0,0,0,0,0,0,0,379,396,342.0,301,361,368.0,385.0,386,384,453.0,434.0
12910,11112,US,139630,43.1841666667,-90.1983333333,Census,Village,WI,"Lone Rock, Wisconsin",0,0,0,0,0,0,0,0,0,380,342,512,497,453,424.0,502,570,563.0,506.0,577,641,929.0,888.0
12995,5464,US,139257,43.7641666667,-90.9805555556,USA,Town,WI,"Washington, La Crosse County, Wisconsin",0,0,0,0,0,0,0,0,0,0,0,0,0,0,0.0,0,0,0.0,0.0,711,726,738.0,745.0
13007,3907,US,260704,45.1727777778,-92.6011111111,Census,town,WI,"Star Prairie (town), Wisconsin",0,0,0,0,0,0,0,0,0,0,0,0,0,0,0.0,0,0,0.0,0.0,0,0,0.0,561.0
13031,8969,US,260405,46.3547222222,-91.8002777778,Census,Village,WI,"Solon Springs, Wisconsin",0,0,0,0,0,0,0,0,0,0,0,0,0,0,282.0,392,480,530.0,598.0,590,575,576.0,600.0
13065,109820,US,57863,43.0666666667,-89.4,Census,City and State Capital,WI,"Madison, Wisconsin",0,0,0,0,0,172,1525,6611,9176,10324,13426,19164,25531,38378,57899.0,67447,96056,126706.0,171809.0,170616,191262,208054.0,233209.0
13127,10589,US,260338,44.8480555556,-90.315,Census,Village,WI,"Unity, Wisconsin",0,0,0,0,0,0,0,0,0,0,0,0,363,405,319.0,286,355,386.0,363.0,418,452,368.0,343.0
13154,10263,US,139959,43.0947222222,-88.4005555556,Census,Village,WI,"Nashotah, Wisconsin",0,0,0,0,0,0,0,0,0,0,0,0,0,0,0.0,0,0,321.0,410.0,513,567,1266.0,1395.0
13195,11748,US,138822,44.9536111111,-90.4333333333,Census,Village,WI,"Curtiss, Wisconsin",0,0,0,0,0,0,0,0,0,0,0,0,0,186,164.0,171,139,147.0,135.0,127,173,198.0,216.0
13256,8149,US,138819,45.0772222222,-91.4741666667,Census,Town,WI,"Woodmohr, Wisconsin",0,0,0,0,0,0,0,0,0,0,0,0,0,0,0.0,0,0,0.0,0.0,0,1086,883.0,932.0
13335,31831,US,260386,43.4597222222,-88.8358333333,Census,City,WI,"Beaver Dam, Wisconsin",0,0,0,0,0,0,0,2765,3265,3416,4222,5128,6758,7992,9867.0,10356,11867,13118.0,14265.0,14149,14196,15169.0,16214.0
13341,8641,US,138815,44.9025,-91.1725,Census,Town,WI,"Sigel, Chippewa County, Wisconsin",0,0,0,0,0,0,0,0,0,0,0,0,0,0,0.0,0,0,0.0,0.0,0,736,825.0,1044.0
13403,6342,US,139252,43.9877777778,-91.2991666667,USA,Town,WI,"Holland, La Crosse County, Wisconsin",0,0,0,0,0,0,0,0,0,0,0,0,0,0,0.0,0,0,0.0,0.0,0,2778,3042.0,3756.0
13449,10739,US,260605,43.4061111111,-87.9630555556,Census,Village,WI,"Saukville, Wisconsin",0,0,0,0,0,0,0,0,0,0,0,0,0,330,399.0,431,699,1038.0,1389.0,3494,3695,4068.0,4451.0
13477,6141,US,260699,44.9908333333,-92.6969444444,Census,town,WI,"Hudson (town), Wisconsin",0,0,0,0,0,0,0,0,0,0,0,0,0,0,0.0,0,0,0.0,0.0,0,0,0.0,8461.0
13495,11493,US,139702,43.4680555556,-90.1536111111,Census,Village,WI,"Lime Ridge, Wisconsin",0,0,0,0,0,0,0,0,0,0,0,0,0,256,230.0,197,183,152.0,203.0,191,152,169.0,162.0
13539,12486,US,139015,44.6797222222,-91.1227777778,Census,City,WI,"Augusta, Wisconsin",0,0,0,0,0,0,0,0,761,1116,1187,1256,1405,1407,1359.0,1519,1458,1338.0,1242.0,1560,1510,1460.0,1550.0
13585,12818,US,90966,43.02,-88.78,Census,US County,WI,"Jefferson County, Wisconsin",0,0,0,0,0,914,15317,30438,34040,32156,33530,34789,34306,35022,36785.0,38868,43069,50094.0,60060.0,66152,67783,74021.0,83686.0
13625,12552,US,260758,43.0827777778,-88.2527777778,Census,Village,WI,"Pewaukee (village), Wisconsin",0,0,0,0,0,0,0,0,0,0,0,0,0,0,0.0,0,0,2484.0,3271.0,4637,5287,8170.0,8166.0
13648,5866,US,139008,44.9922222222,-91.8466666667,Census,Town,WI,"Tainter, Wisconsin",0,0,0,0,0,0,0,0,0,0,0,0,0,0,0.0,0,0,0.0,0.0,0,1756,2116.0,2319.0
13658,8904,US,260640,45.4597222222,-90.6105555556,Census,Village,WI,"Kennan, Wisconsin",0,0,0,0,0,0,0,0,0,0,0,0,184,319,194.0,256,194,162.0,167.0,194,169,171.0,135.0
13690,14241,US,139899,42.6727777778,-88.5402777778,Census,City,WI,"Elkhorn, Wisconsin",0,0,0,0,0,0,42,1081,1205,1122,1447,1731,1707,1991,2340.0,2382,2935,3586.0,3992.0,4605,5337,7305.0,10084.0
13718,8432,US,139672,45.5058333333,-90.8163888889,Census,Village,WI,"Ingram, Wisconsin",0,0,0,0,0,0,0,0,0,0,0,0,360,124,153.0,174,146,99.0,109.0,61,91,76.0,78.0
13724,15726,US,139947,43.1233333333,-88.3811111111,Census,Village,WI,"Chenequa, Wisconsin",0,0,0,0,0,0,0,0,0,0,0,0,0,0,339.0,288,270,445.0,642.0,532,601,583.0,590.0
13825,10892,US,260750,43.0591666667,-88.4038888889,Census,city,WI,"Delafield, Wisconsin",0,0,0,0,0,0,0,0,0,183,0,0,0,0,0.0,0,0,2334.0,3182.0,4083,5347,6472.0,7085.0
13829,9360,US,260293,45.2519444444,-91.855,Census,Village,WI,"Dallas, Wisconsin",0,0,0,0,0,0,0,0,0,0,0,0,342,425,428.0,436,370,401.0,359.0,477,452,356.0,409.0
13941,10751,US,260518,42.7580555556,-90.365,Census,Village,WI,"Belmont, Wisconsin",0,0,0,0,0,0,0,0,0,410,378,509,532,498,452.0,476,474,616.0,688.0,826,823,871.0,986.0
14047,11243,US,139546,45.3097222222,-92.3627777778,Census,City,WI,"Amery, Wisconsin",0,0,0,0,0,0,0,0,0,0,451,905,659,1203,1354.0,1461,1625,1769.0,2126.0,2404,2657,2845.0,2902.0
14221,10812,US,151317,43.5233333333,-90.1969444444,Census,Village,WI,"Cazenovia, Wisconsin",0,0,0,0,0,0,0,0,0,161,0,0,392,488,466.0,370,403,351.0,335.0,259,288,326.0,318.0
14256,22228,US,139644,42.78,-89.3002777778,Census,City,WI,"Evansville, Wisconsin",0,0,0,0,0,0,0,0,0,1068,1523,1864,2061,2209,2269.0,2321,2531,2858.0,2992.0,2835,3174,4039.0,5012.0
14270,20679,US,139489,45.6394444444,-89.4122222222,Census,City,WI,"Rhinelander, Wisconsin",0,0,0,0,0,0,0,0,0,0,2658,4998,5637,6654,8019.0,8501,8774,8790.0,8218.0,7873,7427,7735.0,7798.0
14289,6876,US,139951,42.9727777778,-88.3666666667,Census,Town,WI,"Genesee, Wisconsin",0,0,0,0,0,0,0,0,0,0,0,0,0,0,0.0,0,0,0.0,0.0,5126,5986,7284.0,7340.0
14314,28654,US,260786,44.0247222222,-88.5511111111,Census,city,WI,"Oshkosh, Wisconsin",0,0,0,0,0,0,0,6086,12663,15748,22836,28284,33062,33162,40108.0,39089,41084,45110.0,53082.0,49620,55006,62916.0,66083.0
14319,9372,US,139809,44.9541666667,-92.1752777778,Census,Village,WI,"Wilson, St. Croix County, Wisconsin",0,0,0,0,0,0,0,0,0,442,393,0,0,222,200.0,188,174,140.0,130.0,155,163,176.0,184.0
14330,17898,US,90988,44.08,-88.22,Census,US County,WI,"Calumet County, Wisconsin",0,0,0,0,0,275,1743,1895,12335,16632,16639,17078,16701,17228,16848.0,17618,18840,22268.0,27604.0,30867,34291,40631.0,48971.0
14347,13532,US,139538,44.7516666667,-92.7930555556,Census,City,WI,"Prescott, Wisconsin",0,0,0,0,0,0,0,1031,1138,975,911,1002,936,892,755.0,857,1005,1536.0,2331.0,2654,3243,3764.0,4258.0
14363,10896,US,139370,44.8019444444,-90.0738888889,Census,Village,WI,"Stratford, Wisconsin",0,0,0,0,0,0,0,0,0,0,0,0,763,1014,960.0,879,962,1106.0,1239.0,1385,1515,1523.0,1578.0
14375,3459,US,260695,44.9983333333,-92.3122222222,Census,town,WI,"Baldwin (town), Wisconsin",0,0,0,0,0,0,0,0,0,0,0,0,0,0,0.0,0,0,0.0,0.0,0,0,0.0,928.0
14444,11253,US,260653,42.5566666667,-88.8644444444,Census,Village,WI,"Clinton (village), Rock County, Wisconsin",0,0,0,0,0,0,0,0,0,0,856,871,897,938,902.0,903,1138,1274.0,1333.0,1751,1849,2162.0,2154.0
14488,9671,US,260342,43.3452777778,-89.4125,Census,Village,WI,"Arlington, Wisconsin",0,0,0,0,0,0,0,0,0,56,0,0,0,0,0.0,0,255,349.0,379.0,440,440,484.0,819.0
14589,11017,US,260351,43.5111111111,-89.3058333333,Census,Village,WI,"Wyocena, Wisconsin",0,0,0,0,0,0,101,0,270,219,0,0,425,425,490.0,706,714,747.0,809.0,548,620,668.0,768.0
14595,14876,US,90969,43.0,-90.13,Census,US County,WI,"Iowa County, Wisconsin",0,0,0,0,0,3978,9525,18967,24544,23628,22117,23114,22497,21504,20039.0,20595,19610,19631.0,19306.0,19802,20150,22780.0,23687.0
14600,9021,US,139419,43.1652777778,-87.9325,Census,Village,WI,"River Hills, Wisconsin",0,0,0,0,0,0,0,0,0,0,0,0,0,0,0.0,541,567,1257.0,1561.0,1642,1612,1631.0,1597.0
14758,5569,US,139003,44.9855555556,-91.9538888889,Census,Town,WI,"Sherman, Dunn County, Wisconsin",0,0,0,0,0,0,0,0,0,0,0,0,0,0,0.0,0,0,0.0,0.0,0,725,748.0,849.0
14815,10079,US,138907,43.1108333333,-89.3683333333,Census,Village,WI,"Maple Bluff, Wisconsin",0,0,0,0,0,0,0,0,0,0,0,0,0,0,0.0,862,1361,1565.0,1974.0,1351,1352,1358.0,1313.0
14873,12445,US,139339,44.9238888889,-89.9647222222,Census,Village,WI,"Edgar, Wisconsin",0,0,0,0,0,0,0,0,0,0,0,478,746,723,667.0,694,705,803.0,928.0,1194,1318,1386.0,1479.0
14878,10202,US,140023,44.4225,-89.7788888889,Census,Village,WI,"Biron, Wisconsin",0,0,0,0,0,0,0,0,0,0,0,0,0,286,380.0,475,528,726.0,771.0,698,794,915.0,839.0
14949,11640,US,138811,45.2477777778,-91.1019444444,Census,Town,WI,"Lake Holcombe, Wisconsin",0,0,0,0,0,0,0,0,0,0,0,0,0,0,0.0,0,0,0.0,0.0,0,920,1010.0,1031.0
14955,11623,US,90965,43.92,-90.11,Census,US County,WI,"Juneau County, Wisconsin",0,0,0,0,0,0,0,8770,12372,15582,17121,20629,19569,19209,17264.0,18708,18930,17490.0,18455.0,21039,21650,24316.0,26664.0
15012,10873,US,19596135,44.0386111111,-89.1213888889,Census,Village,WI,"Lohrville, Wisconsin",0,0,0,0,0,0,0,0,0,0,0,0,0,245,262.0,191,206,225.0,213.0,336,368,408.0,402.0
15166,6369,US,139618,42.8219444444,-88.1577777778,Census,CDP,WI,"Wind Lake, Wisconsin",0,0,0,0,0,0,0,0,0,0,0,0,0,0,0.0,0,0,0.0,0.0,0,3748,5202.0,5342.0
15207,9264,US,139711,43.4758333333,-89.7652777778,Census,Village,WI,"West Baraboo, Wisconsin",0,0,0,0,0,0,0,0,0,0,0,0,0,0,0.0,0,0,613.0,563.0,846,1021,1248.0,1414.0
15228,16368,US,139356,44.8388888889,-89.6266666667,Census,Village,WI,"Kronenwetter, Wisconsin",0,0,0,0,0,0,0,0,0,0,0,0,0,0,0.0,0,0,0.0,0.0,0,0,0.0,7210.0
15232,9332,US,139106,42.5772222222,-89.7930555556,Census,Village,WI,"Browntown, Wisconsin",0,0,0,0,0,0,0,0,0,0,0,246,222,245,291.0,271,279,263.0,253.0,284,256,252.0,280.0
15294,16202,US,139634,43.3377777778,-90.3847222222,Census,City,WI,"Richland Center, Wisconsin",0,0,0,0,0,0,0,0,0,1227,1819,2321,2652,3409,3632.0,4364,4608,4746.0,5086.0,4997,5018,5114.0,5184.0
15318,9214,US,139132,42.8761111111,-89.9361111111,Census,Village,WI,"Hollandale, Wisconsin",0,0,0,0,0,0,0,0,0,0,0,0,265,236,241.0,290,281,275.0,256.0,271,256,283.0,288.0
15423,8601,US,139611,42.765,-87.7808333333,Census,Village,WI,"North Bay, Wisconsin",0,0,0,0,0,0,0,0,0,0,0,0,0,0,0.0,0,0,264.0,263.0,219,246,260.0,241.0
15440,12438,US,260561,43.7919444444,-89.3297222222,Census,City,WI,"Montello, Wisconsin",0,0,0,0,0,0,0,0,0,394,760,0,1104,1112,1245.0,1138,1069,1021.0,1082.0,1273,1329,1397.0,1495.0
15457,13027,US,138816,44.9666666667,-90.9333333333,Census,City,WI,"Stanley, Wisconsin",0,0,0,0,0,0,0,0,0,0,0,2387,2675,2577,1988.0,2021,2014,2014.0,2049.0,2095,2011,1898.0,3608.0
15466,30103,US,260746,43.42,-88.18,Census,City,WI,"West Bend, Wisconsin",0,0,0,0,0,0,0,0,1058,1273,1296,2119,2462,3378,4760.0,5452,6849,9969.0,16555.0,21484,23916,28152.0,31078.0
15468,10613,US,139059,43.8166666667,-88.1666666667,Census,Village,WI,"St. Cloud, Wisconsin",0,0,0,0,0,0,0,0,0,183,0,0,309,367,365.0,353,408,530.0,550.0,560,494,497.0,477.0
15502,8962,US,138817,44.9972222222,-91.4452777778,Census,Town,WI,"Tilden, Wisconsin",0,0,0,0,0,0,0,0,0,0,0,0,0,0,0.0,0,0,0.0,0.0,0,1079,1185.0,1485.0
15560,8399,US,38710,44.4811111111,-92.2594444444,Census,Village,WI,"Stockholm, Wisconsin",0,0,0,0,0,0,0,0,0,0,0,0,204,207,205.0,179,124,106.0,99.0,104,89,97.0,66.0
15593,10738,US,260512,43.8594444444,-90.9591666667,Census,village,WI,"Bangor, Wisconsin",0,0,0,0,0,0,0,0,0,453,499,633,692,854,835.0,847,941,928.0,974.0,1012,1076,1400.0,1459.0
15598,12118,US,260361,43.0166666667,-89.8305555556,Census,Village,WI,"Blue Mounds, Wisconsin",0,0,0,0,0,0,0,0,0,0,0,0,0,0,182.0,196,207,227.0,261.0,387,446,708.0,855.0
15600,40142,US,260283,46.59,-90.88,Census,City,WI,"Ashland, Wisconsin",0,0,0,0,0,0,0,0,0,0,9956,13074,11594,11334,10622.0,11101,10640,10132.0,9615.0,9115,8695,8620.0,8216.0
15666,12849,US,139055,43.8255555556,-88.2480555556,Census,Village,WI,"Mount Calvary, Wisconsin",0,0,0,0,0,0,0,0,0,0,0,0,0,0,0.0,0,0,0.0,942.0,585,558,956.0,762.0
15722,9571,US,138864,43.5888888889,-89.0677777778,Census,Village,WI,"Friesland, Wisconsin",0,0,0,0,0,0,0,0,0,0,0,0,0,0,0.0,0,311,308.0,301.0,267,271,298.0,356.0
15740,17073,US,260657,42.7777777778,-88.955,Census,City,WI,"Milton, Wisconsin",0,0,0,0,0,0,0,0,0,508,685,0,833,834,1128.0,1266,1549,1671.0,3699.0,4092,4434,5132.0,5546.0
15810,11702,US,90950,44.99,-88.23,Census,US County,WI,"Oconto County, Wisconsin",0,0,0,0,0,0,0,3592,9321,9848,15009,20874,25657,27104,26386.0,27075,26238,25110.0,25553.0,28947,30226,35634.0,37660.0
15887,16806,US,260782,44.1741666667,-88.4686111111,Census,City,WI,"Neenah, Wisconsin",0,0,0,0,0,0,0,1296,2655,4202,5083,5954,5734,7171,9151.0,10645,12437,18057.0,22902.0,22432,23219,24507.0,25501.0
15890,3278,US,260413,44.9052777778,-91.7105555556,Census,town,WI,"Elk Mound (town), Wisconsin",0,0,0,0,0,0,0,0,0,0,0,0,0,0,0.0,0,0,0.0,0.0,0,749,1121.0,1792.0
15893,8857,US,139537,44.6330555556,-92.1919444444,Census,Village,WI,"Plum City, Wisconsin",0,0,0,0,0,0,0,0,0,0,0,0,305,327,320.0,368,355,384.0,451.0,505,534,574.0,599.0
15912,5792,US,138997,44.7133333333,-91.8152777778,Census,Town,WI,"Peru, Wisconsin",0,0,0,0,0,0,0,0,0,0,0,0,0,0,0.0,0,0,0.0,0.0,0,203,247.0,242.0
15928,17455,US,260530,45.1825,-89.6955555556,Census,city,WI,"Merrill, Wisconsin",0,0,0,0,0,0,0,0,0,882,6809,8537,8689,8068,8458.0,8711,8951,9451.0,9502.0,9578,9860,10146.0,9661.0
15934,9816,US,90954,43.82,-89.39,Census,US County,WI,"Marquette County, Wisconsin",0,0,0,0,0,18,8641,8233,8056,8908,9676,10509,10741,10443,9388.0,9097,8839,8516.0,8865.0,11672,12321,15832.0,15404.0
15938,8311,US,260330,45.1633333333,-91.4811111111,Census,Town,WI,"Bloomer (town), Wisconsin",0,0,0,0,0,0,0,0,0,0,0,0,0,0,0.0,0,0,0.0,0.0,0,880,926.0,1050.0
15944,13457,US,90925,42.67,-88.54,Census,US County,WI,"Walworth County, Wisconsin",0,0,0,0,0,2611,17862,26496,25972,26249,27860,29259,29614,29327,31058.0,33103,41584,52368.0,63444.0,71507,75000,93759.0,102228.0
16007,14784,US,545424,46.8116666667,-90.82,Census,City,WI,"Bayfield, Wisconsin",0,0,0,0,0,0,0,0,0,495,1373,1689,0,1441,1195.0,1212,1153,969.0,874.0,778,686,611.0,487.0
16037,15203,US,90934,44.79,-88.76,Census,US County,WI,"Shawano County, Wisconsin",0,0,0,0,0,0,0,829,3166,10371,19236,27475,31884,33975,33516.0,35378,35249,34351.0,32650.0,35928,37157,40664.0,41949.0
16109,9872,US,260467,43.6936111111,-89.1286111111,Census,Village,WI,"Kingston, Wisconsin",0,0,0,0,0,0,0,0,0,0,0,0,0,0,270.0,295,334,343.0,343.0,328,346,288.0,326.0
16129,45716,US,260587,44.4583333333,-88.4558333333,Census,Village,WI,"Black Creek, Wisconsin",0,0,0,0,0,0,0,0,0,0,0,0,516,516,526.0,542,650,707.0,921.0,1097,1152,1192.0,1316.0
16173,19559,US,260374,43.1744444444,-89.7947222222,Census,Village,WI,"Mazomanie, Wisconsin",0,0,0,0,0,0,0,604,1143,0,1034,902,917,756,747.0,851,962,1069.0,1217.0,1248,1377,1485.0,1652.0
16205,52046,US,258233,43.1836027778,-89.2323361111,Census,City,WI,"Sun Prairie, Wisconsin",0,0,0,0,0,0,0,0,626,597,704,938,1119,1236,1337.0,1625,2263,4008.0,9935.0,12931,15333,20369.0,29364.0
16210,5975,US,139000,44.7269444444,-91.7036111111,Census,Town,WI,"Rock Creek, Wisconsin",0,0,0,0,0,0,0,0,0,0,0,0,0,0,0.0,0,0,0.0,0.0,0,696,793.0,1000.0
16219,11350,US,260577,44.889748,-88.306422,Census,City,WI,"Gillett, Wisconsin",0,0,0,0,0,0,0,0,0,0,0,0,610,785,1076.0,1145,1410,1374.0,1288.0,1356,1303,1256.0,1386.0
16237,10173,US,138828,44.5872222222,-90.4616666667,Census,Village,WI,"Granton, Wisconsin",0,0,0,0,0,0,0,0,0,0,0,0,0,334,310.0,300,299,278.0,288.0,399,379,406.0,355.0
16291,18052,US,90958,44.15,-87.55,Census,County,WI,"Manitowoc County, Wisconsin",0,0,0,0,0,235,3702,22416,33364,37505,37831,42261,44978,51644,58674.0,61617,67159,75215.0,82294.0,82918,80421,82887.0,81442.0
16340,20948,US,139142,46.4502777778,-90.1897222222,Census,City,WI,"Hurley, Wisconsin",0,0,0,0,0,0,0,0,0,0,0,0,0,3188,3264.0,3375,3034,2763.0,2418.0,2015,1782,1818.0,1547.0
16429,10088,US,138993,44.9544444444,-92.0805555556,Census,Village,WI,"Knapp, Dunn County, Wisconsin",0,0,0,0,0,0,0,0,0,0,480,0,413,478,424.0,436,424,374.0,369.0,419,419,421.0,463.0
16437,15444,US,260514,,,Census,City,WI,"Onalaska, Wisconsin",0,0,0,0,0,0,0,0,0,826,1587,1368,1146,1066,1408.0,1742,2561,3161.0,4909.0,9249,11284,14839.0,17736.0
16454,7827,US,139515,44.5644444444,-88.4647222222,Census,Village,WI,"Nichols, Wisconsin",0,0,0,0,0,0,0,0,0,0,0,0,0,0,0.0,0,0,0.0,207.0,267,254,307.0,273.0
16512,10054,US,260387,43.3355555556,-88.7213888889,Census,village,WI,"Clyman, Wisconsin",0,0,0,0,0,0,0,0,0,0,0,0,0,0,200.0,230,250,259.0,328.0,317,370,388.0,422.0
16604,9344,US,139451,44.1302777778,-90.5008333333,Census,Village,WI,"Warrens, Wisconsin",0,0,0,0,0,0,0,0,0,0,0,0,0,0,0.0,0,0,0.0,0.0,300,343,286.0,363.0
16617,11287,US,260623,45.2602777778,-92.2258333333,Census,Village,WI,"Clear Lake, Wisconsin",0,0,0,0,0,0,0,0,0,476,0,527,498,689,733.0,670,695,724.0,721.0,899,932,1051.0,1070.0
16646,15678,US,260348,43.3141666667,-89.5311111111,Census,City,WI,"Lodi, Wisconsin",0,0,0,0,0,0,0,0,725,723,736,1068,1044,1077,1065.0,1116,1416,1620.0,1831.0,1959,2093,2882.0,3050.0
16741,6349,US,139797,44.9091666667,-92.5511111111,Census,Town,WI,"Kinnickinnic, Wisconsin",0,0,0,0,0,0,0,0,0,0,0,0,0,0,0.0,0,0,0.0,0.0,0,0,0.0,1722.0
16753,21455,US,260522,42.6830555556,-90.1175,Census,City,WI,"Darlington, Wisconsin",0,0,0,0,0,0,0,0,0,1372,1589,1808,1808,1798,1764.0,2002,2174,2349.0,2351.0,2300,2235,2418.0,2451.0
16900,10105,US,139831,45.0763888889,-90.3138888889,Census,Village,WI,"Stetsonville, Wisconsin",0,0,0,0,0,0,0,0,0,0,0,0,0,0,0.0,0,334,319.0,305.0,487,511,563.0,541.0
16926,16688,US,260700,44.9719444444,-92.745,Census,City,WI,"Hudson, Wisconsin",0,0,0,0,0,0,0,1570,1748,2298,2885,3259,2810,3014,2725.0,2987,3435,4325.0,5049.0,5434,6378,8775.0,12719.0
16991,10450,US,139556,45.6588888889,-92.4669444444,Census,Village,WI,"Frederic, Wisconsin",0,0,0,0,0,0,0,0,0,0,0,0,511,602,680.0,725,893,857.0,908.0,1039,1124,1262.0,1137.0
16997,7159,US,139967,42.8913888889,-88.2455555556,Census,Town,WI,"Vernon, Wisconsin",0,0,0,0,0,0,0,0,0,0,0,0,0,0,0.0,0,0,0.0,0.0,6372,7549,7227.0,7601.0
17052,12190,US,139211,43.8,-90.0833333333,Census,City,WI,"Mauston, Wisconsin",0,0,0,0,0,0,0,0,952,1013,1343,1718,1701,1966,2107.0,2621,3171,3531.0,3466.0,3284,3439,3740.0,4423.0
17109,11235,US,260732,42.5461111111,-88.5958333333,Census,Village,WI,"Walworth, Wisconsin",0,0,0,0,0,0,0,0,0,0,0,0,755,757,920.0,875,1137,1494.0,1637.0,1607,1614,2304.0,2816.0
17125,9561,US,139703,43.4397222222,-90.0372222222,Census,Village,WI,"Loganville, Wisconsin",0,0,0,0,0,0,0,0,0,0,0,0,0,265,228.0,236,250,220.0,199.0,239,228,276.0,300.0
17227,9973,US,260676,45.8227777778,-91.3472222222,Census,Village,WI,"Couderay, Wisconsin",0,0,0,0,0,0,0,0,0,0,0,0,0,0,171.0,189,133,113.0,123.0,114,92,96.0,88.0
17242,9847,US,139802,44.9838888889,-92.5538888889,Census,Village,WI,"Roberts, Wisconsin",0,0,0,0,0,0,0,0,0,86,0,0,0,0,0.0,0,290,308.0,484.0,833,1043,969.0,1651.0
17250,8984,US,260395,43.3291666667,-88.8288888889,Census,Village,WI,"Lowell, Wisconsin",0,0,0,0,0,0,0,0,0,400,304,333,318,293,288.0,282,319,341.0,322.0,326,300,366.0,340.0
17284,19057,US,140046,44.3866666667,-89.8230555556,Census,City,WI,"Wisconsin Rapids, Wisconsin",0,0,0,0,0,0,0,0,1115,1350,1702,4493,6521,7243,8726.0,11416,13496,15042.0,18587.0,17995,18245,18435.0,18367.0
17310,31752,US,139423,43.0666666667,-88.0333333333,Census,City,WI,"Wauwatosa, Wisconsin",0,0,0,0,0,0,0,0,0,0,0,2842,3346,5818,21194.0,27769,33324,56923.0,58676.0,51310,49484,47271.0,46396.0
17359,26813,US,260415,44.8791666667,-91.9180555556,Census,City,WI,"Menomonie, Wisconsin",0,0,0,0,0,0,0,0,0,2589,5491,5655,5036,5104,5595.0,6582,8245,8624.0,11112.0,12769,13547,14937.0,16264.0
17360,10187,US,260399,45.0491666667,-87.2975,Census,Village,WI,"Egg Harbor, Wisconsin",0,0,0,0,0,0,0,0,0,0,0,0,0,0,0.0,0,0,0.0,184.0,238,183,250.0,201.0
17451,8822,US,139097,42.6877777778,-90.6861111111,Census,Village,WI,"Tennyson, Wisconsin",0,0,0,0,0,0,0,0,0,0,0,0,0,0,0.0,0,211,314.0,402.0,476,378,370.0,355.0
17455,11132,US,260300,45.3441666667,-92.0972222222,Census,Village,WI,"Turtle Lake, Wisconsin",0,0,0,0,0,0,0,0,0,0,0,326,442,679,598.0,616,696,691.0,637.0,762,817,1065.0,1050.0
17462,12890,US,138911,43.0569444444,-89.3336111111,Census,City,WI,"Monona, Wisconsin",0,0,0,0,0,0,0,0,0,0,0,0,0,0,0.0,1323,2544,8178.0,10420.0,8809,8637,8018.0,7533.0
17481,18686,US,90938,42.67,-89.07,Census,US County,WI,"Rock County, Wisconsin",0,0,0,0,0,1701,20750,36690,39030,38823,43220,51203,55538,66150,74206.0,80173,92778,113913.0,131970.0,139420,139510,152307.0,160331.0
17496,10038,US,260609,44.4425,-92.1477777778,Census,Village,WI,"Pepin, Wisconsin",0,0,0,0,0,0,0,0,0,0,369,407,397,555,603.0,754,840,825.0,747.0,890,873,878.0,837.0
17515,14475,US,139415,42.9375,-87.9969444444,Census,Village,WI,"Greendale, Wisconsin",0,0,0,0,0,0,0,0,0,0,0,0,0,0,0.0,2527,2752,6845.0,15089.0,16928,15128,14405.0,14046.0
17536,32595,US,260690,43.7491666667,-87.9766666667,Census,City,WI,"Plymouth, Wisconsin",0,0,0,0,0,0,0,0,0,1052,1503,2257,3094,3415,3882.0,4170,4543,5128.0,5810.0,6027,6769,7781.0,8445.0
17594,12379,US,138877,43.4477777778,-89.2405555556,Census,Village,WI,"Rio, Wisconsin",0,0,0,0,0,0,0,0,300,230,339,479,704,620,641.0,696,741,788.0,792.0,785,768,938.0,1059.0
17599,9285,US,260488,44.1188888889,-91.0002777778,Census,Village,WI,"Melrose, Wisconsin",0,0,0,0,0,0,0,0,0,144,0,0,0,445,480.0,462,497,516.0,505.0,507,551,529.0,503.0
17613,12796,US,139600,45.6916666667,-90.4019444444,Census,City,WI,"Phillips, Wisconsin",0,0,0,0,0,0,0,0,0,0,0,1820,1948,1973,1901.0,1915,1775,1524.0,1511.0,1522,1592,1675.0,1478.0
17764,9921,US,260479,42.9225,-90.2627777778,Census,Village,WI,"Linden, Wisconsin",0,0,0,0,0,0,0,0,0,571,462,543,580,490,498.0,461,463,418.0,408.0,395,429,615.0,549.0
17781,10552,US,139308,44.2027777778,-87.7219444444,Census,Village,WI,"Francis Creek, Wisconsin",0,0,0,0,0,0,0,0,0,0,0,0,0,0,0.0,0,0,0.0,492.0,589,562,681.0,669.0
17809,11386,US,139305,43.9177777778,-87.7463888889,Census,Village,WI,"Cleveland, Manitowoc County, Wisconsin",0,0,0,0,0,0,0,0,0,0,0,0,0,0,0.0,0,0,687.0,761.0,1270,1398,1361.0,1485.0
17820,11542,US,90972,42.68,-89.6,Census,US County,WI,"Green County, Wisconsin",0,0,0,0,0,933,8566,19808,23611,21729,22732,22719,21641,21568,21870.0,23146,24172,25851.0,26714.0,30012,30339,33647.0,36842.0
17843,12605,US,139324,44.0661111111,-87.8858333333,Census,Village,WI,"Valders, Wisconsin",0,0,0,0,0,0,0,0,0,0,0,0,0,0,504.0,580,560,622.0,821.0,984,905,948.0,962.0
17864,11986,US,260727,42.8,-88.4,Census,Village,WI,"East Troy, Wisconsin",0,0,0,0,0,0,0,0,0,368,463,0,673,773,800.0,925,1052,1455.0,1711.0,2385,2664,3564.0,4281.0
17901,9684,US,260478,43.0463888889,-90.3791666667,Census,Village,WI,"Highland, Wisconsin",0,0,0,0,0,0,0,0,482,668,751,913,1096,1024,739.0,902,785,741.0,785.0,860,799,855.0,842.0
17953,47002,US,449997,44.95,-89.6333333333,Census,city,WI,"Wausau, Wisconsin",0,0,0,0,0,0,0,543,1349,4277,9253,12354,16560,18951,23758.0,27268,30386,31943.0,32806.0,32426,37060,38426.0,39114.0
17984,10660,US,260287,45.4005555556,-91.8480555556,Census,City,WI,"Barron, Wisconsin",0,0,0,0,0,0,0,0,0,183,829,1493,1449,1623,1863.0,2059,2355,2338.0,2337.0,2595,2986,3248.0,3423.0
17991,9785,US,139946,43.1072222222,-88.0688888889,Census,Village,WI,"Butler, Waukesha County, Wisconsin",0,0,0,0,0,0,0,0,0,0,0,0,0,564,703.0,778,1047,2274.0,2261.0,2059,2079,1881.0,1841.0
18031,9681,US,139585,44.4888888889,-89.5619444444,Census,Village,WI,"Whiting, Wisconsin",0,0,0,0,0,0,0,0,0,0,0,0,0,0,0.0,0,854,1193.0,1782.0,2050,1838,1760.0,1724.0
18145,14887,US,139973,44.6241666667,-88.7580555556,Census,City,WI,"Clintonville, Wisconsin",0,0,0,0,0,0,0,0,0,573,1466,1653,1747,3275,3572.0,4134,4657,4778.0,4600.0,4567,4351,4736.0,4559.0
18290,7254,US,260492,43.15,-88.59,Census,Town,WI,"Ixonia, Wisconsin",0,0,0,0,0,0,0,0,0,0,0,0,0,0,0.0,0,0,0.0,0.0,2905,2789,2902.0,4375.0
18391,9172,US,139746,44.85,-88.7875,Census,Village,WI,"Gresham, Wisconsin",0,0,0,0,0,0,0,0,0,0,0,0,350,309,310.0,295,427,458.0,448.0,534,515,575.0,586.0
18448,6685,US,138812,44.9261111111,-91.3125,Census,CDP,WI,"Lake Wissota, Wisconsin",0,0,0,0,0,0,0,0,0,0,0,0,0,0,0.0,0,0,0.0,0.0,0,2175,2458.0,2738.0
18457,10813,US,260421,43.6930555556,-88.3616666667,Census,Village,WI,"Eden, Wisconsin",0,0,0,0,0,0,0,0,0,83,0,0,0,176,223.0,223,234,312.0,376.0,534,610,687.0,875.0
18492,9228,US,139223,42.5741666667,-88.1052777778,Census,Village,WI,"Paddock Lake, Wisconsin",0,0,0,0,0,0,0,0,0,0,0,0,0,0,0.0,0,0,0.0,1470.0,2207,2662,3012.0,2992.0
18563,14187,US,139086,42.8486111111,-90.7105555556,Census,City,WI,"Lancaster, Wisconsin",0,0,0,0,0,0,0,0,0,1069,1543,2403,2329,2485,2432.0,2963,3266,3703.0,3756.0,4076,4192,4070.0,3868.0
18581,10263,US,90945,44.72,-92.42,Census,US County,WI,"Pierce County, Wisconsin",0,0,0,0,0,0,0,4672,9958,17744,20385,23943,22079,21663,21043.0,21471,21448,22503.0,26652.0,31149,32765,36804.0,41019.0
18586,9683,US,139396,43.7158333333,-89.4688888889,Census,Village,WI,"Endeavor, Wisconsin",0,0,0,0,0,0,0,0,0,0,0,0,0,0,0.0,0,314,280.0,328.0,335,316,440.0,468.0
18649,10219,US,139645,42.67,-89.2088888889,Census,Village,WI,"Footville, Wisconsin",0,0,0,0,0,0,0,0,0,0,0,0,0,351,358.0,459,562,675.0,698.0,794,764,788.0,808.0
18664,9770,US,140037,44.4402777778,-90.1283333333,Census,City,WI,"Pittsville, Wisconsin",0,0,0,0,0,0,0,0,0,163,653,634,450,504,508.0,556,636,661.0,708.0,810,838,866.0,874.0
18683,15634,US,139234,44.6083333333,-87.4422222222,Census,City,WI,"Algoma, Wisconsin",0,0,0,0,0,0,0,0,0,948,1015,1738,2082,1911,2202.0,2652,3384,3855.0,4023.0,3656,3353,3357.0,3167.0
18773,13757,US,139521,43.2369444444,-87.98,Census,Village,WI,"Thiensville, Wisconsin",0,0,0,0,0,0,0,0,0,0,0,0,0,334,500.0,500,897,2507.0,3182.0,3341,3301,3254.0,3235.0
18817,31534,US,90921,,,Census,County,WI,"Waukesha County, Wisconsin",0,0,0,0,0,0,19258,26831,28274,28957,33270,35229,37100,42612,52358.0,62744,85901,158249.0,231365.0,280326,304715,360767.0,389891.0
18873,31521,US,141757,44.6666666667,-90.1833333333,Census,City,WI,"Marshfield, Wisconsin",0,0,0,0,0,0,0,0,0,669,3450,5240,5783,7394,8778.0,10359,12394,14153.0,15619.0,18290,19291,18800.0,19118.0
18989,11537,US,260366,43.0947222222,-89.6611111111,Census,Village,WI,"Cross Plains, Wisconsin",0,0,0,0,0,0,0,0,0,42,0,0,0,0,302.0,374,464,1066.0,1478.0,2156,2098,3084.0,3538.0
19078,12862,US,138903,43.2458333333,-89.3458333333,Census,Village,WI,"DeForest, Wisconsin",0,0,0,0,0,0,0,0,0,0,0,0,431,493,540.0,598,805,1223.0,1911.0,3367,4882,7368.0,8936.0
19174,10981,US,260426,43.6775,-88.5825,Census,Village,WI,"Oakfield, Wisconsin",0,0,0,0,0,0,0,0,0,315,0,0,522,556,577.0,655,697,772.0,918.0,990,1003,1012.0,1075.0
19187,10678,US,260643,45.5222222222,-90.2816666667,Census,Village,WI,"Prentice, Wisconsin",0,0,0,0,0,0,0,0,0,0,365,939,606,588,437.0,452,477,427.0,519.0,605,571,626.0,660.0
19213,6089,US,138994,44.9019444444,-92.0708333333,Census,Town,WI,"Lucas, Wisconsin",0,0,0,0,0,0,0,0,0,0,0,0,0,0,0.0,0,0,0.0,0.0,0,644,658.0,764.0
19242,12545,US,139846,44.3583333333,-91.4222222222,Census,City,WI,"Independence, Wisconsin",0,0,0,0,0,0,0,0,0,365,382,630,664,805,866.0,1036,1088,954.0,1036.0,1180,1041,1244.0,1336.0
19289,22612,US,102663,44.5230555556,-89.5602777778,Census,City,WI,"Stevens Point, Wisconsin",0,0,0,0,0,0,0,1538,1895,4445,7896,9524,8692,11371,13623.0,15777,16564,17837.0,23479.0,22970,23006,24551.0,26717.0
19339,6295,US,139248,44.0283333333,-91.1013888889,USA,Town,WI,"Farmington, La Crosse County, Wisconsin",0,0,0,0,0,0,0,0,0,0,0,0,0,0,0.0,0,0,0.0,0.0,1507,1599,1733.0,2061.0
19368,12292,US,90922,43.37,-88.23,Census,US County,WI,"Washington County, Wisconsin",0,0,0,0,0,343,19485,23622,23919,23442,22751,23589,23784,25713,26551.0,28430,33902,46119.0,63839.0,84848,95328,117493.0,131887.0
19419,14388,US,138913,43.0063888889,-89.7341666667,Census,Village,WI,"Mount Horeb, Wisconsin",0,0,0,0,0,0,0,0,0,42,0,864,1048,1350,1425.0,1610,1716,1991.0,2402.0,3251,4182,5860.0,7009.0
19465,8810,US,139687,45.4233333333,-91.4155555556,Census,Village,WI,"Weyerhaeuser, Wisconsin",0,0,0,0,0,0,0,0,0,0,0,0,371,368,321.0,298,331,339.0,285.0,313,283,353.0,238.0
19533,8731,US,139850,44.4166666667,-91.2166666667,Census,Village,WI,"Pigeon Falls, Wisconsin",0,0,0,0,0,0,0,0,0,0,0,0,0,0,0.0,0,0,207.0,198.0,338,289,388.0,411.0
19544,11987,US,139737,44.7402777778,-88.4452777778,Census,Village,WI,"Bonduel, Wisconsin",0,0,0,0,0,0,0,0,0,0,0,0,0,504,534.0,661,742,876.0,995.0,1160,1210,1416.0,1478.0
19549,11131,US,139949,43.0477777778,-88.0866666667,Census,Village,WI,"Elm Grove, Wisconsin",0,0,0,0,0,0,0,0,0,0,0,0,0,0,0.0,0,0,4994.0,7201.0,6735,6261,6249.0,5934.0
19603,18620,US,260460,42.6,-89.6333333333,Census,City,WI,"Monroe, Wisconsin",0,0,0,0,0,0,0,939,3408,3293,3768,3927,4410,4788,5015.0,6182,7037,8050.0,8654.0,10027,10241,10843.0,10827.0
19639,8511,US,138895,43.1811111111,-90.8591666667,Census,Village,WI,"Steuben, Wisconsin",0,0,0,0,0,0,0,0,0,0,0,0,237,305,262.0,321,264,193.0,179.0,175,161,177.0,131.0
19684,11288,US,139359,44.93,-89.8394444444,Census,Village,WI,"Marathon City, Wisconsin",0,0,0,0,0,0,0,0,0,0,258,528,656,670,808.0,823,853,1022.0,1214.0,1552,1606,1640.0,1524.0
19700,8922,US,138981,46.6572222222,-92.1922222222,Census,Village,WI,"Oliver, Wisconsin",0,0,0,0,0,0,0,0,0,0,0,0,0,153,167.0,201,210,222.0,210.0,253,265,358.0,399.0
19717,8828,US,139799,44.9952777778,-92.755,Census,Village,WI,"North Hudson, Wisconsin",0,0,0,0,0,0,0,0,0,100,0,0,0,586,625.0,595,787,1019.0,1547.0,2218,3101,3463.0,3768.0
19721,25370,US,260476,42.9633333333,-90.1311111111,Census,City,WI,"Dodgeville, Wisconsin",0,0,0,0,0,0,0,1222,1407,1547,1722,1865,1791,1896,1937.0,2269,2532,2911.0,3255.0,3458,3882,4220.0,4693.0
19755,9460,US,138691,45.6086111111,-91.7775,Census,Village,WI,"Haugen, Wisconsin",0,0,0,0,0,0,0,0,0,0,0,0,0,426,249.0,268,246,265.0,246.0,251,305,287.0,287.0
19782,9163,US,139217,43.6841666667,-90.2638888889,Census,Village,WI,"Union Center, Wisconsin",0,0,0,0,0,0,0,0,0,0,0,0,0,170,157.0,190,261,252.0,205.0,216,197,214.0,200.0
19803,10960,US,260367,43.2430555556,-89.5308333333,Census,Village,WI,"Dane, Wisconsin",0,0,0,0,0,0,0,0,0,125,0,280,296,316,280.0,301,305,394.0,486.0,518,621,799.0,995.0
19873,10262,US,260303,46.4605555556,-91.1030555556,Census,Village,WI,"Mason, Wisconsin",0,0,0,0,0,0,0,0,0,0,0,0,0,0,153.0,152,140,100.0,119.0,102,102,72.0,93.0
19886,6080,US,139017,44.7330555556,-91.5786111111,Census,Town,WI,"Brunswick, Wisconsin",0,0,0,0,0,0,0,0,0,0,0,0,0,0,0.0,0,0,0.0,1251.0,1376,1506,1598.0,1624.0
19897,11912,US,260646,42.7297222222,-88.2530555556,Census,Village,WI,"Rochester, Wisconsin",0,0,0,0,0,0,0,306,392,284,0,0,0,220,246.0,288,333,413.0,436.0,746,978,1149.0,3682.0
19941,6221,US,139789,44.8980555556,-92.3091666667,Census,Town,WI,"Eau Galle, St. Croix County, Wisconsin",0,0,0,0,0,0,0,0,0,0,0,0,0,0,0.0,0,0,0.0,0.0,0,0,0.0,1139.0
19961,6050,US,260414,44.8813888889,-91.9605555556,Census,Town,WI,"Menomonie (town), Wisconsin",0,0,0,0,0,0,0,0,0,0,0,0,0,0,0.0,0,0,0.0,0.0,0,2732,3174.0,3366.0
19967,11987,US,139962,43.0897222222,-88.4605555556,Census,Village,WI,"Oconomowoc Lake, Wisconsin",0,0,0,0,0,0,0,0,0,0,0,0,0,0,0.0,0,0,414.0,599.0,524,493,564.0,595.0
19982,16354,US,260394,43.5775,-88.4472222222,Census,Village,WI,"Lomira, Wisconsin",0,0,0,0,0,0,0,0,0,0,0,492,529,554,603.0,659,746,807.0,1084.0,1446,1542,2233.0,2430.0
19986,9668,US,139848,44.5783333333,-91.2183333333,Census,City,WI,"Osseo, Wisconsin",0,0,0,0,0,0,0,0,0,149,0,472,548,802,933.0,1105,1126,1144.0,1356.0,1474,1551,1669.0,1701.0
19989,13460,US,139169,44.4494444444,-90.8375,Census,Village,WI,"Merrillan, Wisconsin",0,0,0,0,0,0,0,0,0,1003,639,739,625,628,554.0,591,579,591.0,612.0,587,553,585.0,542.0
20002,10210,US,138931,43.6169444444,-88.4911111111,Census,Village,WI,"Brownsville, Wisconsin",0,0,0,0,0,0,0,0,0,0,0,0,0,0,0.0,0,0,276.0,374.0,433,415,570.0,581.0
20041,13028,US,139518,44.4433333333,-88.5783333333,Census,Village,WI,"Shiocton, Wisconsin",0,0,0,0,0,0,0,0,0,0,0,0,536,501,506.0,592,673,685.0,830.0,805,913,954.0,921.0
20061,5892,US,139955,43.1494444444,-88.2413888889,Census,Town,WI,"Lisbon, Waukesha County, Wisconsin",0,0,0,0,0,0,0,0,0,0,0,0,0,0,0.0,0,0,0.0,0.0,8352,8277,9359.0,10157.0
20065,11931,US,260771,44.3166666667,-88.9333333333,Census,City,WI,"Weyauwega, Wisconsin",0,0,0,0,0,0,0,0,0,722,706,911,967,938,1067.0,1173,1207,1239.0,1377.0,1549,1665,1806.0,1900.0
20069,10253,US,260735,46.1163888889,-91.9180555556,Census,Village,WI,"Minong, Wisconsin",0,0,0,0,0,0,0,0,0,0,0,0,0,230,292.0,308,357,348.0,420.0,557,521,531.0,527.0
20088,9600,US,90976,45.85,-88.4,Census,US County,WI,"Florence County, Wisconsin",0,0,0,0,0,0,0,0,0,0,2604,3197,3381,3602,3768.0,4177,3756,3437.0,3298.0,4172,4590,5088.0,4423.0
20101,12928,US,90985,43.47,-89.33,Census,US County,WI,"Columbia County, Wisconsin",0,0,0,0,0,0,9565,24441,28802,28065,28350,31121,31129,30468,30503.0,32517,34023,36708.0,40150.0,43222,45088,52468.0,56833.0
20118,11179,US,139605,42.8077777778,-87.9241666667,Census,Village,WI,"Caledonia, Wisconsin",0,0,0,0,0,0,0,0,0,0,0,0,0,0,0.0,0,0,0.0,0.0,20940,20999,23614.0,24705.0
20154,15154,US,139961,42.9330555556,-88.4011111111,Census,Village,WI,"North Prairie, Wisconsin",0,0,0,0,0,0,0,0,0,0,0,0,0,263,292.0,375,424,489.0,669.0,938,1322,1571.0,2141.0
20202,10108,US,260648,42.7997222222,-88.2358333333,Census,Village,WI,"Waterford, Wisconsin",0,0,0,0,0,0,0,418,545,0,448,0,581,668,739.0,786,1100,1500.0,1922.0,2051,2431,4048.0,5368.0
20267,13574,US,260674,43.1838888889,-90.1033333333,Census,Village,WI,"Spring Green, Wisconsin",0,0,0,0,0,0,0,0,422,450,625,621,730,690,779.0,868,1064,1146.0,1199.0,1265,1283,1444.0,1628.0
20374,9099,US,138800,45.0983333333,-90.9927777778,Census,Town,WI,"Colburn, Chippewa County, Wisconsin",0,0,0,0,0,0,0,0,0,0,0,0,0,0,0.0,0,0,0.0,0.0,0,731,727.0,856.0
20427,8691,US,138799,45.1683333333,-91.2972222222,Census,Town,WI,"Cleveland, Chippewa County, Wisconsin",0,0,0,0,0,0,0,0,0,0,0,0,0,0,0.0,0,0,0.0,0.0,0,758,900.0,864.0
20434,11016,US,139496,44.5297222222,-88.7269444444,Census,Village,WI,"Bear Creek, Outagamie County, Wisconsin",0,0,0,0,0,0,0,0,0,0,0,0,341,337,411.0,409,476,455.0,520.0,454,418,415.0,448.0
20470,11992,US,90960,45.2166666667,-89.0,Census,US County,WI,"Langlade County, Wisconsin",0,0,0,0,0,0,0,0,0,685,9465,12553,17062,21471,21544.0,23227,21975,19916.0,19220.0,19978,19505,20740.0,19977.0
20480,13544,US,138753,44.1244444444,-91.7094444444,Census,City,WI,"Fountain City, Wisconsin",0,0,0,0,0,0,0,0,867,963,972,1031,1031,880,880.0,985,934,934.0,1017.0,963,938,983.0,859.0
20496,11578,US,260328,44.06,-88.2827777778,Census,Village,WI,"Stockbridge, Wisconsin",0,0,0,0,0,0,0,0,0,0,0,0,328,387,377.0,386,409,476.0,582.0,567,579,649.0,636.0
20501,10228,US,139764,43.6183333333,-87.9513888889,Census,Village,WI,"Adell, Wisconsin",0,0,0,0,0,0,0,0,0,0,0,0,0,246,262.0,313,366,398.0,380.0,545,510,517.0,516.0
20502,9817,US,152248,44.6041666667,-89.8522222222,Census,Village,WI,"Milladore, Wisconsin",0,0,0,0,0,0,0,0,0,0,0,0,0,0,0.0,226,247,239.0,229.0,250,314,268.0,276.0
20546,9939,US,138858,43.4277777778,-89.1491666667,Census,Village,WI,"Doylestown, Wisconsin",0,0,0,0,0,0,0,0,100,119,0,0,259,270,238.0,253,261,249.0,265.0,294,316,328.0,297.0
20551,5482,US,138990,45.0752777778,-91.7152777778,Census,Town,WI,"Grant, Dunn County, Wisconsin",0,0,0,0,0,0,0,0,0,0,0,0,0,0,0.0,0,0,0.0,0.0,0,412,426.0,385.0
20684,11843,US,151302,42.8616666667,-89.5366666667,Census,Village,WI,"Belleville, Wisconsin",0,0,0,0,0,0,0,164,132,0,319,385,422,625,564.0,594,735,844.0,1063.0,1302,1456,1908.0,2385.0
20723,5809,US,139001,45.1616666667,-91.7122222222,Census,Town,WI,"Sand Creek, Wisconsin",0,0,0,0,0,0,0,0,0,0,0,0,0,0,0.0,0,0,0.0,0.0,0,568,586.0,570.0
20770,15620,US,260494,43.0030555556,-88.8077777778,Census,City,WI,"Jefferson, Wisconsin",0,0,0,0,0,0,550,1369,2176,2115,2287,2584,2582,2572,2639.0,3059,3625,4548.0,5429.0,5647,6078,7338.0,7973.0
20814,5901,US,139801,45.08,-92.5611111111,Census,Town,WI,"Richmond, St. Croix County, Wisconsin",0,0,0,0,0,0,0,0,0,0,0,0,0,0,0.0,0,0,0.0,0.0,0,0,0.0,3272.0
20855,9679,US,139551,45.4497222222,-92.5533333333,Census,Village,WI,"Centuria, Wisconsin",0,0,0,0,0,0,0,0,0,0,0,0,301,358,435.0,411,521,551.0,632.0,711,790,865.0,948.0
20881,11975,US,260526,42.5738888889,-90.2319444444,Census,City,WI,"Shullsburg, Wisconsin",0,0,0,0,0,0,0,0,0,1168,1393,1250,1068,1158,1041.0,1197,1306,1324.0,1376.0,1484,1236,1246.0,1226.0
20946,9615,US,260485,44.3872222222,-90.9941666667,Census,Village,WI,"Hixton, Wisconsin",0,0,0,0,0,0,0,0,0,0,0,0,0,0,270.0,301,315,310.0,300.0,364,345,446.0,433.0
20986,10728,US,90961,42.66,-90.14,Census,US County,WI,"Lafayette County, Wisconsin",0,0,0,0,0,0,11531,18134,22659,21279,20265,20959,20075,20002,18649.0,18695,18137,18142.0,17456.0,17412,16076,16137.0,16836.0
20987,13052,US,139879,43.6538888889,-90.8591666667,Census,City,WI,"Westby, Wisconsin",0,0,0,0,0,0,0,0,0,0,0,524,902,1228,1366.0,1438,1491,1544.0,1568.0,1797,1866,2045.0,2200.0
21002,12112,US,260763,44.2619444444,-88.87,Census,Village,WI,"Fremont, Wisconsin",0,0,0,0,0,0,0,0,0,303,275,263,305,374,416.0,437,504,575.0,598.0,510,632,666.0,679.0
21004,9610,US,138889,43.2475,-91.0538888889,Census,Village,WI,"Lynxville, Wisconsin",0,0,0,0,0,0,0,0,0,155,243,322,274,253,230.0,233,217,183.0,149.0,174,153,176.0,132.0
21006,6181,US,260760,42.9786111111,-88.2469444444,Census,Town,WI,"Waukesha (town), Wisconsin",0,0,0,0,0,0,0,0,0,0,0,0,0,0,0.0,0,0,0.0,0.0,6668,7566,8596.0,9133.0
21009,9848,US,138665,46.0138888889,-90.4947222222,Census,Village,WI,"Butternut, Wisconsin",0,0,0,0,0,0,0,0,0,0,0,0,717,618,604.0,669,522,499.0,453.0,438,416,407.0,375.0
21016,5677,US,139024,44.6547222222,-91.2286111111,Census,Town,WI,"Otter Creek, Eau Claire County, Wisconsin",0,0,0,0,0,0,0,0,0,0,0,0,0,0,0.0,0,0,0.0,0.0,0,459,531.0,500.0
21075,10611,US,139501,44.2666666667,-88.3166666667,Census,Village,WI,"Combined Locks, Wisconsin",0,0,0,0,0,0,0,0,0,0,0,0,0,0,545.0,625,720,1421.0,2771.0,2573,2190,2422.0,3328.0
21092,8728,US,139267,42.5675,-89.8780555556,Census,Village,WI,"South Wayne, Wisconsin",0,0,0,0,0,0,0,0,0,0,285,0,0,290,316.0,331,328,354.0,436.0,495,478,484.0,489.0
21109,41953,US,151294,44.2666666667,-88.4,Census,City,WI,"Appleton, Wisconsin",0,0,0,0,0,0,0,2345,4518,8005,11869,15085,16773,19561,25267.0,28436,34010,48411.0,56377.0,58913,65695,70087.0,72623.0
21139,11255,US,260772,44.0238888889,-89.5338888889,Census,Village,WI,"Coloma, Wisconsin",0,0,0,0,0,0,0,0,0,74,0,0,0,0,0.0,308,338,312.0,336.0,367,383,461.0,450.0
21173,12822,US,139237,44.4588888889,-87.5094444444,Census,City,WI,"Kewaunee, Wisconsin",0,0,0,0,0,0,0,0,0,1050,1216,1773,1839,1865,2409.0,2533,2583,2772.0,2901.0,2801,2750,2806.0,2952.0
21183,9570,US,260741,43.3252777778,-88.1294444444,Census,Town,WI,"Jackson, Washington County, Wisconsin",0,0,0,0,0,0,0,0,0,0,0,0,0,230,227.0,302,361,458.0,561.0,1817,2486,4938.0,6753.0
21199,7763,US,260747,43.0391666667,-88.1694444444,Census,Town,WI,"Brookfield (town), Wisconsin",0,0,0,0,0,0,0,0,0,0,0,0,0,0,0.0,0,0,0.0,0.0,4363,4232,6390.0,6116.0
21207,20737,US,260532,45.4744444444,-89.7313888889,Census,City,WI,"Tomahawk, Wisconsin",0,0,0,0,0,0,0,0,0,0,1816,2291,2907,2898,2919.0,3365,3534,3348.0,3419.0,3527,3328,3770.0,3397.0
21261,10120,US,139342,44.8655555556,-90.0138888889,Census,Village,WI,"Fenwood, Wisconsin",0,0,0,0,0,0,0,0,0,0,0,0,220,178,136.0,156,139,147.0,147.0,165,214,174.0,152.0
21302,9296,US,138987,45.0466666667,-92.1286111111,Census,Village,WI,"Downing, Wisconsin",0,0,0,0,0,0,0,0,0,0,0,0,319,374,302.0,308,295,241.0,215.0,242,250,257.0,265.0
21341,11174,US,139350,44.8863888889,-89.3397222222,Census,Village,WI,"Hatley, Wisconsin",0,0,0,0,0,0,0,0,0,0,0,0,0,290,251.0,270,299,306.0,315.0,300,295,476.0,574.0
21469,5943,US,138988,44.7497222222,-91.92,Census,Town,WI,"Dunn, Dunn County, Wisconsin",0,0,0,0,0,0,0,0,0,0,0,0,0,0,0.0,0,0,0.0,0.0,0,1315,1492.0,1524.0
21586,5981,US,139022,44.7505555556,-91.2383333333,Census,Town,WI,"Lincoln, Eau Claire County, Wisconsin",0,0,0,0,0,0,0,0,0,0,0,0,0,0,0.0,0,0,0.0,0.0,975,1002,1080.0,1096.0
21691,6544,US,139807,44.9061111111,-92.6875,Census,Town,WI,"Troy, St. Croix County, Wisconsin",0,0,0,0,0,0,0,0,0,0,0,0,0,0,0.0,0,0,0.0,0.0,0,0,0.0,4705.0
21704,13446,US,90926,46.05,-89.51,Census,US County,WI,"Vilas County, Wisconsin",0,0,0,0,0,0,0,0,0,0,0,4929,6019,5649,7294.0,8894,9363,9332.0,10958.0,16535,17707,21033.0,21430.0
21725,9070,US,138780,45.8791666667,-92.3652777778,Census,Village,WI,"Webster, Burnett County, Wisconsin",0,0,0,0,0,0,0,0,0,0,0,0,0,399,501.0,524,552,514.0,502.0,610,623,653.0,653.0
21726,18619,US,151315,44.3872222222,-88.7402777778,Census,City,WI,"New London, Wisconsin",0,0,0,0,0,0,0,468,1015,1808,2050,2742,3383,4667,4661.0,4825,4922,5288.0,5801.0,6210,6658,7085.0,7295.0
21743,18412,US,260433,45.569845,-88.90124,Census,City,WI,"Crandon, Wisconsin",0,0,0,0,0,0,0,0,0,0,0,0,1833,1632,1679.0,2000,1922,1679.0,1582.0,1969,1958,1961.0,1920.0
21752,6543,US,138809,44.9786111111,-91.5955555556,Census,Town,WI,"Howard, Chippewa County, Wisconsin",0,0,0,0,0,0,0,0,0,0,0,0,0,0,0.0,0,0,0.0,0.0,0,625,648.0,798.0
21792,8393,US,138805,44.9241666667,-91.0063888889,Census,Town,WI,"Edson, Wisconsin",0,0,0,0,0,0,0,0,0,0,0,0,0,0,0.0,0,0,0.0,0.0,0,913,966.0,1089.0
21832,11861,US,139287,45.1566666667,-88.7655555556,Census,Village,WI,"White Lake, Wisconsin",0,0,0,0,0,0,0,0,0,0,0,0,0,0,530.0,548,408,325.0,309.0,309,304,329.0,363.0
21833,5827,US,139793,45.0866666667,-92.4266666667,Census,Town,WI,"Erin Prairie, Wisconsin",0,0,0,0,0,0,0,0,0,0,0,0,0,0,0.0,0,0,0.0,0.0,0,0,0.0,688.0
21849,15194,US,260584,44.8833333333,-87.8666666667,Census,City,WI,"Oconto, Wisconsin",0,0,0,0,0,0,0,885,2655,4171,5219,4646,5629,4920,5030.0,5362,5055,4805.0,4667.0,4505,4474,4708.0,4513.0
21863,6361,US,260419,44.8269444444,-91.4405555556,Census,Census-designated place,WI,"Seymour (CDP), Wisconsin",0,0,0,0,0,0,0,0,0,0,0,0,0,0,0.0,0,0,0.0,0.0,0,1557,1474.0,1418.0
21951,12210,US,90979,44.95,-91.9,Census,US County,WI,"Dunn County, Wisconsin",0,0,0,0,0,0,0,2704,9488,16817,22664,25043,25260,26970,27037.0,27375,27341,26156.0,29154.0,34314,35909,39858.0,43857.0
22025,20504,US,6121636,42.8991666667,-88.0022222222,Census,city,WI,"Franklin, Milwaukee County, Wisconsin",0,0,0,0,0,0,0,0,0,0,0,0,0,0,0.0,0,0,10006.0,12247.0,16871,21855,29494.0,35451.0
22046,10411,US,260498,42.8794444444,-88.5983333333,Census,Village,WI,"Palmyra, Wisconsin",0,0,0,0,0,0,0,0,703,598,567,716,649,685,642.0,711,862,1000.0,1341.0,1515,1540,1766.0,1781.0
22148,6612,US,139612,42.8086111111,-88.1483333333,Census,Town,WI,"Norway, Wisconsin",0,0,0,0,0,0,0,0,0,0,0,0,0,0,0.0,0,0,0.0,0.0,4619,5493,7600.0,7948.0
22153,12158,US,260430,43.8588888889,-88.7102777778,Census,Village,WI,"Rosendale, Wisconsin",0,0,0,0,0,0,0,0,0,0,0,0,0,305,305.0,317,388,415.0,464.0,725,777,923.0,1063.0
22226,10530,US,23748378,42.8536,-89.369689,Census,"dms|display=inline,title}}.",WI,"Brooklyn (village), Wisconsin",0,0,0,0,0,0,0,0,0,0,0,0,362,407,406.0,449,479,590.0,565.0,627,789,916.0,1401.0
22228,9322,US,138942,43.5291666667,-88.5633333333,Census,Village,WI,"Kekoskee, Wisconsin",0,0,0,0,0,0,0,0,0,188,0,0,0,0,0.0,0,0,247.0,233.0,224,188,169.0,161.0
22295,15158,US,260327,43.9480555556,-88.0908333333,Census,City,WI,"New Holstein, Wisconsin",0,0,0,0,0,0,0,0,0,0,426,0,839,1373,1274.0,1502,1831,2401.0,3012.0,3412,3342,3301.0,3236.0
22298,14473,US,90975,43.76,-88.49,Census,US County,WI,"Fond du Lac County, Wisconsin",0,0,0,0,0,139,14510,34154,46273,46859,44088,47589,51610,56119,59883.0,62353,67829,75085.0,84567.0,88964,90083,97296.0,101633.0
22330,21623,US,139886,45.92,-89.2502777778,Census,City,WI,"Eagle River, Wisconsin",0,0,0,0,0,0,0,0,0,0,1150,0,1141,672,1386.0,1491,1469,1367.0,1326.0,1326,1374,1443.0,1398.0
22335,9278,US,139012,45.0436111111,-91.9069444444,Census,Village,WI,"Wheeler, Wisconsin",0,0,0,0,0,0,0,0,0,0,0,0,0,0,229.0,272,235,227.0,212.0,231,348,317.0,348.0
22343,10314,US,260411,44.9986111111,-91.7038888889,Census,Village,WI,"Colfax, Wisconsin",0,0,0,0,0,0,0,0,0,66,0,0,701,905,919.0,992,1044,885.0,1026.0,1149,1110,1136.0,1158.0
22355,5900,US,139804,44.9808333333,-92.1863888889,Census,Town,WI,"Springfield, St. Croix County, Wisconsin",0,0,0,0,0,0,0,0,0,0,0,0,0,0,0.0,0,0,0.0,0.0,0,0,0.0,932.0
22383,9230,US,139527,44.5844444444,-92.4527777778,Census,Village,WI,"Bay City, Wisconsin",0,0,0,0,0,0,0,0,0,0,0,0,252,213,290.0,299,326,327.0,317.0,543,578,465.0,500.0
22524,40291,US,236130,43.0116666667,-88.2316666667,Census,Unknown,WI,"Waukesha, Wisconsin",0,0,0,0,0,0,0,1456,2633,2969,6321,7419,8740,12558,17176.0,19242,21233,30004.0,40271.0,50365,56894,64825.0,70718.0
22549,26252,US,138731,44.3483333333,-87.8297222222,Census,Village,WI,"Denmark, Wisconsin",0,0,0,0,0,0,0,0,0,0,0,0,0,735,779.0,864,1012,1106.0,1364.0,1475,1612,1958.0,2123.0
22553,10099,US,260698,44.9997222222,-92.4261111111,Census,Village,WI,"Hammond, Wisconsin",0,0,0,0,0,0,0,0,0,361,388,404,408,368,395.0,467,554,645.0,768.0,991,1097,1153.0,1922.0
22617,21246,US,139767,43.8319444444,-88.0175,Census,Village,WI,"Elkhart Lake, Wisconsin",0,0,0,0,0,0,0,0,0,0,0,464,499,527,571.0,571,587,651.0,787.0,1054,1019,1021.0,967.0
22651,13917,US,260333,44.9102777778,-90.3169444444,Census,City,WI,"Colby, Wisconsin",0,0,0,0,0,0,0,0,0,259,0,667,869,798,849.0,903,989,1085.0,1178.0,1496,1532,1616.0,1852.0
22683,17073,US,260694,43.7333333333,-87.8166666667,Census,city,WI,"Sheboygan Falls, Wisconsin",0,0,0,0,0,0,0,0,1174,1148,1118,1301,1630,2002,2934.0,3395,3599,4061.0,4771.0,5253,5823,6772.0,7775.0
22687,10758,US,139425,43.0144444444,-87.9733333333,Census,Village,WI,"West Milwaukee, Wisconsin",0,0,0,0,0,0,0,0,0,0,0,0,1458,2101,4168.0,5010,5429,5043.0,4405.0,3535,3973,4201.0,4206.0
22735,13399,US,152237,44.2166666667,-88.4333333333,Census,City,WI,"Menasha, Wisconsin",0,0,0,0,0,0,0,1436,2484,3144,4581,5589,6081,7214,9062.0,10481,12385,14647.0,14836.0,14728,14711,16331.0,17353.0
22763,10370,US,90970,43.81,-89.04,Census,US County,WI,"Green Lake County, Wisconsin",0,0,0,0,0,0,0,12663,13195,14483,15163,15797,15491,14875,13913.0,14092,14749,15418.0,16878.0,18370,18651,19105.0,19051.0
22792,11487,US,260742,43.3230555556,-88.1713888889,Census,Village,WI,"Jackson (village), Wisconsin",0,0,0,0,0,0,0,0,0,0,0,0,0,0,0.0,0,0,0.0,561.0,1817,2486,4938.0,6753.0
22824,12552,US,151308,42.8102777778,-89.8616666667,Census,Village,WI,"Blanchardville, Wisconsin",0,0,0,0,0,0,0,0,0,169,0,573,643,653,651.0,662,707,632.0,794.0,803,802,806.0,825.0
22827,29859,US,260356,43.0516666667,-91.1413888889,Census,Unknown,WI,"Prairie du Chien, Wisconsin",0,0,0,0,0,0,0,0,2700,2777,3131,3232,3149,3537,3943.0,4622,5392,5649.0,5540.0,5859,5659,6018.0,5911.0
22876,12989,US,139411,42.9483333333,-87.8611111111,Census,City,WI,"Cudahy, Wisconsin",0,0,0,0,0,0,0,0,0,0,0,1366,3691,6725,10631.0,10561,12182,17975.0,22078.0,19547,18659,18429.0,18267.0
22890,10183,US,139472,45.0,-88.3744444444,Census,Village,WI,"Suring, Wisconsin",0,0,0,0,0,0,0,0,0,0,0,0,0,294,421.0,437,546,513.0,499.0,581,626,605.0,544.0
22968,36429,US,260692,43.75,-87.725,Census,City,WI,"Sheboygan, Wisconsin",0,0,0,0,0,0,0,4262,5310,7314,16359,22962,26398,30955,39251.0,40638,42365,45747.0,49246.0,48085,49718,50792.0,49288.0
22974,72815,US,217033,44.5133333333,-88.0158333333,Census,City,WI,"Green Bay, Wisconsin",0,0,0,0,0,0,0,2276,4698,7476,9069,23748,25216,31643,37407.0,46205,52735,62952.0,87829.0,87947,96466,102313.0,104057.0
23080,9323,US,260685,44.9838888889,-89.1497222222,Census,Village,WI,"Aniwa, Wisconsin",0,0,0,0,0,0,0,0,0,0,0,367,274,250,296.0,283,257,247.0,233.0,273,249,272.0,260.0
23101,11331,US,260765,44.5413888889,-89.1480555556,Census,Village,WI,"Iola, Wisconsin",0,0,0,0,0,0,0,0,0,194,0,558,850,843,763.0,746,867,831.0,900.0,957,1125,1298.0,1301.0
23123,16034,US,260389,43.5627777778,-88.91,Census,city,WI,"Fox Lake, Wisconsin",0,0,0,0,0,0,0,1178,1086,955,814,890,851,1012,901.0,1016,1153,1181.0,1242.0,1373,1269,1454.0,1519.0
23128,9689,US,151316,43.4313888889,-88.0475,Census,Village,WI,"Newburg, Wisconsin",0,0,0,0,0,0,0,0,0,0,0,0,0,0,0.0,0,0,0.0,0.0,783,875,1119.0,1254.0
23129,13258,US,139760,44.7402777778,-89.0583333333,Census,Village,WI,"Tigerton, Wisconsin",0,0,0,0,0,0,0,0,0,0,0,723,728,748,831.0,794,827,781.0,742.0,865,815,764.0,741.0
23141,15527,US,140036,44.3191666667,-89.9,Census,City,WI,"Nekoosa, Wisconsin",0,0,0,0,0,0,0,0,0,0,0,745,1570,1639,2005.0,2212,2352,2515.0,2409.0,2519,2557,2590.0,2580.0
23167,9774,US,260401,44.6894444444,-87.4805555556,Census,Village,WI,"Forestville, Wisconsin",0,0,0,0,0,0,0,0,0,0,0,0,0,0,0.0,0,0,0.0,349.0,455,470,429.0,430.0
23284,9680,US,260550,44.9038888889,-89.5675,Census,Village,WI,"Weston, Wisconsin",0,0,0,0,0,0,0,0,0,0,0,0,0,0,0.0,0,0,0.0,3375.0,8775,9714,12079.0,14868.0
23298,17256,US,139509,44.3352777778,-88.6388888889,Census,Village,WI,"Hortonville, Wisconsin",0,0,0,0,0,0,0,0,0,311,440,913,863,960,906.0,968,1081,1366.0,1524.0,2016,2029,2357.0,2711.0
23304,11703,US,138830,44.7677777778,-90.5988888889,Census,City,WI,"Greenwood, Wisconsin",0,0,0,0,0,0,0,0,0,0,0,708,665,761,651.0,776,956,1041.0,1036.0,1124,969,1079.0,1026.0
23308,26736,US,90981,45.02,-87.01,Census,US County,WI,"Door County, Wisconsin",0,0,0,0,0,0,0,2948,4919,11645,15082,17583,18711,19073,18182.0,19095,20870,20685.0,20106.0,25029,25690,27961.0,27785.0
23343,10026,US,260715,43.5408333333,-91.1938888889,Census,Village,WI,"Genoa, Wisconsin",0,0,0,0,0,0,0,0,0,150,185,219,267,304,351.0,339,340,325.0,305.0,283,266,263.0,253.0
23391,11333,US,260546,44.7313888889,-90.2702777778,Census,Village,WI,"Spencer, Wisconsin",0,0,0,0,0,0,0,0,0,0,526,0,362,482,456.0,506,757,897.0,1181.0,1754,1757,1932.0,1925.0
23448,11742,US,151301,43.4269444444,-91.1969444444,Census,Village,WI,"De Soto, Wisconsin",0,0,0,0,0,0,0,0,0,301,355,387,331,299,322.0,400,367,357.0,295.0,318,326,366.0,287.0
23469,9340,US,139426,43.1116666667,-87.9008333333,Census,Village,WI,"Whitefish Bay, Wisconsin",0,0,0,0,0,0,0,0,0,0,0,512,542,882,5362.0,9651,14665,18390.0,17402.0,14930,14272,14163.0,14110.0
23507,10321,US,260384,43.2308333333,-89.3325,Census,Village,WI,"Windsor, Wisconsin",0,0,0,0,0,0,0,0,0,0,0,0,0,0,0.0,0,0,0.0,0.0,0,0,0.0,0.0
23571,5830,US,139806,45.1561111111,-92.4875,Census,Town,WI,"Stanton, St. Croix County, Wisconsin",0,0,0,0,0,0,0,0,0,0,0,0,0,0,0.0,0,0,0.0,0.0,0,0,0.0,900.0
23589,10709,US,260625,45.5988888889,-92.4866666667,Census,Village,WI,"Luck, Wisconsin",0,0,0,0,0,0,0,0,0,0,0,0,383,479,560.0,617,803,853.0,848.0,997,1022,1210.0,1119.0
23622,11031,US,139130,42.9669444444,-90.3311111111,Census,Village,WI,"Cobb, Wisconsin",0,0,0,0,0,0,0,0,0,0,0,0,230,230,276.0,276,284,387.0,410.0,409,440,442.0,458.0
23695,8629,US,139247,43.8569444444,-91.2658333333,USA,Town,WI,"Campbell, Wisconsin",0,0,0,0,0,0,0,0,0,0,0,0,0,0,0.0,0,0,0.0,0.0,4118,4478,4410.0,4358.0
23711,28422,US,139192,43.2,-88.7166666667,Census,City,WI,"Watertown, Wisconsin",0,0,0,0,0,0,1451,5302,7550,7883,8755,8437,8829,9299,10613.0,11301,12417,13943.0,15683.0,18113,19142,21598.0,23861.0
23713,18399,US,139759,44.7766666667,-88.6019444444,Census,City,WI,"Shawano, Wisconsin",0,0,0,0,0,0,0,0,0,890,1505,1863,2923,3544,4188.0,5565,5894,6013.0,6488.0,7013,7598,8298.0,9305.0
23751,9702,US,139325,44.1427777778,-87.8275,Census,Village,WI,"Whitelaw, Wisconsin",0,0,0,0,0,0,0,0,0,0,0,0,0,0,0.0,0,0,420.0,557.0,649,700,730.0,757.0
23768,13435,US,90986,44.73,-90.61,Census,US County,WI,"Clark County, Wisconsin",0,0,0,0,0,0,0,789,3450,10715,17708,25848,30074,35120,34165.0,33972,32459,31527.0,30361.0,32910,31647,33557.0,34690.0
23826,10143,US,139779,43.5525,-87.9602777778,Census,Village,WI,"Random Lake, Wisconsin",0,0,0,0,0,0,0,0,0,158,0,0,408,479,576.0,613,679,858.0,1068.0,1287,1439,1551.0,1594.0
23843,13981,US,138727,44.4833333333,-88.0833333333,Census,Village,WI,"Ashwaubenon, Wisconsin",0,0,0,0,0,0,0,0,0,0,0,0,0,0,0.0,0,0,0.0,0.0,14486,16376,17634.0,16963.0
23876,12658,US,139952,43.1002777778,-88.3444444444,Census,Village,WI,"Hartland, Wisconsin",0,0,0,0,0,0,0,0,0,287,486,629,728,800,945.0,998,1190,2068.0,2763.0,5559,6906,7905.0,9110.0
23951,10082,US,260552,45.7783333333,-88.0038888889,Census,City,WI,"Niagara, Wisconsin",0,0,0,0,0,0,0,0,0,0,0,0,0,1946,2033.0,2266,2022,2098.0,2347.0,2079,1999,1880.0,1624.0
23958,70608,US,139254,43.8133333333,-91.2330555556,Census,City,WI,"La Crosse, Wisconsin",0,0,0,0,0,0,0,3860,7785,14505,25000,28895,30417,30421,39614.0,42707,47535,47258.0,50286.0,48347,51140,51818.0,51320.0
24091,6769,US,139020,44.645,-91.5938888889,Census,Town,WI,"Drammen, Wisconsin",0,0,0,0,0,0,0,0,0,0,0,0,0,0,0.0,0,0,0.0,0.0,0,767,800.0,783.0
24103,17177,US,90947,43.398475,-87.893572,Census,US County,WI,"Ozaukee County, Wisconsin",0,0,0,0,0,0,0,15682,15564,15461,14943,16363,17123,16335,17394.0,18985,23361,38441.0,54421.0,66981,72831,82317.0,86395.0
24112,8860,US,260469,43.7422222222,-89.1458333333,Census,Village,WI,"Marquette, Wisconsin",0,0,0,0,0,0,0,0,0,0,0,0,0,0,0.0,0,0,162.0,161.0,204,182,169.0,150.0
24129,5791,US,139794,45.1583333333,-92.2294444444,Census,Town,WI,"Forest, St. Croix County, Wisconsin",0,0,0,0,0,0,0,0,0,0,0,0,0,0,0.0,0,0,0.0,0.0,0,0,0.0,629.0
24150,10679,US,260632,44.2947222222,-89.4244444444,Census,Village,WI,"Almond, Wisconsin",0,0,0,0,0,0,0,0,0,0,0,0,487,504,449.0,449,435,391.0,440.0,477,455,459.0,448.0
24182,13551,US,138908,43.1711111111,-89.0647222222,Census,Village,WI,"Marshall, Dane County, Wisconsin",0,0,0,0,0,0,0,0,0,332,282,0,459,497,441.0,447,541,736.0,1043.0,2363,2329,3432.0,3862.0
24187,17848,US,152242,42.835,-88.7361111111,Census,City,WI,"Whitewater, Wisconsin",0,0,0,0,0,0,0,2731,0,3617,4359,3405,3224,3215,3465.0,3689,5101,6380.0,12038.0,11520,12636,13437.0,14390.0
24193,9672,US,260407,46.6561111111,-92.1036111111,Census,Village,WI,"Superior (village), Wisconsin",0,0,0,0,0,0,0,0,0,0,0,0,0,0,0.0,0,339,374.0,476.0,580,481,500.0,664.0
24207,9409,US,139228,42.5494444444,-88.1691666667,Census,Community,WI,"Silver Lake, Wisconsin",0,0,0,0,0,0,0,0,0,0,0,0,0,0,356.0,365,603,1077.0,1210.0,1598,1801,2341.0,2411.0
24258,9447,US,139608,42.6913888889,-87.8222222222,Census,Village,WI,"Elmwood Park, Wisconsin",0,0,0,0,0,0,0,0,0,0,0,0,0,0,0.0,0,0,0.0,456.0,483,534,474.0,497.0
24298,16408,US,90964,42.58,-87.81,Census,US County,WI,"Kenosha County, Wisconsin",0,0,0,0,0,0,10734,13900,13147,13550,15581,21707,32929,51284,63277.0,63505,75238,100615.0,117917.0,123137,128181,149577.0,166426.0
24307,10394,US,139409,43.1727777778,-87.9777777778,Census,Village,WI,"Brown Deer, Wisconsin",0,0,0,0,0,0,0,0,0,0,0,0,0,0,0.0,0,0,11280.0,12582.0,12921,12236,12170.0,11999.0
24338,14615,US,139322,44.0058333333,-87.9236111111,Census,Village,WI,"St. Nazianz, Wisconsin",0,0,0,0,0,0,0,0,0,0,0,0,0,0,0.0,0,0,669.0,718.0,738,693,749.0,783.0
24507,8666,US,139970,44.6197222222,-89.0180555556,Census,Village,WI,"Big Falls, Waupaca County, Wisconsin",0,0,0,0,0,0,0,0,0,0,0,0,0,0,178.0,187,146,119.0,112.0,107,75,85.0,61.0
24530,9877,US,139446,43.8333333333,-90.6241666667,Census,Village,WI,"Norwalk, Wisconsin",0,0,0,0,0,0,0,0,0,281,0,357,502,531,565.0,551,519,484.0,432.0,517,564,653.0,638.0
24551,9802,US,139623,43.3308333333,-90.5272222222,Census,Village,WI,"Boaz, Wisconsin",0,0,0,0,0,0,0,0,0,75,0,0,0,0,0.0,230,188,117.0,126.0,161,131,137.0,156.0
24609,13420,US,139679,45.3102777778,-90.9588888889,Census,Village,WI,"Sheldon, Wisconsin",0,0,0,0,0,0,0,0,0,0,0,0,0,123,161.0,199,271,240.0,218.0,292,268,256.0,237.0
24745,9130,US,139311,44.225,-87.8033333333,Census,Village,WI,"Kellnersville, Wisconsin",0,0,0,0,0,0,0,0,0,0,0,0,0,0,0.0,0,0,0.0,0.0,369,350,374.0,332.0
24779,18587,US,138855,43.5427777778,-89.11,Census,Village,WI,"Cambria, Wisconsin",0,0,0,0,0,0,0,0,72,519,524,561,660,679,671.0,688,633,589.0,631.0,680,768,792.0,767.0
24807,11501,US,260310,44.3333333333,-88.1666666667,Census,Village,WI,"Wrightstown, Wisconsin",0,0,0,0,0,0,0,0,0,450,476,420,525,571,612.0,718,761,840.0,1020.0,1169,1262,1934.0,2827.0
24820,12684,US,138909,43.0186111111,-89.2911111111,Census,Village,WI,"McFarland, Wisconsin",0,0,0,0,0,0,0,0,0,168,166,0,0,0,313.0,463,593,1272.0,2386.0,3783,5232,6416.0,7808.0
24897,11424,US,985393,44.8919444444,-91.42,Census,Village,WI,"Lake Hallie, Wisconsin",0,0,0,0,0,0,0,0,0,0,0,0,0,0,0.0,0,0,0.0,0.0,0,0,0.0,6448.0
24913,11214,US,260315,44.5688888889,-91.6697222222,Census,City,WI,"Mondovi, Wisconsin",0,0,0,0,0,0,0,0,0,295,503,1208,1325,1554,1623.0,2077,2285,2320.0,2338.0,2545,2491,2634.0,2777.0
24914,10597,US,138874,43.5366666667,-89.2980555556,Census,Village,WI,"Pardeeville, Wisconsin",0,0,0,0,0,0,81,0,205,0,0,788,987,878,873.0,1001,1112,1331.0,1507.0,1594,1630,1982.0,2115.0
24949,9445,US,138946,43.3102777778,-88.5180555556,Census,Village,WI,"Neosho, Wisconsin",0,0,0,0,0,0,0,0,0,197,0,0,304,296,262.0,255,287,345.0,400.0,575,658,593.0,574.0
24971,11115,US,139954,43.1502777778,-88.1644444444,Census,Village,WI,"Lannon, Wisconsin",0,0,0,0,0,0,0,0,0,0,0,0,0,0,434.0,378,438,1084.0,1056.0,987,924,1009.0,1107.0
25002,13834,US,138804,45.0205555556,-91.3583333333,Census,Town,WI,"Eagle Point, Wisconsin",0,0,0,0,0,0,0,0,0,0,0,0,0,0,0.0,0,0,0.0,0.0,0,2542,3049.0,3053.0
25035,19912,US,260678,46.01,-91.4805555556,Census,City,WI,"Hayward, Wisconsin",0,0,0,0,0,0,0,0,0,0,1349,0,0,1302,1207.0,1571,1577,1540.0,1457.0,1698,1897,2129.0,2318.0
25041,6234,US,139026,44.8219444444,-91.5797222222,Census,Town,WI,"Union, Eau Claire County, Wisconsin",0,0,0,0,0,0,0,0,0,0,0,0,0,0,0.0,0,0,0.0,0.0,0,2446,2402.0,2663.0
25053,14141,US,90987,45.07,-91.28,Census,US County,WI,"Chippewa County, Wisconsin",0,0,0,0,0,0,615,1895,8311,15491,25143,33037,32103,36482,37342.0,40703,42839,45096.0,47717.0,52127,52360,55195.0,62415.0
25058,15104,US,139599,45.9347222222,-90.4486111111,Census,City,WI,"Park Falls, Wisconsin",0,0,0,0,0,0,0,0,0,0,0,0,1972,2676,3036.0,3252,2924,2919.0,2953.0,3192,3104,2793.0,2462.0
25131,6316,US,260755,43.1413888889,-88.3116666667,Census,Town,WI,"Merton (town), Wisconsin",0,0,0,0,0,0,0,0,0,0,0,0,0,0,0.0,0,0,0.0,0.0,6025,6430,7988.0,8338.0
25211,49644,US,260655,42.6838888889,-89.0163888889,Census,City,WI,"Janesville, Wisconsin",0,0,0,0,0,0,0,7703,8789,9018,10836,13185,13894,18293,21628.0,22992,24899,35164.0,46426.0,51071,52133,59498.0,63575.0
25291,9273,US,260775,44.1152777778,-89.5352777778,Census,Village,WI,"Hancock, Wisconsin",0,0,0,0,0,0,0,0,0,0,0,0,510,443,420.0,481,449,367.0,404.0,419,382,463.0,417.0
25311,3483,US,260702,45.1452777778,-92.7038888889,Census,town,WI,"Somerset (town), Wisconsin",0,0,0,0,0,0,0,0,0,0,0,0,0,0,0.0,0,0,0.0,0.0,0,0,0.0,4036.0
25381,19005,US,139418,42.8844444444,-87.8991666667,Census,City,WI,"Oak Creek, Wisconsin",0,0,0,0,0,0,0,0,0,0,0,0,0,0,0.0,0,0,9372.0,13928.0,16932,19513,28456.0,34451.0
25431,13582,US,152250,42.8855555556,-88.3680555556,Census,Village,WI,"Mukwonago, Wisconsin",0,0,0,0,0,0,0,0,0,239,356,0,615,697,846.0,855,1207,1877.0,2367.0,4014,4464,6162.0,7355.0
25437,10912,US,260752,42.8775,-88.4716666667,Census,Village,WI,"Eagle, Wisconsin",0,0,0,0,0,0,0,0,0,292,0,324,339,394,392.0,391,460,620.0,745.0,1008,1182,1707.0,1950.0
25444,11481,US,139852,44.5502777778,-91.3919444444,Census,Village,WI,"Strum, Wisconsin",0,0,0,0,0,0,0,0,0,0,0,0,0,0,0.0,0,542,663.0,738.0,944,949,1001.0,1114.0
25464,8702,US,260574,43.8536111111,-90.4894444444,Census,Village,WI,"Wilton, Wisconsin",0,0,0,0,0,0,0,0,0,140,0,400,510,519,449.0,486,533,578.0,516.0,465,478,519.0,504.0
25516,10428,US,138787,44.1186111111,-88.0955555556,Census,Village,WI,"Potter, Wisconsin",0,0,0,0,0,0,0,0,0,0,0,0,0,0,0.0,0,0,0.0,0.0,0,252,223.0,253.0
25527,12226,US,151305,42.6058333333,-90.4302777778,Census,City,WI,"Cuba City, Wisconsin",0,0,0,0,0,0,0,0,0,48,0,636,967,1175,1157.0,1259,1333,1673.0,1993.0,2129,2024,2156.0,2086.0
25547,9895,US,260795,44.4725,-89.7927777778,Census,Village,WI,"Rudolph, Wisconsin",0,0,0,0,0,0,0,0,0,0,0,0,0,0,0.0,0,0,0.0,349.0,392,451,423.0,439.0
25590,10497,US,139582,44.6305555556,-89.3075,Census,Village,WI,"Rosholt, Wisconsin",0,0,0,0,0,0,0,0,0,0,0,0,383,448,515.0,523,508,497.0,466.0,520,512,518.0,506.0
25638,9035,US,138810,44.925,-91.2991666667,Census,Town,WI,"Lafayette, Chippewa County, Wisconsin",0,0,0,0,0,0,0,0,0,0,0,0,0,0,0.0,0,0,0.0,0.0,3825,4448,5199.0,5765.0
25697,15450,US,90962,43.91,-91.11,Census,US County,WI,"La Crosse County, Wisconsin",0,0,0,0,0,0,0,12186,20297,27073,38801,42997,43996,44355,54455.0,59653,67587,72465.0,80468.0,91056,97904,107120.0,114638.0
25700,11424,US,258576,42.5025,-88.7297222222,Census,Village,WI,"Sharon, Wisconsin",0,0,0,0,0,0,0,0,0,657,878,945,879,908,733.0,812,1013,1167.0,1216.0,1280,1250,1549.0,1605.0
25718,13783,US,90990,44.38,-91.75,Census,US County,WI,"Buffalo County, Wisconsin",0,0,0,0,0,0,0,3864,11123,15528,15997,16765,16006,15615,15330.0,16090,14719,14202.0,13743.0,14309,13584,13804.0,13587.0
25764,33854,US,260462,42.813764,-89.635365,Census,Village,WI,"New Glarus, Wisconsin",0,0,0,0,0,0,0,0,0,0,356,0,708,981,1010.0,1068,1224,1468.0,1454.0,1763,1899,2111.0,2172.0
25808,10194,US,90937,45.48,-91.14,Census,US County,WI,"Rusk County, Wisconsin",0,0,0,0,0,0,0,0,0,0,0,0,11160,16403,16081.0,17737,16790,14794.0,14238.0,15589,15079,15347.0,14755.0
25846,9987,US,138949,43.3055555556,-88.8438888889,Census,Village,WI,"Reeseville, Wisconsin",0,0,0,0,0,0,0,0,0,248,329,393,352,423,422.0,407,470,491.0,566.0,649,673,703.0,708.0
25931,13568,US,90928,43.59,-90.83,Census,US County,WI,"Vernon County, Wisconsin",0,0,0,0,0,0,0,11007,18645,23235,25111,28351,28116,29252,28537.0,29940,27906,25663.0,24557.0,25642,25617,28056.0,29773.0
25951,8718,US,139873,43.4486111111,-90.7608333333,Census,Village,WI,"Readstown, Wisconsin",0,0,0,0,0,0,0,0,0,0,0,403,515,546,544.0,584,541,469.0,395.0,396,420,395.0,415.0
25963,10057,US,260510,44.5458333333,-87.6941666667,Census,Village,WI,"Luxemburg, Wisconsin",0,0,0,0,0,0,0,0,0,0,0,0,402,457,475.0,468,519,730.0,853.0,1040,1151,1935.0,2515.0
26038,6153,US,260751,43.0580555556,-88.3416666667,Census,Town,WI,"Delafield (town), Wisconsin",0,0,0,0,0,0,0,0,0,0,0,0,0,0,0.0,0,0,0.0,0.0,4597,5735,7820.0,8400.0
26070,11596,US,139772,43.8297222222,-87.8233333333,Census,Village,WI,"Howards Grove, Wisconsin",0,0,0,0,0,0,0,0,0,0,0,0,0,0,0.0,0,0,0.0,998.0,1838,2329,2792.0,3188.0
26076,12843,US,139773,43.7383333333,-87.7811111111,Census,Village,WI,"Kohler, Wisconsin",0,0,0,0,0,0,0,0,0,0,0,0,0,403,1748.0,1789,1716,1524.0,1738.0,1651,1817,1926.0,2120.0
26084,12787,US,139615,42.6988888889,-87.8991666667,Census,Village,WI,"Sturtevant, Wisconsin",0,0,0,0,0,0,0,0,0,0,0,0,525,564,746.0,803,1176,1488.0,3376.0,4130,3803,5287.0,6970.0
26092,12748,US,139421,42.9111111111,-87.8641666667,Census,City,WI,"South Milwaukee, Wisconsin",0,0,0,0,0,0,0,0,0,0,0,3392,6092,7598,10706.0,11134,12855,20307.0,23297.0,21069,20958,21256.0,21156.0
26123,8596,US,260659,45.4969444444,-90.7166666667,Census,Village,WI,"Hawkins, Wisconsin",0,0,0,0,0,0,0,0,0,0,0,0,0,0,372.0,496,414,402.0,385.0,407,375,317.0,305.0
26126,10684,US,139788,45.1886111111,-92.3888888889,Census,Village,WI,"Deer Park, Wisconsin",0,0,0,0,0,0,0,0,0,56,0,0,0,233,187.0,203,226,221.0,217.0,232,237,227.0,216.0
26146,18652,US,138924,42.9211111111,-89.2244444444,Census,City,WI,"Stoughton, Wisconsin",0,0,0,0,0,0,70,0,985,1353,2470,3431,4761,5101,4497.0,4743,4833,5555.0,6096.0,7589,8786,12354.0,12611.0
26154,10105,US,90963,44.59,-87.44,Census,US County,WI,"Kewaunee County, Wisconsin",0,0,0,0,0,0,0,5530,10128,15807,16153,17212,16784,16091,16037.0,16680,17366,18282.0,18961.0,19539,18878,20187.0,20574.0
26182,15757,US,90946,44.6,-92.0,Census,US County,WI,"Pepin County, Wisconsin",0,0,0,0,0,0,0,2392,4659,6226,6932,7905,7577,7481,7450.0,7897,7462,7332.0,7319.0,7477,7107,7213.0,7469.0
26230,10746,US,139765,43.6586111111,-88.0083333333,Census,Village,WI,"Cascade, Wisconsin",0,0,0,0,0,0,0,0,0,255,0,0,0,362,286.0,358,403,449.0,603.0,615,620,666.0,709.0
26239,9782,US,260740,43.2230555556,-88.1202777778,Census,Village,WI,"Germantown, Wisconsin",0,0,0,0,0,0,0,0,0,0,0,0,0,0,255.0,292,357,622.0,6974.0,10729,13658,18260.0,19749.0
26272,5754,US,139795,45.0730555556,-92.1822222222,Census,Town,WI,"Glenwood, Wisconsin",0,0,0,0,0,0,0,0,0,0,0,0,0,0,0.0,0,0,0.0,0.0,0,0,0.0,785.0
26289,9254,US,139752,45.0052777778,-89.0391666667,Census,Village,WI,"Mattoon, Wisconsin",0,0,0,0,0,0,0,0,0,0,0,0,868,666,508.0,524,510,435.0,377.0,382,431,466.0,438.0
26322,12026,US,260370,43.0611111111,-89.0580555556,Census,Village,WI,"Deerfield, Wisconsin",0,0,0,0,0,0,0,0,0,0,338,515,533,594,501.0,611,614,795.0,1067.0,1466,1617,1971.0,2319.0
26390,11864,US,260391,43.3336111111,-88.5975,Census,Village,WI,"Hustisford, Wisconsin",0,0,0,0,0,0,0,0,0,488,513,540,615,595,537.0,564,622,708.0,789.0,874,979,1135.0,1123.0
26426,10786,US,260503,44.0216666667,-90.07,Census,Village,WI,"Necedah, Wisconsin",0,0,0,0,0,0,0,0,944,1475,1708,1209,1054,852,761.0,838,862,691.0,740.0,773,743,888.0,916.0
26520,8930,US,260568,43.9458333333,-90.3694444444,Census,Village,WI,"Oakdale, Wisconsin",0,0,0,0,0,0,0,0,0,0,0,0,0,0,0.0,0,0,0.0,0.0,0,162,297.0,297.0
26522,11115,US,139840,44.5752777778,-91.4711111111,Census,Village,WI,"Eleva, Wisconsin",0,0,0,0,0,0,0,0,0,0,0,0,319,379,357.0,406,479,548.0,574.0,593,491,635.0,670.0
26626,12988,US,260571,43.9430555556,-90.8116666667,Census,"&quot;GR1&quot;&gt;publisher=[[United States Census Bureau|accessdate=2011-04-23|date=2011-02-12|title=US Gazetteer files: 2010, 2000, and 1990}}",WI,"Sparta, Wisconsin",0,0,0,0,0,0,0,1284,2314,2387,2795,3555,3973,4466,4949.0,5820,5893,6080.0,6258.0,6934,7788,8648.0,9522.0
26630,15274,US,260759,43.0666666667,-88.25,Census,City,WI,"Pewaukee, Wisconsin",0,0,0,0,0,0,0,0,0,566,680,714,749,800,1067.0,1352,1792,2484.0,3271.0,4637,4941,11783.0,13195.0
26693,10157,US,139941,43.2352777778,-88.2325,Census,Village,WI,"Richfield, Washington County, Wisconsin",0,0,0,0,0,0,0,0,0,0,0,0,0,0,0.0,0,0,0.0,0.0,0,0,0.0,11300.0
26726,8167,US,139444,43.8016666667,-90.7752777778,Census,Village,WI,"Melvina, Wisconsin",0,0,0,0,0,0,0,0,0,0,0,0,0,0,143.0,135,121,111.0,116.0,117,115,93.0,104.0
26745,13771,US,260784,44.0388888889,-88.7416666667,Census,City,WI,"Omro, Wisconsin",0,0,0,0,0,0,0,0,1838,1476,1232,1358,1285,1042,1255.0,1401,1470,1991.0,2341.0,2763,2836,3177.0,3517.0
26755,18361,US,151295,43.9147222222,-88.0319444444,Census,City,WI,"Kiel, Wisconsin",0,0,0,0,0,0,0,0,0,363,497,924,1244,1599,1803.0,1898,2129,2524.0,2848.0,3083,2910,3450.0,3738.0
26844,16136,US,545427,43.9697222222,-88.9486111111,Census,City,WI,"Berlin, Wisconsin",0,0,0,0,0,0,0,1449,2777,3353,4149,4489,4636,4400,4106.0,4247,4693,4838.0,5338.0,5478,5371,5305.0,5524.0
26851,146069,US,53117,43.0522222222,-87.9558333333,Census,City,WI,Milwaukee,0,0,0,0,0,1700,20061,45246,71440,115587,204468,285315,373857,457147,578249.0,587472,637392,741324.0,717099.0,636212,628088,596974.0,594833.0
26891,6609,US,260756,43.1244444444,-88.4713888889,Census,Town,WI,"Oconomowoc (town), Wisconsin",0,0,0,0,0,0,0,0,0,0,0,0,0,0,0.0,0,0,0.0,0.0,7340,7323,7451.0,8408.0
26901,5582,US,139002,45.1619444444,-91.9733333333,Census,Town,WI,"Sheridan, Wisconsin",0,0,0,0,0,0,0,0,0,0,0,0,0,0,0.0,0,0,0.0,0.0,0,468,483.0,454.0
26916,14381,US,260788,44.1033333333,-88.6894444444,Census,Village,WI,"Winneconne, Wisconsin",0,0,0,0,0,0,0,0,1159,978,1086,1042,940,745,821.0,931,1078,1273.0,1611.0,1935,2059,2401.0,2383.0
26919,9578,US,260626,45.4930555556,-92.4633333333,Census,Village,WI,"Milltown, Wisconsin",0,0,0,0,0,0,0,0,0,0,0,0,250,440,450.0,469,580,608.0,634.0,732,786,888.0,917.0
26934,5413,US,139007,44.9694444444,-92.0811111111,Census,Town,WI,"Stanton, Dunn County, Wisconsin",0,0,0,0,0,0,0,0,0,0,0,0,0,0,0.0,0,0,0.0,0.0,0,637,715.0,791.0
26965,10472,US,139861,43.7016666667,-91.0141666667,Census,Village,WI,"Coon Valley, Wisconsin",0,0,0,0,0,0,0,0,0,0,0,0,291,369,462.0,469,466,536.0,596.0,758,817,714.0,765.0
27027,11262,US,260557,45.4,-87.9166666667,Census,Village,WI,"Wausaukee, Wisconsin",0,0,0,0,0,0,0,0,0,0,0,0,0,0,663.0,655,612,608.0,557.0,648,656,572.0,575.0
27089,10540,US,140004,44.0444444444,-89.1019444444,Census,Village,WI,"Redgranite, Wisconsin",0,0,0,0,0,0,0,0,0,0,0,0,1521,1012,977.0,857,648,588.0,645.0,976,1009,1040.0,2149.0
27112,10327,US,139968,43.0038888889,-88.3775,Census,Village,WI,"Wales, Wisconsin",0,0,0,0,0,0,0,0,0,0,0,0,0,0,132.0,170,237,356.0,691.0,1992,2471,2523.0,2549.0
27132,47485,US,139613,42.7261111111,-87.8058333333,Census,City,WI,"Racine, Wisconsin",0,0,0,0,0,0,5107,7822,9880,16031,21014,29102,38002,58593,67542.0,67195,71193,89144.0,95162.0,85725,84298,81855.0,78860.0
27162,8840,US,260638,45.5358333333,-90.5305555556,Census,Village,WI,"Catawba, Wisconsin",0,0,0,0,0,0,0,0,0,0,0,0,0,0,282.0,290,233,230.0,215.0,205,178,149.0,110.0
27277,18026,US,260428,43.845,-88.8397222222,Census,City,WI,"Ripon, Wisconsin",0,0,0,0,0,0,0,2025,2976,3117,3358,3818,3739,3929,3984.0,4566,5619,6163.0,7053.0,7111,7241,6828.0,7733.0
27283,17163,US,139045,43.5975,-88.2805555556,Census,Village,WI,"Campbellsport, Wisconsin",0,0,0,0,0,0,0,0,0,319,0,0,650,730,789.0,1094,1254,1472.0,1681.0,1740,1732,1913.0,2016.0
27289,11673,US,260319,45.7802777778,-92.7338888889,Census,Village,WI,"Grantsburg, Wisconsin",0,0,0,0,0,0,0,0,0,101,410,612,721,781,777.0,874,931,900.0,930.0,1153,1144,1369.0,1341.0
27309,9560,US,260681,45.7819444444,-91.1983333333,Census,Village,WI,"Radisson, Wisconsin",0,0,0,0,0,0,0,0,0,0,0,0,0,0,0.0,0,0,179.0,206.0,280,237,222.0,241.0
27359,25587,US,260538,44.155,-87.5763888889,Census,City,WI,"Two Rivers, Wisconsin",0,0,0,0,0,0,0,1337,1365,2052,2870,3784,4850,7305,10083.0,10302,10243,12393.0,13732.0,13354,13030,12639.0,11712.0
27392,18327,US,138730,44.4461111111,-88.0741666667,Census,City,WI,"De Pere, Wisconsin",0,0,0,0,0,0,0,508,1372,1954,3625,4038,4477,5165,5521.0,6373,8146,10045.0,13309.0,14892,16569,20559.0,23800.0
27411,11263,US,90989,45.87,-92.37,Census,US County,WI,"Burnett County, Wisconsin",0,0,0,0,0,0,0,12,706,3140,4393,7478,9026,10735,10233.0,11382,10236,9214.0,9276.0,12340,13084,15674.0,15457.0
27425,18113,US,260325,44.0308333333,-88.1586111111,Census,City,WI,"Chilton, Wisconsin",0,0,0,0,0,0,0,0,363,1132,1424,1460,1630,1833,1945.0,2203,2367,2578.0,3030.0,2965,3240,3708.0,3933.0
27517,38378,US,260424,43.7666666667,-88.45,Census,city,WI,"Fond du Lac, Wisconsin",0,0,0,0,0,0,0,5460,12764,13094,12024,15110,18797,23427,26449.0,27209,29936,32719.0,35515.0,35863,37757,42203.0,43021.0
27525,21612,US,90983,43.07,-89.42,Census,US County,WI,"Dane County, Wisconsin",0,0,0,0,0,314,16639,43922,53096,53233,59578,69435,77435,89432,112737.0,130660,169357,222095.0,290272.0,323545,367085,426526.0,488073.0
27546,6044,US,139025,44.6702777778,-91.4666666667,Census,Town,WI,"Pleasant Valley, Eau Claire County, Wisconsin",0,0,0,0,0,0,0,0,0,0,0,0,0,0,0.0,911,1159,1164.0,1497.0,1840,2076,2681.0,3044.0
27647,5875,US,139023,44.7933333333,-91.1758333333,Census,Town,WI,"Ludington, Wisconsin",0,0,0,0,0,0,0,0,0,0,0,0,0,0,0.0,0,0,0.0,0.0,0,906,998.0,1063.0
27675,19781,US,260603,43.3933333333,-87.8811111111,Census,City,WI,"Port Washington, Wisconsin",0,0,0,0,0,0,0,0,0,1386,1649,3010,3792,3340,3693.0,4046,4755,5984.0,8752.0,8612,9338,10467.0,11250.0
27686,10418,US,139209,43.7116666667,-89.8977777778,Census,Village,WI,"Lyndon Station, Wisconsin",0,0,0,0,0,0,0,0,0,164,136,0,275,292,276.0,354,377,335.0,533.0,375,474,458.0,500.0
27810,9327,US,260435,42.8922083333,-90.9273472222,Census,Village,WI,"Bloomington, Wisconsin",0,0,0,0,0,0,0,0,365,403,587,611,620,657,591.0,677,631,735.0,719.0,743,776,701.0,735.0
